202201010000 METAR MROC 010000Z 06012KT 030V090 9999 FEW040 24/17 A2995 NOSIG=
202201010100 METAR MROC 010100Z 04003KT 9999 FEW030 23/17 A2997 NOSIG=
202201010200 METAR MROC 010200Z 09010G20KT CAVOK 22/17 A2999 NOSIG=
202201010300 METAR MROC 010300Z 08010KT 9999 FEW035 22/18 A3000 NOSIG=
202201010400 METAR MROC 010400Z 08012KT 050V110 CAVOK 22/16 A3001 NOSIG=
202201010500 METAR MROC 010500Z 07009KT 040V100 CAVOK 22/16 A3001 NOSIG=
202201010600 METAR MROC 010600Z 10015G25KT CAVOK 22/15 A2999 NOSIG=
202201010700 METAR MROC 010700Z 07009KT CAVOK 21/15 A2997 NOSIG=
202201010800 METAR MROC 010800Z 09008KT CAVOK 20/15 A2996 NOSIG=
202201010900 METAR MROC 010900Z 10011KT CAVOK 21/14 A2995 NOSIG=
202201011000 METAR MROC 011000Z 10010KT 080V140 CAVOK 20/15 A2996 NOSIG=
202201011100 METAR MROC 011100Z 10010G22KT CAVOK 20/15 A2997 NOSIG=
202201011200 METAR MROC 011200Z 11010G21KT 080V140 CAVOK 20/14 A2998 NOSIG=
202201011300 METAR MROC 011300Z 11014KT CAVOK 21/15 A2998 NOSIG=
202201011400 METAR MROC 011400Z 12014G24KT 100V160 CAVOK 23/14 A2999 NOSIG=
202201011500 METAR MROC 011500Z 12013G24KT CAVOK 25/11 A3000 NOSIG=
202201011600 METAR MROC 011600Z 11015KT CAVOK 27/11 A3001 NOSIG=
202201011700 METAR MROC 011700Z 11010G20KT 080V140 CAVOK 28/13 A2999 NOSIG=
202201011800 METAR MROC 011800Z 11010KT 080V150 CAVOK 29/14 A2997 NOSIG=
202201011900 METAR MROC 011900Z 11010KT 080V150 CAVOK 29/13 A2994 NOSIG=
202201012000 METAR MROC 012000Z 16007KT 090V120 CAVOK 28/18 A2992 TEMPO 25007KT=
202201012100 METAR MROC 012100Z 20008KT CAVOK 27/19 A2991 NOSIG=
202201012200 METAR MROC 012200Z 21006KT 170V250 CAVOK 25/21 A2992 NOSIG=
202201012300 METAR MROC 012300Z 25009KT 220V280 9999 FEW030 24/22 A2993 NOSIG=
202201020000 METAR MROC 020000Z 24007KT CAVOK 22/20 A2995 NOSIG=
202201020100 METAR MROC 020100Z 26005KT 9999 FEW010 21/20 A2998 NOSIG=
202201020200 METAR MROC 020200Z 11003KT 050V180 CAVOK 21/18 A2999 NOSIG=
202201020300 METAR MROC 020300Z 07008KT CAVOK 21/14 A3002 NOSIG=
202201020400 METAR MROC 020400Z 13004KT 110V170 CAVOK 20/15 A3003 NOSIG=
202201020500 METAR MROC 020500Z 12006KT 060V160 CAVOK 19/14 A3002 NOSIG=
202201020600 METAR MROC 020600Z 11010KT CAVOK 20/14 A3000 NOSIG=
202201020700 METAR MROC 020700Z 10011KT CAVOK 19/14 A2998 NOSIG=
202201020800 METAR MROC 020800Z 08006KT CAVOK 19/14 A2997 NOSIG=
202201020900 METAR MROC 020900Z 06010KT CAVOK 18/15 A2996 NOSIG=
202201021000 METAR MROC 021000Z 07009KT CAVOK 18/14 A2997 NOSIG=
202201021100 METAR MROC 021100Z 09008KT CAVOK 18/14 A2998 NOSIG=
202201021200 METAR MROC 021200Z 09007KT CAVOK 18/14 A3001 NOSIG=
202201021300 METAR MROC 021300Z 08007KT CAVOK 20/14 A3003 NOSIG=
202201021400 METAR MROC 021400Z 10010KT 070V130 CAVOK 23/14 A3005 NOSIG=
202201021500 METAR MROC 021500Z 12009KT 080V150 CAVOK 25/13 A3005 NOSIG=
202201021600 METAR MROC 021600Z 09009KT 060V130 9999 FEW040 27/14 A3004 NOSIG=
202201021700 METAR MROC 021700Z VRB04KT 9999 FEW040 28/14 A3003 NOSIG=
202201021800 METAR MROC 021800Z 25010KT 210V280 9999 FEW040 29/15 A3000 NOSIG=
202201021900 METAR MROC 021900Z 24010KT 210V280 9999 FEW040 28/17 A2998 NOSIG=
202201022000 METAR MROC 022000Z 24010KT 190V290 9999 FEW040 28/18 A2996 NOSIG=
202201022100 METAR MROC 022100Z 25011KT 220V280 9999 FEW040 26/20 A2996 NOSIG=
202201022200 METAR MROC 022200Z 24008KT 210V280 9999 SCT030 BKN130 25/20 A2997 NOSIG=
202201022300 METAR MROC 022300Z 24009KT 210V290 9999 FEW015 BKN040 24/21 A2998 NOSIG=
202201030000 METAR MROC 030000Z 23006KT 9999 BKN030 22/22 A3001 NOSIG=
202201030100 METAR MROC 030100Z VRB02KT 9999 BKN045 22/20 A3003 NOSIG=
202201030200 METAR MROC 030200Z 24003KT 9999 FEW020 21/20 A3004 NOSIG=
202201030300 METAR MROC 030300Z 06006KT 030V090 CAVOK 22/18 A3007 NOSIG=
202201030400 METAR MROC 030400Z 09004KT 9999 FEW035 SCT140 22/18 A3008 NOSIG=
202201030500 METAR MROC 030500Z 08005KT 050V110 CAVOK 21/17 A3008 NOSIG=
202201030600 METAR MROC 030600Z 08004KT 9999 FEW020 BKN140 21/18 A3007 NOSIG=
202201030700 METAR MROC 030700Z 05004KT CAVOK 21/19 A3005 NOSIG=
202201030800 METAR MROC 030800Z 04006KT CAVOK 20/18 A3003 NOSIG=
202201030900 METAR MROC 030900Z 11004KT 080V140 CAVOK 20/17 A3002 NOSIG=
202201031000 METAR MROC 031000Z 07006KT CAVOK 20/17 A3002 NOSIG=
202201031100 METAR MROC 031100Z 08005KT CAVOK 19/17 A3003 NOSIG=
202201031200 METAR MROC 031200Z 07009KT 9999 FEW035 BKN120 21/16 A3003 NOSIG=
202201031300 METAR MROC 031300Z 07007KT CAVOK 22/17 A3005 NOSIG=
202201031400 METAR MROC 031400Z 11014G24KT CAVOK 24/17 A3006 NOSIG=
202201031500 METAR MROC 031500Z 11014G24KT 090V150 CAVOK 26/17 A3006 NOSIG=
202201031600 METAR MROC 031600Z 11014KT 9999 FEW040 26/17 A3006 NOSIG=
202201031700 METAR MROC 031700Z 10014KT 9999 FEW040 28/17 A3004 NOSIG=
202201031800 METAR MROC 031800Z 11014KT 080V140 9999 FEW040 28/17 A3001 NOSIG=
202201031900 METAR MROC 031900Z 09012KT 070V150 CAVOK 29/17 A2999 NOSIG=
202201032000 METAR MROC 032000Z 12010KT 060V170 9999 BKN040 29/18 A2996 NOSIG=
202201032004 SPECI MROC 032004Z 12010KT 070V180 9999 RA BKN040 28/18 A2996 NOSIG=
202201032100 METAR MROC 032100Z VRB06KT 9999 BKN040 26/18 A2996 NOSIG=
202201032200 METAR MROC 032200Z 09015G25KT 9999 FEW040 BKN060 24/17 A2995 NOSIG=
202201032300 METAR MROC 032300Z 11013G24KT 9999 FEW035 24/16 A2996 NOSIG=
202201040000 METAR MROC 040000Z 11012G26KT 9999 FEW045 22/17 A2998 NOSIG=
202201040100 METAR MROC 040100Z 08011G21KT CAVOK 22/18 A3001 NOSIG=
202201040200 METAR MROC 040200Z 11016KT CAVOK 22/18 A3001 NOSIG=
202201040300 METAR MROC 040300Z 11014KT 9999 FEW030 22/18 A3003 NOSIG=
202201040400 METAR MROC 040400Z 10010KT 9999 FEW035 SCT070 23/18 A3004 NOSIG=
202201040500 METAR MROC 040500Z COR 08016KT 9999 -RA FEW020 BKN050 21/18 A3004 NOSIG=
202201040600 METAR MROC 040600Z 05008KT 010V080 9999 FEW035 BKN100 22/18 A3002 NOSIG=
202201040700 METAR MROC 040700Z 11013KT 9999 FEW035 BKN100 22/18 A2998 NOSIG=
202201040800 METAR MROC 040800Z 11012KT 9999 FEW025 21/18 A2996 NOSIG=
202201040900 METAR MROC 040900Z 11013KT 080V140 9999 FEW030 22/17 A2996 NOSIG=
202201041000 METAR MROC 041000Z 11015KT 9999 FEW030 SCT100 21/17 A2996 NOSIG=
202201041100 METAR MROC 041100Z 11015KT 9999 FEW030 21/17 A2998 NOSIG=
202201041200 METAR MROC 041200Z 09015KT 9999 FEW030 SCT120 BKN230 21/15 A3000 NOSIG=
202201041300 METAR MROC 041300Z 09013KT 9999 FEW040 SCT130 22/15 A3003 NOSIG=
202201041400 METAR MROC 041400Z 09018KT 9999 FEW040 23/15 A3004 NOSIG=
202201041500 METAR MROC 041500Z 09015G25KT 060V120 CAVOK 25/14 A3004 NOSIG=
202201041600 METAR MROC 041600Z 10018G28KT 9999 FEW045 25/16 A3004 NOSIG=
202201041700 METAR MROC 041700Z 09020G31KT CAVOK 26/14 A3003 NOSIG=
202201041800 METAR MROC 041800Z 09020G31KT 070V130 9999 FEW048 27/14 A3001 NOSIG=
202201041900 METAR MROC 041900Z 08017G30KT 050V110 CAVOK 27/15 A2997 NOSIG=
202201042000 METAR MROC 042000Z 09017G33KT 060V120 9999 FEW040 26/15 A2995 NOSIG=
202201042100 METAR MROC 042100Z 08016G26KT 9999 FEW040 26/15 A2993 NOSIG=
202201042200 METAR MROC 042200Z 08017G27KT 9999 FEW040 25/14 A2993 NOSIG=
202201042300 METAR MROC 042300Z 08019G30KT 9999 FEW035 24/14 A2994 NOSIG=
202201050000 METAR MROC 050000Z 09011G21KT 060V120 9999 FEW035 22/14 A2995 NOSIG=
202201050100 METAR MROC 050100Z 07017G27KT 9999 FEW035 22/13 A2997 NOSIG=
202201050200 METAR MROC 050200Z 10014G24KT CAVOK 21/15 A2999 NOSIG=
202201050300 METAR MROC 050300Z 10016G27KT 9999 FEW040 21/15 A3000 NOSIG=
202201050400 METAR MROC 050400Z 09015G25KT CAVOK 21/14 A3001 NOSIG=
202201050500 METAR MROC 050500Z 10016KT CAVOK 21/14 A3000 NOSIG=
202201050600 METAR MROC 050600Z 11012KT CAVOK 20/15 A3000 NOSIG=
202201050700 METAR MROC 050700Z 12011KT CAVOK 20/14 A2997 NOSIG=
202201050800 METAR MROC 050800Z 11013G23KT CAVOK 19/14 A2993 NOSIG=
202201050900 METAR MROC 050900Z 11014KT CAVOK 19/14 A2995 NOSIG=
202201051000 METAR MROC 051000Z 12013KT 9999 FEW030 SCT200 19/14 A2995 NOSIG=
202201051100 METAR MROC 051100Z 11013KT 9999 FEW030 SCT200 19/14 A2995 NOSIG=
202201051200 METAR MROC 051200Z 11013G23KT CAVOK 20/13 A2997 NOSIG=
202201051300 METAR MROC 051300Z 12013KT CAVOK 21/14 A2997 NOSIG=
202201051400 METAR MROC 051400Z 11014G24KT 080V140 CAVOK 23/13 A2998 NOSIG=
202201051500 METAR MROC 051500Z 11017G28KT 090V150 CAVOK 25/10 A2999 NOSIG=
202201051600 METAR MROC 051600Z 10013KT 070V140 CAVOK 27/12 A2998 NOSIG=
202201051700 METAR MROC 051700Z 10014KT 070V140 CAVOK 27/11 A2997 NOSIG=
202201051800 METAR MROC 051800Z 11013G23KT CAVOK 27/14 A2995 NOSIG=
202201051900 METAR MROC 051900Z 09014KT 050V130 9999 FEW035 28/14 A2993 NOSIG=
202201052000 METAR MROC 052000Z 08016KT 9999 FEW035 27/14 A2990 NOSIG=
202201052100 METAR MROC 052100Z 10010KT 060V160 CAVOK 27/13 A2988 NOSIG=
202201052200 METAR MROC 052200Z 11011KT CAVOK 26/13 A2989 NOSIG=
202201052300 METAR MROC 052300Z 11010KT CAVOK 24/11 A2991 NOSIG=
202201060000 METAR MROC 060000Z 11008KT CAVOK 22/11 A2993 NOSIG=
202201060100 METAR MROC 060100Z 12008KT CAVOK 21/12 A2995 NOSIG=
202201060200 METAR MROC 060200Z 11012KT CAVOK 21/13 A2996 NOSIG=
202201060300 METAR MROC 060300Z 11007KT 080V140 CAVOK 20/13 A2998 NOSIG=
202201060400 METAR MROC 060400Z 09012KT 040V120 CAVOK 19/12 A2999 NOSIG=
202201060500 METAR MROC 060500Z 07010KT CAVOK 18/11 A2998 NOSIG=
202201060600 METAR MROC 060600Z 11015KT CAVOK 19/09 A2996 NOSIG=
202201060700 METAR MROC 060700Z 04010KT 020V080 CAVOK 18/07 A2995 NOSIG=
202201060800 METAR MROC 060800Z 09009KT CAVOK 18/08 A2994 NOSIG=
202201060900 METAR MROC 060900Z 08008KT 050V110 CAVOK 18/09 A2993 NOSIG=
202201061000 METAR MROC 061000Z 12010KT 090V150 CAVOK 19/09 A2994 NOSIG=
202201061100 METAR MROC 061100Z 09009KT 060V120 CAVOK 20/10 A2995 NOSIG=
202201061200 METAR MROC 061200Z 11012KT CAVOK 19/10 A2995 NOSIG=
202201061300 METAR MROC 061300Z 11010KT 080V140 CAVOK 21/12 A2998 NOSIG=
202201061400 METAR MROC 061400Z 11013KT CAVOK 22/12 A3000 NOSIG=
202201061500 METAR MROC 061500Z 10016KT CAVOK 24/12 A3000 NOSIG=
202201061600 METAR MROC 061600Z 10015KT 080V140 CAVOK 26/12 A2999 NOSIG=
202201061700 METAR MROC 061700Z 10013KT 070V130 CAVOK 27/11 A2998 NOSIG=
202201061800 METAR MROC 061800Z 10010KT 060V140 CAVOK 28/10 A2997 NOSIG=
202201061900 METAR MROC 061900Z 10009KT 060V160 9999 FEW020 SCT250 28/12 A2994 NOSIG=
202201062000 METAR MROC 062000Z 17006KT 070V240 9999 FEW020 SCT230 27/16 A2993 TEMPO 24007KT=
202201062100 METAR MROC 062100Z COR 23007KT 200V280 9999 FEW030 SCT120 BKN200 26/18 A2992 NOSIG=
202201062200 METAR MROC 062200Z 25009KT 9999 FEW030 SCT150 BKN200 24/19 A2993 NOSIG=
202201062300 METAR MROC 062300Z 24008KT 9999 FEW035 BKN200 22/19 A2994 NOSIG=
202201070000 METAR MROC 070000Z 25006KT 9999 FEW040 BKN170 21/18 A2997 NOSIG=
202201070100 METAR MROC 070100Z VRB02KT 9999 FEW040 BKN170 20/18 A2998 NOSIG=
202201070200 METAR MROC 070200Z COR VRB02KT CAVOK 20/18 A3000 NOSIG=
202201070300 METAR MROC 070300Z 10004KT 070V160 CAVOK 20/17 A3001 NOSIG=
202201070400 METAR MROC 070400Z 07007KT CAVOK 21/15 A3001 NOSIG=
202201070500 METAR MROC 070500Z 10006KT 070V130 CAVOK 20/15 A3001 NOSIG=
202201070600 METAR MROC 070600Z 08005KT CAVOK 19/15 A3001 NOSIG=
202201070700 METAR MROC 070700Z 08010KT CAVOK 19/15 A3000 NOSIG=
202201070800 METAR MROC 070800Z 08005KT CAVOK 18/15 A2999 NOSIG=
202201070900 METAR MROC 070900Z 09005KT CAVOK 18/14 A2998 NOSIG=
202201071000 METAR MROC 071000Z 04007KT CAVOK 18/12 A2999 NOSIG=
202201071100 METAR MROC 071100Z 06009KT CAVOK 19/13 A3000 NOSIG=
202201071200 METAR MROC 071200Z 04006KT CAVOK 17/12 A3001 NOSIG=
202201071300 METAR MROC 071300Z 06008KT 040V100 CAVOK 20/12 A3004 NOSIG=
202201071400 METAR MROC 071400Z 10009KT 060V140 CAVOK 22/14 A3006 NOSIG=
202201071500 METAR MROC 071500Z 11011KT CAVOK 23/14 A3007 NOSIG=
202201071600 METAR MROC 071600Z 10014G26KT 070V150 CAVOK 25/14 A3004 NOSIG=
202201071700 METAR MROC 071700Z 10014KT 070V130 CAVOK 27/14 A3003 NOSIG=
202201071800 METAR MROC 071800Z 10015KT 070V130 CAVOK 26/15 A3001 NOSIG=
202201071900 METAR MROC 071900Z 10013KT 040V130 CAVOK 27/14 A2999 NOSIG=
202201072000 METAR MROC 072000Z 11012G22KT 080V170 CAVOK 27/14 A2997 NOSIG=
202201072100 METAR MROC 072100Z 11012KT 070V150 CAVOK 27/15 A2997 NOSIG=
202201072200 METAR MROC 072200Z 11011KT 080V140 CAVOK 26/15 A2997 NOSIG=
202201072300 METAR MROC 072300Z 12011KT CAVOK 24/15 A2998 NOSIG=
202201080000 METAR MROC 080000Z 10012G22KT CAVOK 23/15 A3001 NOSIG=
202201080100 METAR MROC 080100Z 12009KT 090V150 CAVOK 21/15 A3003 NOSIG=
202201080200 METAR MROC 080200Z 10010KT CAVOK 21/16 A3005 NOSIG=
202201080300 METAR MROC 080300Z 10010KT 070V130 9999 FEW030 20/14 A3007 NOSIG=
202201080400 METAR MROC 080400Z 11010KT 070V130 CAVOK 20/14 A3007 NOSIG=
202201080500 METAR MROC 080500Z 11011G21KT 080V140 9999 FEW035 20/14 A3006 NOSIG=
202201080600 METAR MROC 080600Z 11014KT 090V150 9999 FEW035 SCT170 20/14 A3005 NOSIG=
202201080700 METAR MROC 080700Z 10010G20KT 9999 FEW035 SCT200 20/14 A3003 NOSIG=
202201080800 METAR MROC 080800Z 11012KT 090V160 CAVOK 20/14 A3001 NOSIG=
202201080900 METAR MROC 080900Z 11011KT 080V150 CAVOK 19/14 A3001 NOSIG=
202201081000 METAR MROC 081000Z 10008KT 060V150 CAVOK 19/14 A3002 NOSIG=
202201081100 METAR MROC 081100Z 10010KT 070V150 CAVOK 19/14 A3004 NOSIG=
202201081200 METAR MROC 081200Z 04006KT CAVOK 18/14 A3005 NOSIG=
202201081300 METAR MROC 081300Z 09009KT CAVOK 20/14 A3008 NOSIG=
202201081400 METAR MROC 081400Z 11013G24KT CAVOK 22/15 A3009 NOSIG=
202201081500 METAR MROC 081500Z 10015KT CAVOK 24/14 A3011 NOSIG=
202201081600 METAR MROC 081600Z 10011KT CAVOK 27/15 A3010 NOSIG=
202201081700 METAR MROC 081700Z 10012KT 060V150 CAVOK 27/14 A3009 NOSIG=
202201081800 METAR MROC 081800Z 10010G20KT 060V130 CAVOK 27/14 A3007 NOSIG=
202201081900 METAR MROC 081900Z 10012KT 040V160 CAVOK 28/14 A3005 NOSIG=
202201082000 METAR MROC 082000Z 10010G20KT 070V140 CAVOK 28/14 A3003 NOSIG=
202201082100 METAR MROC 082100Z 11014KT 070V150 9999 FEW045 28/14 A3002 NOSIG=
202201082200 METAR MROC 082200Z 14010KT 090V200 9999 FEW045 28/15 A3002 NOSIG=
202201082300 METAR MROC 082300Z 19005KT 100V240 9999 FEW035 SCT200 24/18 A3003 NOSIG=
202201090000 METAR MROC 090000Z 05008KT 340V090 9999 FEW030 SCT200 23/18 A3006 NOSIG=
202201090100 METAR MROC 090100Z 09004G14KT 9999 FEW030 22/17 A3009 NOSIG=
202201090200 METAR MROC 090200Z 11009KT 080V150 9999 FEW030 SCT120 22/16 A3011 NOSIG=
202201090300 METAR MROC 090300Z 10016G26KT 9999 FEW030 SCT120 23/16 A3012 NOSIG=
202201090400 METAR MROC 090400Z 08017KT CAVOK 21/15 A3012 NOSIG=
202201090500 METAR MROC 090500Z 10014KT 070V130 CAVOK 21/13 A3010 NOSIG=
202201090600 METAR MROC 090600Z 10013KT CAVOK 21/13 A3009 NOSIG=
202201090700 METAR MROC 090700Z 11012KT CAVOK 20/12 A3007 NOSIG=
202201090800 METAR MROC 090800Z 11014KT CAVOK 20/13 A3004 NOSIG=
202201090900 METAR MROC 090900Z 10015G26KT CAVOK 21/11 A3003 NOSIG=
202201091000 METAR MROC 091000Z 11015G27KT CAVOK 20/13 A3004 NOSIG=
202201091100 METAR MROC 091100Z 11013G24KT CAVOK 19/13 A3005 NOSIG=
202201091200 METAR MROC 091200Z 11010G20KT CAVOK 19/12 A3007 NOSIG=
202201091300 METAR MROC 091300Z 11013KT CAVOK 21/12 A3009 NOSIG=
202201091400 METAR MROC 091400Z 11015KT 080V140 CAVOK 23/12 A3011 NOSIG=
202201091500 METAR MROC 091500Z 10018KT CAVOK 24/11 A3011 NOSIG=
202201091600 METAR MROC 091600Z 10019KT CAVOK 26/11 A3011 NOSIG=
202201091700 METAR MROC 091700Z 08015KT CAVOK 26/12 A3008 NOSIG=
202201091800 METAR MROC 091800Z 10013KT CAVOK 27/14 A3006 NOSIG=
202201091900 METAR MROC 091900Z 08016KT 050V120 9999 FEW040 27/12 A3003 NOSIG=
202201092000 METAR MROC 092000Z 09014KT 060V130 9999 FEW040 27/14 A3001 NOSIG=
202201092100 METAR MROC 092100Z 09012G22KT 060V130 9999 FEW040 27/14 A2999 NOSIG=
202201092200 METAR MROC 092200Z 10011KT 070V140 9999 FEW040 26/15 A2999 NOSIG=
202201092300 METAR MROC 092300Z 11010KT 9999 FEW040 24/14 A3000 NOSIG=
202201100000 METAR MROC 100000Z 10011KT CAVOK 24/13 A3002 NOSIG=
202201100100 METAR MROC 100100Z 11013G23KT CAVOK 21/14 A3005 NOSIG=
202201100200 METAR MROC 100200Z 12014KT CAVOK 21/15 A3007 NOSIG=
202201100300 METAR MROC 100300Z 11014KT CAVOK 20/14 A3009 NOSIG=
202201100400 METAR MROC 100400Z 11011G21KT CAVOK 20/15 A3010 NOSIG=
202201100500 METAR MROC 100500Z 11012G22KT 090V150 CAVOK 20/15 A3009 NOSIG=
202201100600 METAR MROC 100600Z 11014KT CAVOK 19/15 A3007 NOSIG=
202201100700 METAR MROC 100700Z 11010G20KT 080V140 CAVOK 19/14 A3005 NOSIG=
202201100800 METAR MROC 100800Z 11013KT 070V150 CAVOK 19/14 A3003 NOSIG=
202201100900 METAR MROC 100900Z 11011G21KT 070V140 CAVOK 18/14 A3001 NOSIG=
202201101000 METAR MROC 101000Z 11011KT 070V140 CAVOK 19/13 A3001 NOSIG=
202201101100 METAR MROC 101100Z 09009G21KT 020V140 CAVOK 19/13 A3001 NOSIG=
202201101200 METAR MROC 101200Z 04010KT CAVOK 18/11 A3004 NOSIG=
202201101300 METAR MROC 101300Z 10009KT 040V150 CAVOK 20/11 A3005 NOSIG=
202201101400 METAR MROC 101400Z 12013G23KT 090V150 CAVOK 23/11 A3007 NOSIG=
202201101500 METAR MROC 101500Z 11013KT 080V140 CAVOK 26/07 A3008 NOSIG=
202201101600 METAR MROC 101600Z 10015G25KT CAVOK 26/10 A3008 NOSIG=
202201101700 METAR MROC 101700Z 10015G25KT 070V140 CAVOK 27/11 A3006 NOSIG=
202201101800 METAR MROC 101800Z 09014KT CAVOK 28/12 A3006 NOSIG=
202201101900 METAR MROC 101900Z 10015G25KT CAVOK 27/14 A3003 NOSIG=
202201102000 METAR MROC 102000Z 08015KT 040V100 9999 FEW045 SCT200 27/14 A3000 NOSIG=
202201102100 METAR MROC 102100Z 07018G28KT 9999 FEW045 SCT200 27/13 A2999 NOSIG=
202201102200 METAR MROC 102200Z 08013KT 9999 FEW045 SCT200 26/13 A3000 NOSIG=
202201102300 METAR MROC 102300Z 08013KT 9999 FEW040 SCT200 25/13 A3001 NOSIG=
202201110000 METAR MROC 110000Z 08012KT 9999 FEW040 23/14 A3002 NOSIG=
202201110100 METAR MROC 110100Z 09009KT 010V120 9999 FEW040 22/14 A3006 NOSIG=
202201110200 METAR MROC 110200Z 09010KT 9999 FEW040 22/14 A3007 NOSIG=
202201110300 METAR MROC 110300Z 12007KT 100V160 9999 FEW045 21/15 A3009 NOSIG=
202201110400 METAR MROC 110400Z 10007KT 070V130 9999 FEW045 20/15 A3009 NOSIG=
202201110500 METAR MROC 110500Z 11011KT CAVOK 21/15 A3007 NOSIG=
202201110600 METAR MROC 110600Z 10011KT CAVOK 21/15 A3006 NOSIG=
202201110700 METAR MROC 110700Z 10012KT 9999 FEW035 20/16 A3004 NOSIG=
202201110800 METAR MROC 110800Z 11010KT 080V140 9999 FEW035 20/16 A3001 NOSIG=
202201110900 METAR MROC 110900Z 11014KT 9999 FEW040 20/16 A3000 NOSIG=
202201111000 METAR MROC 111000Z 11011KT 9999 FEW040 20/15 A3000 NOSIG=
202201111100 METAR MROC 111100Z 10011KT 9999 FEW040 19/15 A3002 NOSIG=
202201111200 METAR MROC 111200Z 09016KT 9999 FEW040 21/14 A3002 NOSIG=
202201111300 METAR MROC 111300Z 10018G28KT 9999 FEW040 21/16 A3005 NOSIG=
202201111400 METAR MROC 111400Z 10017G28KT 080V140 9999 FEW040 23/15 A3007 NOSIG=
202201111500 METAR MROC 111500Z 09020G30KT 9999 FEW040 24/14 A3007 NOSIG=
202201111600 METAR MROC 111600Z 09021G31KT 060V120 9999 FEW040 25/14 A3007 NOSIG=
202201111700 METAR MROC 111700Z COR 09018G28KT 060V120 9999 FEW040 25/15 A3006 WS R07 NOSIG=
202201111800 METAR MROC 111800Z 09019G29KT 9999 FEW040 26/14 A3003 WS R07 NOSIG=
202201111900 METAR MROC 111900Z 08019G30KT 9999 FEW045 25/15 A3002 WS R07 NOSIG=
202201112000 METAR MROC 112000Z 08018G28KT CAVOK 26/15 A3000 WS R07 NOSIG=
202201112100 METAR MROC 112100Z 09016G27KT 9999 BKN040 25/15 A2999 WS R07 NOSIG=
202201112200 METAR MROC 112200Z 08018KT 050V120 9999 FEW040 24/15 A2999 WS R07 NOSIG=
202201112300 METAR MROC 112300Z 09017KT CAVOK 23/14 A3000 NOSIG=
202201120000 METAR MROC 120000Z 09013KT CAVOK 22/15 A3003 NOSIG=
202201120100 METAR MROC 120100Z 10013KT CAVOK 21/15 A3005 NOSIG=
202201120200 METAR MROC 120200Z 09015KT CAVOK 21/14 A3007 NOSIG=
202201120300 METAR MROC 120300Z 09013KT CAVOK 21/15 A3009 NOSIG=
202201120400 METAR MROC 120400Z 10014KT 9999 FEW040 21/15 A3008 NOSIG=
202201120500 METAR MROC 120500Z 09015KT 9999 SCT045 21/15 A3007 NOSIG=
202201120600 METAR MROC 120600Z 11017KT 9999 BKN045 21/16 A3006 NOSIG=
202201120700 METAR MROC 120700Z 10015KT 9999 FEW045 SCT060 21/15 A3005 NOSIG=
202201120800 METAR MROC 120800Z 11013KT CAVOK 19/15 A3002 NOSIG=
202201120900 METAR MROC 120900Z 11010KT CAVOK 19/14 A3001 NOSIG=
202201121000 METAR MROC 121000Z 11012KT CAVOK 20/14 A3001 NOSIG=
202201121100 METAR MROC 121100Z 12006KT 090V180 CAVOK 19/14 A3002 NOSIG=
202201121200 METAR MROC 121200Z 09008KT 070V130 CAVOK 20/14 A3003 NOSIG=
202201121300 METAR MROC 121300Z 10011KT CAVOK 21/14 A3004 NOSIG=
202201121400 METAR MROC 121400Z 12012KT 090V170 CAVOK 24/13 A3006 NOSIG=
202201121500 METAR MROC 121500Z 12009G20KT 080V160 CAVOK 26/11 A3006 NOSIG=
202201121600 METAR MROC 121600Z 12010KT 100V160 CAVOK 28/11 A3006 NOSIG=
202201121700 METAR MROC 121700Z 11008KT 060V180 9999 FEW045 28/12 A3005 NOSIG=
202201121800 METAR MROC 121800Z 12005KT 080V200 9999 FEW045 29/14 A3003 NOSIG=
202201121900 METAR MROC 121900Z 24008KT 150V270 9999 BKN045 26/18 A3001 NOSIG=
202201122000 METAR MROC 122000Z 22005KT 180V250 9999 SCT030 BKN040 26/18 A3000 NOSIG=
202201122100 METAR MROC 122100Z 25012KT 9999 FEW030 SCT040 25/19 A2999 NOSIG=
202201122200 METAR MROC 122200Z 24010KT 9999 SCT030 SCT060 24/20 A3000 NOSIG=
202201122300 METAR MROC 122300Z 25006KT 220V280 9999 SCT025 SCT060 24/20 A3001 NOSIG=
202201130000 METAR MROC 130000Z 27006KT 230V020 9999 FEW035 SCT060 23/20 A3003 NOSIG=
202201130100 METAR MROC 130100Z 10004KT 060V160 9999 FEW035 22/16 A3006 NOSIG=
202201130200 METAR MROC 130200Z 07007KT 040V100 9999 FEW035 BKN060 22/16 A3008 NOSIG=
202201130300 METAR MROC 130300Z 10008KT 070V130 9999 SCT030 21/16 A3011 NOSIG=
202201130400 METAR MROC 130400Z 11008KT 9999 FEW030 21/16 A3011 NOSIG=
202201130500 METAR MROC 130500Z 10003KT 070V140 CAVOK 20/15 A3010 NOSIG=
202201130600 METAR MROC 130600Z 09005KT 060V120 CAVOK 19/15 A3009 NOSIG=
202201130700 METAR MROC 130700Z VRB02KT CAVOK 19/14 A3007 NOSIG=
202201130800 METAR MROC 130800Z 07006KT CAVOK 19/15 A3006 NOSIG=
202201130900 METAR MROC 130900Z 08008KT CAVOK 19/14 A3005 NOSIG=
202201131000 METAR MROC 131000Z 10011KT 060V120 CAVOK 20/15 A3005 NOSIG=
202201131100 METAR MROC 131100Z 04009KT CAVOK 19/14 A3006 NOSIG=
202201131200 METAR MROC 131200Z 06010KT CAVOK 19/14 A3007 NOSIG=
202201131300 METAR MROC 131300Z 08009KT 050V130 CAVOK 20/15 A3009 NOSIG=
202201131400 METAR MROC 131400Z 10012KT CAVOK 23/15 A3011 NOSIG=
202201131500 METAR MROC 131500Z 09012KT 060V120 CAVOK 24/14 A3012 NOSIG=
202201131600 METAR MROC 131600Z 10012KT CAVOK 25/14 A3011 NOSIG=
202201131700 METAR MROC 131700Z 10010KT 070V130 CAVOK 26/15 A3008 NOSIG=
202201131800 METAR MROC 131800Z 11010KT 080V150 CAVOK 27/15 A3005 NOSIG=
202201131900 METAR MROC 131900Z 10010KT 070V130 CAVOK 28/15 A3002 NOSIG=
202201132000 METAR MROC 132000Z 11009KT 080V150 9999 FEW035 BKN120 28/14 A3000 NOSIG=
202201132100 METAR MROC 132100Z 11009KT 080V150 9999 FEW045 BKN100 27/14 A2998 NOSIG=
202201132200 METAR MROC 132200Z 13007KT 080V190 9999 FEW040 SCT100 27/14 A2998 NOSIG=
202201132300 METAR MROC 132300Z 10008KT 070V140 9999 FEW030 SCT100 25/16 A3000 NOSIG=
202201140000 METAR MROC 140000Z 08010KT 040V120 9999 FEW045 23/16 A3001 NOSIG=
202201140100 METAR MROC 140100Z 10010KT 9999 FEW040 21/17 A3004 NOSIG=
202201140200 METAR MROC 140200Z 11012G22KT 9999 FEW040 21/16 A3006 NOSIG=
202201140300 METAR MROC 140300Z 10013KT CAVOK 20/16 A3008 NOSIG=
202201140400 METAR MROC 140400Z 06008KT 030V090 CAVOK 20/15 A3008 NOSIG=
202201140500 METAR MROC 140500Z 07009KT 040V110 CAVOK 20/14 A3008 NOSIG=
202201140600 METAR MROC 140600Z 06012KT 030V090 CAVOK 19/14 A3006 NOSIG=
202201140700 METAR MROC 140700Z 08010G20KT 040V120 CAVOK 19/14 A3003 NOSIG=
202201140800 METAR MROC 140800Z 08009G19KT 040V120 CAVOK 19/14 A3002 NOSIG=
202201140900 METAR MROC 140900Z 08008G18KT 050V110 CAVOK 19/13 A3001 NOSIG=
202201141000 METAR MROC 141000Z 08009KT 050V120 CAVOK 19/13 A3001 NOSIG=
202201141100 METAR MROC 141100Z 06007KT CAVOK 19/13 A3003 NOSIG=
202201141200 METAR MROC 141200Z 05005KT 010V090 CAVOK 18/14 A3004 NOSIG=
202201141300 METAR MROC 141300Z 08006KT 030V140 CAVOK 20/14 A3006 NOSIG=
202201141400 METAR MROC 141400Z 10009KT 070V140 CAVOK 22/15 A3008 NOSIG=
202201141500 METAR MROC 141500Z 10011G21KT 060V150 CAVOK 25/14 A3008 NOSIG=
202201141600 METAR MROC 141600Z 10013KT 080V140 CAVOK 26/15 A3009 NOSIG=
202201141700 METAR MROC 141700Z 10012KT 070V140 CAVOK 27/14 A3006 NOSIG=
202201141800 METAR MROC 141800Z 12012KT 080V160 9999 FEW035 28/15 A3004 NOSIG=
202201141900 METAR MROC 141900Z 11010KT 070V170 9999 SCT035 27/15 A3002 WS R07 BECMG 22007KT=
202201142000 METAR MROC 142000Z 13008KT 080V180 9999 BKN040 27/15 A3000 WS R07 TEMPO 22007KT=
202201142100 METAR MROC 142100Z 14006KT 090V190 9999 BKN040 27/15 A2999 NOSIG=
202201142200 METAR MROC 142200Z 22010KT 180V260 9999 SCT040 25/19 A2999 NOSIG=
202201142300 METAR MROC 142300Z 24011KT 9999 SCT035 23/19 A3000 NOSIG=
202201150000 METAR MROC 150000Z 34003KT 280V050 9999 SCT035 22/18 A3001 NOSIG=
202201150100 METAR MROC 150100Z 06005KT 360V120 9999 FEW035 22/16 A3003 NOSIG=
202201150200 METAR MROC 150200Z 06007KT 9999 FEW040 21/16 A3005 NOSIG=
202201150300 METAR MROC 150300Z 06007KT 030V110 9999 FEW040 21/17 A3006 NOSIG=
202201150400 METAR MROC 150400Z 06009KT CAVOK 20/16 A3006 NOSIG=
202201150500 METAR MROC 150500Z 08012KT 040V130 CAVOK 20/16 A3004 NOSIG=
202201150600 METAR MROC 150600Z 09008KT 060V130 CAVOK 20/16 A3004 NOSIG=
202201150700 METAR MROC 150700Z 06006KT 030V100 CAVOK 19/16 A3002 NOSIG=
202201150800 METAR MROC 150800Z 07005KT 050V110 CAVOK 19/16 A3001 NOSIG=
202201150900 METAR MROC 150900Z 07004KT 030V090 9999 FEW035 19/16 A3000 NOSIG=
202201151000 METAR MROC 151000Z 09007KT 060V130 9999 FEW035 19/16 A3001 NOSIG=
202201151100 METAR MROC 151100Z 03006KT 9999 FEW030 18/16 A3002 NOSIG=
202201151200 METAR MROC 151200Z 06007KT 050V120 9999 FEW030 19/15 A3004 NOSIG=
202201151300 METAR MROC 151300Z 05007KT 020V100 CAVOK 20/15 A3006 NOSIG=
202201151400 METAR MROC 151400Z 10007KT 060V140 CAVOK 22/15 A3010 NOSIG=
202201151500 METAR MROC 151500Z 11010KT 070V150 CAVOK 25/15 A3009 NOSIG=
202201151600 METAR MROC 151600Z 14010KT 100V180 9999 FEW035 27/15 A3006 NOSIG=
202201151700 METAR MROC 151700Z 12011KT 080V160 9999 FEW040 28/15 A3006 NOSIG=
202201151800 METAR MROC 151800Z 17005KT 100V230 9999 SCT040 28/15 A3005 BECMG 25007KT=
202201151900 METAR MROC 151900Z 23011KT 9999 FEW035 SCT050 26/19 A3002 NOSIG=
202201152000 METAR MROC 152000Z 25010KT 210V280 9999 FEW045 26/18 A3000 NOSIG=
202201152100 METAR MROC 152100Z 24011KT 210V270 9999 FEW035 26/19 A2999 NOSIG=
202201152200 METAR MROC 152200Z 25013KT 9999 SCT030 24/19 A2999 NOSIG=
202201152300 METAR MROC 152300Z 23008KT 9999 BKN030 23/19 A3000 NOSIG=
202201160000 METAR MROC 160000Z 24005KT 9999 BKN025 22/18 A3003 NOSIG=
202201160100 METAR MROC 160100Z VRB01KT 9999 SCT030 21/18 A3005 NOSIG=
202201160200 METAR MROC 160200Z VRB01KT 9999 FEW030 20/18 A3006 NOSIG=
202201160300 METAR MROC 160300Z VRB02KT 9999 FEW035 20/18 A3008 NOSIG=
202201160400 METAR MROC 160400Z 08004KT 9999 SCT040 20/17 A3008 NOSIG=
202201160500 METAR MROC 160500Z 03004KT 9999 FEW040 20/17 A3008 NOSIG=
202201160600 METAR MROC 160600Z 04004KT 9999 FEW040 19/17 A3007 NOSIG=
202201160700 METAR MROC 160700Z 09004KT 9999 FEW040 18/16 A3002 NOSIG=
202201160800 METAR MROC 160800Z 05007KT 9999 FEW040 18/15 A3002 NOSIG=
202201160900 METAR MROC 160900Z 04007KT 9999 FEW035 18/15 A3001 NOSIG=
202201161000 METAR MROC 161000Z 07006KT CAVOK 17/15 A3002 NOSIG=
202201161100 METAR MROC 161100Z 06008KT 9999 FEW035 18/14 A3003 NOSIG=
202201161200 METAR MROC 161200Z 07009KT 9999 FEW040 SCT230 18/15 A3005 NOSIG=
202201161300 METAR MROC 161300Z 07007KT CAVOK 20/15 A3006 NOSIG=
202201161400 METAR MROC 161400Z 10008KT 070V130 CAVOK 23/16 A3008 NOSIG=
202201161500 METAR MROC 161500Z 11008KT 080V140 CAVOK 25/15 A3008 NOSIG=
202201161600 METAR MROC 161600Z 11009KT 070V160 CAVOK 26/15 A3007 NOSIG=
202201161700 METAR MROC 161700Z 12008KT 090V160 CAVOK 28/15 A3004 TEMPO 26007KT=
202201161800 METAR MROC 161800Z VRB06KT CAVOK 28/16 A3001 BECMG 25007KT=
202201161900 METAR MROC 161900Z 23012KT 200V260 CAVOK 28/18 A2999 NOSIG=
202201162000 METAR MROC 162000Z 23010G20KT 200V260 9999 BKN035 SCT250 27/18 A2998 NOSIG=
202201162100 METAR MROC 162100Z 24014KT 200V270 9999 SCT035 SCT250 27/18 A2996 NOSIG=
202201162200 METAR MROC 162200Z 27013KT 9999 SCT035 BKN250 26/18 A2997 NOSIG=
202201162300 METAR MROC 162300Z 25008KT 9999 SCT035 BKN250 24/19 A2998 NOSIG=
202201170000 METAR MROC 170000Z 24004KT 210V270 9999 BKN030 22/18 A3001 NOSIG=
202201170100 METAR MROC 170100Z 25003KT 210V300 9999 FEW030 22/18 A3003 NOSIG=
202201170200 METAR MROC 170200Z 10004KT 9999 FEW030 21/18 A3005 NOSIG=
202201170300 METAR MROC 170300Z 10007KT 9999 FEW030 21/17 A3007 NOSIG=
202201170400 METAR MROC 170400Z 08005KT 060V120 CAVOK 20/17 A3008 NOSIG=
202201170500 METAR MROC 170500Z 11007KT CAVOK 20/16 A3007 NOSIG=
202201170600 METAR MROC 170600Z 09004KT 050V120 CAVOK 19/16 A3005 NOSIG=
202201170700 METAR MROC 170700Z 07005KT CAVOK 19/15 A3003 NOSIG=
202201170800 METAR MROC 170800Z 06008KT 9999 FEW045 19/15 A3001 NOSIG=
202201170900 METAR MROC 170900Z 08010KT 050V120 CAVOK 20/15 A3000 NOSIG=
202201171000 METAR MROC 171000Z 10011KT 060V120 CAVOK 20/14 A3001 NOSIG=
202201171100 METAR MROC 171100Z 08005KT 360V160 CAVOK 19/14 A3003 NOSIG=
202201171200 METAR MROC 171200Z 06010KT CAVOK 19/14 A3003 NOSIG=
202201171300 METAR MROC 171300Z 11011KT 080V140 CAVOK 20/13 A3006 NOSIG=
202201171400 METAR MROC 171400Z 10014KT 060V120 CAVOK 22/11 A3007 NOSIG=
202201171500 METAR MROC 171500Z 09019G31KT CAVOK 25/06 A3006 NOSIG=
202201171600 METAR MROC 171600Z 09019G30KT CAVOK 25/09 A3007 NOSIG=
202201171700 METAR MROC 171700Z 08018KT CAVOK 26/09 A3005 NOSIG=
202201171800 METAR MROC 171800Z 08015KT 060V120 CAVOK 27/12 A3003 NOSIG=
202201171900 METAR MROC 171900Z 08014KT CAVOK 27/13 A3001 NOSIG=
202201172000 METAR MROC 172000Z 09013KT CAVOK 27/14 A2999 NOSIG=
202201172100 METAR MROC 172100Z 10013KT 070V140 9999 FEW040 27/14 A2997 NOSIG=
202201172200 METAR MROC 172200Z 09014KT 060V140 9999 FEW040 26/14 A2998 NOSIG=
202201172300 METAR MROC 172300Z 10010KT 070V130 9999 SCT045 24/14 A2999 NOSIG=
202201180000 METAR MROC 180000Z 10009KT 9999 FEW035 22/14 A3001 NOSIG=
202201180100 METAR MROC 180100Z 11012KT 080V140 9999 FEW030 21/14 A3003 NOSIG=
202201180200 METAR MROC 180200Z 11014KT 080V140 9999 FEW030 20/14 A3005 NOSIG=
202201180300 METAR MROC 180300Z 09010KT 060V120 CAVOK 20/12 A3006 NOSIG=
202201180400 METAR MROC 180400Z 11016G26KT CAVOK 20/12 A3006 NOSIG=
202201180500 METAR MROC 180500Z 11018G30KT CAVOK 20/13 A3005 NOSIG=
202201180600 METAR MROC 180600Z 10016G26KT CAVOK 20/12 A3004 NOSIG=
202201180700 METAR MROC 180700Z 10016G26KT CAVOK 19/13 A3002 NOSIG=
202201180800 METAR MROC 180800Z 10014G29KT CAVOK 19/13 A3000 NOSIG=
202201180900 METAR MROC 180900Z 10014G33KT CAVOK 19/13 A2999 NOSIG=
202201181000 METAR MROC 181000Z 11015G25KT CAVOK 19/13 A3000 NOSIG=
202201181100 METAR MROC 181100Z 11017G27KT CAVOK 19/14 A3001 NOSIG=
202201181200 METAR MROC 181200Z 10016G28KT CAVOK 19/14 A3001 NOSIG=
202201181300 METAR MROC 181300Z 11015KT CAVOK 20/14 A3004 NOSIG=
202201181400 METAR MROC 181400Z 11017KT CAVOK 22/14 A3004 NOSIG=
202201181500 METAR MROC 181500Z 10018G28KT CAVOK 24/13 A3005 NOSIG=
202201181600 METAR MROC 181600Z 09016KT 050V120 CAVOK 26/13 A3005 NOSIG=
202201181700 METAR MROC 181700Z 08016KT CAVOK 26/14 A3004 NOSIG=
202201181800 METAR MROC 181800Z 08014G24KT 050V120 CAVOK 28/16 A3002 NOSIG=
202201181900 METAR MROC 181900Z 08015KT CAVOK 28/15 A2999 NOSIG=
202201182000 METAR MROC 182000Z 10013KT 9999 SCT035 27/15 A2997 NOSIG=
202201182100 METAR MROC 182100Z 11012KT 080V140 9999 FEW035 SCT080 27/16 A2996 NOSIG=
202201182200 METAR MROC 182200Z 09013KT 9999 FEW035 26/15 A2995 NOSIG=
202201182300 METAR MROC 182300Z 09012KT 050V120 9999 FEW030 25/15 A2996 NOSIG=
202201190000 METAR MROC 190000Z 10011KT 9999 FEW030 BKN230 22/16 A2997 NOSIG=
202201190100 METAR MROC 190100Z 11015G25KT 9999 FEW030 SCT230 21/17 A2998 NOSIG=
202201190200 METAR MROC 190200Z 11015KT 9999 FEW040 21/16 A3000 NOSIG=
202201190300 METAR MROC 190300Z 10016KT 9999 FEW025 21/16 A3002 NOSIG=
202201190400 METAR MROC 190400Z 11015G26KT 9999 FEW025 21/16 A3002 NOSIG=
202201190500 METAR MROC 190500Z 11011KT 9999 FEW025 20/16 A3001 NOSIG=
202201190600 METAR MROC 190600Z 11015KT 9999 FEW020 21/16 A2999 NOSIG=
202201190700 METAR MROC 190700Z 11016KT 9999 FEW020 21/16 A2997 NOSIG=
202201190800 METAR MROC 190800Z 10009KT 060V140 9999 FEW020 20/16 A2996 NOSIG=
202201190900 METAR MROC 190900Z 10014KT 9999 FEW020 20/15 A2996 NOSIG=
202201191000 METAR MROC 191000Z 10015G25KT 9999 FEW020 21/15 A2996 NOSIG=
202201191100 METAR MROC 191100Z 10013KT CAVOK 21/13 A2996 NOSIG=
202201191200 METAR MROC 191200Z 10015KT 9999 FEW030 20/14 A2997 NOSIG=
202201191300 METAR MROC 191300Z 10015KT CAVOK 21/14 A2998 NOSIG=
202201191400 METAR MROC 191400Z 10017KT CAVOK 23/15 A3000 NOSIG=
202201191500 METAR MROC 191500Z 10018KT CAVOK 25/15 A3001 NOSIG=
202201191600 METAR MROC 191600Z 08017KT 050V110 CAVOK 26/15 A3001 NOSIG=
202201191700 METAR MROC 191700Z 07018G30KT 050V110 CAVOK 26/15 A3001 NOSIG=
202201191800 METAR MROC 191800Z 08017KT CAVOK 27/15 A2999 NOSIG=
202201191900 METAR MROC 191900Z 09016KT 9999 FEW045 27/15 A2996 NOSIG=
202201192000 METAR MROC 192000Z 08014KT 9999 FEW045 SCT250 28/15 A2994 NOSIG=
202201192100 METAR MROC 192100Z 07017G28KT 9999 FEW045 28/14 A2993 NOSIG=
202201192200 METAR MROC 192200Z 08015KT 9999 FEW045 27/16 A2992 NOSIG=
202201192300 METAR MROC 192300Z 11008KT 080V170 9999 FEW048 26/17 A2993 NOSIG=
202201200000 METAR MROC 200000Z 08011KT 060V120 9999 FEW045 23/16 A2995 NOSIG=
202201200100 METAR MROC 200100Z 10012KT 9999 FEW045 22/16 A2996 NOSIG=
202201200200 METAR MROC 200200Z 10014KT CAVOK 22/16 A2997 NOSIG=
202201200300 METAR MROC 200300Z 08018G28KT 9999 FEW045 SCT090 22/16 A2998 NOSIG=
202201200400 METAR MROC 200400Z 10013KT 9999 FEW045 22/17 A3000 NOSIG=
202201200500 METAR MROC 200500Z 09019KT 9999 FEW045 23/17 A2998 NOSIG=
202201200600 METAR MROC 200600Z 11015KT 9999 FEW045 21/17 A2996 NOSIG=
202201200700 METAR MROC 200700Z 11018KT CAVOK 21/17 A2993 NOSIG=
202201200800 METAR MROC 200800Z 11013KT CAVOK 21/16 A2992 NOSIG=
202201200900 METAR MROC 200900Z 08011KT 9999 FEW040 20/17 A2992 NOSIG=
202201201000 METAR MROC 201000Z 08012KT 9999 FEW030 20/16 A2994 NOSIG=
202201201100 METAR MROC 201100Z 07006KT 020V100 9999 FEW040 20/16 A2994 NOSIG=
202201201200 METAR MROC 201200Z 10012KT 9999 FEW035 SCT200 20/15 A2995 NOSIG=
202201201300 METAR MROC 201300Z 11015G25KT CAVOK 21/14 A2996 NOSIG=
202201201400 METAR MROC 201400Z 11014G25KT CAVOK 23/13 A2998 NOSIG=
202201201500 METAR MROC 201500Z 11016G27KT CAVOK 25/11 A3000 NOSIG=
202201201600 METAR MROC 201600Z 10015G25KT CAVOK 27/09 A3000 NOSIG=
202201201700 METAR MROC 201700Z 11013G23KT 080V140 CAVOK 27/11 A2999 NOSIG=
202201201800 METAR MROC 201800Z 12010G20KT 080V190 CAVOK 28/13 A2998 NOSIG=
202201201900 METAR MROC 201900Z 10012G22KT 070V150 CAVOK 28/13 A2995 NOSIG=
202201202000 METAR MROC 202000Z 10013G23KT 070V130 CAVOK 28/14 A2993 NOSIG=
202201202100 METAR MROC 202100Z 08014G24KT CAVOK 28/14 A2991 NOSIG=
202201202200 METAR MROC 202200Z 08011G21KT 060V120 9999 FEW035 27/15 A2991 NOSIG=
202201202300 METAR MROC 202300Z 11011G21KT 9999 FEW035 26/16 A2992 NOSIG=
202201210000 METAR MROC 210000Z 10011G21KT 9999 FEW035 23/17 A2994 NOSIG=
202201210100 METAR MROC 210100Z 11013G23KT 9999 FEW035 23/18 A2996 NOSIG=
202201210200 METAR MROC 210200Z 11011G21KT 9999 FEW035 22/17 A2998 NOSIG=
202201210300 METAR MROC 210300Z 10013KT 9999 FEW035 22/16 A3000 NOSIG=
202201210400 METAR MROC 210400Z 11013KT 9999 FEW040 21/16 A3001 NOSIG=
202201210500 METAR MROC 210500Z 10012KT 9999 FEW040 22/15 A3000 NOSIG=
202201210600 METAR MROC 210600Z 10012KT 9999 FEW040 21/15 A2998 NOSIG=
202201210700 METAR MROC 210700Z 10011KT CAVOK 22/15 A2996 NOSIG=
202201210800 METAR MROC 210800Z 11012KT CAVOK 21/15 A2995 NOSIG=
202201210900 METAR MROC 210900Z 11009KT 080V150 CAVOK 21/15 A2995 NOSIG=
202201211000 METAR MROC 211000Z 08007KT CAVOK 21/15 A2995 NOSIG=
202201211100 METAR MROC 211100Z 07007KT CAVOK 20/14 A2995 NOSIG=
202201211200 METAR MROC 211200Z 07006KT 070V130 CAVOK 20/15 A2997 NOSIG=
202201211300 METAR MROC 211300Z 11013KT 080V150 CAVOK 22/15 A2999 NOSIG=
202201211400 METAR MROC 211400Z 11016G26KT CAVOK 24/16 A3001 NOSIG=
202201211500 METAR MROC 211500Z 11017G27KT CAVOK 26/16 A3001 NOSIG=
202201211600 METAR MROC 211600Z 10015G25KT CAVOK 28/16 A3001 NOSIG=
202201211700 METAR MROC 211700Z 11013G23KT 080V150 9999 FEW040 SCT200 28/17 A3000 NOSIG=
202201211800 METAR MROC 211800Z 12013KT 090V170 9999 FEW035 BKN250 28/17 A2998 NOSIG=
202201211900 METAR MROC 211900Z 12010G20KT 080V160 9999 FEW035 SCT250 29/17 A2996 NOSIG=
202201212000 METAR MROC 212000Z 12011KT 070V150 9999 SCT045 29/17 A2994 NOSIG=
202201212100 METAR MROC 212100Z 11010KT 070V150 9999 SCT040 28/16 A2992 NOSIG=
202201212200 METAR MROC 212200Z 12008KT 080V170 9999 SCT040 28/18 A2992 NOSIG=
202201212300 METAR MROC 212300Z 11011G21KT 9999 SCT040 25/18 A2994 NOSIG=
202201220000 METAR MROC 220000Z 10007KT 070V150 9999 FEW030 SCT070 24/19 A2996 NOSIG=
202201220100 METAR MROC 220100Z 10010KT 9999 FEW030 SCT070 23/17 A2999 NOSIG=
202201220200 METAR MROC 220200Z 10006KT 060V140 9999 FEW030 22/18 A3002 NOSIG=
202201220300 METAR MROC 220300Z 09007KT 060V120 9999 FEW030 22/18 A3003 NOSIG=
202201220400 METAR MROC 220400Z 08009KT 9999 FEW030 22/18 A3003 NOSIG=
202201220500 METAR MROC 220500Z 10011G21KT 080V140 9999 FEW030 22/18 A3002 NOSIG=
202201220600 METAR MROC 220600Z 04011G21KT 010V080 9999 FEW030 21/18 A3001 NOSIG=
202201220700 METAR MROC 220700Z 09012G24KT 9999 FEW030 23/17 A2999 NOSIG=
202201220800 METAR MROC 220800Z 09008G18KT 050V110 CAVOK 22/17 A2998 NOSIG=
202201220900 METAR MROC 220900Z 06009G19KT 340V130 CAVOK 22/17 A2997 NOSIG=
202201221000 METAR MROC 221000Z 10012KT 070V140 9999 FEW030 22/17 A2997 NOSIG=
202201221100 METAR MROC 221100Z 11014G24KT 070V130 CAVOK 22/17 A2999 NOSIG=
202201221200 METAR MROC 221200Z 10012G25KT 9999 FEW030 22/16 A3000 NOSIG=
202201221300 METAR MROC 221300Z 10012KT 9999 FEW035 23/16 A3002 NOSIG=
202201221400 METAR MROC 221400Z 10018KT 9999 FEW035 24/17 A3003 NOSIG=
202201221500 METAR MROC 221500Z 10018G28KT 9999 FEW035 25/16 A3003 NOSIG=
202201221600 METAR MROC 221600Z 11021G31KT 9999 FEW045 26/17 A3002 NOSIG=
202201221700 METAR MROC 221700Z 10016KT 080V140 9999 FEW045 28/16 A3001 NOSIG=
202201221800 METAR MROC 221800Z 10016KT 080V140 9999 FEW045 28/16 A3001 NOSIG=
202201221900 METAR MROC 221900Z 10017G30KT 9999 FEW040 29/17 A2997 NOSIG=
202201222000 METAR MROC 222000Z 09015KT 060V120 9999 FEW040 29/16 A2994 NOSIG=
202201222100 METAR MROC 222100Z COR 09014KT 060V130 9999 FEW040 28/16 A2993 NOSIG=
202201222200 METAR MROC 222200Z 11012KT 070V130 9999 FEW035 27/16 A2994 NOSIG=
202201222300 METAR MROC 222300Z 09015KT 9999 FEW035 25/15 A2995 NOSIG=
202201230000 METAR MROC 230000Z 10014G24KT 9999 FEW035 23/17 A2996 NOSIG=
202201230100 METAR MROC 230100Z 10013KT 9999 FEW040 23/17 A2998 NOSIG=
202201230200 METAR MROC 230200Z 09012KT 9999 FEW040 23/17 A3000 NOSIG=
202201230300 METAR MROC 230300Z 08005KT 020V130 9999 FEW040 22/17 A3002 NOSIG=
202201230400 METAR MROC 230400Z 10013KT 9999 FEW040 22/17 A3002 NOSIG=
202201230500 METAR MROC 230500Z 10011KT 9999 FEW040 21/18 A3000 NOSIG=
202201230600 METAR MROC 230600Z 09013KT CAVOK 22/17 A2998 NOSIG=
202201230700 METAR MROC 230700Z 09014KT CAVOK 22/17 A2996 NOSIG=
202201230800 METAR MROC 230800Z 09013KT CAVOK 21/17 A2994 NOSIG=
202201230900 METAR MROC 230900Z 09011KT CAVOK 20/16 A2993 NOSIG=
202201231000 METAR MROC 231000Z 10012KT CAVOK 21/15 A2994 NOSIG=
202201231100 METAR MROC 231100Z 09013KT CAVOK 21/15 A2996 NOSIG=
202201231200 METAR MROC 231200Z 09009KT 060V120 9999 FEW040 20/16 A2997 NOSIG=
202201231300 METAR MROC 231300Z 11012KT 090V150 9999 FEW040 21/15 A3000 NOSIG=
202201231400 METAR MROC 231400Z 11014KT 9999 FEW045 22/16 A3002 NOSIG=
202201231500 METAR MROC 231500Z 09015KT 070V130 9999 FEW045 24/16 A3003 NOSIG=
202201231600 METAR MROC 231600Z 08020KT 9999 FEW045 25/14 A3002 NOSIG=
202201231700 METAR MROC 231700Z 08019KT CAVOK 27/13 A2999 NOSIG=
202201231800 METAR MROC 231800Z 08017KT 050V120 CAVOK 28/14 A2997 NOSIG=
202201231900 METAR MROC 231900Z 08018G30KT CAVOK 27/14 A2994 NOSIG=
202201232000 METAR MROC 232000Z 08017G29KT CAVOK 27/14 A2992 NOSIG=
202201232100 METAR MROC 232100Z 08015G25KT 060V120 CAVOK 28/14 A2990 NOSIG=
202201232200 METAR MROC 232200Z 08018KT CAVOK 26/14 A2989 NOSIG=
202201232300 METAR MROC 232300Z 07015KT 9999 FEW045 24/16 A2991 NOSIG=
202201240000 METAR MROC 240000Z 08013KT CAVOK 22/15 A2993 NOSIG=
202201240100 METAR MROC 240100Z 13005KT 080V180 CAVOK 21/14 A2995 NOSIG=
202201240200 METAR MROC 240200Z 09009KT 060V120 CAVOK 21/12 A2998 NOSIG=
202201240300 METAR MROC 240300Z 12012KT CAVOK 20/14 A2997 NOSIG=
202201240400 METAR MROC 240400Z 11016KT CAVOK 20/14 A2996 NOSIG=
202201240500 METAR MROC 240500Z 11016KT CAVOK 19/13 A2996 NOSIG=
202201240600 METAR MROC 240600Z 12013G23KT CAVOK 20/12 A2995 NOSIG=
202201240700 METAR MROC 240700Z 11013KT CAVOK 20/11 A2993 NOSIG=
202201240800 METAR MROC 240800Z 12012KT CAVOK 19/11 A2990 NOSIG=
202201240900 METAR MROC 240900Z 09009KT 040V150 CAVOK 19/11 A2991 NOSIG=
202201241000 METAR MROC 241000Z VRB03KT CAVOK 18/11 A2992 NOSIG=
202201241100 METAR MROC 241100Z 05006KT CAVOK 19/12 A2994 NOSIG=
202201241200 METAR MROC 241200Z 11012KT CAVOK 19/12 A2996 NOSIG=
202201241300 METAR MROC 241300Z 12010KT 090V150 CAVOK 20/13 A2998 NOSIG=
202201241400 METAR MROC 241400Z 12011KT CAVOK 22/14 A3000 NOSIG=
202201241500 METAR MROC 241500Z 10014KT CAVOK 24/14 A3001 NOSIG=
202201241600 METAR MROC 241600Z 10015KT 070V140 CAVOK 26/14 A3000 NOSIG=
202201241700 METAR MROC 241700Z 10016KT CAVOK 27/12 A2999 NOSIG=
202201241800 METAR MROC 241800Z 08015KT CAVOK 28/11 A2996 NOSIG=
202201241900 METAR MROC 241900Z 08011KT 040V120 CAVOK 28/12 A2994 NOSIG=
202201242000 METAR MROC 242000Z 09011G21KT 050V130 CAVOK 28/12 A2991 NOSIG=
202201242100 METAR MROC 242100Z 10012G22KT 060V150 CAVOK 28/13 A2990 NOSIG=
202201242200 METAR MROC 242200Z 09011G21KT 060V140 CAVOK 27/13 A2990 NOSIG=
202201242300 METAR MROC 242300Z 10010G20KT 060V130 CAVOK 25/14 A2992 NOSIG=
202201250000 METAR MROC 250000Z 09009G19KT 9999 FEW035 23/13 A2993 NOSIG=
202201250100 METAR MROC 250100Z 08010G20KT 9999 FEW035 22/14 A2995 NOSIG=
202201250200 METAR MROC 250200Z 11008G18KT CAVOK 21/15 A2998 NOSIG=
202201250300 METAR MROC 250300Z 11010KT 080V140 CAVOK 20/12 A3000 NOSIG=
202201250400 METAR MROC 250400Z 11011KT CAVOK 20/13 A3001 NOSIG=
202201250500 METAR MROC 250500Z 10007KT CAVOK 20/13 A3000 NOSIG=
202201250600 METAR MROC 250600Z 10008KT CAVOK 19/13 A2999 NOSIG=
202201250700 METAR MROC 250700Z 10006KT CAVOK 18/13 A2997 NOSIG=
202201250800 METAR MROC 250800Z 09006KT CAVOK 18/13 A2996 NOSIG=
202201250900 METAR MROC 250900Z 05008KT CAVOK 17/11 A2996 NOSIG=
202201251000 METAR MROC 251000Z 06007KT CAVOK 16/11 A2997 NOSIG=
202201251100 METAR MROC 251100Z 05006KT 030V090 CAVOK 15/10 A2999 NOSIG=
202201251200 METAR MROC 251200Z 08008KT CAVOK 17/12 A3000 NOSIG=
202201251300 METAR MROC 251300Z 08011KT CAVOK 19/11 A3002 NOSIG=
202201251400 METAR MROC 251400Z 09012KT CAVOK 22/11 A3004 NOSIG=
202201251500 METAR MROC 251500Z 11012KT 080V140 CAVOK 24/11 A3004 NOSIG=
202201251600 METAR MROC 251600Z 11012KT 080V140 CAVOK 26/11 A3003 NOSIG=
202201251700 METAR MROC 251700Z 11009KT 060V160 CAVOK 28/10 A3001 NOSIG=
202201251800 METAR MROC 251800Z 12006KT 070V210 CAVOK 29/10 A2999 BECMG 24007KT=
202201251900 METAR MROC 251900Z 23010KT 190V260 CAVOK 29/10 A2996 NOSIG=
202201252000 METAR MROC 252000Z 25012KT 9999 FEW040 29/15 A2994 NOSIG=
202201252100 METAR MROC 252100Z 25011KT 200V280 9999 FEW040 28/16 A2993 NOSIG=
202201252200 METAR MROC 252200Z 26010KT 230V300 9999 FEW040 27/16 A2993 NOSIG=
202201252300 METAR MROC 252300Z 25009KT 220V290 9999 FEW040 25/16 A2995 NOSIG=
202201260000 METAR MROC 260000Z 23007KT 9999 SCT040 23/17 A2997 NOSIG=
202201260100 METAR MROC 260100Z 17005KT 130V210 9999 SCT040 22/17 A2999 NOSIG=
202201260200 METAR MROC 260200Z 08007KT 9999 BKN045 21/17 A3002 NOSIG=
202201260300 METAR MROC 260300Z 09007KT 060V120 CAVOK 21/16 A3003 NOSIG=
202201260400 METAR MROC 260400Z 08012KT CAVOK 21/15 A3003 NOSIG=
202201260500 METAR MROC 260500Z 08013KT CAVOK 20/15 A3002 NOSIG=
202201260600 METAR MROC 260600Z 09007G17KT 060V130 CAVOK 20/15 A3001 NOSIG=
202201260700 METAR MROC 260700Z 09011G21KT 060V120 CAVOK 20/15 A2998 NOSIG=
202201260800 METAR MROC 260800Z 08013KT CAVOK 19/14 A2996 NOSIG=
202201260900 METAR MROC 260900Z 08007G17KT 040V110 CAVOK 19/14 A2996 NOSIG=
202201261000 METAR MROC 261000Z 08010KT CAVOK 19/13 A2997 NOSIG=
202201261100 METAR MROC 261100Z 08010KT CAVOK 19/12 A2998 NOSIG=
202201261200 METAR MROC 261200Z 07012KT CAVOK 18/12 A3000 NOSIG=
202201261300 METAR MROC 261300Z 10012KT 070V130 CAVOK 20/12 A3002 NOSIG=
202201261400 METAR MROC 261400Z 11015G27KT CAVOK 22/12 A3004 NOSIG=
202201261500 METAR MROC 261500Z 11014G24KT 070V140 CAVOK 24/12 A3005 NOSIG=
202201261600 METAR MROC 261600Z 10013KT 070V130 CAVOK 25/12 A3005 NOSIG=
202201261700 METAR MROC 261700Z 10010KT 070V150 CAVOK 27/11 A3003 NOSIG=
202201261800 METAR MROC 261800Z 12009KT 090V160 CAVOK 29/11 A2999 NOSIG=
202201261900 METAR MROC 261900Z 10010KT 060V140 9999 FEW040 29/12 A2997 NOSIG=
202201262000 METAR MROC 262000Z 13008KT 080V180 9999 FEW040 29/12 A2994 BECMG 24007KT=
202201262100 METAR MROC 262100Z 22007KT 140V290 9999 FEW040 28/17 A2994 NOSIG=
202201262200 METAR MROC 262200Z VRB05KT 9999 FEW040 SCT250 26/14 A2994 NOSIG=
202201262300 METAR MROC 262300Z 16005KT 120V200 9999 FEW045 SCT250 25/14 A2996 NOSIG=
202201270000 METAR MROC 270000Z 15004KT 100V190 9999 FEW045 BKN250 23/14 A2997 NOSIG=
202201270100 METAR MROC 270100Z 08008KT 050V120 9999 FEW040 SCT250 22/12 A3000 NOSIG=
202201270200 METAR MROC 270200Z 11005KT 080V150 9999 FEW035 21/12 A3003 NOSIG=
202201270300 METAR MROC 270300Z 11008KT 080V140 9999 FEW030 20/15 A3005 NOSIG=
202201270400 METAR MROC 270400Z 11010KT 9999 FEW045 20/15 A3006 NOSIG=
202201270500 METAR MROC 270500Z 10010KT 9999 FEW045 20/15 A3005 NOSIG=
202201270600 METAR MROC 270600Z 10012KT CAVOK 19/14 A3003 NOSIG=
202201270700 METAR MROC 270700Z 10010KT CAVOK 19/13 A3001 NOSIG=
202201270800 METAR MROC 270800Z 11012KT CAVOK 19/13 A3000 NOSIG=
202201270900 METAR MROC 270900Z 10013G23KT CAVOK 19/13 A2999 NOSIG=
202201271000 METAR MROC 271000Z 10013KT CAVOK 19/13 A3000 NOSIG=
202201271100 METAR MROC 271100Z 10012KT CAVOK 19/13 A3001 NOSIG=
202201271200 METAR MROC 271200Z 11013KT CAVOK 19/13 A3003 NOSIG=
202201271300 METAR MROC 271300Z 10012G23KT CAVOK 20/13 A3005 NOSIG=
202201271400 METAR MROC 271400Z 11015KT CAVOK 22/13 A3006 NOSIG=
202201271500 METAR MROC 271500Z 11015KT CAVOK 24/11 A3007 NOSIG=
202201271600 METAR MROC 271600Z 09013G23KT CAVOK 26/10 A3006 NOSIG=
202201271700 METAR MROC 271700Z 10012KT CAVOK 26/11 A3005 NOSIG=
202201271800 METAR MROC 271800Z 09013KT 050V130 CAVOK 27/12 A3003 NOSIG=
202201271900 METAR MROC 271900Z 09014KT 060V120 CAVOK 27/13 A3002 NOSIG=
202201272000 METAR MROC 272000Z 09013KT 060V120 CAVOK 26/13 A2999 NOSIG=
202201272100 METAR MROC 272100Z 09014G25KT CAVOK 25/14 A2997 NOSIG=
202201272200 METAR MROC 272200Z 09013KT 060V130 CAVOK 24/14 A2998 NOSIG=
202201272300 METAR MROC 272300Z 10012KT 070V130 CAVOK 23/13 A2999 NOSIG=
202201280000 METAR MROC 280000Z 11011KT 090V130 CAVOK 22/14 A3001 NOSIG=
202201280100 METAR MROC 280100Z 11011G21KT 090V130 CAVOK 21/14 A3003 NOSIG=
202201280200 METAR MROC 280200Z 11011KT CAVOK 21/14 A3006 NOSIG=
202201280300 METAR MROC 280300Z 10012KT CAVOK 21/14 A3007 NOSIG=
202201280400 METAR MROC 280400Z 10010KT CAVOK 20/14 A3008 NOSIG=
202201280500 METAR MROC 280500Z 11010KT CAVOK 20/13 A3007 NOSIG=
202201280600 METAR MROC 280600Z 08007KT 060V120 CAVOK 20/13 A3006 NOSIG=
202201280700 METAR MROC 280700Z 07006KT CAVOK 19/12 A3004 NOSIG=
202201280800 METAR MROC 280800Z 05007KT CAVOK 18/11 A3003 NOSIG=
202201280900 METAR MROC 280900Z 07009KT CAVOK 18/12 A3002 NOSIG=
202201281000 METAR MROC 281000Z 08006KT CAVOK 17/11 A3002 NOSIG=
202201281100 METAR MROC 281100Z 07008KT CAVOK 17/11 A3003 NOSIG=
202201281200 METAR MROC 281200Z 06009KT CAVOK 18/12 A3003 NOSIG=
202201281300 METAR MROC 281300Z 07008KT 040V100 CAVOK 20/12 A3004 NOSIG=
202201281400 METAR MROC 281400Z 09006KT 020V150 CAVOK 23/12 A3006 NOSIG=
202201281500 METAR MROC 281500Z 11011KT 070V130 CAVOK 26/12 A3007 NOSIG=
202201281600 METAR MROC 281600Z 11011KT 080V140 CAVOK 27/10 A3006 NOSIG=
202201281700 METAR MROC 281700Z 09011KT 060V120 CAVOK 28/12 A3004 NOSIG=
202201281800 METAR MROC 281800Z 11006KT 030V150 CAVOK 29/12 A3002 NOSIG=
202201281900 METAR MROC 281900Z 24014KT 200V280 9999 FEW045 28/17 A3000 NOSIG=
202201282000 METAR MROC 282000Z 23013KT 200V270 9999 FEW040 BKN070 27/17 A2998 NOSIG=
202201282100 METAR MROC 282100Z 25012KT 200V290 9999 BKN045 27/17 A2996 NOSIG=
202201282200 METAR MROC 282200Z 23010KT 200V260 9999 FEW045 SCT070 26/18 A2997 NOSIG=
202201282300 METAR MROC 282300Z 21006KT 190V250 9999 FEW045 BKN070 25/18 A2998 NOSIG=
202201290000 METAR MROC 290000Z 20004KT 9999 FEW035 BKN070 23/17 A3000 NOSIG=
202201290100 METAR MROC 290100Z 08010KT 9999 FEW035 BKN070 23/17 A3002 NOSIG=
202201290200 METAR MROC 290200Z 11011KT 9999 FEW035 BKN070 22/17 A3005 NOSIG=
202201290300 METAR MROC 290300Z 15003KT 100V220 9999 FEW030 BKN070 21/19 A3008 NOSIG=
202201290400 METAR MROC 290400Z 27003KT 230V320 9999 BKN045 21/19 A3008 NOSIG=
202201290500 METAR MROC 290500Z COR 23005KT 200V270 9999 SCT030 20/19 A3008 NOSIG=
202201290600 METAR MROC 290600Z 21003KT 160V320 9999 BKN045 21/16 A3006 NOSIG=
202201290700 METAR MROC 290700Z 11010KT 9999 SCT045 21/15 A3004 NOSIG=
202201290800 METAR MROC 290800Z 10009KT 070V130 9999 FEW045 21/15 A3002 NOSIG=
202201290900 METAR MROC 290900Z 10012KT 9999 FEW045 21/15 A3001 NOSIG=
202201291000 METAR MROC 291000Z 10012KT CAVOK 20/15 A3001 NOSIG=
202201291100 METAR MROC 291100Z 09008KT 060V130 CAVOK 21/15 A3002 NOSIG=
202201291200 METAR MROC 291200Z 10016KT 9999 FEW045 BKN060 20/15 A3005 NOSIG=
202201291300 METAR MROC 291300Z 09014G24KT 9999 FEW040 BKN090 21/13 A3007 NOSIG=
202201291400 METAR MROC 291400Z 11013G24KT 080V140 9999 FEW045 BKN090 22/15 A3008 NOSIG=
202201291500 METAR MROC 291500Z 11015G25KT 080V140 CAVOK 25/14 A3009 NOSIG=
202201291600 METAR MROC 291600Z 10017G31KT 070V130 CAVOK 26/12 A3008 NOSIG=
202201291700 METAR MROC 291700Z 10020G31KT 9999 FEW045 26/13 A3006 NOSIG=
202201291800 METAR MROC 291800Z 10019G29KT 9999 FEW045 27/14 A3004 NOSIG=
202201291900 METAR MROC 291900Z 11018G28KT 9999 FEW045 27/14 A3002 NOSIG=
202201292000 METAR MROC 292000Z 10018G28KT 9999 FEW045 27/14 A2999 NOSIG=
202201292100 METAR MROC 292100Z 09018KT 9999 FEW045 26/14 A2997 NOSIG=
202201292200 METAR MROC 292200Z 08016KT 9999 SCT048 25/14 A2997 NOSIG=
202201292300 METAR MROC 292300Z 07017KT 9999 FEW040 25/14 A2998 NOSIG=
202201300000 METAR MROC 300000Z 08013KT 9999 FEW040 23/16 A2999 NOSIG=
202201300100 METAR MROC 300100Z 11013G23KT 070V130 9999 FEW040 SCT070 22/16 A3001 NOSIG=
202201300200 METAR MROC 300200Z 11013KT 060V130 9999 FEW035 BKN060 22/15 A3005 NOSIG=
202201300300 METAR MROC 300300Z 09013KT 9999 FEW035 21/15 A3007 NOSIG=
202201300400 METAR MROC 300400Z 11013G23KT 9999 FEW035 22/14 A3007 NOSIG=
202201300500 METAR MROC 300500Z 12014G26KT CAVOK 21/14 A3006 NOSIG=
202201300600 METAR MROC 300600Z 11015G25KT CAVOK 21/14 A3004 NOSIG=
202201300700 METAR MROC 300700Z 11012G22KT 080V140 CAVOK 20/15 A3002 NOSIG=
202201300800 METAR MROC 300800Z 11014G24KT CAVOK 20/15 A3001 NOSIG=
202201300900 METAR MROC 300900Z 11011G21KT 080V150 CAVOK 20/15 A2999 NOSIG=
202201301000 METAR MROC 301000Z 11015KT 080V140 CAVOK 20/15 A3000 NOSIG=
202201301100 METAR MROC 301100Z 11016KT CAVOK 20/15 A3002 NOSIG=
202201301200 METAR MROC 301200Z 11016G26KT 9999 FEW040 20/14 A3003 NOSIG=
202201301300 METAR MROC 301300Z 10015G25KT CAVOK 22/13 A3004 NOSIG=
202201301400 METAR MROC 301400Z 10018G28KT CAVOK 23/13 A3008 NOSIG=
202201301500 METAR MROC 301500Z 09020G32KT 9999 FEW040 25/12 A3009 NOSIG=
202201301600 METAR MROC 301600Z 09018G28KT 9999 FEW040 26/13 A3009 NOSIG=
202201301700 METAR MROC 301700Z 08020G31KT 050V120 9999 FEW040 26/14 A3007 NOSIG=
202201301800 METAR MROC 301800Z 08019G29KT 9999 FEW040 27/14 A3005 NOSIG=
202201301900 METAR MROC 301900Z 09016G26KT 060V120 9999 FEW040 SCT130 27/14 A3002 NOSIG=
202201302000 METAR MROC 302000Z 08018KT 050V120 9999 FEW040 SCT130 27/14 A2999 NOSIG=
202201302100 METAR MROC 302100Z 08017G27KT 050V110 9999 FEW040 27/14 A2996 NOSIG=
202201302200 METAR MROC 302200Z 09016KT 9999 FEW040 26/14 A2997 NOSIG=
202201302300 METAR MROC 302300Z 09016G26KT 9999 FEW040 24/14 A2998 NOSIG=
202201310000 METAR MROC 310000Z 09016G27KT 9999 FEW035 22/15 A3001 NOSIG=
202201310100 METAR MROC 310100Z 10014G24KT 9999 FEW040 21/15 A3003 NOSIG=
202201310200 METAR MROC 310200Z 09015KT 9999 FEW045 21/14 A3005 NOSIG=
202201310300 METAR MROC 310300Z 10014KT CAVOK 20/15 A3006 NOSIG=
202201310400 METAR MROC 310400Z 09009KT 9999 FEW040 20/16 A3007 NOSIG=
202201310500 METAR MROC 310500Z 09012KT 070V130 CAVOK 20/16 A3006 NOSIG=
202201310600 METAR MROC 310600Z 08007KT 050V120 9999 FEW040 20/15 A3005 NOSIG=
202201310700 METAR MROC 310700Z 11008KT 010V150 CAVOK 20/15 A3004 NOSIG=
202201310800 METAR MROC 310800Z 07011KT 9999 FEW045 19/16 A3002 NOSIG=
202201310900 METAR MROC 310900Z 07009KT 030V100 9999 FEW045 19/15 A3001 NOSIG=
202201311000 METAR MROC 311000Z VRB03KT 9999 FEW040 17/15 A3000 NOSIG=
202201311100 METAR MROC 311100Z 09011KT 050V110 CAVOK 20/16 A3001 NOSIG=
202201311200 METAR MROC 311200Z 04005KT 330V080 CAVOK 17/15 A3001 NOSIG=
202201311300 METAR MROC 311300Z VRB02KT CAVOK 20/15 A3004 NOSIG=
202201311400 METAR MROC 311400Z 10012KT CAVOK 22/16 A3006 NOSIG=
202201311500 METAR MROC 311500Z 11013KT 080V150 CAVOK 25/15 A3007 NOSIG=
202201311600 METAR MROC 311600Z 09013KT 070V130 9999 FEW040 SCT250 26/15 A3006 NOSIG=
202201311700 METAR MROC 311700Z 11013KT 080V160 9999 FEW045 27/15 A3004 NOSIG=
202201311800 METAR MROC 311800Z 11014KT 070V150 9999 FEW045 28/15 A3000 NOSIG=
202201311900 METAR MROC 311900Z 10012KT 070V170 9999 FEW045 28/15 A2998 NOSIG=
202201312000 METAR MROC 312000Z 10012KT 060V140 9999 FEW040 27/15 A2995 NOSIG=
202201312100 METAR MROC 312100Z 08012KT 050V110 9999 FEW035 26/15 A2993 NOSIG=
202201312200 METAR MROC 312200Z 12010KT 070V150 9999 SCT035 25/15 A2994 NOSIG=
202201312300 METAR MROC 312300Z 11009KT 9999 FEW045 25/15 A2994 NOSIG=
202202010000 METAR MROC 010000Z 10009KT 9999 SCT040 23/16 A2996 NOSIG=
202202010100 METAR MROC 010100Z 36006KT 340V050 9999 FEW030 22/19 A2999 NOSIG=
202202010200 METAR MROC 010200Z 09008KT 9999 FEW025 21/16 A3002 NOSIG=
202202010300 METAR MROC 010300Z 09004KT 020V130 9999 FEW035 21/16 A3004 NOSIG=
202202010400 METAR MROC 010400Z 12009KT 080V140 9999 FEW035 20/16 A3005 NOSIG=
202202010500 METAR MROC 010500Z 11009KT CAVOK 20/15 A3003 NOSIG=
202202010600 METAR MROC 010600Z 10011KT 070V130 CAVOK 20/15 A3002 NOSIG=
202202010700 METAR MROC 010700Z 07010KT 040V110 CAVOK 20/15 A3000 NOSIG=
202202010800 METAR MROC 010800Z 07008KT CAVOK 19/15 A2999 NOSIG=
202202010900 METAR MROC 010900Z 09009KT 9999 FEW035 19/15 A2997 NOSIG=
202202011000 METAR MROC 011000Z 05008KT 030V100 9999 FEW035 19/15 A2996 NOSIG=
202202011100 METAR MROC 011100Z 08007KT 9999 FEW035 19/15 A2998 NOSIG=
202202011200 METAR MROC 011200Z 07004KT 040V100 CAVOK 18/14 A2999 NOSIG=
202202011300 METAR MROC 011300Z 05006KT 020V090 CAVOK 19/15 A3001 NOSIG=
202202011400 METAR MROC 011400Z 10013KT 070V130 CAVOK 22/15 A3003 NOSIG=
202202011500 METAR MROC 011500Z 12012KT 080V170 CAVOK 24/14 A3003 NOSIG=
202202011600 METAR MROC 011600Z 12012KT 080V160 CAVOK 26/13 A3003 NOSIG=
202202011700 METAR MROC 011700Z 10009KT 050V200 CAVOK 28/10 A3000 NOSIG=
202202011800 METAR MROC 011800Z 23008KT CAVOK 27/15 A2997 NOSIG=
202202011900 METAR MROC 011900Z 22010KT 180V270 CAVOK 27/16 A2995 NOSIG=
202202012000 METAR MROC 012000Z 23011KT 9999 FEW045 SCT060 27/16 A2993 NOSIG=
202202012100 METAR MROC 012100Z 26012KT 220V300 9999 FEW045 27/19 A2991 NOSIG=
202202012200 METAR MROC 012200Z 23010KT 9999 FEW035 SCT100 24/20 A2991 NOSIG=
202202012300 METAR MROC 012300Z 22009KT 9999 FEW035 23/20 A2992 NOSIG=
202202020000 METAR MROC 020000Z 25007KT 9999 FEW045 21/20 A2994 NOSIG=
202202020100 METAR MROC 020100Z 24004KT 9999 FEW045 20/20 A2996 NOSIG=
202202020200 METAR MROC 020200Z VRB02KT 9999 FEW015 20/20 A2999 NOSIG=
202202020300 METAR MROC 020300Z 13004KT 9999 FEW015 19/16 A3001 NOSIG=
202202020400 METAR MROC 020400Z 12004KT 9999 FEW030 19/16 A3001 NOSIG=
202202020500 METAR MROC 020500Z 07005KT CAVOK 19/15 A3000 NOSIG=
202202020600 METAR MROC 020600Z 08003KT 040V100 CAVOK 17/13 A2999 NOSIG=
202202020700 METAR MROC 020700Z VRB02KT CAVOK 16/13 A2997 NOSIG=
202202020800 METAR MROC 020800Z 07008KT CAVOK 16/12 A2996 NOSIG=
202202020900 METAR MROC 020900Z 05008KT CAVOK 16/12 A2995 NOSIG=
202202021000 METAR MROC 021000Z 08007KT CAVOK 16/13 A2995 NOSIG=
202202021100 METAR MROC 021100Z 07006KT CAVOK 16/13 A2996 NOSIG=
202202021200 METAR MROC 021200Z 06009KT CAVOK 16/13 A2997 NOSIG=
202202021300 METAR MROC 021300Z 05007KT 030V090 CAVOK 18/12 A3000 NOSIG=
202202021400 METAR MROC 021400Z 08007KT 050V110 CAVOK 22/12 A3002 NOSIG=
202202021500 METAR MROC 021500Z 12011KT 080V140 CAVOK 24/11 A3003 NOSIG=
202202021600 METAR MROC 021600Z 14011KT 090V180 CAVOK 26/11 A3002 NOSIG=
202202021700 METAR MROC 021700Z 11009KT 060V070 CAVOK 28/12 A2999 NOSIG=
202202021800 METAR MROC 021800Z 11008KT 050V170 CAVOK 28/13 A2996 NOSIG=
202202021900 METAR MROC 021900Z 09010KT 060V150 CAVOK 29/13 A2993 NOSIG=
202202022000 METAR MROC 022000Z 19007KT 100V270 9999 FEW045 28/18 A2991 BECMG 26008KT=
202202022038 METAR MROC 022038Z 24010KT 190V280 9999 FEW045 27/19 A2990 NOSIG=
202202022100 METAR MROC 022100Z 25013KT 210V270 9999 FEW045 27/19 A2989 NOSIG=
202202022200 METAR MROC 022200Z 24013KT 9999 FEW045 26/18 A2990 NOSIG=
202202022300 METAR MROC 022300Z 24011KT 9999 FEW045 24/19 A2991 NOSIG=
202202030000 METAR MROC 030000Z 25007KT 9999 FEW045 22/18 A2993 NOSIG=
202202030100 METAR MROC 030100Z VRB02KT CAVOK 21/18 A2995 NOSIG=
202202030200 METAR MROC 030200Z 11004KT CAVOK 20/15 A2997 NOSIG=
202202030300 METAR MROC 030300Z 11006KT 080V150 CAVOK 20/15 A2999 NOSIG=
202202030400 METAR MROC 030400Z 06004KT CAVOK 19/14 A3000 NOSIG=
202202030500 METAR MROC 030500Z 08005KT CAVOK 18/14 A3000 NOSIG=
202202030600 METAR MROC 030600Z 03006KT CAVOK 17/13 A2999 NOSIG=
202202030700 METAR MROC 030700Z 07006KT CAVOK 18/13 A2998 NOSIG=
202202030800 METAR MROC 030800Z 05008KT CAVOK 17/13 A2997 NOSIG=
202202030900 METAR MROC 030900Z 08012KT 9999 FEW035 19/14 A2998 NOSIG=
202202031000 METAR MROC 031000Z 06008KT 9999 FEW035 17/13 A2998 NOSIG=
202202031100 METAR MROC 031100Z 08007KT 9999 FEW035 18/13 A3000 NOSIG=
202202031200 METAR MROC 031200Z 06011KT CAVOK 17/13 A3001 NOSIG=
202202031300 METAR MROC 031300Z 06009KT CAVOK 19/13 A3003 NOSIG=
202202031400 METAR MROC 031400Z 10008KT CAVOK 23/13 A3005 NOSIG=
202202031500 METAR MROC 031500Z 11012KT CAVOK 24/13 A3005 NOSIG=
202202031600 METAR MROC 031600Z 12011KT 080V150 CAVOK 26/13 A3005 NOSIG=
202202031700 METAR MROC 031700Z VRB08KT 9999 FEW045 27/14 A3003 NOSIG=
202202031800 METAR MROC 031800Z 10007KT 020V180 9999 FEW045 29/14 A3000 NOSIG=
202202031900 METAR MROC 031900Z 12007KT 080V180 9999 SCT045 29/15 A2998 NOSIG=
202202032000 METAR MROC 032000Z 11010KT 080V160 9999 SCT040 29/16 A2997 NOSIG=
202202032100 METAR MROC 032100Z 11009KT 080V170 9999 FEW035 27/16 A2996 NOSIG=
202202032200 METAR MROC 032200Z 10012KT 070V140 9999 FEW030 26/16 A2996 NOSIG=
202202032300 METAR MROC 032300Z 11013KT 080V140 9999 FEW030 25/16 A2997 NOSIG=
202202040000 METAR MROC 040000Z 10012KT 9999 FEW040 22/16 A2998 NOSIG=
202202040100 METAR MROC 040100Z 12007KT 090V150 9999 FEW035 22/15 A3001 NOSIG=
202202040200 METAR MROC 040200Z 10010KT 070V140 9999 FEW040 22/15 A3003 NOSIG=
202202040300 METAR MROC 040300Z 07006KT 050V110 9999 FEW045 21/16 A3006 NOSIG=
202202040400 METAR MROC 040400Z 07007KT 040V110 CAVOK 21/15 A3006 NOSIG=
202202040500 METAR MROC 040500Z 04007KT 010V070 CAVOK 21/15 A3005 NOSIG=
202202040600 METAR MROC 040600Z 08007KT CAVOK 20/16 A3003 NOSIG=
202202040700 METAR MROC 040700Z 06008KT 030V130 CAVOK 20/15 A3002 NOSIG=
202202040800 METAR MROC 040800Z 06006KT 9999 FEW030 19/15 A3001 NOSIG=
202202040900 METAR MROC 040900Z 05005KT 020V110 9999 FEW030 19/15 A3000 NOSIG=
202202041000 METAR MROC 041000Z 05007KT 360V090 CAVOK 20/16 A3001 NOSIG=
202202041100 METAR MROC 041100Z 11009KT 060V140 CAVOK 21/16 A3003 NOSIG=
202202041200 METAR MROC 041200Z 09010KT 060V120 CAVOK 21/16 A3004 NOSIG=
202202041300 METAR MROC 041300Z 09015G25KT 070V130 CAVOK 22/16 A3006 NOSIG=
202202041400 METAR MROC 041400Z 10015KT 070V130 CAVOK 23/16 A3008 NOSIG=
202202041500 METAR MROC 041500Z 10017G27KT CAVOK 25/16 A3009 NOSIG=
202202041600 METAR MROC 041600Z 10017G27KT CAVOK 26/15 A3009 NOSIG=
202202041700 METAR MROC 041700Z 09016G26KT 060V120 CAVOK 28/15 A3006 NOSIG=
202202041800 METAR MROC 041800Z 09014G24KT CAVOK 29/14 A3005 NOSIG=
202202041900 METAR MROC 041900Z 11013KT 070V150 CAVOK 29/15 A3005 NOSIG=
202202042000 METAR MROC 042000Z 11011KT 080V150 CAVOK 29/15 A2999 NOSIG=
202202042100 METAR MROC 042100Z 11012KT 080V150 9999 FEW045 29/14 A2997 NOSIG=
202202042200 METAR MROC 042200Z 11013KT 9999 FEW045 28/16 A2997 NOSIG=
202202042300 METAR MROC 042300Z 10010KT 9999 FEW045 25/17 A2999 NOSIG=
202202050000 METAR MROC 050000Z 10012KT 9999 FEW045 22/16 A3001 NOSIG=
202202050100 METAR MROC 050100Z 10009KT 080V140 CAVOK 21/16 A3003 NOSIG=
202202050200 METAR MROC 050200Z 09012G22KT 060V120 CAVOK 22/17 A3005 NOSIG=
202202050300 METAR MROC 050300Z 10013KT 9999 FEW035 21/17 A3007 NOSIG=
202202050400 METAR MROC 050400Z 11015KT 9999 FEW035 22/17 A3007 NOSIG=
202202050500 METAR MROC 050500Z 09009G20KT 060V120 9999 FEW035 SCT070 21/16 A3008 NOSIG=
202202050600 METAR MROC 050600Z 06008KT 030V120 9999 FEW030 SCT060 21/16 A3007 NOSIG=
202202050700 METAR MROC 050700Z 00000KT 9999 FEW035 20/15 A3006 NOSIG=
202202050800 METAR MROC 050800Z 10009KT 9999 FEW030 20/14 A3003 NOSIG=
202202050900 METAR MROC 050900Z 11012KT 9999 FEW035 20/14 A3004 NOSIG=
202202051000 METAR MROC 051000Z 11011G23KT 9999 FEW035 20/15 A3003 NOSIG=
202202051100 METAR MROC 051100Z 11010KT 080V150 CAVOK 20/14 A3005 NOSIG=
202202051200 METAR MROC 051200Z 08011KT 050V130 9999 FEW045 19/14 A3006 NOSIG=
202202051300 METAR MROC 051300Z 10011KT 9999 FEW045 20/14 A3006 NOSIG=
202202051400 METAR MROC 051400Z 10016G27KT CAVOK 22/14 A3008 NOSIG=
202202051500 METAR MROC 051500Z 11019KT CAVOK 23/13 A3008 NOSIG=
202202051600 METAR MROC 051600Z 11017KT CAVOK 25/11 A3007 NOSIG=
202202051700 METAR MROC 051700Z 10018KT CAVOK 26/10 A3005 NOSIG=
202202051800 METAR MROC 051800Z 10018KT CAVOK 27/08 A3002 NOSIG=
202202051900 METAR MROC 051900Z 08016KT 060V120 CAVOK 28/11 A3000 NOSIG=
202202052000 METAR MROC 052000Z 08019G30KT CAVOK 28/13 A2997 NOSIG=
202202052100 METAR MROC 052100Z 07018G28KT CAVOK 27/13 A2995 NOSIG=
202202052200 METAR MROC 052200Z 07018G30KT CAVOK 27/12 A2995 NOSIG=
202202052300 METAR MROC 052300Z 07016G28KT CAVOK 24/12 A2997 NOSIG=
202202060000 METAR MROC 060000Z 07017G27KT 9999 FEW040 23/12 A2998 NOSIG=
202202060100 METAR MROC 060100Z 08015G25KT CAVOK 22/13 A3000 NOSIG=
202202060200 METAR MROC 060200Z 11015KT CAVOK 21/13 A3001 NOSIG=
202202060300 METAR MROC 060300Z 11015KT CAVOK 21/14 A3002 NOSIG=
202202060400 METAR MROC 060400Z 11015G25KT CAVOK 21/13 A3003 NOSIG=
202202060500 METAR MROC 060500Z 10013KT CAVOK 20/14 A3004 NOSIG=
202202060600 METAR MROC 060600Z 09009KT 050V110 CAVOK 20/15 A3003 NOSIG=
202202060700 METAR MROC 060700Z 07008KT CAVOK 19/14 A3003 NOSIG=
202202060800 METAR MROC 060800Z 08007KT 360V130 CAVOK 19/13 A3000 NOSIG=
202202060900 METAR MROC 060900Z VRB02KT CAVOK 18/13 A2999 NOSIG=
202202061000 METAR MROC 061000Z VRB02KT CAVOK 18/13 A3001 NOSIG=
202202061100 METAR MROC 061100Z VRB02KT CAVOK 18/14 A3001 NOSIG=
202202061200 METAR MROC 061200Z 04003KT 350V140 CAVOK 18/13 A3001 NOSIG=
202202061300 METAR MROC 061300Z 10009G23KT 060V150 9999 FEW045 20/15 A3002 NOSIG=
202202061400 METAR MROC 061400Z 10014G24KT 9999 FEW045 22/15 A3004 NOSIG=
202202061500 METAR MROC 061500Z 10015G25KT 070V130 9999 FEW045 24/14 A3005 NOSIG=
202202061600 METAR MROC 061600Z 09017G28KT 9999 FEW045 25/14 A3005 NOSIG=
202202061700 METAR MROC 061700Z 08016G26KT 9999 FEW045 26/14 A3004 NOSIG=
202202061800 METAR MROC 061800Z 09013G23KT 050V110 9999 SCT045 27/13 A3002 NOSIG=
202202061900 METAR MROC 061900Z 09011G21KT 050V120 9999 FEW045 SCT060 27/13 A3000 NOSIG=
202202062000 METAR MROC 062000Z 10015G25KT 070V130 9999 FEW045 27/14 A2996 NOSIG=
202202062100 METAR MROC 062100Z 10015KT 070V130 9999 SCT045 27/15 A2994 NOSIG=
202202062200 METAR MROC 062200Z 09013KT 070V130 9999 SCT040 26/15 A2994 NOSIG=
202202062300 METAR MROC 062300Z 09011KT 9999 SCT040 25/14 A2995 NOSIG=
202202070000 METAR MROC 070000Z 10006KT 050V140 9999 FEW040 23/15 A2997 NOSIG=
202202070100 METAR MROC 070100Z 09010KT 9999 FEW030 22/16 A2999 NOSIG=
202202070200 METAR MROC 070200Z 08009KT 9999 FEW030 21/16 A3001 NOSIG=
202202070300 METAR MROC 070300Z 10012KT 9999 FEW030 21/16 A3002 NOSIG=
202202070400 METAR MROC 070400Z 11012KT 080V140 CAVOK 20/16 A3004 NOSIG=
202202070500 METAR MROC 070500Z 11011KT CAVOK 20/15 A3004 NOSIG=
202202070600 METAR MROC 070600Z 09009KT 070V130 CAVOK 20/15 A3005 NOSIG=
202202070700 METAR MROC 070700Z 06009KT CAVOK 19/15 A3002 NOSIG=
202202070800 METAR MROC 070800Z 08011KT CAVOK 19/15 A3001 NOSIG=
202202070900 METAR MROC 070900Z 07010KT CAVOK 19/14 A3000 NOSIG=
202202071000 METAR MROC 071000Z 06006KT 360V100 CAVOK 18/14 A3001 NOSIG=
202202071100 METAR MROC 071100Z 04006KT 360V120 CAVOK 18/13 A3002 NOSIG=
202202071200 METAR MROC 071200Z 07006KT 9999 FEW035 19/14 A3003 NOSIG=
202202071300 METAR MROC 071300Z 09005KT 040V140 9999 FEW035 21/13 A3005 NOSIG=
202202071400 METAR MROC 071400Z 10014KT 9999 FEW040 22/14 A3006 NOSIG=
202202071500 METAR MROC 071500Z 10013KT 070V140 CAVOK 24/14 A3006 NOSIG=
202202071600 METAR MROC 071600Z 11015G25KT CAVOK 26/13 A3005 NOSIG=
202202071700 METAR MROC 071700Z 11015KT 070V140 CAVOK 27/13 A3004 NOSIG=
202202071800 METAR MROC 071800Z 11011KT 070V160 9999 FEW045 28/14 A3001 NOSIG=
202202071900 METAR MROC 071900Z 11010KT 060V140 9999 FEW040 29/13 A2998 NOSIG=
202202072000 METAR MROC 072000Z 11008KT 070V140 9999 FEW045 29/13 A2995 NOSIG=
202202072100 METAR MROC 072100Z 24010KT 9999 BKN045 26/17 A2994 NOSIG=
202202072200 METAR MROC 072200Z 25010KT 220V280 9999 SCT045 25/17 A2994 NOSIG=
202202072300 METAR MROC 072300Z 23007KT 9999 SCT040 25/17 A2996 BECMG 10005KT=
202202080000 METAR MROC 080000Z 20005KT 160V240 9999 FEW035 SCT060 23/16 A2997 NOSIG=
202202080100 METAR MROC 080100Z 10006KT CAVOK 22/16 A2998 NOSIG=
202202080200 METAR MROC 080200Z 11007KT CAVOK 21/17 A3002 NOSIG=
202202080300 METAR MROC 080300Z 09004KT 070V130 CAVOK 21/17 A3005 NOSIG=
202202080400 METAR MROC 080400Z 08006KT CAVOK 20/17 A3005 NOSIG=
202202080500 METAR MROC 080500Z 09007KT 9999 FEW035 20/16 A3005 NOSIG=
202202080600 METAR MROC 080600Z 07006KT CAVOK 20/16 A3004 NOSIG=
202202080700 METAR MROC 080700Z 08005KT 060V120 CAVOK 20/16 A3002 NOSIG=
202202080800 METAR MROC 080800Z 09009KT CAVOK 20/16 A3000 NOSIG=
202202080900 METAR MROC 080900Z 06008KT 020V080 CAVOK 20/16 A2999 NOSIG=
202202081000 METAR MROC 081000Z 05007KT 020V090 CAVOK 20/15 A2999 NOSIG=
202202081100 METAR MROC 081100Z 10008KT 060V120 CAVOK 19/16 A3001 NOSIG=
202202081200 METAR MROC 081200Z 05004KT 020V080 9999 FEW025 18/15 A3001 NOSIG=
202202081300 METAR MROC 081300Z 10010KT 070V130 CAVOK 21/15 A3003 NOSIG=
202202081400 METAR MROC 081400Z 10013KT 080V140 CAVOK 22/14 A3006 NOSIG=
202202081500 METAR MROC 081500Z 11011G22KT 080V150 CAVOK 25/15 A3007 NOSIG=
202202081600 METAR MROC 081600Z 10014KT 070V130 CAVOK 26/15 A3006 NOSIG=
202202081700 METAR MROC 081700Z 11011KT 080V150 9999 FEW045 28/15 A3004 NOSIG=
202202081800 METAR MROC 081800Z 10011KT 070V140 9999 FEW045 28/14 A3001 NOSIG=
202202081900 METAR MROC 081900Z 13005KT 080V190 9999 BKN040 28/14 A2998 NOSIG=
202202082000 METAR MROC 082000Z 15007KT 120V190 9999 BKN035 27/15 A2996 NOSIG=
202202082100 METAR MROC 082100Z 22008KT 9999 VCSH FEW025TCU FEW035 BKN050 24/18 A2996 NOSIG=
202202082200 METAR MROC 082200Z 23006KT 200V260 9999 FEW030 BKN060 23/19 A2996 NOSIG=
202202082300 METAR MROC 082300Z 36006KT 9999 FEW030 SCT060 BKN090 23/18 A2997 NOSIG=
202202090000 METAR MROC 090000Z 12006KT 080V170 9999 FEW045 SCT070 BKN180 23/16 A2998 NOSIG=
202202090100 METAR MROC 090100Z 10008KT 070V130 9999 FEW035 SCT090 BKN200 22/16 A3000 NOSIG=
202202090200 METAR MROC 090200Z 10009KT 9999 FEW035 SCT110 22/16 A3003 NOSIG=
202202090300 METAR MROC 090300Z 10008KT 080V140 9999 FEW035 21/16 A3005 NOSIG=
202202090400 METAR MROC 090400Z 10010KT 9999 FEW035 21/14 A3005 NOSIG=
202202090500 METAR MROC 090500Z 10010KT 080V140 9999 FEW035 20/15 A3004 NOSIG=
202202090600 METAR MROC 090600Z 05010KT 9999 FEW035 20/14 A3003 NOSIG=
202202090700 METAR MROC 090700Z 07009KT 040V100 CAVOK 20/13 A2999 NOSIG=
202202090800 METAR MROC 090800Z 08007KT 040V120 9999 FEW035 20/13 A2997 NOSIG=
202202090900 METAR MROC 090900Z 08007KT 040V120 9999 FEW035 20/14 A2997 NOSIG=
202202091000 METAR MROC 091000Z 07007KT 040V140 CAVOK 20/14 A2997 NOSIG=
202202091100 METAR MROC 091100Z 04006KT 360V070 CAVOK 19/14 A2998 NOSIG=
202202091200 METAR MROC 091200Z 06005KT 030V100 9999 FEW035 17/14 A3001 NOSIG=
202202091300 METAR MROC 091300Z 04006KT 9999 FEW035 20/14 A3003 NOSIG=
202202091400 METAR MROC 091400Z 10013G23KT 070V130 9999 FEW040 23/15 A3003 NOSIG=
202202091500 METAR MROC 091500Z 11014G24KT 9999 FEW045 24/14 A3004 NOSIG=
202202091600 METAR MROC 091600Z 09016G28KT 070V130 9999 FEW045 26/15 A3004 NOSIG=
202202091700 METAR MROC 091700Z 10015G25KT 060V130 9999 FEW045 27/15 A3002 NOSIG=
202202091800 METAR MROC 091800Z 10015G27KT CAVOK 27/15 A2999 NOSIG=
202202091900 METAR MROC 091900Z 10015G25KT 9999 FEW040 28/15 A2996 NOSIG=
202202092000 METAR MROC 092000Z 11013G23KT 9999 FEW040 28/15 A2993 NOSIG=
202202092100 METAR MROC 092100Z 10011KT 070V140 9999 FEW040 28/15 A2991 NOSIG=
202202092200 METAR MROC 092200Z 11012KT 080V140 9999 FEW025 SCT070 27/15 A2991 NOSIG=
202202092300 METAR MROC 092300Z 12011KT 9999 FEW025 24/16 A2992 NOSIG=
202202100000 METAR MROC 100000Z 12010KT 090V150 9999 FEW030 23/16 A2995 NOSIG=
202202100100 METAR MROC 100100Z 10009KT 080V140 9999 FEW035 SCT060 21/16 A2997 NOSIG=
202202100200 METAR MROC 100200Z 11008KT 9999 BKN040 22/16 A3001 NOSIG=
202202100300 METAR MROC 100300Z 11010KT 080V140 9999 FEW040 21/16 A3002 NOSIG=
202202100400 METAR MROC 100400Z 09008KT 060V130 CAVOK 21/16 A3003 NOSIG=
202202100500 METAR MROC 100500Z 09008KT CAVOK 20/16 A3002 NOSIG=
202202100600 METAR MROC 100600Z 03004KT 350V080 9999 BKN030 20/16 A3001 NOSIG=
202202100700 METAR MROC 100700Z 9999 BKN035 20/16 A2999 NOSIG=
202202100800 METAR MROC 100800Z COR 03006KT 9999 BKN035 20/15 A2997 NOSIG=
202202100900 METAR MROC 100900Z 02004KT 350V050 9999 FEW040 19/15 A2996 NOSIG=
202202101000 METAR MROC 101000Z 05009KT 030V090 9999 FEW040 20/16 A2997 NOSIG=
202202101100 METAR MROC 101100Z 02007KT 360V060 9999 FEW040 19/15 A2998 NOSIG=
202202101200 METAR MROC 101200Z 06007KT 010V120 CAVOK 19/16 A2999 NOSIG=
202202101300 METAR MROC 101300Z 08010G20KT 050V120 9999 FEW040 21/15 A3000 NOSIG=
202202101400 METAR MROC 101400Z 10015G28KT 070V130 9999 FEW040 22/15 A3001 NOSIG=
202202101500 METAR MROC 101500Z 10014G25KT 080V140 9999 FEW040 24/14 A3002 NOSIG=
202202101600 METAR MROC 101600Z 11014KT 080V140 9999 FEW045 26/14 A3003 NOSIG=
202202101700 METAR MROC 101700Z 10012KT 070V150 CAVOK 27/14 A3001 NOSIG=
202202101800 METAR MROC 101800Z 12011KT 080V170 CAVOK 28/16 A2997 NOSIG=
202202101900 METAR MROC 101900Z 14013KT 090V170 CAVOK 28/15 A2994 NOSIG=
202202102000 METAR MROC 102000Z 11010KT 080V140 9999 FEW045 28/16 A2991 NOSIG=
202202102100 METAR MROC 102100Z 11010KT 080V170 9999 FEW045 SCT090 27/16 A2990 NOSIG=
202202102200 METAR MROC 102200Z 12010KT 080V170 9999 SCT045 27/16 A2991 NOSIG=
202202102300 METAR MROC 102300Z 12011KT 090V150 CAVOK 25/16 A2992 NOSIG=
202202110000 METAR MROC 110000Z 12011KT 090V150 CAVOK 23/17 A2993 NOSIG=
202202110100 METAR MROC 110100Z 10007KT CAVOK 22/17 A2996 NOSIG=
202202110200 METAR MROC 110200Z 05007KT CAVOK 22/17 A2997 NOSIG=
202202110300 METAR MROC 110300Z 08008KT CAVOK 21/17 A2999 NOSIG=
202202110400 METAR MROC 110400Z 09010KT 050V120 9999 FEW045 SCT060 22/17 A2999 NOSIG=
202202110500 METAR MROC 110500Z 12010KT 9999 FEW045 SCT060 22/17 A2998 NOSIG=
202202110600 METAR MROC 110600Z 09012KT 060V120 CAVOK 22/18 A2997 NOSIG=
202202110700 METAR MROC 110700Z 09012KT 9999 FEW045 SCT060 21/18 A2995 NOSIG=
202202110800 METAR MROC 110800Z 06003KT 9999 FEW045 BKN060 21/17 A2993 NOSIG=
202202110900 METAR MROC 110900Z 12009KT 100V160 9999 FEW045 BKN060 21/17 A2992 NOSIG=
202202111000 METAR MROC 111000Z 11004KT 090V150 9999 FEW025 BKN060 23/17 A2993 NOSIG=
202202111100 METAR MROC 111100Z 09006KT 9999 FEW035 21/17 A2994 NOSIG=
202202111200 METAR MROC 111200Z 10011KT 9999 FEW030 SCT250 21/17 A2995 NOSIG=
202202111300 METAR MROC 111300Z 06008KT 9999 FEW030 SCT250 22/18 A2997 NOSIG=
202202111400 METAR MROC 111400Z 09011KT 050V130 9999 FEW025 SCT250 24/18 A2998 NOSIG=
202202111500 METAR MROC 111500Z 11014KT 9999 FEW030 SCT250 25/17 A2999 NOSIG=
202202111600 METAR MROC 111600Z 09017KT 9999 FEW035 SCT250 26/17 A2999 NOSIG=
202202111700 METAR MROC 111700Z 10016KT 9999 VCSH SCT035 28/18 A2997 NOSIG=
202202111800 METAR MROC 111800Z 11014KT 090V150 9999 SCT035 29/17 A2993 NOSIG=
202202111900 METAR MROC 111900Z 11011KT 070V150 9999 FEW030 BKN060 27/18 A2992 NOSIG=
202202112000 METAR MROC 112000Z 10018KT 9999 SCT030 BKN060 26/17 A2991 NOSIG=
202202112100 METAR MROC 112100Z 10016KT 9999 SCT030 BKN060 26/16 A2989 NOSIG=
202202112200 METAR MROC 112200Z 09017KT 9999 SCT030 26/14 A2989 NOSIG=
202202112300 METAR MROC 112300Z 08017G27KT 9999 SCT035 25/15 A2990 NOSIG=
202202120000 METAR MROC 120000Z 10014KT 9999 FEW035 BKN250 23/15 A2991 NOSIG=
202202120100 METAR MROC 120100Z 10016KT CAVOK 23/16 A2993 NOSIG=
202202120200 METAR MROC 120200Z 11014KT CAVOK 22/17 A2994 NOSIG=
202202120300 METAR MROC 120300Z 11012KT 360V140 CAVOK 22/16 A2996 NOSIG=
202202120400 METAR MROC 120400Z 10013KT 9999 FEW040 22/16 A2998 NOSIG=
202202120500 METAR MROC 120500Z 05006KT 020V090 9999 FEW045 22/16 A2998 NOSIG=
202202120600 METAR MROC 120600Z 10009KT 070V130 CAVOK 22/15 A2997 NOSIG=
202202120700 METAR MROC 120700Z 11012KT CAVOK 21/16 A2995 NOSIG=
202202120800 METAR MROC 120800Z 10011KT 060V140 CAVOK 21/16 A2994 NOSIG=
202202120900 METAR MROC 120900Z 05007KT 020V100 9999 FEW015 19/15 A2993 NOSIG=
202202121000 METAR MROC 121000Z 09011KT 050V140 9999 FEW015 20/15 A2993 NOSIG=
202202121100 METAR MROC 121100Z 12012KT 9999 FEW015 20/15 A2994 NOSIG=
202202121200 METAR MROC 121200Z 07005KT 350V160 9999 FEW020 BKN220 20/15 A2996 NOSIG=
202202121300 METAR MROC 121300Z 02007KT 340V060 CAVOK 20/14 A2998 NOSIG=
202202121400 METAR MROC 121400Z 11013KT CAVOK 24/16 A2999 NOSIG=
202202121500 METAR MROC 121500Z 10014KT CAVOK 25/14 A3000 NOSIG=
202202121600 METAR MROC 121600Z 10016KT CAVOK 28/12 A2999 NOSIG=
202202121700 METAR MROC 121700Z 10015G25KT 070V110 CAVOK 28/12 A2998 NOSIG=
202202121800 METAR MROC 121800Z 09016KT 060V120 CAVOK 29/13 A2996 NOSIG=
202202121900 METAR MROC 121900Z 09017G27KT CAVOK 28/14 A2994 NOSIG=
202202122000 METAR MROC 122000Z 07016KT 050V110 CAVOK 29/16 A2992 NOSIG=
202202122100 METAR MROC 122100Z 07017KT 9999 SCT040 28/17 A2990 NOSIG=
202202122200 METAR MROC 122200Z 08012KT 9999 SCT040 27/15 A2990 NOSIG=
202202122300 METAR MROC 122300Z 07021KT 9999 FEW040 BKN250 25/13 A2991 NOSIG=
202202130000 METAR MROC 130000Z 09015KT 9999 FEW040 BKN250 23/14 A2993 NOSIG=
202202130100 METAR MROC 130100Z 10010KT 070V130 9999 FEW035 22/16 A2996 NOSIG=
202202130200 METAR MROC 130200Z 10011KT 9999 FEW035 22/16 A2997 NOSIG=
202202130300 METAR MROC 130300Z 09010KT 9999 FEW030 22/15 A2999 NOSIG=
202202130400 METAR MROC 130400Z 08003KT 020V120 9999 FEW030 21/15 A3001 NOSIG=
202202130500 METAR MROC 130500Z VRB03KT 9999 FEW030 21/15 A2999 NOSIG=
202202130600 METAR MROC 130600Z 09010KT 070V130 9999 FEW030 21/15 A2998 NOSIG=
202202130700 METAR MROC 130700Z 09012KT 9999 FEW035 21/15 A2996 NOSIG=
202202130800 METAR MROC 130800Z 05007KT 9999 FEW040 20/15 A2995 NOSIG=
202202130900 METAR MROC 130900Z VRB02KT CAVOK 20/15 A2994 NOSIG=
202202131000 METAR MROC 131000Z 04006KT CAVOK 20/15 A2994 NOSIG=
202202131100 METAR MROC 131100Z 03006KT CAVOK 19/15 A2996 NOSIG=
202202131200 METAR MROC 131200Z VRB06KT CAVOK 19/14 A2997 NOSIG=
202202131300 METAR MROC 131300Z 11011G23KT 080V150 CAVOK 21/14 A2998 NOSIG=
202202131400 METAR MROC 131400Z 08009G19KT 360V130 CAVOK 25/13 A3000 NOSIG=
202202131500 METAR MROC 131500Z 11013G24KT CAVOK 27/12 A3000 NOSIG=
202202131600 METAR MROC 131600Z 11015G25KT 080V150 CAVOK 28/13 A3000 NOSIG=
202202131700 METAR MROC 131700Z 10016G26KT 9999 FEW045 SCT090 28/14 A2999 NOSIG=
202202131800 METAR MROC 131800Z 09010G20KT 9999 FEW035 BKN080 26/16 A2998 NOSIG=
202202131900 METAR MROC 131900Z 07015G25KT 9999 FEW035 BKN080 27/16 A2996 NOSIG=
202202132000 METAR MROC 132000Z 07016KT 9999 FEW035 BKN080 26/16 A2994 NOSIG=
202202132100 METAR MROC 132100Z 09013KT 9999 SCT035 BKN080 26/17 A2992 NOSIG=
202202132200 METAR MROC 132200Z 10013KT 070V130 9999 SCT030 BKN080 24/16 A2993 NOSIG=
202202132300 METAR MROC 132300Z 11014G24KT 9999 SCT030 SCT100 23/16 A2994 NOSIG=
202202140000 METAR MROC 140000Z 09015KT 9999 SCT030 23/16 A2996 NOSIG=
202202140100 METAR MROC 140100Z 10014KT 9999 FEW030 22/16 A2997 NOSIG=
202202140200 METAR MROC 140200Z 09017G28KT 9999 FEW030 22/16 A2999 NOSIG=
202202140300 METAR MROC 140300Z 09017G28KT 9999 FEW030 22/16 A3001 NOSIG=
202202140400 METAR MROC 140400Z 09016G26KT 9999 FEW030 21/17 A3003 NOSIG=
202202140500 METAR MROC NIL=
202202140600 METAR MROC 140600Z 10015KT CAVOK 20/14 A3001 NOSIG=
202202140700 METAR MROC 140700Z 10016KT CAVOK 21/16 A2997 NOSIG=
202202140800 METAR MROC 140800Z 10015KT 080V140 CAVOK 20/15 A2996 NOSIG=
202202140900 METAR MROC 140900Z 09015G25KT 060V120 CAVOK 20/15 A2997 NOSIG=
202202141000 METAR MROC 141000Z 09013KT CAVOK 20/15 A2996 NOSIG=
202202141100 METAR MROC 141100Z 10017G27KT CAVOK 20/14 A2998 NOSIG=
202202141200 METAR MROC 141200Z 11017G30KT CAVOK 20/15 A2999 NOSIG=
202202141300 METAR MROC 141300Z 11019G30KT 9999 FEW040 SCT300 21/15 A3002 NOSIG=
202202141400 METAR MROC 141400Z 11021G31KT 9999 FEW045 22/15 A3004 NOSIG=
202202141500 METAR MROC 141500Z 11019G30KT 9999 FEW045 24/15 A3005 NOSIG=
202202141600 METAR MROC 141600Z 09018KT 9999 FEW045 26/14 A3004 NOSIG=
202202141700 METAR MROC 141700Z 09021G31KT 9999 FEW040 26/15 A3003 NOSIG=
202202141800 METAR MROC 141800Z 10018KT 9999 FEW030 26/15 A3000 NOSIG=
202202141900 METAR MROC 141900Z 10016KT 070V130 9999 SCT030 27/16 A2998 NOSIG=
202202142000 METAR MROC 142000Z 10012KT 070V130 9999 FEW035 SCT070 28/16 A2996 NOSIG=
202202142100 METAR MROC 142100Z 10012KT 070V140 9999 FEW035 BKN070 25/16 A2995 NOSIG=
202202142200 METAR MROC 142200Z 08013KT 9999 FEW035 BKN060 25/17 A2995 NOSIG=
202202142300 METAR MROC 142300Z 09012G22KT 9999 FEW035 BKN090 24/15 A2996 NOSIG=
202202150000 METAR MROC 150000Z 09010G21KT 9999 FEW035 SCT100 22/16 A2996 NOSIG=
202202150100 METAR MROC 150100Z 11015KT 9999 FEW035 SCT100 21/16 A2999 NOSIG=
202202150200 METAR MROC 150200Z 11014G24KT 9999 FEW035 SCT090 21/16 A3001 NOSIG=
202202150300 METAR MROC 150300Z 10013G23KT 9999 FEW030 SCT090 21/17 A3001 NOSIG=
202202150400 METAR MROC 150400Z 10014G24KT 9999 FEW030 21/16 A3003 NOSIG=
202202150500 METAR MROC 150500Z 10012G22KT 070V130 9999 FEW030 21/16 A3003 NOSIG=
202202150600 METAR MROC 150600Z 10017G27KT 9999 FEW030 22/15 A3001 NOSIG=
202202150700 METAR MROC 150700Z 10018G29KT 9999 FEW030 21/16 A2999 NOSIG=
202202150800 METAR MROC 150800Z 09017G27KT 9999 FEW030 21/16 A2996 NOSIG=
202202150900 METAR MROC 150900Z 11018G28KT 9999 FEW030 20/15 A2996 NOSIG=
202202151000 METAR MROC 151000Z 11019G29KT 9999 FEW030 20/15 A2995 NOSIG=
202202151100 METAR MROC 151100Z 10019G29KT 9999 FEW030 21/15 A2997 NOSIG=
202202151200 METAR MROC 151200Z 10019G29KT 9999 FEW035 SCT250 21/14 A2999 NOSIG=
202202151300 METAR MROC 151300Z 10018KT 9999 FEW035 SCT250 21/15 A3001 NOSIG=
202202151400 METAR MROC 151400Z 09017KT 060V120 9999 FEW035 SCT200 23/14 A3003 NOSIG=
202202151500 METAR MROC 151500Z 09020G32KT 9999 FEW035 SCT140 24/15 A3006 NOSIG=
202202151600 METAR MROC 151600Z 09018G28KT 9999 FEW040 BKN140 25/16 A3007 NOSIG=
202202151700 METAR MROC 151700Z 09018G28KT 070V130 9999 FEW040 BKN140 25/15 A3006 NOSIG=
202202151800 METAR MROC 151800Z 08018G28KT 050V110 9999 FEW035 BKN140 26/15 A3003 NOSIG=
202202151900 METAR MROC 151900Z 08020G33KT 9999 FEW040 BKN100 26/15 A3000 NOSIG=
202202152000 METAR MROC 152000Z 09018G30KT 060V120 9999 FEW035 SCT120 26/15 A2996 NOSIG=
202202152100 METAR MROC 152100Z 09017G28KT 060V120 9999 FEW035 25/14 A2995 NOSIG=
202202152200 METAR MROC 152200Z 10019G30KT 9999 FEW035 25/14 A2995 NOSIG=
202202152300 METAR MROC 152300Z 09016G27KT 9999 FEW035 24/15 A2996 NOSIG=
202202160000 METAR MROC 160000Z 11014G24KT 9999 FEW035 SCT250 21/16 A2996 NOSIG=
202202160100 METAR MROC 160100Z 11015G25KT 9999 FEW035 SCT250 21/16 A2998 NOSIG=
202202160200 METAR MROC 160200Z 11017KT 9999 FEW035 21/16 A3000 NOSIG=
202202160300 METAR MROC 160300Z 11018G28KT 9999 FEW035 21/16 A3002 NOSIG=
202202160400 METAR MROC 160400Z 11017KT 9999 FEW035 21/16 A3003 NOSIG=
202202160500 METAR MROC 160500Z 11017KT 9999 FEW035 21/16 A3003 NOSIG=
202202160600 METAR MROC 160600Z 10015KT 9999 FEW035 21/15 A3002 NOSIG=
202202160700 METAR MROC 160700Z 11015KT 9999 FEW030 20/15 A3000 NOSIG=
202202160800 METAR MROC 160800Z 11016KT 9999 FEW015 20/15 A2999 NOSIG=
202202160900 METAR MROC 160900Z 11017KT 9999 FEW030 20/15 A2997 NOSIG=
202202161000 METAR MROC 161000Z 10016G26KT 9999 FEW040 21/14 A2999 NOSIG=
202202161100 METAR MROC 161100Z 10016G27KT CAVOK 20/14 A3000 NOSIG=
202202161200 METAR MROC 161200Z 10016G26KT 9999 FEW035 20/15 A3002 NOSIG=
202202161300 METAR MROC 161300Z 11015G25KT 9999 FEW040 21/14 A3005 NOSIG=
202202161400 METAR MROC 161400Z 11017G29KT 9999 FEW040 22/14 A3006 NOSIG=
202202161500 METAR MROC 161500Z 09022G32KT CAVOK 25/10 A3007 NOSIG=
202202161600 METAR MROC 161600Z 09018G28KT CAVOK 26/10 A3008 NOSIG=
202202161700 METAR MROC 161700Z 09021G31KT CAVOK 26/12 A3005 NOSIG=
202202161800 METAR MROC 161800Z 08020G31KT 9999 FEW030 27/13 A3004 NOSIG=
202202161900 METAR MROC 161900Z 09020G30KT CAVOK 26/14 A3000 NOSIG=
202202162000 METAR MROC 162000Z 08020G30KT CAVOK 25/14 A2999 NOSIG=
202202162100 METAR MROC 162100Z 08019G29KT 9999 FEW045 26/10 A2998 NOSIG=
202202162200 METAR MROC 162200Z 08016KT CAVOK 26/08 A2999 NOSIG=
202202162300 METAR MROC 162300Z 08017KT CAVOK 24/09 A2999 NOSIG=
202202170000 METAR MROC 170000Z 09013KT CAVOK 22/09 A3000 NOSIG=
202202170100 METAR MROC 170100Z 11012KT 080V140 CAVOK 21/11 A3002 NOSIG=
202202170200 METAR MROC 170200Z 11016KT CAVOK 21/12 A3003 NOSIG=
202202170300 METAR MROC 170300Z 10015KT CAVOK 22/09 A3004 NOSIG=
202202170400 METAR MROC 170400Z 10014KT CAVOK 20/11 A3005 NOSIG=
202202170500 METAR MROC 170500Z 11014G26KT CAVOK 19/13 A3005 NOSIG=
202202170600 METAR MROC 170600Z 11014KT CAVOK 20/12 A3004 NOSIG=
202202170700 METAR MROC 170700Z 11013KT CAVOK 19/11 A3002 NOSIG=
202202170800 METAR MROC 170800Z 12013KT CAVOK 19/12 A3000 NOSIG=
202202170900 METAR MROC 170900Z 11012KT CAVOK 19/12 A2998 NOSIG=
202202171000 METAR MROC 171000Z 11009KT 080V140 CAVOK 19/12 A2998 NOSIG=
202202171100 METAR MROC 171100Z VRB05KT CAVOK 18/12 A2999 NOSIG=
202202171200 METAR MROC 171200Z 11013KT CAVOK 19/12 A3000 NOSIG=
202202171300 METAR MROC 171300Z 11014KT CAVOK 20/12 A3001 NOSIG=
202202171400 METAR MROC 171400Z 11014KT CAVOK 23/11 A3003 NOSIG=
202202171500 METAR MROC 171500Z 11017G27KT CAVOK 26/10 A3004 NOSIG=
202202171600 METAR MROC 171600Z 10014KT CAVOK 27/10 A3004 NOSIG=
202202171700 METAR MROC 171700Z 11013KT 080V140 CAVOK 29/11 A3002 NOSIG=
202202171800 METAR MROC 171800Z 12013KT 080V150 CAVOK 29/13 A3000 NOSIG=
202202171900 METAR MROC 171900Z 11011KT 070V150 9999 FEW040 BKN250 29/13 A2997 NOSIG=
202202172000 METAR MROC 172000Z 11010KT 070V150 9999 FEW040 BKN250 29/14 A2996 NOSIG=
202202172100 METAR MROC 172100Z 11009KT 080V150 CAVOK 27/14 A2994 NOSIG=
202202172200 METAR MROC 172200Z 10007KT 060V140 CAVOK 27/14 A2993 NOSIG=
202202172300 METAR MROC 172300Z 10010KT 9999 FEW040 BKN250 26/14 A2994 NOSIG=
202202180000 METAR MROC 180000Z 12009KT 090V150 9999 FEW030 SCT250 24/16 A2996 NOSIG=
202202180100 METAR MROC 180100Z 11010KT 9999 FEW035 SCT250 22/16 A2999 NOSIG=
202202180200 METAR MROC 180200Z 10007KT 070V130 9999 FEW035 SCT250 22/16 A3001 NOSIG=
202202180300 METAR MROC 180300Z 10009KT 9999 FEW035 SCT250 21/15 A3003 NOSIG=
202202180400 METAR MROC 180400Z 08009KT 050V120 CAVOK 20/15 A3003 NOSIG=
202202180500 METAR MROC 180500Z 11010KT CAVOK 20/15 A3002 NOSIG=
202202180600 METAR MROC 180600Z 10010G20KT 070V130 CAVOK 20/15 A3000 NOSIG=
202202180700 METAR MROC 180700Z 05008KT 020V080 CAVOK 20/15 A2999 NOSIG=
202202180800 METAR MROC 180800Z 06007KT 020V120 CAVOK 20/16 A2997 NOSIG=
202202180900 METAR MROC 180900Z 06007KT 040V110 CAVOK 20/15 A2996 NOSIG=
202202181000 METAR MROC 181000Z 10013KT CAVOK 20/15 A2996 NOSIG=
202202181100 METAR MROC 181100Z 10013G23KT CAVOK 20/16 A2997 NOSIG=
202202181200 METAR MROC 181200Z 11013KT 080V140 CAVOK 20/15 A2998 NOSIG=
202202181300 METAR MROC 181300Z 10015KT 070V130 CAVOK 21/16 A3001 NOSIG=
202202181400 METAR MROC 181400Z 11014KT 090V150 CAVOK 24/16 A3002 NOSIG=
202202181500 METAR MROC 181500Z 11015G25KT 080V140 9999 FEW045 BKN250 25/15 A3003 NOSIG=
202202181600 METAR MROC 181600Z 10015G25KT 060V130 9999 FEW045 SCT250 27/15 A3004 NOSIG=
202202181700 METAR MROC 181700Z 08013G23KT 060V120 9999 FEW045 28/15 A3003 NOSIG=
202202181800 METAR MROC 181800Z 11010G21KT 040V160 9999 FEW045 28/15 A3000 NOSIG=
202202181900 METAR MROC 181900Z 12012KT 080V150 9999 FEW045 28/16 A2997 NOSIG=
202202182000 METAR MROC 182000Z 11011G22KT 070V150 9999 FEW045 29/16 A2994 NOSIG=
202202182100 METAR MROC 182100Z 11013KT 090V150 9999 FEW040 28/16 A2992 NOSIG=
202202182200 METAR MROC 182200Z 12010KT 090V160 9999 FEW035 27/17 A2992 NOSIG=
202202182300 METAR MROC 182300Z 13010KT 9999 FEW035 24/16 A2994 NOSIG=
202202190000 METAR MROC 190000Z 11013KT 180V140 9999 SCT030 23/16 A2996 NOSIG=
202202190100 METAR MROC 190100Z 11011KT 080V140 9999 FEW020 SCT080 22/16 A2999 NOSIG=
202202190200 METAR MROC 190200Z 09012KT 9999 FEW020 SCT080 22/15 A3002 NOSIG=
202202190300 METAR MROC 190300Z 09013G23KT 9999 FEW020 SCT080 22/13 A3004 NOSIG=
202202190400 METAR MROC 190400Z 10011G21KT 9999 FEW030 21/15 A3006 NOSIG=
202202190500 METAR MROC 190500Z 11015G25KT CAVOK 21/14 A3005 NOSIG=
202202190600 METAR MROC 190600Z 10014G24KT CAVOK 21/14 A3003 NOSIG=
202202190700 METAR MROC 190700Z 10011G21KT CAVOK 20/14 A3001 NOSIG=
202202190800 METAR MROC 190800Z 11017G29KT 080V140 CAVOK 20/14 A2997 NOSIG=
202202190900 METAR MROC 190900Z 11019G30KT 9999 FEW030 20/14 A2997 NOSIG=
202202191000 METAR MROC 191000Z 11019G29KT 9999 FEW030 20/11 A2997 NOSIG=
202202191100 METAR MROC 191100Z 12015KT CAVOK 19/13 A2998 NOSIG=
202202191200 METAR MROC 191200Z 11013G23KT CAVOK 19/13 A2999 NOSIG=
202202191300 METAR MROC 191300Z 11014G24KT 9999 FEW040 20/13 A3001 NOSIG=
202202191400 METAR MROC 191400Z 10015G25KT 9999 FEW045 22/14 A3004 NOSIG=
202202191500 METAR MROC 191500Z 10020G33KT 9999 FEW040 23/15 A3006 NOSIG=
202202191600 METAR MROC 191600Z 08022G33KT 9999 FEW045 25/10 A3005 NOSIG=
202202191700 METAR MROC 191700Z 10015G25KT 9999 FEW045 28/12 A3004 NOSIG=
202202191800 METAR MROC 191800Z 08021G31KT 9999 FEW045 27/11 A3002 NOSIG=
202202191900 METAR MROC 191900Z 07022KT 040V100 9999 FEW045 27/13 A3000 NOSIG=
202202192000 METAR MROC 192000Z 07020KT 9999 FEW045 SCT065 26/14 A2998 NOSIG=
202202192100 METAR MROC 192100Z 08017KT 9999 FEW040 26/14 A2996 NOSIG=
202202192200 METAR MROC 192200Z 08014KT 060V120 9999 SCT035 24/15 A2996 NOSIG=
202202192300 METAR MROC 192300Z 08014KT 9999 SCT030 23/15 A2997 NOSIG=
202202200000 METAR MROC 200000Z 09014KT 9999 SCT030 BKN200 22/14 A2999 NOSIG=
202202200100 METAR MROC 200100Z 09009KT 050V130 9999 FEW020 SCT200 21/14 A3002 NOSIG=
202202200200 METAR MROC 200200Z 11010KT CAVOK 20/14 A3004 NOSIG=
202202200300 METAR MROC 200300Z 09012KT CAVOK 20/14 A3005 NOSIG=
202202200400 METAR MROC 200400Z 08010KT 060V120 CAVOK 19/13 A3006 NOSIG=
202202200500 METAR MROC 200500Z 09011KT CAVOK 20/10 A3005 NOSIG=
202202200600 METAR MROC 200600Z 08013KT CAVOK 20/11 A3003 NOSIG=
202202200700 METAR MROC 200700Z 10009KT CAVOK 19/11 A3001 NOSIG=
202202200800 METAR MROC 200800Z 09016KT CAVOK 20/11 A2997 NOSIG=
202202200900 METAR MROC 200900Z 08017G27KT CAVOK 20/11 A2997 NOSIG=
202202201000 METAR MROC 201000Z 07013KT CAVOK 19/13 A2997 NOSIG=
202202201100 METAR MROC 201100Z 08016G26KT CAVOK 21/09 A2997 NOSIG=
202202201200 METAR MROC 201200Z 09015KT CAVOK 20/10 A2998 NOSIG=
202202201300 METAR MROC 201300Z 09018G30KT CAVOK 22/09 A3000 NOSIG=
202202201400 METAR MROC 201400Z 09021G31KT CAVOK 24/09 A3002 NOSIG=
202202201500 METAR MROC 201500Z 08020G35KT CAVOK 26/09 A3004 NOSIG=
202202201600 METAR MROC 201600Z 07030G40KT CAVOK 26/09 A3004 NOSIG=
202202201700 METAR MROC 201700Z 07025G37KT CAVOK 28/10 A3004 NOSIG=
202202201800 METAR MROC 201800Z 07023G35KT CAVOK 29/09 A3000 NOSIG=
202202201900 METAR MROC 201900Z 07021G34KT CAVOK 29/07 A2999 NOSIG=
202202202000 METAR MROC 202000Z 07021G31KT CAVOK 28/08 A2997 NOSIG=
202202202100 METAR MROC 202100Z 06023KT CAVOK 28/10 A2995 NOSIG=
202202202200 METAR MROC 202200Z 07018KT 040V100 CAVOK 28/08 A2995 NOSIG=
202202202300 METAR MROC 202300Z 06021KT CAVOK 26/07 A2996 NOSIG=
202202210000 METAR MROC 210000Z 06017KT CAVOK 24/07 A2998 NOSIG=
202202210100 METAR MROC 210100Z 06016KT CAVOK 22/10 A3000 NOSIG=
202202210200 METAR MROC 210200Z 06017KT CAVOK 21/11 A3002 NOSIG=
202202210300 METAR MROC 210300Z 08014KT CAVOK 21/12 A3004 NOSIG=
202202210400 METAR MROC 210400Z 08015KT CAVOK 20/12 A3005 NOSIG=
202202210500 METAR MROC 210500Z 09014KT CAVOK 21/10 A3004 NOSIG=
202202210600 METAR MROC 210600Z 09011KT CAVOK 20/10 A3003 NOSIG=
202202210700 METAR MROC 210700Z 10012KT CAVOK 19/10 A3001 NOSIG=
202202210800 METAR MROC 210800Z 09011KT CAVOK 20/11 A2999 NOSIG=
202202210900 METAR MROC 210900Z 10008KT 080V140 CAVOK 19/11 A2999 NOSIG=
202202211000 METAR MROC 211000Z 11008KT CAVOK 18/12 A2998 NOSIG=
202202211100 METAR MROC 211100Z 10009KT CAVOK 18/12 A2999 NOSIG=
202202211200 METAR MROC 211200Z 10010KT CAVOK 19/12 A3001 NOSIG=
202202211300 METAR MROC 211300Z 11010G20KT CAVOK 21/12 A3003 NOSIG=
202202211400 METAR MROC 211400Z 10010G20KT CAVOK 23/11 A3005 NOSIG=
202202211500 METAR MROC 211500Z 08017G27KT CAVOK 25/10 A3005 NOSIG=
202202211600 METAR MROC 211600Z 09020G30KT 060V120 CAVOK 27/12 A3005 NOSIG=
202202211700 METAR MROC 211700Z 08018G32KT 040V120 CAVOK 28/12 A3003 NOSIG=
202202211800 METAR MROC 211800Z 07020G30KT CAVOK 29/13 A3001 NOSIG=
202202211900 METAR MROC 211900Z 05017G27KT 9999 FEW045 29/13 A3000 NOSIG=
202202212000 METAR MROC 212000Z 06017G27KT 9999 FEW045 27/15 A2997 NOSIG=
202202212100 METAR MROC 212100Z 06025KT 9999 FEW045 27/14 A2996 NOSIG=
202202212200 METAR MROC 212200Z 06022KT 9999 FEW045 26/13 A2996 NOSIG=
202202212300 METAR MROC 212300Z 06021KT 9999 FEW045 24/13 A2996 NOSIG=
202202220000 METAR MROC 220000Z 09010KT CAVOK 23/14 A2999 NOSIG=
202202220100 METAR MROC 220100Z 10008KT 080V140 CAVOK 22/15 A3001 NOSIG=
202202220200 METAR MROC 220200Z 11011KT CAVOK 21/16 A3003 NOSIG=
202202220300 METAR MROC 220300Z 08012KT CAVOK 22/14 A3004 NOSIG=
202202220400 METAR MROC 220400Z 07015KT 9999 SCT030 21/12 A3007 NOSIG=
202202220500 METAR MROC 220500Z 10009KT 060V120 9999 BKN030 20/12 A3007 NOSIG=
202202220600 METAR MROC 220600Z 09011KT 060V120 CAVOK 20/13 A3004 NOSIG=
202202220700 METAR MROC 220700Z 10012KT CAVOK 20/12 A3000 NOSIG=
202202220800 METAR MROC 220800Z 09012KT CAVOK 19/12 A2997 NOSIG=
202202220900 METAR MROC 220900Z 10014G24KT CAVOK 20/11 A2995 NOSIG=
202202221000 METAR MROC 221000Z 10015G26KT CAVOK 20/10 A2995 NOSIG=
202202221100 METAR MROC 221100Z 09018G29KT CAVOK 21/11 A2996 NOSIG=
202202221200 METAR MROC 221200Z 09014KT CAVOK 19/13 A2999 NOSIG=
202202221300 METAR MROC 221300Z 10016KT CAVOK 21/13 A3000 NOSIG=
202202221400 METAR MROC 221400Z 10016G26KT 070V130 CAVOK 23/12 A3003 NOSIG=
202202221500 METAR MROC 221500Z 10019G29KT CAVOK 25/11 A3003 NOSIG=
202202221600 METAR MROC 221600Z 09018KT 060V120 CAVOK 27/11 A3004 NOSIG=
202202221700 METAR MROC 221700Z 09013KT 050V120 CAVOK 27/12 A3002 NOSIG=
202202221800 METAR MROC 221800Z 07014KT 050V110 9999 FEW045 29/14 A3000 NOSIG=
202202221900 METAR MROC 221900Z 08015KT 050V110 9999 FEW040 27/15 A2999 NOSIG=
202202222000 METAR MROC 222000Z 09015KT 9999 FEW045 28/12 A2996 NOSIG=
202202222100 METAR MROC 222100Z COR 08016G26KT 040V110 9999 FEW045 28/10 A2996 NOSIG=
202202222200 METAR MROC 222200Z 08015KT 9999 FEW045 27/11 A2996 NOSIG=
202202222300 METAR MROC 222300Z 10011KT 070V130 9999 FEW040 25/13 A2997 NOSIG=
202202230000 METAR MROC 230000Z 10012KT 9999 FEW040 23/12 A2999 NOSIG=
202202230100 METAR MROC 230100Z 10011KT CAVOK 22/14 A3000 NOSIG=
202202230200 METAR MROC 230200Z 11013KT CAVOK 21/14 A3003 NOSIG=
202202230300 METAR MROC 230300Z 11012KT CAVOK 21/15 A3004 NOSIG=
202202230400 METAR MROC 230400Z 10011G21KT CAVOK 20/15 A3005 NOSIG=
202202230500 METAR MROC 230500Z 11012G22KT CAVOK 20/15 A3004 NOSIG=
202202230600 METAR MROC 230600Z 11014G24KT CAVOK 20/15 A3003 NOSIG=
202202230700 METAR MROC 230700Z 10015G25KT CAVOK 20/15 A3001 NOSIG=
202202230800 METAR MROC 230800Z 10016G26KT 070V130 CAVOK 20/15 A2998 NOSIG=
202202230900 METAR MROC 230900Z 10018G28KT CAVOK 20/14 A2997 NOSIG=
202202231000 METAR MROC 231000Z 11015KT CAVOK 19/14 A2997 NOSIG=
202202231100 METAR MROC 231100Z 10014KT CAVOK 20/15 A2999 NOSIG=
202202231200 METAR MROC 231200Z 10014G24KT CAVOK 20/15 A3001 NOSIG=
202202231300 METAR MROC 231300Z 11014KT 9999 FEW035 21/15 A3003 NOSIG=
202202231400 METAR MROC 231400Z 11017KT 9999 FEW030 23/15 A3005 NOSIG=
202202231500 METAR MROC 231500Z 10020G33KT 9999 FEW040 24/15 A3006 NOSIG=
202202231600 METAR MROC 231600Z 10017G28KT 070V130 9999 FU FEW040 26/15 A3005 NOSIG=
202202231700 METAR MROC 231700Z 09015KT 060V130 9999 FEW040 27/15 A3003 NOSIG=
202202231800 METAR MROC 231800Z 09014KT 070V130 9999 FEW040 28/15 A3001 NOSIG=
202202231900 METAR MROC 231900Z 10014KT 060V160 9999 SCT035 28/15 A2999 NOSIG=
202202232000 METAR MROC 232000Z 10016KT 9999 SCT035 26/16 A2997 NOSIG=
202202232100 METAR MROC 232100Z 10017G27KT 070V130 9999 FEW040 26/14 A2996 NOSIG=
202202232200 METAR MROC 232200Z COR 09017G27KT 9999 FEW040 24/13 A2997 NOSIG=
202202232300 METAR MROC 232300Z COR 10017G27KT 9999 FEW040 23/11 A2998 NOSIG=
202202240000 METAR MROC 240000Z COR 11016G26KT 9999 FEW045 21/13 A2999 NOSIG=
202202240100 METAR MROC 240100Z COR 11017KT CAVOK 20/13 A3001 NOSIG=
202202240200 METAR MROC 240200Z COR 10015G26KT CAVOK 21/13 A3003 NOSIG=
202202240300 METAR MROC 240300Z COR 10017G27KT CAVOK 21/13 A3003 NOSIG=
202202240400 METAR MROC 240400Z 10016KT CAVOK 20/13 A3004 NOSIG=
202202240500 METAR MROC 240500Z 10012KT CAVOK 20/12 A3003 NOSIG=
202202240600 METAR MROC 240600Z 10014KT CAVOK 20/11 A3001 NOSIG=
202202240700 METAR MROC 240700Z 11015KT CAVOK 20/11 A2999 NOSIG=
202202240800 METAR MROC 240800Z 11012G23KT CAVOK 19/12 A2999 NOSIG=
202202240900 METAR MROC 240900Z 12012KT CAVOK 19/12 A2997 NOSIG=
202202241000 METAR MROC 241000Z 11010KT CAVOK 19/12 A2996 NOSIG=
202202241100 METAR MROC 241100Z 12010KT CAVOK 19/14 A2998 NOSIG=
202202241200 METAR MROC 241200Z 11009KT 080V140 CAVOK 19/14 A3001 NOSIG=
202202241300 METAR MROC 241300Z 10012KT 070V130 9999 FEW045 20/14 A3003 NOSIG=
202202241400 METAR MROC 241400Z 11014KT CAVOK 23/13 A3004 NOSIG=
202202241500 METAR MROC 241500Z 09017G27KT 9999 FEW045 25/13 A3006 NOSIG=
202202241600 METAR MROC 241600Z 09017KT CAVOK 27/12 A3006 NOSIG=
202202241700 METAR MROC 241700Z 07021G31KT CAVOK 28/12 A3003 NOSIG=
202202241800 METAR MROC 241800Z COR 07021KT 9999 FEW040 29/13 A3000 NOSIG=
202202241900 METAR MROC 241900Z COR 08020KT 060V120 9999 FEW040 28/12 A2998 NOSIG=
202202242000 METAR MROC 242000Z 07019G29KT 9999 FEW035 28/12 A2995 NOSIG=
202202242100 METAR MROC 242100Z 07022G33KT 9999 FEW040 29/13 A2993 NOSIG=
202202242200 METAR MROC 242200Z 07021G31KT 9999 FEW040 27/13 A2993 NOSIG=
202202242300 METAR MROC 242300Z 06018G28KT 9999 FEW040 26/11 A2995 NOSIG=
202202250000 METAR MROC 250000Z 09013KT 050V130 9999 FEW040 23/12 A2997 NOSIG=
202202250100 METAR MROC 250100Z 10010KT CAVOK 22/11 A2998 NOSIG=
202202250200 METAR MROC 250200Z 10015KT CAVOK 22/12 A3001 NOSIG=
202202250300 METAR MROC 250300Z 11017KT CAVOK 21/12 A3003 NOSIG=
202202250400 METAR MROC 250400Z 11014KT CAVOK 21/12 A3004 NOSIG=
202202250500 METAR MROC 250500Z 11011KT CAVOK 20/12 A3003 NOSIG=
202202250600 METAR MROC 250600Z 11012KT CAVOK 20/11 A3003 NOSIG=
202202250700 METAR MROC 250700Z 12009KT 090V170 CAVOK 20/10 A3000 NOSIG=
202202250800 METAR MROC 250800Z 12011KT CAVOK 19/11 A2999 NOSIG=
202202250900 METAR MROC 250900Z 12010G20KT 070V140 CAVOK 20/11 A2999 NOSIG=
202202251000 METAR MROC 251000Z 11010KT CAVOK 19/12 A2999 NOSIG=
202202251100 METAR MROC 251100Z 11014KT CAVOK 20/12 A3000 NOSIG=
202202251200 METAR MROC 251200Z 11016KT 9999 FEW035 20/14 A3003 NOSIG=
202202251300 METAR MROC 251300Z 09018G28KT CAVOK 21/14 A3004 NOSIG=
202202251400 METAR MROC 251400Z 11020G30KT 070V130 9999 FEW040 21/14 A3005 NOSIG=
202202251500 METAR MROC 251500Z 09024G34KT 9999 FEW040 24/13 A3007 NOSIG=
202202251600 METAR MROC 251600Z 08020G30KT 9999 FEW045 25/12 A3007 NOSIG=
202202251700 METAR MROC 251700Z 07022G35KT 9999 FEW045 27/13 A3005 NOSIG=
202202251800 METAR MROC 251800Z 08020G31KT CAVOK 27/13 A3003 NOSIG=
202202251900 METAR MROC 251900Z 08015G25KT 050V110 9999 FEW045 28/13 A3001 NOSIG=
202202252000 METAR MROC 252000Z 07018G28KT 9999 FEW045 28/13 A2998 NOSIG=
202202252100 METAR MROC 252100Z 08016G26KT 9999 FEW045 27/13 A2996 NOSIG=
202202252200 METAR MROC 252200Z 07016KT 9999 FEW045 28/13 A2996 NOSIG=
202202252300 METAR MROC 252300Z 08014G24KT 9999 FEW040 25/12 A2997 NOSIG=
202202260000 METAR MROC 260000Z 08015KT 9999 FEW040 23/13 A2999 NOSIG=
202202260100 METAR MROC 260100Z 08014KT CAVOK 22/15 A3001 NOSIG=
202202260200 METAR MROC 260200Z 08014G24KT CAVOK 22/15 A3003 NOSIG=
202202260300 METAR MROC 260300Z 09015G25KT CAVOK 22/14 A3004 NOSIG=
202202260400 METAR MROC 260400Z 10012G22KT 9999 FEW030 20/14 A3005 NOSIG=
202202260500 METAR MROC 260500Z 10013G23KT CAVOK 20/14 A3005 NOSIG=
202202260600 METAR MROC 260600Z 10011KT CAVOK 20/12 A3004 NOSIG=
202202260700 METAR MROC 260700Z 11013KT CAVOK 20/11 A3002 NOSIG=
202202260800 METAR MROC 260800Z 11015KT CAVOK 20/09 A3001 NOSIG=
202202260900 METAR MROC 260900Z 11015G25KT 090V150 CAVOK 20/09 A3000 NOSIG=
202202261000 METAR MROC 261000Z 11015KT CAVOK 19/10 A3001 NOSIG=
202202261100 METAR MROC 261100Z 11015KT CAVOK 19/11 A3003 NOSIG=
202202261200 METAR MROC 261200Z 11013KT 080V140 CAVOK 19/12 A3004 NOSIG=
202202261300 METAR MROC 261300Z 11016G26KT CAVOK 20/14 A3006 NOSIG=
202202261400 METAR MROC 261400Z 11016KT CAVOK 22/15 A3007 NOSIG=
202202261500 METAR MROC 261500Z 11018KT CAVOK 23/15 A3009 NOSIG=
202202261600 METAR MROC 261600Z 10018KT 9999 FEW045 25/15 A3009 NOSIG=
202202261700 METAR MROC 261700Z 11015G25KT 080V140 9999 FEW045 26/15 A3008 NOSIG=
202202261800 METAR MROC 261800Z 10018G28KT 9999 FEW045 26/14 A3006 NOSIG=
202202261900 METAR MROC 261900Z 10018KT 080V140 9999 FEW045 26/13 A3003 NOSIG=
202202262000 METAR MROC 262000Z 10017G27KT 9999 FEW045 25/13 A3001 NOSIG=
202202262100 METAR MROC 262100Z 10018KT 9999 FEW045 25/14 A3000 NOSIG=
202202262200 METAR MROC 262200Z 09017KT CAVOK 24/12 A3000 RMK FU TO S - FEW050 NOSIG=
202202262300 METAR MROC 262300Z 10014KT CAVOK 24/11 A3002 NOSIG=
202202270000 METAR MROC 270000Z 10015KT CAVOK 22/13 A3003 NOSIG=
202202270100 METAR MROC 270100Z 10012KT 9999 FEW045 21/14 A3005 NOSIG=
202202270200 METAR MROC 270200Z 10012KT 070V130 9999 FEW040 20/14 A3007 NOSIG=
202202270300 METAR MROC 270300Z 11013KT CAVOK 20/12 A3008 NOSIG=
202202270400 METAR MROC 270400Z 11012G22KT CAVOK 20/11 A3008 NOSIG=
202202270500 METAR MROC 270500Z 11014G24KT CAVOK 20/10 A3008 NOSIG=
202202270600 METAR MROC 270600Z 09013G23KT 060V120 CAVOK 20/11 A3006 NOSIG=
202202270700 METAR MROC 270700Z 10015G25KT CAVOK 21/09 A3004 NOSIG=
202202270800 METAR MROC 270800Z 10010G20KT 080V140 CAVOK 19/10 A3003 NOSIG=
202202270900 METAR MROC 270900Z 10012KT CAVOK 19/10 A3003 NOSIG=
202202271000 METAR MROC 271000Z 11013KT CAVOK 18/09 A3003 NOSIG=
202202271100 METAR MROC 271100Z 11013KT CAVOK 18/09 A3004 NOSIG=
202202271200 METAR MROC 271200Z 11013G23KT CAVOK 18/09 A3006 NOSIG=
202202271300 METAR MROC 271300Z 12013KT CAVOK 19/09 A3008 NOSIG=
202202271400 METAR MROC 271400Z 11013KT CAVOK 22/08 A3009 NOSIG=
202202271500 METAR MROC 271500Z 11015KT CAVOK 25/10 A3009 NOSIG=
202202271600 METAR MROC 271600Z 09015KT CAVOK 26/10 A3009 NOSIG=
202202271700 METAR MROC 271700Z 10014KT 060V130 9999 FEW040 SCT210 27/10 A3006 NOSIG=
202202271800 METAR MROC 271800Z 09013KT 060V130 9999 FEW045 SCT210 28/12 A3003 NOSIG=
202202271900 METAR MROC 271900Z 09012KT 050V130 9999 FEW040 SCT220 28/13 A3000 NOSIG=
202202272000 METAR MROC 272000Z 10013KT 060V130 9999 FEW040 BKN220 28/13 A2997 NOSIG=
202202272100 METAR MROC 272100Z 08013KT 050V110 CAVOK 28/14 A2994 NOSIG=
202202272200 METAR MROC 272200Z 09012KT 060V120 9999 FEW040 BKN250 27/14 A2995 NOSIG=
202202272300 METAR MROC 272300Z 10014G24KT 070V130 9999 FEW040 BKN250 24/15 A2996 NOSIG=
202202280000 METAR MROC 280000Z 11012KT 080V140 9999 FEW030 BKN250 22/16 A2998 NOSIG=
202202280100 METAR MROC 280100Z 10011KT 9999 FEW030 BKN250 21/16 A3000 NOSIG=
202202280200 METAR MROC 280200Z 10009KT 9999 FEW030 20/15 A3003 NOSIG=
202202280300 METAR MROC 280300Z 09008KT 060V140 9999 FEW030 20/14 A3005 NOSIG=
202202280400 METAR MROC 280400Z 06010KT 030V090 CAVOK 20/14 A3007 NOSIG=
202202280500 METAR MROC 280500Z 11011G21KT CAVOK 20/14 A3006 NOSIG=
202202280600 METAR MROC 280600Z 11011G21KT CAVOK 20/14 A3004 NOSIG=
202202280700 METAR MROC 280700Z 11010G20KT CAVOK 20/14 A3002 NOSIG=
202202280800 METAR MROC 280800Z 11010G20KT 070V130 CAVOK 19/14 A3001 NOSIG=
202202280900 METAR MROC 280900Z 05008KT 030V090 CAVOK 19/13 A3000 NOSIG=
202202281000 METAR MROC 281000Z 08013KT 040V140 CAVOK 19/14 A3001 NOSIG=
202202281100 METAR MROC 281100Z 08008G18KT 050V140 CAVOK 19/14 A3002 NOSIG=
202202281200 METAR MROC 281200Z 11010G20KT 9999 FEW040 19/14 A3003 NOSIG=
202202281300 METAR MROC 281300Z 11012KT 070V140 CAVOK 20/13 A3006 NOSIG=
202202281400 METAR MROC 281400Z 11013KT 080V150 CAVOK 23/13 A3006 NOSIG=
202202281500 METAR MROC 281500Z 11015G25KT 080V140 CAVOK 26/10 A3007 NOSIG=
202202281600 METAR MROC 281600Z 09016G26KT CAVOK 27/10 A3007 NOSIG=
202202281700 METAR MROC 281700Z 10014KT 070V130 CAVOK 27/11 A3005 NOSIG=
202202281800 METAR MROC 281800Z 10013KT 070V140 CAVOK 28/13 A3001 NOSIG=
202202281900 METAR MROC 281900Z 10013KT 070V130 9999 FEW045 28/13 A2999 NOSIG=
202202282000 METAR MROC 282000Z 11014G24KT 080V150 9999 FEW040 28/13 A2996 NOSIG=
202202282100 METAR MROC 282100Z 10015KT 080V140 9999 FEW040 27/13 A2995 NOSIG=
202202282200 METAR MROC 282200Z 11012KT 080V150 9999 FEW045 26/14 A2994 NOSIG=
202202282300 METAR MROC 282300Z 11013KT 080V140 9999 FEW045 24/14 A2996 NOSIG=
202203010000 METAR MROC 010000Z 11010KT 080V140 9999 FEW045 22/15 A2998 NOSIG=
202203010100 METAR MROC 010100Z 12011KT 090V150 9999 FEW045 21/15 A3000 NOSIG=
202203010200 METAR MROC 010200Z 11015KT 080V140 CAVOK 21/13 A3003 NOSIG=
202203010300 METAR MROC 010300Z 11014KT 080V140 CAVOK 20/14 A3005 NOSIG=
202203010400 METAR MROC 010400Z 10013KT 070V130 CAVOK 20/14 A3006 NOSIG=
202203010500 METAR MROC 010500Z 10014KT 080V140 CAVOK 20/13 A3005 NOSIG=
202203010600 METAR MROC 010600Z 10011KT CAVOK 19/13 A3004 NOSIG=
202203010700 METAR MROC 010700Z 09012KT 060V120 CAVOK 19/13 A3001 NOSIG=
202203010800 METAR MROC 010800Z 07010KT 030V110 CAVOK 19/12 A3000 NOSIG=
202203010900 METAR MROC 010900Z 10011G21KT 070V130 CAVOK 19/12 A2998 NOSIG=
202203011000 METAR MROC 011000Z 11014KT 070V140 CAVOK 19/12 A2998 NOSIG=
202203011100 METAR MROC 011100Z 11014KT 080V140 CAVOK 19/11 A2998 NOSIG=
202203011200 METAR MROC 011200Z 11016G28KT 080V140 CAVOK 20/11 A3000 NOSIG=
202203011300 METAR MROC 011300Z 11015G25KT 080V140 CAVOK 21/12 A3003 NOSIG=
202203011400 METAR MROC 011400Z 10015G29KT 080V140 CAVOK 22/13 A3003 NOSIG=
202203011500 METAR MROC 011500Z 10016G31KT 070V130 CAVOK 24/13 A3005 NOSIG=
202203011600 METAR MROC 011600Z 10016G30KT 070V140 CAVOK 26/13 A3004 NOSIG=
202203011700 METAR MROC 011700Z 10013G25KT CAVOK 27/14 A3004 NOSIG=
202203011800 METAR MROC 011800Z 10012G22KT 070V150 9999 FEW045 27/14 A3001 WS R07 NOSIG=
202203011900 METAR MROC 011900Z 10014G24KT 070V130 CAVOK 28/15 A2999 WS R07 NOSIG=
202203012000 METAR MROC 012000Z 10011G21KT 060V140 9999 FEW045 SCT080 26/14 A2997 NOSIG=
202203012100 METAR MROC 012100Z 09011KT 060V130 9999 FEW035 BKN070 25/15 A2995 NOSIG=
202203012200 METAR MROC 012200Z 10012KT 9999 FEW035 BKN070 24/14 A2996 NOSIG=
202203012300 METAR MROC 012300Z 11009KT 080V140 9999 FEW030 BKN070 23/13 A2998 NOSIG=
202203020000 METAR MROC 020000Z 10003KT 030V170 9999 SCT040 BKN090 22/13 A3000 NOSIG=
202203020100 METAR MROC 020100Z 11013KT 9999 FEW040 SCT090 22/12 A3002 NOSIG=
202203020200 METAR MROC 020200Z 11014KT 9999 FEW048 21/15 A3003 NOSIG=
202203020300 METAR MROC 020300Z 10014KT CAVOK 20/15 A3004 NOSIG=
202203020400 METAR MROC 020400Z 08014KT 040V120 CAVOK 21/14 A3005 NOSIG=
202203020500 METAR MROC 020500Z 10015G28KT CAVOK 21/15 A3004 NOSIG=
202203020600 METAR MROC 020600Z 10013KT CAVOK 21/14 A3003 NOSIG=
202203020700 METAR MROC 020700Z 10015KT 080V140 CAVOK 21/13 A3000 NOSIG=
202203020800 METAR MROC 020800Z 10013KT CAVOK 20/14 A2999 NOSIG=
202203020900 METAR MROC 020900Z 09011KT 050V120 CAVOK 20/14 A2999 NOSIG=
202203021000 METAR MROC 021000Z 12013KT CAVOK 20/14 A2998 NOSIG=
202203021100 METAR MROC 021100Z 11014KT 070V130 CAVOK 20/15 A2999 NOSIG=
202203021200 METAR MROC 021200Z 11015G25KT CAVOK 21/14 A3000 NOSIG=
202203021300 METAR MROC 021300Z 10017G27KT CAVOK 21/15 A3003 NOSIG=
202203021400 METAR MROC 021400Z 11019G30KT 9999 FEW045 22/15 A3005 NOSIG=
202203021500 METAR MROC 021500Z 09020G31KT 9999 FEW045 24/14 A3007 NOSIG=
202203021600 METAR MROC 021600Z 10020G31KT 9999 FEW045 25/14 A3007 NOSIG=
202203021700 METAR MROC 021700Z 08018KT 9999 FEW045 26/14 A3006 NOSIG=
202203021800 METAR MROC 021800Z 09017KT 060V120 9999 FEW040 27/13 A3004 NOSIG=
202203021900 METAR MROC 021900Z 09015G25KT 060V140 9999 FEW040 28/13 A3007 NOSIG=
202203022000 METAR MROC 022000Z 09014KT 060V140 9999 FEW045 28/14 A2999 NOSIG=
202203022100 METAR MROC 022100Z 08015KT 9999 FEW045 27/13 A2997 NOSIG=
202203022200 METAR MROC 022200Z 08015KT 060V120 9999 SCT048 26/16 A2997 NOSIG=
202203022300 METAR MROC 022300Z 09016KT 9999 FEW045 SCT060 24/14 A2999 NOSIG=
202203030000 METAR MROC 030000Z 11014G25KT 9999 FEW045 22/15 A3000 NOSIG=
202203030100 METAR MROC 030100Z 10014KT 9999 FEW040 21/15 A3002 NOSIG=
202203030200 METAR MROC 030200Z 11012G23KT 080V150 9999 SCT040 21/14 A3004 NOSIG=
202203030300 METAR MROC 030300Z 08014KT 050V110 9999 FEW045 20/16 A3007 NOSIG=
202203030400 METAR MROC 030400Z 08009G20KT 330V120 9999 FEW035 20/16 A3007 NOSIG=
202203030500 METAR MROC 030500Z 06008G22KT 010V130 9999 FEW035 20/16 A3008 NOSIG=
202203030600 METAR MROC 030600Z 10012G22KT 050V130 9999 FEW035 20/15 A3006 NOSIG=
202203030700 METAR MROC 030700Z 10010G22KT 050V140 9999 FEW035 20/15 A3003 NOSIG=
202203030800 METAR MROC 030800Z 07010G20KT 030V120 9999 FEW035 20/15 A3002 NOSIG=
202203030900 METAR MROC 030900Z 10015G26KT 9999 FEW035 20/16 A2999 NOSIG=
202203031000 METAR MROC 031000Z 10012G25KT 060V140 9999 FEW035 20/15 A3001 NOSIG=
202203031100 METAR MROC 031100Z 10015G27KT 9999 FEW035 20/14 A3001 NOSIG=
202203031200 METAR MROC 031200Z 06009G27KT 020V110 9999 FEW035 20/16 A3002 NOSIG=
202203031300 METAR MROC 031300Z 10017G27KT 9999 FEW035 21/16 A3002 NOSIG=
202203031400 METAR MROC 031400Z 11018KT 9999 FEW035 23/16 A3003 NOSIG=
202203031500 METAR MROC 031500Z 10015KT 080V140 9999 FEW035 SCT250 26/17 A3004 NOSIG=
202203031600 METAR MROC 031600Z 09013KT 060V130 9999 FEW035 SCT250 28/17 A3004 NOSIG=
202203031700 METAR MROC 031700Z 08014G24KT 040V130 9999 FEW045 SCT250 29/17 A3004 NOSIG=
202203031800 METAR MROC 031800Z 08011G21KT 040V130 9999 SCT045 SCT250 28/17 A3001 NOSIG=
202203031900 METAR MROC 031900Z 10016KT 9999 SCT045 27/17 A2999 NOSIG=
202203032000 METAR MROC 032000Z 10013KT 070V140 9999 SCT040 27/17 A2995 NOSIG=
202203032100 METAR MROC 032100Z 10012KT 9999 FEW030 BKN065 27/17 A2994 NOSIG=
202203032200 METAR MROC 032200Z 12010KT 080V160 9999 VCSH SCT030 BKN060 26/18 A2995 NOSIG=
202203032300 METAR MROC 032300Z 12008KT 060V170 9999 FEW025 BKN060 24/18 A2997 NOSIG=
202203040000 METAR MROC 040000Z 11006KT 080V150 9999 RA SCT020 BKN060 22/19 A2999 NOSIG=
202203040100 METAR MROC 040100Z VRB02KT 9999 FEW025 BKN065 21/19 A3000 NOSIG=
202203040200 METAR MROC 040200Z VRB02KT 9999 FEW030 SCT070 21/18 A3003 NOSIG=
202203040300 METAR MROC 040300Z 07008KT 9999 FEW030 SCT080 21/18 A3004 NOSIG=
202203040400 METAR MROC 040400Z 11010G20KT 070V140 9999 FEW030 SCT080 22/18 A3004 NOSIG=
202203040500 METAR MROC 040500Z 11013KT 080V140 9999 FEW030 SCT080 22/18 A3004 NOSIG=
202203040600 METAR MROC 040600Z 11012KT 9999 FEW030 SCT130 21/18 A3002 NOSIG=
202203040700 METAR MROC 040700Z VRB02KT 9999 FEW030 21/18 A3000 NOSIG=
202203040800 METAR MROC 040800Z 11014G24KT 9999 FEW035 21/18 A2996 NOSIG=
202203040900 METAR MROC 040900Z 11017G31KT 9999 FEW035 22/17 A2994 NOSIG=
202203041000 METAR MROC 041000Z 10013KT 9999 SCT040 22/17 A2997 NOSIG=
202203041100 METAR MROC 041100Z 05009KT 010V080 9999 FEW040 BKN140 22/17 A2999 NOSIG=
202203041200 METAR MROC 041200Z 10014KT 060V120 9999 FEW040 SCT070 BKN140 22/16 A3000 NOSIG=
202203041300 METAR MROC 041300Z 10010KT 060V130 9999 FEW030 BKN120 22/16 A3004 NOSIG=
202203041400 METAR MROC 041400Z 08016KT 9999 FEW030 BKN120 24/15 A3005 NOSIG=
202203041500 METAR MROC 041500Z 08019G30KT 060V120 9999 FEW040 25/13 A3007 NOSIG=
202203041600 METAR MROC 041600Z 08023G35KT 9999 FEW045 26/15 A3008 NOSIG=
202203041700 METAR MROC 041700Z 07023G34KT 040V100 9999 FEW040 26/13 A3007 NOSIG=
202203041800 METAR MROC 041800Z 07023G33KT 9999 FEW030 SCT120 27/13 A3005 NOSIG=
202203041900 METAR MROC 041900Z 07020G30KT 040V100 9999 SCT040 26/14 A3002 NOSIG=
202203042000 METAR MROC 042000Z 07020G32KT 9999 FEW040 BKN250 27/14 A2999 NOSIG=
202203042100 METAR MROC 042100Z 07015G25KT 9999 FEW040 BKN055 25/14 A2999 NOSIG=
202203042200 METAR MROC 042200Z 07013G24KT 9999 FEW040 SCT055 BKN200 25/14 A2998 NOSIG=
202203042300 METAR MROC 042300Z 09011KT 060V120 9999 FEW040 BKN060 24/16 A2999 NOSIG=
202203050000 METAR MROC 050000Z 08013KT 9999 FEW035 BKN200 22/15 A3001 NOSIG=
202203050100 METAR MROC 050100Z 08011KT 9999 FEW040 22/15 A3001 NOSIG=
202203050200 METAR MROC 050200Z 11014KT 9999 FEW040 21/15 A3004 NOSIG=
202203050300 METAR MROC 050300Z 09008KT 060V120 9999 FEW040 22/15 A3006 NOSIG=
202203050400 METAR MROC 050400Z 10009G19KT 9999 FEW040 22/15 A3006 NOSIG=
202203050500 METAR MROC 050500Z 10013KT 9999 FEW040 21/15 A3005 NOSIG=
202203050600 METAR MROC 050600Z 09014KT 9999 FEW045 21/15 A3003 NOSIG=
202203050700 METAR MROC 050700Z 10013KT CAVOK 21/15 A3001 NOSIG=
202203050800 METAR MROC 050800Z 10015KT CAVOK 21/15 A2999 NOSIG=
202203050900 METAR MROC 050900Z 10014KT CAVOK 21/15 A2998 NOSIG=
202203051000 METAR MROC 051000Z 09013KT CAVOK 21/15 A2999 NOSIG=
202203051100 METAR MROC 051100Z 10012KT CAVOK 21/14 A3000 NOSIG=
202203051200 METAR MROC 051200Z 11013KT 9999 FEW045 BKN200 20/14 A3001 NOSIG=
202203051300 METAR MROC 051300Z 11012G22KT 9999 FEW040 BKN250 22/15 A3004 NOSIG=
202203051400 METAR MROC 051400Z 10013G26KT 070V130 9999 FEW045 SCT100 24/14 A3005 NOSIG=
202203051500 METAR MROC 051500Z 09017G28KT 9999 FEW045 SCT250 25/14 A3006 NOSIG=
202203051600 METAR MROC 051600Z 09017G27KT 9999 FEW045 BKN250 26/15 A3006 NOSIG=
202203051700 METAR MROC 051700Z 09019G29KT 060V120 CAVOK 26/15 A3005 NOSIG=
202203051800 METAR MROC 051800Z 07019G31KT 9999 FEW045 SCT250 27/14 A3004 NOSIG=
202203051900 METAR MROC 051900Z 08017G27KT 050V110 9999 FEW045 SCT150 28/13 A3001 NOSIG=
202203052000 METAR MROC 052000Z COR 08015G25KT 050V110 CAVOK 28/14 A2999 NOSIG=
202203052100 METAR MROC 052100Z 07015G25KT 050V110 CAVOK 29/14 A2997 NOSIG=
202203052200 METAR MROC 052200Z 07016KT 9999 FEW045 SCT250 27/15 A2997 NOSIG=
202203052300 METAR MROC 052300Z 08014KT 9999 FEW040 BKN250 25/15 A2998 NOSIG=
202203060000 METAR MROC 060000Z 07012KT 9999 FEW035 24/15 A3000 NOSIG=
202203060100 METAR MROC 060100Z 08011KT 9999 FEW035 22/13 A3002 NOSIG=
202203060200 METAR MROC 060200Z 09014G24KT CAVOK 22/13 A3004 NOSIG=
202203060300 METAR MROC 060300Z 10013KT CAVOK 21/14 A3006 NOSIG=
202203060400 METAR MROC 060400Z 10012KT CAVOK 21/13 A3007 NOSIG=
202203060500 METAR MROC 060500Z 10015G25KT CAVOK 20/14 A3006 NOSIG=
202203060600 METAR MROC 060600Z 11016G26KT CAVOK 20/14 A3004 NOSIG=
202203060700 METAR MROC 060700Z 10016G26KT CAVOK 20/13 A3001 NOSIG=
202203060800 METAR MROC 060800Z 11013KT 080V150 CAVOK 20/13 A2999 NOSIG=
202203060900 METAR MROC 060900Z 06007KT 010V130 CAVOK 20/13 A2999 NOSIG=
202203061000 METAR MROC 061000Z 11012KT CAVOK 20/14 A2999 NOSIG=
202203061100 METAR MROC 061100Z 12013G23KT CAVOK 20/13 A3000 NOSIG=
202203061200 METAR MROC 061200Z 10010KT 070V130 CAVOK 20/13 A3002 NOSIG=
202203061300 METAR MROC 061300Z 08007KT 050V150 CAVOK 21/14 A3003 NOSIG=
202203061400 METAR MROC 061400Z 12011KT 080V150 CAVOK 25/15 A3004 NOSIG=
202203061500 METAR MROC 061500Z 11011KT 060V150 CAVOK 26/15 A3006 NOSIG=
202203061600 METAR MROC 061600Z 12012KT 090V150 9999 FEW035 28/16 A3006 NOSIG=
202203061700 METAR MROC 061700Z 10013KT 060V150 9999 SCT040 29/15 A3004 NOSIG=
202203061800 METAR MROC 061800Z 09010KT 060V130 9999 SCT040 29/16 A3003 NOSIG=
202203061900 METAR MROC 061900Z VRB05KT 9999 SCT035 30/15 A3000 TEMPO 25007KT=
202203062000 METAR MROC 062000Z 12007KT 050V180 9999 FEW025TCU SCT035 29/16 A2997 NOSIG=
202203062100 METAR MROC 062100Z 23009KT 200V280 9999 FEW025TCU SCT040 27/20 A2997 NOSIG=
202203062200 METAR MROC 062200Z 25011KT 9999 FEW040 SCT250 26/20 A2996 NOSIG=
202203062300 METAR MROC 062300Z 25009KT 9999 FEW035 25/19 A2998 NOSIG=
202203070000 METAR MROC 070000Z 25006KT 9999 BKN040 23/19 A2999 NOSIG=
202203070100 METAR MROC 070100Z 26006KT 240V300 9999 SCT030 23/19 A3001 NOSIG=
202203070200 METAR MROC 070200Z 21003KT 9999 FEW035 22/19 A3004 NOSIG=
202203070300 METAR MROC 070300Z 24003KT 210V280 9999 FEW035 22/19 A3005 NOSIG=
202203070400 METAR MROC 070400Z 10004KT 060V140 9999 FEW035 21/16 A3006 NOSIG=
202203070500 METAR MROC 070500Z 11012G22KT 070V160 9999 FEW035 21/15 A3005 NOSIG=
202203070600 METAR MROC 070600Z 11009G19KT 070V140 9999 FEW035 21/14 A3005 NOSIG=
202203070700 METAR MROC 070700Z 10007G17KT 060V120 CAVOK 21/14 A3001 NOSIG=
202203070800 METAR MROC 070800Z 09006G16KT 360V140 CAVOK 20/14 A2999 NOSIG=
202203070900 METAR MROC 070900Z 08008G18KT 050V120 CAVOK 20/14 A2998 NOSIG=
202203071000 METAR MROC 071000Z 07009KT 050V160 CAVOK 20/15 A2998 NOSIG=
202203071100 METAR MROC 071100Z 06007KT 350V120 CAVOK 19/15 A2999 NOSIG=
202203071200 METAR MROC 071200Z 06013KT 020V100 CAVOK 19/14 A3001 NOSIG=
202203071300 METAR MROC 071300Z 10013KT 070V130 CAVOK 21/15 A3001 NOSIG=
202203071400 METAR MROC 071400Z 11016KT CAVOK 24/14 A3002 NOSIG=
202203071500 METAR MROC 071500Z 11015G25KT CAVOK 26/13 A3003 NOSIG=
202203071600 METAR MROC 071600Z 11014KT 070V140 CAVOK 28/13 A3004 NOSIG=
202203071700 METAR MROC 071700Z 11012KT 070V140 9999 FEW045 29/14 A3002 NOSIG=
202203071800 METAR MROC 071800Z 09012KT 060V130 9999 FEW040 28/15 A3000 NOSIG=
202203071900 METAR MROC 071900Z 09013KT 050V140 9999 FEW040 30/14 A2997 NOSIG=
202203072000 METAR MROC 072000Z 13011KT 090V180 9999 SCT040 30/15 A2994 NOSIG=
202203072100 METAR MROC 072100Z 11010KT 060V160 9999 FEW040 30/14 A2992 NOSIG=
202203072200 METAR MROC 072200Z 11011KT 080V140 9999 SCT040 28/15 A2991 NOSIG=
202203072300 METAR MROC 072300Z 12008KT 090V160 9999 SCT040 27/15 A2993 NOSIG=
202203080000 METAR MROC 080000Z 10007KT 9999 SCT030 25/14 A2995 NOSIG=
202203080100 METAR MROC 080100Z 11009KT 080V140 9999 FEW025 23/15 A2998 NOSIG=
202203080200 METAR MROC 080200Z 09012KT 9999 FEW025 23/15 A3000 NOSIG=
202203080300 METAR MROC 080300Z 14005KT 080V180 9999 FEW025 22/16 A3001 NOSIG=
202203080400 METAR MROC 080400Z 06007KT 9999 FEW035 22/14 A3002 NOSIG=
202203080500 METAR MROC 080500Z 10006KT 050V130 CAVOK 21/14 A3002 NOSIG=
202203080600 METAR MROC 080600Z 12006KT 100V170 CAVOK 20/15 A3001 NOSIG=
202203080700 METAR MROC 080700Z VRB02KT CAVOK 19/14 A2999 NOSIG=
202203080800 METAR MROC 080800Z 05005KT 020V100 CAVOK 20/15 A2998 NOSIG=
202203080900 METAR MROC 080900Z 05009KT CAVOK 20/14 A2997 NOSIG=
202203081000 METAR MROC 081000Z 08009KT CAVOK 19/14 A2997 NOSIG=
202203081100 METAR MROC 081100Z 05006KT 020V080 CAVOK 18/14 A2998 NOSIG=
202203081200 METAR MROC 081200Z 05008KT CAVOK 18/13 A3000 NOSIG=
202203081300 METAR MROC 081300Z 12011KT CAVOK 21/14 A3001 NOSIG=
202203081400 METAR MROC 081400Z 11015KT CAVOK 23/14 A3002 NOSIG=
202203081500 METAR MROC 081500Z 10015KT 080V140 CAVOK 25/13 A3003 NOSIG=
202203081600 METAR MROC 081600Z 10012KT 060V130 9999 FEW025 27/13 A3003 NOSIG=
202203081700 METAR MROC 081700Z 07015KT 9999 FEW045 28/13 A3000 NOSIG=
202203081800 METAR MROC 081800Z 09012KT 050V140 9999 FEW045 28/13 A2998 NOSIG=
202203081900 METAR MROC 081900Z 09010G20KT 040V160 9999 FEW040 30/13 A2995 NOSIG=
202203082000 METAR MROC 082000Z 10010G20KT 060V220 9999 FEW040 30/12 A2992 NOSIG=
202203082100 METAR MROC 082100Z 07011KT 030V140 9999 FEW045 30/13 A2990 NOSIG=
202203082200 METAR MROC 082200Z 06013KT 9999 FEW045 29/14 A2990 NOSIG=
202203082300 METAR MROC 082300Z 09008KT 060V120 9999 FEW040 28/13 A2991 NOSIG=
202203090000 METAR MROC 090000Z 10008KT 9999 FEW035 25/15 A2993 NOSIG=
202203090100 METAR MROC 090100Z 12007KT 090V160 9999 FEW030 23/16 A2996 NOSIG=
202203090200 METAR MROC 090200Z 08007KT 9999 FEW030 22/16 A2999 NOSIG=
202203090300 METAR MROC 090300Z 11005KT 080V150 9999 FEW030 22/16 A2996 NOSIG=
202203090400 METAR MROC 090400Z 07004KT 9999 FEW030 21/16 A3002 NOSIG=
202203090500 METAR MROC 090500Z 10007KT 070V130 9999 FEW035 21/16 A3001 NOSIG=
202203090600 METAR MROC 090600Z 06008KT 9999 FEW035 20/15 A2999 NOSIG=
202203090700 METAR MROC 090700Z 09005KT 060V120 CAVOK 19/15 A2997 NOSIG=
202203090800 METAR MROC 090800Z 10007KT 9999 FEW035 20/15 A2995 NOSIG=
202203090900 METAR MROC 090900Z 04007KT CAVOK 19/15 A2995 NOSIG=
202203091000 METAR MROC 091000Z 06009KT CAVOK 18/14 A2995 NOSIG=
202203091100 METAR MROC 091100Z 06010KT CAVOK 19/14 A2996 NOSIG=
202203091200 METAR MROC 091200Z 03006KT CAVOK 17/13 A2999 NOSIG=
202203091300 METAR MROC 091300Z 07008KT 040V120 CAVOK 21/14 A3001 NOSIG=
202203091400 METAR MROC 091400Z 12012KT 090V150 CAVOK 23/14 A3002 NOSIG=
202203091500 METAR MROC 091500Z 11013KT 070V140 CAVOK 25/13 A3003 NOSIG=
202203091600 METAR MROC 091600Z 12011KT 080V160 CAVOK 27/13 A3003 NOSIG=
202203091700 METAR MROC 091700Z 12009KT 070V160 9999 FEW030 28/13 A3001 NOSIG=
202203091800 METAR MROC 091800Z 10009KT 060V170 9999 FEW030 29/13 A2998 NOSIG=
202203091900 METAR MROC 091900Z 13006KT 060V200 9999 FEW030 31/13 A2996 NOSIG=
202203091941 METAR MROC 091941Z COR 23010KT 200V260 9999 FEW030 29/16 A2993 NOSIG=
202203092000 METAR MROC 092000Z 24012KT 9999 FEW030 29/17 A2993 NOSIG=
202203092100 METAR MROC 092100Z 24012KT 9999 FEW048 27/19 A2992 NOSIG=
202203092200 METAR MROC 092200Z 23012KT 9999 FEW048 27/19 A2992 NOSIG=
202203092300 METAR MROC 092300Z 25012KT 9999 BKN048 25/18 A2993 NOSIG=
202203100000 METAR MROC 100000Z 23010KT 9999 BKN040 24/19 A2994 NOSIG=
202203100100 METAR MROC 100100Z 24006KT 9999 BKN032 23/20 A2997 NOSIG=
202203100200 METAR MROC 100200Z 25005KT 9999 VCFG FEW030 BKN060 22/21 A3000 BECMG 10005KT=
202203100300 METAR MROC 100300Z 24003KT 220V280 9999 SCT015 21/21 A3003 NOSIG=
202203100400 METAR MROC 100400Z 08005KT CAVOK 21/16 A3003 NOSIG=
202203100500 METAR MROC 100500Z 07007KT 9999 FEW010 20/16 A3003 NOSIG=
202203100600 METAR MROC 100600Z 07009KT CAVOK 20/16 A3001 NOSIG=
202203100700 METAR MROC 100700Z 08005KT CAVOK 20/15 A2999 NOSIG=
202203100800 METAR MROC 100800Z 07009KT CAVOK 20/15 A2998 NOSIG=
202203100900 METAR MROC 100900Z 07006KT CAVOK 19/14 A2997 NOSIG=
202203101000 METAR MROC 101000Z 08006KT CAVOK 18/14 A2998 NOSIG=
202203101100 METAR MROC 101100Z COR 07008KT CAVOK 17/10 A2999 NOSIG=
202203101200 METAR MROC 101200Z 07007KT CAVOK 19/13 A3001 NOSIG=
202203101300 METAR MROC 101300Z 07006KT CAVOK 21/14 A3004 NOSIG=
202203101400 METAR MROC 101400Z 07008KT 040V110 CAVOK 25/14 A3005 NOSIG=
202203101500 METAR MROC 101500Z 11011KT 070V140 CAVOK 26/14 A3006 NOSIG=
202203101600 METAR MROC 101600Z 11011KT 070V160 9999 FEW045 28/14 A3005 NOSIG=
202203101700 METAR MROC 101700Z 11008KT 050V180 9999 SCT040 29/13 A3003 NOSIG=
202203101800 METAR MROC 101800Z 19006KT 9999 SCT040 30/12 A3001 BECMG 24010KT=
202203101900 METAR MROC 101900Z 23009KT 190V260 9999 FEW020TCU SCT040 28/16 A2997 NOSIG=
202203102000 METAR MROC 102000Z 26011KT 9999 FEW020TCU BKN040 27/17 A2995 NOSIG=
202203102100 METAR MROC 102100Z 25006KT 9999 -RA FEW025TCU BKN040 26/17 A2993 NOSIG=
202203102200 METAR MROC 102200Z 13006KT 080V170 9999 FEW020 BKN040 24/16 A2994 NOSIG=
202203102300 METAR MROC 102300Z 10009KT 070V130 9999 RA VCSH FEW020TCU SCT035 BKN060 24/16 A2996 NOSIG=
202203110000 METAR MROC 110000Z 10009KT 080V140 9999 FEW025 BKN050 23/16 A2998 NOSIG=
202203110100 METAR MROC 110100Z 10010KT 070V130 9999 FEW025 BKN080 22/15 A3000 NOSIG=
202203110200 METAR MROC 110200Z 09010KT 060V120 9999 FEW030 BKN080 22/15 A3001 NOSIG=
202203110300 METAR MROC 110300Z 10011KT 9999 SCT040 22/16 A3003 NOSIG=
202203110400 METAR MROC 110400Z 09007G17KT CAVOK 22/15 A3004 NOSIG=
202203110500 METAR MROC 110500Z 08007KT CAVOK 21/14 A3004 NOSIG=
202203110600 METAR MROC 110600Z 07010KT CAVOK 20/15 A3002 NOSIG=
202203110700 METAR MROC 110700Z 07007KT CAVOK 20/15 A3000 NOSIG=
202203110800 METAR MROC 110800Z 07009KT CAVOK 19/15 A2998 NOSIG=
202203110900 METAR MROC 110900Z 07007KT 050V120 CAVOK 19/15 A2997 NOSIG=
202203111000 METAR MROC 111000Z 06010KT CAVOK 19/14 A2998 NOSIG=
202203111100 METAR MROC 111100Z 06004KT 020V110 CAVOK 18/14 A3000 NOSIG=
202203111200 METAR MROC 111200Z 07008KT CAVOK 18/13 A3002 NOSIG=
202203111300 METAR MROC 111300Z COR 08005KT CAVOK 21/14 A3005 NOSIG=
202203111400 METAR MROC 111400Z 03004KT 350V060 CAVOK 23/14 A3006 NOSIG=
202203111500 METAR MROC 111500Z 10008KT 060V150 CAVOK 26/13 A3006 NOSIG=
202203111600 METAR MROC 111600Z 12009KT 080V190 9999 FEW040 28/11 A3005 NOSIG=
202203111700 METAR MROC 111700Z 22008KT 110V260 9999 FEW040 28/16 A3003 NOSIG=
202203111800 METAR MROC 111800Z VRB07KT 9999 SCT040 28/16 A3000 NOSIG=
202203111900 METAR MROC 111900Z COR 24011KT 190V290 9999 BKN045 29/17 A2998 NOSIG=
202203112000 METAR MROC 112000Z 24013KT 210V270 9999 VCSH BKN040 27/19 A2995 NOSIG=
202203112100 METAR MROC 112100Z 22011KT 9999 VCSH FEW030TCU SCT060 27/19 A2994 NOSIG=
202203112200 METAR MROC 112200Z 22011KT 9999 FEW025TCU FEW045 26/19 A2993 NOSIG=
202203112300 METAR MROC 112300Z 20006KT 150V240 9999 4500NE SHRA SCT020TCU SCT035 24/20 A2995 NOSIG=
202203120000 METAR MROC 120000Z 15004KT 110V190 9999 RA FEW010 BKN020 20/20 A2996 NOSIG=
202203120100 METAR MROC 120100Z VRB02KT 9999 FEW020 BKN040 21/20 A2998 NOSIG=
202203120200 METAR MROC 120200Z 20001KT 9999 FEW020 BKN035 22/21 A3000 NOSIG=
202203120300 METAR MROC 120300Z 13005KT 9999 FEW020 BKN070 21/19 A3001 NOSIG=
202203120400 METAR MROC 120400Z 09007KT 9999 FEW030 BKN080 21/18 A3002 NOSIG=
202203120500 METAR MROC 120500Z 09006KT CAVOK 20/17 A3001 NOSIG=
202203120600 METAR MROC 120600Z 08006KT 040V120 CAVOK 21/17 A2999 NOSIG=
202203120700 METAR MROC 120700Z 07006KT CAVOK 20/17 A2997 NOSIG=
202203120800 METAR MROC 120800Z 07006KT CAVOK 20/17 A2996 NOSIG=
202203120900 METAR MROC 120900Z 06009KT CAVOK 19/16 A2996 NOSIG=
202203121000 METAR MROC 121000Z 07006KT CAVOK 20/16 A2997 NOSIG=
202203121100 METAR MROC 121100Z 09003KT 040V120 CAVOK 19/16 A2999 NOSIG=
202203121200 METAR MROC 121200Z 07007KT CAVOK 18/15 A3002 NOSIG=
202203121300 METAR MROC 121300Z 08005KT CAVOK 21/16 A3005 NOSIG=
202203121400 METAR MROC 121400Z 11005KT 070V150 CAVOK 23/16 A3006 NOSIG=
202203121500 METAR MROC 121500Z VRB04KT CAVOK 26/16 A3006 BECMG 26004KT=
202203121600 METAR MROC 121600Z 13007KT 080V190 CAVOK 28/14 A3006 BECMG 26004KT=
202203121700 METAR MROC 121700Z 24008KT 190V290 9999 FEW040 28/16 A3003 NOSIG=
202203121800 METAR MROC 121800Z 23008G24KT 130V290 9999 FEW040 31/16 A3000 NOSIG=
202203121900 METAR MROC 121900Z 24012KT 9999 BKN045 29/18 A2997 NOSIG=
202203122000 METAR MROC 122000Z 24012G22KT 9999 BKN030 30/19 A2994 TEMPO RA=
202203122100 METAR MROC 122100Z 20011KT 9999 -RA BKN030 25/20 A2995 NOSIG=
202203122200 METAR MROC 122200Z 12007KT 080V150 9999 4500SW -RA BR FEW001 BKN030 19/19 A2997 RERA TEMPO BCFG=
202203122300 METAR MROC 122300Z 30003KT 250V360 9999 BCFG BKN030 20/20 A2998 NOSIG=
202203130000 METAR MROC 130000Z VRB03KT 5000 RA BR FEW001 BKN030 21/20 A3001 NOSIG=
202203130100 METAR MROC 130100Z 34003KT 260V070 9999 FEW005 BKN030 20/20 A3003 RERA NOSIG=
202203130200 METAR MROC 130200Z VRB02KT 9999 SCT030 20/20 A3004 NOSIG=
202203130300 METAR MROC 130300Z 06006KT 9999 FEW030 20/20 A3005 NOSIG=
202203130400 METAR MROC 130400Z COR 09007KT 9999 FEW030 21/17 A3007 NOSIG=
202203130500 METAR MROC 130500Z 07005KT 050V130 9999 FEW035 20/17 A3007 NOSIG=
202203130600 METAR MROC 130600Z 05009KT 9999 FEW035 BKN120 21/17 A3006 NOSIG=
202203130700 METAR MROC 130700Z 09011KT 060V130 9999 -RA DZ FEW040 BKN090 21/17 A3005 NOSIG=
202203130800 METAR MROC 130800Z 07008KT 050V110 9999 -RA FEW035 BKN070 20/16 A3004 NOSIG=
202203130900 METAR MROC 130900Z 01006KT 9999 FEW030 BKN070 20/16 A3006 NOSIG=
202203131000 METAR MROC 131000Z 12007G17KT 090V170 9999 FEW040 BKN070 20/16 A3002 NOSIG=
202203131100 METAR MROC 131100Z 12011KT 9999 FEW045 BKN085 20/16 A3004 NOSIG=
202203131200 METAR MROC 131200Z 13012KT 9999 FEW040 SCT100 20/16 A3005 NOSIG=
202203131300 METAR MROC 131300Z 12012G22KT 090V150 9999 FEW040 22/16 A3006 NOSIG=
202203131400 METAR MROC 131400Z 11013G23KT 9999 FEW045 24/15 A3008 NOSIG=
202203131500 METAR MROC 131500Z 11014G26KT CAVOK 25/15 A3008 NOSIG=
202203131600 METAR MROC 131600Z 11016G28KT 060V130 CAVOK 27/15 A3008 NOSIG=
202203131700 METAR MROC 131700Z 09016G28KT 9999 FEW045 27/13 A3006 NOSIG=
202203131800 METAR MROC 131800Z 08017G31KT 050V110 9999 FEW035 SCT060 29/14 A3003 NOSIG=
202203131900 METAR MROC 131900Z 08014G24KT 9999 VCSH FEW030 BKN060 26/16 A3001 NOSIG=
202203132000 METAR MROC 132000Z 09012G22KT 9999 FEW035 BKN060 25/17 A2998 NOSIG=
202203132100 METAR MROC 132100Z 08018KT 9999 FEW035 BKN060 25/16 A2996 NOSIG=
202203132200 METAR MROC 132200Z 10012KT 080V140 9999 SCT035 26/16 A2996 NOSIG=
202203132300 METAR MROC 132300Z 08014KT 9999 SCT035 25/16 A2997 NOSIG=
202203140000 METAR MROC 140000Z 08011KT 050V110 9999 FEW030 SCT060 23/16 A2999 NOSIG=
202203140100 METAR MROC 140100Z 13011KT 9999 FEW030 SCT060 22/17 A2999 NOSIG=
202203140200 METAR MROC 140200Z 11011KT 9999 FEW030 SCT060 22/17 A3003 NOSIG=
202203140300 METAR MROC 140300Z 11010KT 9999 FEW030 21/17 A3005 NOSIG=
202203140400 METAR MROC 140400Z 10015KT CAVOK 22/17 A3007 NOSIG=
202203140500 METAR MROC 140500Z 10011KT CAVOK 22/16 A3006 NOSIG=
202203140600 METAR MROC 140600Z 10013KT 060V140 CAVOK 22/16 A3005 NOSIG=
202203140700 METAR MROC 140700Z 09013KT CAVOK 21/17 A3002 NOSIG=
202203140800 METAR MROC 140800Z 09014KT CAVOK 21/16 A3001 NOSIG=
202203140900 METAR MROC 140900Z 09013KT CAVOK 21/16 A3000 NOSIG=
202203141000 METAR MROC 141000Z 10006KT 070V140 CAVOK 21/14 A3000 NOSIG=
202203141100 METAR MROC 141100Z 12011KT CAVOK 20/14 A3000 NOSIG=
202203141200 METAR MROC 141200Z 12011KT CAVOK 20/15 A3001 NOSIG=
202203141300 METAR MROC 141300Z 11010KT 070V140 9999 FEW045 22/13 A3005 NOSIG=
202203141400 METAR MROC 141400Z 11013KT CAVOK 24/15 A3006 NOSIG=
202203141500 METAR MROC 141500Z 11014G24KT 080V150 CAVOK 26/13 A3007 NOSIG=
202203141600 METAR MROC 141600Z 11015KT CAVOK 28/13 A3007 NOSIG=
202203141700 METAR MROC 141700Z 08011KT 040V140 CAVOK 29/15 A3006 NOSIG=
202203141800 METAR MROC 141800Z 09014KT 050V120 9999 FEW045 29/16 A3004 NOSIG=
202203141900 METAR MROC 141900Z 09014KT 060V120 9999 FEW045 29/15 A3000 NOSIG=
202203142000 METAR MROC 142000Z 08013KT 050V120 9999 FEW045 30/15 A2996 NOSIG=
202203142100 METAR MROC 142100Z 08013KT 9999 FEW045 29/13 A2995 NOSIG=
202203142200 METAR MROC 142200Z 09012KT 060V120 9999 FEW045 28/11 A2995 NOSIG=
202203142300 METAR MROC 142300Z 08009KT 050V110 9999 FEW035 26/15 A2997 NOSIG=
202203150000 METAR MROC 150000Z 08013KT 9999 FEW035 25/14 A2999 NOSIG=
202203150100 METAR MROC 150100Z 09012KT 9999 FEW035 23/13 A3002 NOSIG=
202203150200 METAR MROC 150200Z 11011KT CAVOK 22/14 A3003 NOSIG=
202203150300 METAR MROC 150300Z 08017KT 9999 FEW030 22/14 A3005 NOSIG=
202203150400 METAR MROC 150400Z 09013G23KT 9999 FEW035 22/14 A3005 NOSIG=
202203150500 METAR MROC 150500Z 10018G28KT 9999 FEW035 22/15 A3004 NOSIG=
202203150600 METAR MROC 150600Z 11017G27KT 9999 FEW035 21/15 A3003 NOSIG=
202203150700 METAR MROC 150700Z 11016G26KT 9999 FEW035 21/15 A3002 NOSIG=
202203150800 METAR MROC 150800Z 11012G22KT CAVOK 21/15 A3000 NOSIG=
202203150900 METAR MROC 150900Z 11013G23KT CAVOK 21/15 A2999 NOSIG=
202203151000 METAR MROC 151000Z 11015KT CAVOK 21/15 A2999 NOSIG=
202203151100 METAR MROC 151100Z 12014G25KT CAVOK 20/15 A3000 NOSIG=
202203151200 METAR MROC 151200Z 12013G26KT CAVOK 20/15 A3001 NOSIG=
202203151300 METAR MROC 151300Z 11017G27KT CAVOK 22/14 A3003 NOSIG=
202203151400 METAR MROC 151400Z 11020G31KT CAVOK 23/12 A3005 NOSIG=
202203151500 METAR MROC 151500Z COR 11016G28KT 9999 FEW035 26/10 A3007 NOSIG=
202203151600 METAR MROC 151600Z 10015KT 080V140 9999 FEW035 28/08 A3007 NOSIG=
202203151700 METAR MROC 151700Z 08013KT 050V120 CAVOK 28/10 A3006 NOSIG=
202203151800 METAR MROC 151800Z 12012KT 090V160 9999 FEW045 29/11 A3004 NOSIG=
202203151900 METAR MROC 151900Z 10011KT 070V160 9999 FEW040 29/11 A3001 NOSIG=
202203152000 METAR MROC 152000Z 11010KT 070V160 9999 FEW020TCU FEW040 30/10 A2997 NOSIG=
202203152100 METAR MROC 152100Z 13009KT 080V190 9999 FEW045 30/13 A2994 NOSIG=
202203152200 METAR MROC 152200Z 14006KT 090V200 9999 SCT045 29/13 A2994 NOSIG=
202203152300 METAR MROC 152300Z 26007KT 190V340 9999 FEW040 26/18 A2995 NOSIG=
202203160000 METAR MROC 160000Z 32008KT 9999 FEW035 25/18 A2997 NOSIG=
202203160100 METAR MROC 160100Z 08007KT 040V120 9999 FEW030 23/15 A3001 NOSIG=
202203160200 METAR MROC 160200Z 11010KT 9999 FEW030 22/16 A3002 NOSIG=
202203160300 METAR MROC 160300Z 09010KT 9999 FEW030 22/13 A3004 NOSIG=
202203160400 METAR MROC 160400Z 10012KT 9999 FEW030 22/17 A3005 NOSIG=
202203160500 METAR MROC 160500Z 11012KT 9999 FEW030 21/16 A3004 NOSIG=
202203160600 METAR MROC 160600Z 11013KT 080V140 9999 FEW035 21/16 A3002 NOSIG=
202203160700 METAR MROC 160700Z 11011KT CAVOK 21/15 A2999 NOSIG=
202203160800 METAR MROC 160800Z 06006KT 010V110 CAVOK 20/15 A2998 NOSIG=
202203160900 METAR MROC 160900Z 06008KT CAVOK 20/15 A2997 NOSIG=
202203161000 METAR MROC 161000Z 07009KT CAVOK 20/15 A2997 NOSIG=
202203161100 METAR MROC 161100Z 08007KT 050V120 CAVOK 20/15 A2999 NOSIG=
202203161200 METAR MROC 161200Z 07007KT 020V120 CAVOK 20/15 A3000 NOSIG=
202203161300 METAR MROC 161300Z 10009KT 060V130 CAVOK 22/15 A3002 NOSIG=
202203161400 METAR MROC 161400Z 11013KT 090V150 CAVOK 24/16 A3003 NOSIG=
202203161500 METAR MROC 161500Z 12012KT 080V160 CAVOK 26/16 A3005 NOSIG=
202203161600 METAR MROC 161600Z 11014KT 9999 FEW040 28/16 A3004 NOSIG=
202203161700 METAR MROC 161700Z 10013KT 070V130 9999 FEW045 29/15 A3002 NOSIG=
202203161800 METAR MROC 161800Z 11011KT 050V170 9999 FEW040 29/15 A3001 NOSIG=
202203161900 METAR MROC 161900Z 10011KT 060V150 9999 FEW030 30/15 A2998 NOSIG=
202203162000 METAR MROC 162000Z 09012KT 060V130 9999 FEW035 30/14 A2994 NOSIG=
202203162100 METAR MROC 162100Z 11011KT 080V150 9999 SCT040 30/15 A2992 NOSIG=
202203162200 METAR MROC 162200Z 11012KT 9999 SCT040 28/15 A2992 NOSIG=
202203162300 METAR MROC 162300Z 11011KT 070V130 9999 SCT035 26/16 A2994 NOSIG=
202203170000 METAR MROC 170000Z 11011KT 9999 FEW030 24/17 A2996 NOSIG=
202203170100 METAR MROC 170100Z 11004KT 080V170 9999 FEW025 SCT070 23/17 A2998 NOSIG=
202203170200 METAR MROC 170200Z 12007KT 100V190 9999 FEW025 23/17 A3000 NOSIG=
202203170300 METAR MROC 170300Z 12009KT 9999 FEW025 22/16 A3002 NOSIG=
202203170400 METAR MROC 170400Z 11008KT 060V170 9999 FEW035 21/16 A3004 NOSIG=
202203170500 METAR MROC 170500Z 10010KT 9999 FEW035 21/16 A3003 NOSIG=
202203170600 METAR MROC 170600Z 08010G21KT 040V130 9999 FEW030 21/16 A3001 NOSIG=
202203170700 METAR MROC 170700Z 04005KT 350V090 9999 FEW030 21/16 A3000 NOSIG=
202203170800 METAR MROC 170800Z 06010KT 9999 FEW035 20/16 A2998 NOSIG=
202203170900 METAR MROC 170900Z 04009KT CAVOK 20/16 A2997 NOSIG=
202203171000 METAR MROC 171000Z 02008KT 010V170 CAVOK 19/15 A2997 NOSIG=
202203171100 METAR MROC 171100Z 06007KT 030V100 CAVOK 19/15 A2999 NOSIG=
202203171200 METAR MROC 171200Z 08008KT CAVOK 20/16 A3000 NOSIG=
202203171300 METAR MROC 171300Z 06004KT 020V110 CAVOK 22/16 A3002 NOSIG=
202203171400 METAR MROC 171400Z 12008KT 070V160 CAVOK 24/16 A3003 NOSIG=
202203171500 METAR MROC 171500Z 11014KT 090V160 CAVOK 26/16 A3003 NOSIG=
202203171600 METAR MROC 171600Z 11011G21KT 080V160 9999 FEW045 28/15 A3003 NOSIG=
202203171700 METAR MROC 171700Z 13008G18KT 090V180 9999 FEW045 29/15 A3001 NOSIG=
202203171800 METAR MROC 171800Z 12007G17KT 050V180 9999 FEW045 30/15 A2998 NOSIG=
202203171900 METAR MROC 171900Z 23013KT 190V260 9999 SCT045 29/19 A2996 NOSIG=
202203172000 METAR MROC 172000Z 24013KT 210V280 9999 BKN045 28/19 A2993 NOSIG=
202203172100 METAR MROC 172100Z 23012KT 200V260 9999 SCT040 27/20 A2991 NOSIG=
202203172200 METAR MROC 172200Z 23011KT 9999 FEW030TCU SCT040 27/19 A2991 NOSIG=
202203172300 METAR MROC 172300Z 24011KT 9999 -TSRA FEW020CB SCT040 26/19 A2992 NOSIG=
202203180000 METAR MROC 180000Z 23008KT 200V260 9999 -RA VCSH FEW025TCU BKN035 24/18 A2995 NOSIG=
202203180100 METAR MROC 180100Z 25004KT 230V300 9999 -DZ BKN030 23/20 A2998 NOSIG=
202203180200 METAR MROC 180200Z 28003KT 250V310 9999 BKN030 22/19 A3000 NOSIG=
202203180300 METAR MROC 180300Z 21003KT 190V250 9999 FEW025 BKN040 22/20 A3002 NOSIG=
202203180400 METAR MROC 180400Z 26003KT 230V300 9999 BKN025 22/19 A3003 NOSIG=
202203180500 METAR MROC 180500Z VRB01KT 9999 FEW030 21/19 A3002 NOSIG=
202203180600 METAR MROC 180600Z 08008KT 9999 FEW020 21/17 A3001 NOSIG=
202203180700 METAR MROC 180700Z 07008KT 040V130 CAVOK 21/17 A2998 NOSIG=
202203180800 METAR MROC 180800Z 07006KT 020V140 CAVOK 21/16 A2997 NOSIG=
202203180900 METAR MROC 180900Z 08008KT CAVOK 20/16 A2996 NOSIG=
202203181000 METAR MROC 181000Z 04006KT CAVOK 20/16 A2997 NOSIG=
202203181100 METAR MROC 181100Z 04005KT 350V120 CAVOK 21/16 A2998 NOSIG=
202203181200 METAR MROC 181200Z 07006KT CAVOK 20/16 A2999 NOSIG=
202203181300 METAR MROC 181300Z 03005KT 010V110 CAVOK 22/16 A3001 NOSIG=
202203181400 METAR MROC 181400Z 10013KT 060V140 CAVOK 24/16 A3001 NOSIG=
202203181500 METAR MROC 181500Z 11015KT CAVOK 26/16 A3002 NOSIG=
202203181600 METAR MROC 181600Z 09012KT 060V120 CAVOK 29/16 A3002 NOSIG=
202203181700 METAR MROC 181700Z 11010KT 080V150 CAVOK 30/16 A3000 NOSIG=
202203181800 METAR MROC 181800Z 11009KT 050V150 9999 SCT045 30/16 A2998 NOSIG=
202203181900 METAR MROC 181900Z 23007KT 190V260 9999 SCT045 29/19 A2995 NOSIG=
202203182000 METAR MROC 182000Z 23008KT 9999 FEW035TCU SCT045 29/19 A2992 NOSIG=
202203182100 METAR MROC 182100Z 23010KT 200V260 9999 BKN035 28/20 A2991 NOSIG=
202203182200 METAR MROC 182200Z 20010KT 9999 VCSH FEW030TCU FEW045 BKN200 25/20 A2991 NOSIG=
202203182300 METAR MROC 182300Z 25008KT 9999 3000N SHRA SCT025TCU SCT045 SCT200 24/21 A2993 NOSIG=
202203190000 METAR MROC 190000Z 27009KT 250V310 9999 RA FEW025TCU BKN035 23/21 A2995 NOSIG=
202203190100 METAR MROC 190100Z VRB02KT 9999 FEW030 SCT200 23/22 A2997 RERA BECMG 08005KT=
202203190200 METAR MROC 190200Z 28003KT 9999 SCT010 22/22 A2999 NOSIG=
202203190300 METAR MROC 190300Z 10003KT 9999 FEW010 22/21 A3001 NOSIG=
202203190400 METAR MROC 190400Z 05004KT 9999 FEW030 22/18 A3001 NOSIG=
202203190500 METAR MROC 190500Z 07006KT 040V100 9999 FEW030 21/16 A3001 NOSIG=
202203190600 METAR MROC 190600Z 07004KT 9999 FEW030 21/16 A3000 NOSIG=
202203190700 METAR MROC 190700Z 05006KT 360V080 CAVOK 21/16 A2998 NOSIG=
202203190800 METAR MROC 190800Z 03006KT 360V060 CAVOK 20/16 A2998 NOSIG=
202203190900 METAR MROC 190900Z 07012KT 030V090 CAVOK 20/16 A2996 NOSIG=
202203191000 METAR MROC 191000Z 05007KT CAVOK 20/16 A2996 NOSIG=
202203191100 METAR MROC 191100Z 04006KT CAVOK 20/16 A2997 NOSIG=
202203191200 METAR MROC 191200Z 08008KT 050V110 CAVOK 21/16 A2999 NOSIG=
202203191300 METAR MROC 191300Z 06006KT 020V170 CAVOK 22/16 A3001 NOSIG=
202203191400 METAR MROC 191400Z 11013KT CAVOK 24/17 A3002 NOSIG=
202203191500 METAR MROC 191500Z 11013KT 090V150 9999 FEW045 SCT210 27/16 A3003 NOSIG=
202203191600 METAR MROC 191600Z 09014KT 050V130 9999 FEW040 28/17 A3003 NOSIG=
202203191700 METAR MROC 191700Z 11015G26KT 080V140 9999 FEW035 SCT060 28/17 A3002 NOSIG=
202203191800 METAR MROC 191800Z 09016KT 9999 SCT030 28/17 A3000 NOSIG=
202203191900 METAR MROC 191900Z 10019G29KT 9999 BKN035 27/16 A2998 NOSIG=
202203192000 METAR MROC 192000Z 10017KT 070V130 9999 FEW030 SCT070 28/15 A2995 NOSIG=
202203192100 METAR MROC 192100Z 10014G25KT 9999 FEW040 29/16 A2993 NOSIG=
202203192200 METAR MROC 192200Z 09015G25KT 070V130 9999 FEW045 27/17 A2992 NOSIG=
202203192300 METAR MROC 192300Z 10015KT 9999 SCT030 26/17 A2994 NOSIG=
202203200000 METAR MROC 200000Z 11017KT 9999 SCT030 SCT060 23/17 A2996 NOSIG=
202203200100 METAR MROC 200100Z 12014KT 090V150 9999 FEW030 SCT060 22/17 A2998 NOSIG=
202203200120 METAR MROC 200120Z 12011KT 9999 FEW030 21/16 A3000 NOSIG=
202203200200 METAR MROC 200200Z 12011KT 9999 FEW030 21/16 A3000 NOSIG=
202203200300 METAR MROC 200300Z 11012KT 9999 FEW030 SCT200 22/17 A3002 NOSIG=
202203200400 METAR MROC 200400Z 11010KT 090V150 9999 FEW030 21/15 A3002 NOSIG=
202203200500 METAR MROC 200500Z 12014KT 9999 FEW030 21/15 A3002 NOSIG=
202203200600 METAR MROC 200600Z 12012KT CAVOK 21/15 A3002 NOSIG=
202203200700 METAR MROC 200700Z 08019G29KT CAVOK 22/12 A2999 NOSIG=
202203200800 METAR MROC 200800Z 07009KT 040V100 CAVOK 21/14 A2999 NOSIG=
202203200900 METAR MROC 200900Z 10012KT 060V130 CAVOK 21/15 A2998 NOSIG=
202203201000 METAR MROC 201000Z 08010KT 020V130 CAVOK 20/14 A2998 NOSIG=
202203201100 METAR MROC 201100Z 09010KT 010V130 CAVOK 20/14 A2998 NOSIG=
202203201200 METAR MROC 201200Z 11011KT 080V140 CAVOK 21/15 A2998 NOSIG=
202203201300 METAR MROC 201300Z 11012G22KT CAVOK 22/16 A3001 NOSIG=
202203201400 METAR MROC 201400Z 10016G26KT CAVOK 23/16 A3003 NOSIG=
202203201500 METAR MROC 201500Z 10019KT CAVOK 25/16 A3003 NOSIG=
202203201600 METAR MROC 201600Z 10018G29KT CAVOK 25/16 A3003 NOSIG=
202203201700 METAR MROC 201700Z 09015G25KT 060V130 CAVOK 28/15 A3002 NOSIG=
202203201800 METAR MROC 201800Z 09016KT 060V120 CAVOK 29/16 A3000 NOSIG=
202203201900 METAR MROC 201900Z 08017KT 040V100 CAVOK 29/15 A2998 NOSIG=
202203202000 METAR MROC 202000Z 08015KT 050V110 CAVOK 28/17 A2995 NOSIG=
202203202100 METAR MROC 202100Z 09014KT 050V130 9999 FEW040 BKN070 27/17 A2994 NOSIG=
202203202200 METAR MROC 202200Z 08014KT 9999 FEW040 BKN070 26/17 A2994 NOSIG=
202203202300 METAR MROC 202300Z 11009KT 070V130 9999 FEW035 SCT070 25/16 A2994 NOSIG=
202203210000 METAR MROC 210000Z 09013KT 9999 FEW040 SCT250 23/15 A2996 NOSIG=
202203210100 METAR MROC 210100Z 09014KT 9999 FEW035 22/15 A2998 NOSIG=
202203210200 METAR MROC 210200Z 10016KT 9999 FEW035 SCT250 22/14 A2999 NOSIG=
202203210300 METAR MROC 210300Z 11012KT 080V140 9999 FEW035 21/15 A3001 NOSIG=
202203210400 METAR MROC 210400Z COR 10010KT 070V140 9999 FEW035 SCT240 21/13 A3001 NOSIG=
202203210500 METAR MROC 210500Z 11016KT 9999 FEW035 SCT240 21/15 A3000 NOSIG=
202203210600 METAR MROC 210600Z COR 10014KT 9999 FEW040 SCT210 20/15 A2999 NOSIG=
202203210700 METAR MROC 210700Z 10012KT 9999 FEW035 BKN230 21/15 A2997 NOSIG=
202203210800 METAR MROC 210800Z 10014G24KT 9999 FEW040 BKN230 20/15 A2996 NOSIG=
202203210900 METAR MROC 210900Z 11015G25KT CAVOK 20/15 A2994 NOSIG=
202203211000 METAR MROC 211000Z 11016G26KT 090V160 CAVOK 20/14 A2994 NOSIG=
202203211100 METAR MROC 211100Z 11016G26KT CAVOK 20/14 A2995 NOSIG=
202203211200 METAR MROC 211200Z 11014KT CAVOK 20/14 A2997 NOSIG=
202203211300 METAR MROC 211300Z 11014G24KT CAVOK 22/15 A2998 NOSIG=
202203211400 METAR MROC 211400Z 11013G23KT 080V140 CAVOK 24/14 A3000 NOSIG=
202203211500 METAR MROC 211500Z 11013G23KT 080V140 CAVOK 27/14 A3001 NOSIG=
202203211600 METAR MROC 211600Z 09017G27KT 060V120 CAVOK 27/15 A3000 NOSIG=
202203211700 METAR MROC 211700Z 09016G27KT 9999 FEW040 27/16 A2998 NOSIG=
202203211800 METAR MROC 211800Z 10014G24KT 070V140 9999 FEW040 28/16 A2996 NOSIG=
202203211900 METAR MROC 211900Z 10014G24KT 070V150 9999 FEW040 28/16 A2994 NOSIG=
202203212000 METAR MROC 212000Z 12014G24KT 090V160 9999 FEW040 28/16 A2991 NOSIG=
202203212100 METAR MROC 212100Z 10015KT 9999 FEW035 27/16 A2990 NOSIG=
202203212200 METAR MROC 212200Z 10015G27KT 070V140 9999 FEW040 26/15 A2989 NOSIG=
202203212300 METAR MROC 212300Z 09017KT 9999 FEW045 25/15 A2990 NOSIG=
202203220000 METAR MROC 220000Z 10015KT 9999 FEW035 23/15 A2992 NOSIG=
202203220100 METAR MROC 220100Z 11012KT 080V140 CAVOK 22/17 A2994 NOSIG=
202203220200 METAR MROC 220200Z 12012KT 090V150 CAVOK 22/16 A2996 NOSIG=
202203220300 METAR MROC 220300Z 12010KT 080V140 CAVOK 22/15 A2997 NOSIG=
202203220400 METAR MROC 220400Z 11013G23KT CAVOK 21/16 A2998 NOSIG=
202203220500 METAR MROC 220500Z 10014G24KT CAVOK 21/16 A2998 NOSIG=
202203220600 METAR MROC 220600Z 10015G25KT CAVOK 21/16 A2995 NOSIG=
202203220700 METAR MROC 220700Z 11013G23KT CAVOK 21/15 A2992 NOSIG=
202203220800 METAR MROC 220800Z 12011G21KT 090V150 CAVOK 21/16 A2991 NOSIG=
202203220900 METAR MROC 220900Z 07006KT 040V110 CAVOK 21/16 A2993 NOSIG=
202203221000 METAR MROC 221000Z COR 08008KT CAVOK 20/15 A2994 NOSIG=
202203221100 METAR MROC 221100Z 07008KT 050V110 CAVOK 20/13 A2993 NOSIG=
202203221200 METAR MROC 221200Z 11010G20KT 080V150 CAVOK 20/15 A2994 NOSIG=
202203221300 METAR MROC 221300Z 11010G20KT CAVOK 22/16 A2996 NOSIG=
202203221400 METAR MROC 221400Z 11011G21KT 070V140 CAVOK 24/15 A2998 NOSIG=
202203221500 METAR MROC 221500Z 11011G21KT 080V140 CAVOK 27/15 A2998 NOSIG=
202203221600 METAR MROC 221600Z 11010KT 080V140 CAVOK 29/15 A2997 NOSIG=
202203221700 METAR MROC 221700Z 12011KT 090V160 CAVOK 30/16 A2995 NOSIG=
202203221800 METAR MROC 221800Z 10010G20KT 060V140 9999 FEW045 30/16 A2992 NOSIG=
202203221900 METAR MROC 221900Z 10010KT 060V140 9999 FEW045 31/17 A2989 NOSIG=
202203222000 METAR MROC 222000Z 25008KT 200V310 9999 SCT040 28/19 A2988 NOSIG=
202203222100 METAR MROC 222100Z 23012KT 200V270 9999 VCSH FEW020 SCT045 27/20 A2987 NOSIG=
202203222200 METAR MROC 222200Z 22007KT 9999 FEW020 SCT040 25/21 A2988 NOSIG=
202203222300 METAR MROC 222300Z 26006KT 240V300 9999 FEW020 SCT040 24/20 A2989 NOSIG=
202203230000 METAR MROC 230000Z 26005KT 9999 SCT025 23/20 A2992 BECMG 09007KT=
202203230100 METAR MROC 230100Z 24005KT 220V280 9999 SCT040 23/20 A2995 NOSIG=
202203230200 METAR MROC 230200Z VRB02KT 9999 FEW040 22/19 A2996 BECMG 09007KT=
202203230300 METAR MROC 230300Z 09005KT 060V120 CAVOK 22/18 A2998 NOSIG=
202203230400 METAR MROC 230400Z 10004KT 9999 FEW030 21/18 A2999 NOSIG=
202203230500 METAR MROC 230500Z 10013KT 070V130 CAVOK 22/18 A2998 NOSIG=
202203230600 METAR MROC 230600Z 09012KT CAVOK 22/18 A2997 NOSIG=
202203230700 METAR MROC 230700Z 09012KT CAVOK 22/18 A2993 NOSIG=
202203230800 METAR MROC 230800Z 06013KT 030V090 CAVOK 21/18 A2993 NOSIG=
202203230900 METAR MROC 230900Z 07008KT CAVOK 21/17 A2993 NOSIG=
202203231000 METAR MROC 231000Z 07004KT 030V110 CAVOK 21/17 A2993 NOSIG=
202203231100 METAR MROC 231100Z 06007KT CAVOK 21/17 A2993 NOSIG=
202203231200 METAR MROC 231200Z 05013KT CAVOK 21/17 A2995 NOSIG=
202203231300 METAR MROC 231300Z 03007KT 9999 FEW030 22/17 A2998 NOSIG=
202203231400 METAR MROC 231400Z 09009KT 060V130 9999 FEW030 26/18 A2999 NOSIG=
202203231500 METAR MROC 231500Z 11010KT 080V150 9999 FEW030 28/17 A3000 NOSIG=
202203231600 METAR MROC 231600Z COR 14007KT 090V200 9999 FEW045 31/17 A2997 NOSIG=
202203231700 METAR MROC 231700Z 14007KT 090V200 9999 FEW045 31/17 A2997 NOSIG=
202203231800 METAR MROC 231800Z VRB03KT 9999 SCT040 29/18 A2995 NOSIG=
202203231900 METAR MROC 231900Z 23008KT 150V270 9999 BKN040 29/19 A2991 NOSIG=
202203232000 METAR MROC 232000Z 26013KT 240V300 9999 SCT040 29/20 A2990 NOSIG=
202203232100 METAR MROC 232100Z 25013KT 9999 SHRA FEW020TCU SCT030 27/20 A2988 NOSIG=
202203232200 METAR MROC 232200Z 21007KT 9999 VCSH FEW025 SCT040 25/20 A2990 NOSIG=
202203232300 METAR MROC 232300Z 23008KT 210V270 9999 FEW025 SCT040 25/19 A2991 NOSIG=
202203240000 METAR MROC 240000Z 16003KT 110V190 9999 FEW025 BKN040 24/20 A2992 NOSIG=
202203240100 METAR MROC 240100Z 12005KT 090V150 9999 SCT040 24/19 A2995 NOSIG=
202203240200 METAR MROC 240200Z 11007KT 070V160 9999 SCT040 22/18 A2996 NOSIG=
202203240300 METAR MROC 240300Z 11008KT 9999 SCT040 23/18 A2998 NOSIG=
202203240400 METAR MROC 240400Z 09008KT 050V110 9999 SCT045 22/16 A3000 NOSIG=
202203240500 METAR MROC 240500Z 09006KT 040V120 9999 FEW045 22/17 A3000 NOSIG=
202203240600 METAR MROC 240600Z 07008KT CAVOK 22/17 A2998 NOSIG=
202203240700 METAR MROC 240700Z 07007KT 050V110 CAVOK 22/17 A2996 NOSIG=
202203240800 METAR MROC 240800Z 10011KT CAVOK 22/17 A2994 NOSIG=
202203240900 METAR MROC 240900Z 07008KT 040V120 CAVOK 21/17 A2994 NOSIG=
202203241000 METAR MROC 241000Z 09006KT CAVOK 20/17 A2994 NOSIG=
202203241100 METAR MROC 241100Z 05008KT CAVOK 20/17 A2996 NOSIG=
202203241200 METAR MROC 241200Z 05005KT 9999 FEW035 20/17 A2997 NOSIG=
202203241300 METAR MROC 241300Z 08010KT 030V120 9999 FEW035 23/17 A2999 NOSIG=
202203241400 METAR MROC 241400Z 11013KT 9999 FEW035 24/17 A3000 NOSIG=
202203241500 METAR MROC 241500Z 11013KT 070V130 9999 FEW035 SCT300 26/17 A3001 NOSIG=
202203241600 METAR MROC 241600Z 11015G25KT 9999 FEW035 28/17 A3001 NOSIG=
202203241700 METAR MROC 241700Z 10016G26KT 9999 FEW035 28/17 A2999 NOSIG=
202203241800 METAR MROC 241800Z 11014G24KT 070V130 9999 FEW035 29/17 A2997 NOSIG=
202203241900 METAR MROC 241900Z 11013G25KT 080V160 9999 FEW040 29/17 A2997 NOSIG=
202203242000 METAR MROC 242000Z 11016KT 9999 FEW040 28/17 A2991 NOSIG=
202203242100 METAR MROC 242100Z 09014G24KT 9999 SCT035 SCT200 26/17 A2990 NOSIG=
202203242200 METAR MROC 242200Z 10015KT 9999 FEW035 SCT060 25/17 A2990 NOSIG=
202203242300 METAR MROC 242300Z 12012KT 9999 SCT035 BKN060 23/16 A2992 NOSIG=
202203250000 METAR MROC 250000Z 12013KT 080V140 9999 SCT030 BKN060 22/16 A2994 NOSIG=
202203250100 METAR MROC 250100Z 11012KT 080V140 9999 FEW035 SCT060 22/16 A2997 NOSIG=
202203250200 METAR MROC 250200Z 11011KT 9999 FEW035 22/15 A2998 NOSIG=
202203250300 METAR MROC 250300Z 10014KT 9999 FEW035 22/15 A3000 NOSIG=
202203250400 METAR MROC 250400Z 10009KT 070V130 9999 FEW030 21/15 A3002 NOSIG=
202203250500 METAR MROC 250500Z 11011KT 080V140 9999 FEW035 22/15 A3001 NOSIG=
202203250600 METAR MROC 250600Z 11009KT 9999 FEW040 22/15 A2999 NOSIG=
202203250700 METAR MROC 250700Z 10010KT 060V130 9999 FEW040 22/15 A2997 NOSIG=
202203250800 METAR MROC 250800Z 04007KT 010V080 CAVOK 21/15 A2995 NOSIG=
202203250900 METAR MROC 250900Z 08006KT 040V150 CAVOK 21/16 A2995 NOSIG=
202203251000 METAR MROC 251000Z 07010KT 040V110 CAVOK 21/16 A2995 NOSIG=
202203251100 METAR MROC 251100Z COR 06011G21KT CAVOK 21/16 A2997 NOSIG=
202203251200 METAR MROC 251200Z 06010KT 020V090 9999 FEW030 21/16 A2998 NOSIG=
202203251300 METAR MROC 251300Z 10013G23KT 070V140 9999 FEW035 22/16 A3000 NOSIG=
202203251400 METAR MROC 251400Z 10021G32KT 070V130 9999 FEW035 24/15 A3001 NOSIG=
202203251500 METAR MROC 251500Z 09016G16KT 060V120 9999 SCT030 25/14 A3003 NOSIG=
202203251600 METAR MROC 251600Z 09014G24KT 9999 FEW035 27/14 A3003 NOSIG=
202203251700 METAR MROC 251700Z 10017G27KT 9999 SCT035 27/14 A3002 NOSIG=
202203251800 METAR MROC 251800Z 10015G25KT 080V140 9999 FEW035 SCT060 27/14 A3000 NOSIG=
202203251900 METAR MROC 251900Z 11015G27KT 070V140 9999 SCT040 27/14 A2997 NOSIG=
202203252000 METAR MROC 252000Z 10015G25KT 070V130 9999 FEW040 26/14 A2993 NOSIG=
202203252100 METAR MROC 252100Z 12016KT 080V150 9999 FEW040 26/15 A2991 NOSIG=
202203252200 METAR MROC 252200Z 11016G27KT 080V140 9999 SCT040 25/15 A2990 NOSIG=
202203252300 METAR MROC 252300Z 12016KT 9999 FEW040 BKN120 23/16 A2992 NOSIG=
202203260000 METAR MROC 260000Z 11012KT 080V140 9999 FEW040 BKN060 22/15 A2993 NOSIG=
202203260100 METAR MROC 260100Z 11013KT 9999 FEW035 22/15 A2996 NOSIG=
202203260200 METAR MROC 260200Z 10011KT 9999 FEW035 21/15 A2997 NOSIG=
202203260300 METAR MROC 260300Z 10011KT CAVOK 20/15 A3000 NOSIG=
202203260400 METAR MROC 260400Z 09011KT 060V120 CAVOK 20/13 A3002 NOSIG=
202203260500 METAR MROC 260500Z 08008KT 050V110 CAVOK 20/13 A3002 NOSIG=
202203260600 METAR MROC 260600Z 07010G20KT CAVOK 19/13 A2999 NOSIG=
202203260700 METAR MROC 260700Z 03008KT 360V070 CAVOK 18/12 A2998 NOSIG=
202203260800 METAR MROC 260800Z 05008KT 020V080 CAVOK 19/12 A2997 NOSIG=
202203260900 METAR MROC 260900Z 06008KT CAVOK 18/11 A2996 NOSIG=
202203261000 METAR MROC 261000Z 10009KT 070V130 CAVOK 19/12 A2999 NOSIG=
202203261100 METAR MROC 261100Z 08009KT 050V120 CAVOK 19/13 A2996 NOSIG=
202203261200 METAR MROC 261200Z 08009KT 030V130 CAVOK 19/13 A2999 NOSIG=
202203261300 METAR MROC 261300Z 09010G20KT 060V120 CAVOK 21/14 A2999 NOSIG=
202203261400 METAR MROC 261400Z 10016G26KT 070V140 CAVOK 24/14 A2999 NOSIG=
202203261500 METAR MROC 261500Z 10018G30KT CAVOK 25/13 A3000 NOSIG=
202203261600 METAR MROC 261600Z 09017KT 070V130 CAVOK 27/13 A3000 NOSIG=
202203261700 METAR MROC 261700Z 09015G25KT 060V120 CAVOK 27/12 A2999 NOSIG=
202203261800 METAR MROC 261800Z 10014G28KT 060V140 9999 FEW035 28/14 A2998 NOSIG=
202203261900 METAR MROC 261900Z 09014KT 060V120 9999 FEW035 29/14 A2995 NOSIG=
202203262000 METAR MROC 262000Z 09013KT 070V130 9999 FEW030 29/14 A2992 NOSIG=
202203262100 METAR MROC 262100Z 11010KT 060V160 9999 FEW035 28/14 A2991 NOSIG=
202203262200 METAR MROC 262200Z 08011KT 050V110 9999 FEW040 SCT140 28/14 A2990 NOSIG=
202203262300 METAR MROC 262300Z 09011KT 9999 FEW040 BKN200 26/14 A2992 NOSIG=
202203270000 METAR MROC 270000Z 09009KT 9999 FEW040 BKN200 24/14 A2995 NOSIG=
202203270100 METAR MROC 270100Z 10009KT 070V130 CAVOK 24/14 A2997 NOSIG=
202203270200 METAR MROC 270200Z 09010KT CAVOK 21/15 A3001 NOSIG=
202203270300 METAR MROC 270300Z 11010KT CAVOK 21/14 A3003 NOSIG=
202203270400 METAR MROC 270400Z 07012KT 040V100 CAVOK 21/14 A3004 NOSIG=
202203270500 METAR MROC 270500Z 10009G19KT 050V150 CAVOK 20/14 A3003 NOSIG=
202203270600 METAR MROC 270600Z 11012G22KT 080V140 CAVOK 20/13 A3001 NOSIG=
202203270700 METAR MROC 270700Z 11011G21KT CAVOK 20/13 A2998 NOSIG=
202203270800 METAR MROC 270800Z 07013KT 040V110 CAVOK 20/12 A2996 NOSIG=
202203270900 METAR MROC 270900Z 05011KT 020V090 CAVOK 19/13 A2996 NOSIG=
202203271000 METAR MROC 271000Z 06012KT CAVOK 20/13 A2996 NOSIG=
202203271100 METAR MROC 271100Z 08009KT CAVOK 20/13 A2998 NOSIG=
202203271200 METAR MROC 271200Z 06010G20KT CAVOK 20/12 A2998 NOSIG=
202203271300 METAR MROC 271300Z 06007KT 010V120 CAVOK 21/13 A3000 NOSIG=
202203271400 METAR MROC 271400Z 10013G24KT 070V130 CAVOK 24/12 A3002 NOSIG=
202203271500 METAR MROC 271500Z 10016KT CAVOK 26/08 A3002 NOSIG=
202203271600 METAR MROC 271600Z 10015G25KT 070V130 CAVOK 28/10 A3001 NOSIG=
202203271700 METAR MROC 271700Z 10015KT 070V130 CAVOK 28/13 A2999 NOSIG=
202203271800 METAR MROC 271800Z 10015KT 070V140 CAVOK 28/14 A2998 NOSIG=
202203271900 METAR MROC 271900Z 09014KT 060V130 9999 FEW045 SCT200 29/13 A2996 NOSIG=
202203272000 METAR MROC 272000Z 11012KT 080V140 9999 FEW045 SCT230 29/14 A2993 NOSIG=
202203272100 METAR MROC 272100Z 11012KT 080V140 9999 FEW040 BKN070 29/14 A2991 NOSIG=
202203272200 METAR MROC 272200Z 11009KT 080V170 9999 FEW040 BKN080 28/14 A2992 NOSIG=
202203272300 METAR MROC 272300Z 10010KT 070V130 9999 FEW040 SCT080 BKN200 26/15 A2994 NOSIG=
202203280000 METAR MROC 280000Z 11011KT 9999 FEW035 BKN200 23/16 A2996 NOSIG=
202203280100 METAR MROC 280100Z 11012KT CAVOK 22/15 A2999 NOSIG=
202203280200 METAR MROC 280200Z 11010G23KT CAVOK 22/15 A3002 NOSIG=
202203280300 METAR MROC 280300Z 10009KT 070V130 CAVOK 22/15 A3004 NOSIG=
202203280400 METAR MROC 280400Z 09010G20KT 070V130 CAVOK 21/15 A3005 NOSIG=
202203280500 METAR MROC 280500Z 10013KT 070V130 CAVOK 21/14 A3004 NOSIG=
202203280600 METAR MROC 280600Z 07007KT 030V100 CAVOK 21/13 A3003 NOSIG=
202203280700 METAR MROC 280700Z 07010KT 030V110 CAVOK 20/12 A3001 NOSIG=
202203280800 METAR MROC 280800Z 06011KT CAVOK 19/12 A2998 NOSIG=
202203280900 METAR MROC 280900Z 08008KT 050V120 CAVOK 20/12 A2997 NOSIG=
202203281000 METAR MROC 281000Z 09011KT 060V120 CAVOK 20/13 A2997 NOSIG=
202203281100 METAR MROC 281100Z 10011KT 070V140 CAVOK 20/13 A2999 NOSIG=
202203281200 METAR MROC 281200Z 08009KT 050V110 CAVOK 20/12 A3000 NOSIG=
202203281300 METAR MROC 281300Z 09012KT 060V130 CAVOK 22/12 A3002 NOSIG=
202203281400 METAR MROC 281400Z 11014KT 080V140 CAVOK 25/13 A3004 NOSIG=
202203281500 METAR MROC 281500Z 11014KT CAVOK 26/13 A3004 NOSIG=
202203281600 METAR MROC 281600Z 10012G22KT 070V130 CAVOK 28/13 A3004 NOSIG=
202203281700 METAR MROC 281700Z 10013KT 070V140 CAVOK 29/13 A3003 NOSIG=
202203281800 METAR MROC 281800Z 10009KT 070V150 FEW040 SCT200 30/14 A3000 NOSIG=
202203281900 METAR MROC 281900Z 10013KT 070V140 9999 FEW035 30/15 A2998 NOSIG=
202203282000 METAR MROC 282000Z 10010KT 070V160 9999 FEW040 SCT200 30/16 A2996 NOSIG=
202203282100 METAR MROC 282100Z 11011KT 080V150 9999 FEW040 SCT180 29/17 A2994 NOSIG=
202203282200 METAR MROC 282200Z 11013KT 9999 FEW040 SCT200 27/17 A2994 NOSIG=
202203282300 METAR MROC 282300Z 12011KT 090V150 9999 FEW035 BKN250 25/17 A2996 NOSIG=
202203290000 METAR MROC 290000Z 11011KT 9999 FEW035 BKN250 23/17 A2997 NOSIG=
202203290100 METAR MROC 290100Z 11013KT 9999 FEW030 SCT250 23/17 A2999 NOSIG=
202203290200 METAR MROC 290200Z 11011KT 9999 FEW030 22/17 A3001 NOSIG=
202203290300 METAR MROC 290300Z 10016G26KT 9999 FEW030 22/17 A3003 NOSIG=
202203290400 METAR MROC 290400Z 11016KT 9999 FEW035 22/17 A3004 NOSIG=
202203290500 METAR MROC 290500Z 11016G27KT 9999 FEW035 22/17 A3004 NOSIG=
202203290600 METAR MROC 290600Z 11014KT 9999 FEW035 22/16 A3002 NOSIG=
202203290700 METAR MROC 290700Z 11013KT 9999 FEW030 22/17 A3001 NOSIG=
202203290800 METAR MROC 290800Z 10012KT 9999 FEW030 22/17 A2999 NOSIG=
202203290900 METAR MROC 290900Z 10014KT 9999 FEW030 22/16 A2998 NOSIG=
202203291000 METAR MROC 291000Z 11009KT 9999 FEW030 21/16 A2999 NOSIG=
202203291100 METAR MROC 291100Z 12010G20KT 090V150 9999 FEW030 21/17 A3000 NOSIG=
202203291200 METAR MROC 291200Z 11013KT 9999 FEW035 BKN250 21/17 A3002 NOSIG=
202203291300 METAR MROC 291300Z 11012G22KT 9999 FEW040 BKN250 23/17 A3004 NOSIG=
202203291400 METAR MROC 291400Z 11018KT 9999 FEW040 BKN250 25/16 A3005 NOSIG=
202203291500 METAR MROC 291500Z 10015G26KT 9999 FEW045 BKN250 27/16 A3005 NOSIG=
202203291600 METAR MROC 291600Z 10012G22KT 060V140 CAVOK 28/16 A3005 NOSIG=
202203291700 METAR MROC 291700Z 10012G22KT 070V130 CAVOK 28/16 A3003 NOSIG=
202203291800 METAR MROC 291800Z 10012G22KT 070V130 CAVOK 30/16 A3000 NOSIG=
202203291900 METAR MROC 291900Z 11010G20KT 060V150 9999 SCT045 BKN200 30/16 A2997 NOSIG=
202203292000 METAR MROC 292000Z 12009G20KT 080V180 9999 VCSH FEW025TCU SCT060 BKN200 29/16 A2993 NOSIG=
202203292100 METAR MROC 292100Z 12010KT 080V170 9999 VCSH SCT025CB BKN180 28/17 A2993 NOSIG=
202203292200 METAR MROC 292200Z 12009KT 080V180 9999 FEW035 BKN180 27/17 A2993 NOSIG=
202203292300 METAR MROC 292300Z 11011KT 080V140 9999 FEW030 BKN200 26/17 A2992 NOSIG=
202203300000 METAR MROC 300000Z 26004KT 230V290 9999 SCT030 BKN250 24/19 A2995 NOSIG RMK LGT HZ ARND=
202203300100 METAR MROC 300100Z 10007KT 050V140 9999 BKN035 23/18 A2998 NOSIG=
202203300200 METAR MROC 300200Z 08011KT 9999 BKN035 24/17 A3000 NOSIG=
202203300300 METAR MROC 300300Z 12008KT 9999 FEW030 23/17 A3001 NOSIG=
202203300400 METAR MROC 300400Z 08009KT 9999 FEW020 23/17 A3003 NOSIG=
202203300500 METAR MROC 300500Z 10012G22KT 080V140 CAVOK 22/17 A3002 NOSIG=
202203300600 METAR MROC 300600Z 11009KT CAVOK 22/17 A3000 NOSIG=
202203300700 METAR MROC 300700Z 09011KT 060V120 CAVOK 22/17 A2998 NOSIG=
202203300800 METAR MROC 300800Z 05008KT CAVOK 22/17 A2996 NOSIG=
202203300900 METAR MROC 300900Z 11013KT 9999 SCT035 22/16 A2995 NOSIG=
202203301000 METAR MROC 301000Z 08006KT 050V110 9999 FEW025 21/16 A2995 NOSIG=
202203301100 METAR MROC 301100Z 10013KT CAVOK 21/15 A2995 NOSIG=
202203301200 METAR MROC 301200Z 10013KT CAVOK 21/15 A2996 NOSIG=
202203301300 METAR MROC 301300Z 11013KT 080V140 CAVOK 22/15 A2999 NOSIG=
202203301400 METAR MROC 301400Z 12012KT 090V150 CAVOK 25/15 A3000 NOSIG=
202203301500 METAR MROC 301500Z 11012KT 080V150 CAVOK 27/14 A3001 NOSIG=
202203301600 METAR MROC 301600Z 10013KT 080V140 CAVOK 28/14 A3001 NOSIG=
202203301700 METAR MROC 301700Z 10013KT 080V140 9999 FEW045 SCT080 29/15 A2999 NOSIG=
202203301800 METAR MROC 301800Z 09011KT 060V140 9999 FEW045 SCT080 30/15 A2997 NOSIG=
202203301900 METAR MROC 301900Z 10012KT 060V160 9999 SCT045 30/16 A2993 NOSIG=
202203302000 METAR MROC 302000Z 13007KT 080V200 9999 FEW040 SCT250 29/16 A2990 NOSIG=
202203302100 METAR MROC 302100Z 10008KT 070V140 9999 SCT040 BKN200 28/16 A2988 NOSIG=
202203302200 METAR MROC 302200Z 20007KT 130V250 9999 VCSH FEW028TCU SCT070 BKN200 26/20 A2988 NOSIG=
202203302300 METAR MROC 302300Z VRB04KT 9999 FEW035 BKN200 26/18 A2989 NOSIG=
202203310000 METAR MROC 310000Z 11007KT 080V150 9999 FEW040 BKN200 24/17 A2990 NOSIG=
202203310100 METAR MROC 310100Z 01005KT 340V040 9999 FEW035 SCT200 23/18 A2993 NOSIG=
202203310200 METAR MROC 310200Z 00000KT 9999 FEW040 SCT200 22/18 A2995 NOSIG=
202203310300 METAR MROC 310300Z 08005KT 050V110 CAVOK 22/18 A2997 NOSIG=
202203310400 METAR MROC 310400Z 08007KT CAVOK 22/17 A2998 NOSIG=
202203310500 METAR MROC 310500Z 07007KT CAVOK 21/16 A2997 NOSIG=
202203310600 METAR MROC 310600Z 08008KT 040V100 CAVOK 21/15 A2996 NOSIG=
202203310700 METAR MROC 310700Z 08009KT CAVOK 22/15 A2994 NOSIG=
202203310800 METAR MROC 310800Z 09004KT 050V160 CAVOK 21/16 A2993 NOSIG=
202203310900 METAR MROC 310900Z 04004KT 360V090 CAVOK 20/16 A2992 NOSIG=
202203311000 METAR MROC 311000Z 03005KT CAVOK 19/15 A2992 NOSIG=
202203311100 METAR MROC 311100Z 04004KT 350V070 CAVOK 20/16 A2993 NOSIG=
202203311200 METAR MROC 311200Z 08008KT 050V110 CAVOK 21/17 A2994 NOSIG=
202203311300 METAR MROC 311300Z 12007KT 070V170 CAVOK 23/17 A2996 NOSIG=
202203311400 METAR MROC 311400Z 09009KT 060V120 CAVOK 25/17 A2998 NOSIG=
202203311500 METAR MROC 311500Z 09008KT 050V120 CAVOK 27/17 A2998 NOSIG=
202203311600 METAR MROC 311600Z 20007KT 9999 FEW045 BKN250 29/17 A2997 NOSIG=
202203311700 METAR MROC 311700Z 22009KT 9999 SCT040 BKN250 29/18 A2996 NOSIG=
202203311800 METAR MROC 311800Z 25011KT 200V280 9999 SCT040 BKN250 29/19 A2998 NOSIG=
202203311900 METAR MROC 311900Z 23010KT 190V260 9999 FEW030TCU SCT045 BKN250 29/19 A2996 NOSIG=
202203312000 METAR MROC 312000Z 25011KT 210V290 9999 FEW025TCU SCT040 BKN250 29/20 A2992 NOSIG=
202203312100 METAR MROC 312100Z COR 23016KT 9999 VCSH SCT025TCU BKN060 26/21 A2992 BECMG RA=
202203312200 METAR MROC 312200Z VRB03KT 9999 4000N -RA FEW020 FEW025TCU BKN040 23/21 A2994 RETS NOSIG=
202203312300 METAR MROC 312300Z 03006KT 9999 2000NE RA FEW015 BKN025 22/22 A2995 NOSIG=
202204010000 METAR MROC 010000Z 07003KT 040V100 9999 FEW015 SCT025 BKN080 22/22 A2997 RERA NOSIG=
202204010100 METAR MROC 010100Z 28004KT 9999 BKN025 23/22 A2999 NOSIG=
202204010200 METAR MROC 010200Z VRB02KT 9999 4500SW BCFG SCT006 BKN025 21/21 A3002 NOSIG=
202204010300 METAR MROC 010300Z 25003KT 9999 4500SW BCFG FEW005 SCT008 BKN030 21/21 A3005 NOSIG=
202204010400 METAR MROC 010400Z VRB02KT 9999 FEW010 SCT050 21/20 A3007 NOSIG=
202204010500 METAR MROC 010500Z 09002KT 9999 FEW001 21/21 A3006 NOSIG=
202204010600 METAR MROC 010600Z 08003KT CAVOK 21/21 A3004 NOSIG=
202204010700 METAR MROC 010700Z 04005KT CAVOK 21/20 A3001 NOSIG=
202204010800 METAR MROC 010800Z 05005KT CAVOK 21/19 A3000 NOSIG=
202204010900 METAR MROC 010900Z VRB02KT 9999 FEW030 21/19 A3000 NOSIG=
202204011000 METAR MROC 011000Z VRB02KT CAVOK 21/19 A3001 NOSIG=
202204011100 METAR MROC 011100Z 08007KT 060V120 9999 FEW035 SCT100 21/16 A3003 NOSIG=
202204011200 METAR MROC 011200Z 10010KT 9999 FEW045 BKN080 21/17 A3004 NOSIG=
202204011300 METAR MROC 011300Z 10009KT 070V130 CAVOK 22/17 A3005 NOSIG=
202204011400 METAR MROC 011400Z 10010KT CAVOK 23/17 A3001 NOSIG=
202204011500 METAR MROC 011500Z 12009KT 080V150 CAVOK 25/17 A3001 NOSIG=
202204011600 METAR MROC 011600Z 10008KT CAVOK 26/17 A3002 NOSIG=
202204011700 METAR MROC 011700Z 10007KT 060V140 9999 FEW035 BKN100 27/17 A3000 NOSIG=
202204011800 METAR MROC 011800Z 12008KT 090V150 9999 FEW035 BKN120 30/17 A2997 NOSIG=
202204011900 METAR MROC 011900Z 13008KT 080V170 9999 FEW035 BKN100 30/17 A2994 NOSIG=
202204012000 METAR MROC 012000Z 14005KT 090V200 9999 FEW035 SCT080 30/17 A2991 BECMG 24007KT=
202204012100 METAR MROC 012100Z 25012KT 9999 DZ SCT020CB SCT040 26/20 A2990 NOSIG=
202204012200 METAR MROC 012200Z 33006KT 9999 BKN035 24/21 A2991 REDZ NOSIG=
202204012300 METAR MROC 012300Z 27008KT 9999 FEW005 OVC030 22/21 A2994 NOSIG=
202204020000 METAR MROC 020000Z COR 28003KT 230V310 9999 SCT010 BKN030 22/21 A2998 NOSIG=
202204020100 METAR MROC 020100Z VRB01KT 9999 FEW012 BKN025 22/21 A2999 BECMG 08005KT=
202204020200 METAR MROC 020200Z 04004KT 020V090 9999 BKN025 22/21 A3000 NOSIG=
202204020300 METAR MROC 020300Z COR 09006KT 060V120 CAVOK 22/18 A3001 NOSIG=
202204020400 METAR MROC 020400Z 08007KT 040V130 CAVOK 22/18 A3003 NOSIG=
202204020500 METAR MROC 020500Z 11009KT 070V140 9999 FEW035 BKN100 22/16 A3003 NOSIG=
202204020600 METAR MROC 020600Z 09008KT 060V140 9999 FEW035 22/17 A3001 NOSIG=
202204020700 METAR MROC 020700Z 11010KT CAVOK 22/17 A2999 NOSIG=
202204020800 METAR MROC 020800Z 08006KT 010V130 9999 FEW030 BKN110 22/17 A2997 NOSIG=
202204020900 METAR MROC 020900Z 09007KT 040V130 CAVOK 22/17 A2996 NOSIG=
202204021000 METAR MROC 021000Z 06006KT 020V120 9999 FEW035 BKN120 22/17 A2997 NOSIG=
202204021100 METAR MROC 021100Z 03005KT 360V070 9999 FEW035 BKN100 21/16 A2999 NOSIG=
202204021200 METAR MROC 021200Z 08007KT 040V110 9999 FEW040 BKN120 22/17 A3000 NOSIG=
202204021300 METAR MROC 021300Z 11010KT 070V140 9999 FEW035 BKN100 23/17 A3006 NOSIG=
202204021400 METAR MROC 021400Z 11011KT 9999 FEW035 BKN120 24/17 A3003 NOSIG=
202204021500 METAR MROC 021500Z 11011KT 060V150 9999 FEW040 BKN120 26/16 A3003 NOSIG=
202204021600 METAR MROC 021600Z 10011KT 070V140 9999 FEW040 SCT150 28/15 A3002 NOSIG=
202204021700 METAR MROC 021700Z 12011KT 080V160 9999 FEW035 SCT150 28/17 A3001 NOSIG=
202204021800 METAR MROC 021800Z 10012KT 9999 FEW040 BKN120 29/17 A2999 NOSIG=
202204021900 METAR MROC 021900Z 10011KT 060V130 9999 FEW040 29/17 A2995 NOSIG=
202204022000 METAR MROC 022000Z 11011KT 060V140 9999 FEW045 29/17 A2997 NOSIG=
202204022100 METAR MROC 022100Z 11012KT 080V150 9999 VCSH FEW025TCU FEW045 SCT060 29/16 A2994 NOSIG=
202204022200 METAR MROC 022200Z 24010KT 9999 FEW040 BKN060 26/20 A2995 NOSIG=
202204022300 METAR MROC 022300Z 22007KT 9999 FEW040 BKN120 25/19 A2997 NOSIG=
202204030000 METAR MROC 030000Z 13003KT 070V180 9999 FEW035 SCT080 BKN200 25/17 A2999 NOSIG=
202204030100 METAR MROC 030100Z 15007KT 120V180 9999 FEW035 23/18 A3000 NOSIG=
202204030200 METAR MROC 030200Z 10004KT 9999 FEW035 23/18 A3003 NOSIG=
202204030300 METAR MROC 030300Z 10004KT 9999 FEW035 BKN045 23/18 A3004 NOSIG=
202204030400 METAR MROC 030400Z VRB02KT 9999 BKN030 22/19 A3001 NOSIG=
202204030500 METAR MROC 030500Z VRB02KT 9999 SCT040 21/19 A3001 NOSIG=
202204030600 METAR MROC 030600Z VRB02KT CAVOK 21/18 A3000 NOSIG=
202204030700 METAR MROC 030700Z 23003KT CAVOK 21/18 A2997 NOSIG=
202204030800 METAR MROC 030800Z 05004KT 020V090 CAVOK 21/16 A2995 NOSIG=
202204030900 METAR MROC 030900Z 08004KT CAVOK 20/16 A2995 NOSIG=
202204031000 METAR MROC 031000Z 08006KT CAVOK 20/16 A2995 NOSIG=
202204031100 METAR MROC 031100Z 09007KT 050V120 CAVOK 21/17 A2996 NOSIG=
202204031200 METAR MROC 031200Z 10007KT 070V130 CAVOK 21/17 A2996 NOSIG=
202204031300 METAR MROC 031300Z 09010KT 060V120 9999 FEW035 23/17 A2998 NOSIG=
202204031400 METAR MROC 031400Z 10013KT 080V140 9999 FEW035 25/17 A2999 NOSIG=
202204031500 METAR MROC 031500Z 10013KT 070V130 9999 FEW040 26/17 A2999 NOSIG=
202204031600 METAR MROC 031600Z 11012KT 080V150 9999 FEW040 27/17 A2999 NOSIG=
202204031700 METAR MROC 031700Z 10010KT 060V150 9999 SCT045 28/17 A2998 NOSIG=
202204031800 METAR MROC 031800Z 19007KT 150V230 9999 RA BKN040 28/18 A2995 BECMG 25008KT=
202204031900 METAR MROC 031900Z 20004KT 110V250 9999 BKN045 28/19 A2993 RERA NOSIG=
202204032000 METAR MROC 032000Z 18008KT 160V220 9999 4000S +RA SCT040 BKN070 22/20 A2991 NOSIG=
202204032100 METAR MROC 032100Z COR 21006KT 9999 4000SW RA SCT030 BKN100 21/21 A2991 NOSIG=
202204032200 METAR MROC 032200Z 35004KT 320V120 9999 4000SW RA SCT030 BKN100 22/21 A2991 NOSIG=
202204032300 METAR MROC 032300Z VRB02KT 9999 BKN035 22/21 A2992 RERA NOSIG=
202204040000 METAR MROC 040000Z 28003KT 250V330 9999 BCFG FEW001 BKN035 21/21 A2994 NOSIG=
202204040100 METAR MROC 040100Z VRB01KT 9999 SCT035 21/21 A2996 NOSIG=
202204040200 METAR MROC 040200Z 08008KT 9999 FEW035 21/18 A2996 NOSIG=
202204040300 METAR MROC 040300Z 08007KT 9999 FEW035 22/18 A2999 NOSIG=
202204040400 METAR MROC 040400Z 13004KT 100V160 9999 FEW035 SCT060 22/18 A3001 NOSIG=
202204040500 METAR MROC 040500Z 07003KT CAVOK 21/18 A3001 NOSIG=
202204040600 METAR MROC 040600Z 07004KT CAVOK 21/18 A3005 NOSIG=
202204040700 METAR MROC 040700Z 05006KT CAVOK 21/18 A2998 NOSIG=
202204040800 METAR MROC 040800Z 08003KT 050V110 CAVOK 20/18 A2995 NOSIG=
202204040900 METAR MROC 040900Z 07006KT CAVOK 21/18 A2993 NOSIG=
202204041000 METAR MROC 041000Z 10008KT CAVOK 21/17 A2992 NOSIG=
202204041100 METAR MROC 041100Z 06006KT CAVOK 21/18 A2993 NOSIG=
202204041200 METAR MROC 041200Z 07005KT 9999 FEW035 OVC200 21/18 A2994 NOSIG=
202204041300 METAR MROC 041300Z 10004KT 060V140 9999 FEW035 SCT070 BKN200 23/18 A2997 NOSIG=
202204041400 METAR MROC 041400Z 10007KT 070V140 9999 FEW040 BKN200 24/18 A2998 BECMG 23006KT=
202204041500 METAR MROC 041500Z 12010KT 090V160 9999 FEW035 BKN200 26/18 A3000 NOSIG=
202204041600 METAR MROC 041600Z 09013KT 060V120 9999 FEW035 SCT200 27/17 A2999 NOSIG=
202204041700 METAR MROC 041700Z 10008KT 070V160 9999 FEW040 SCT200 28/18 A2998 NOSIG=
202204041800 METAR MROC 041800Z 12004KT 070V220 9999 SCT040 SCT070 BKN200 29/17 A2996 BECMG 22007KT=
202204041900 METAR MROC 041900Z 21011KT 9999 SCT035 BKN120 27/21 A2994 NOSIG=
202204042000 METAR MROC 042000Z 23009KT 9999 FEW040 OVC180 26/20 A2992 NOSIG=
202204042100 METAR MROC 042100Z 23008KT 200V260 9999 BKN030 25/21 A2990 NOSIG=
202204042200 METAR MROC 042200Z COR 24007KT 210V270 9999 VCTS FEW020CB BKN025 25/21 A2994 TEMPO TSRA=
202204042300 METAR MROC 042300Z 13003KT 080V180 9999 4000S -TSRA FEW020CB BKN025 23/20 A2996 NOSIG=
202204050000 METAR MROC 050000Z 17003KT 130V230 9999 TSRA SCT020CB BKN025 22/22 A2998 NOSIG=
202204050100 METAR MROC 050100Z 16006KT 130V200 9999 VCTS FEW020CB BKN025 21/21 A3002 REDZ NOSIG=
202204050200 METAR MROC 050200Z 17004KT 030V130 9999 RA BKN020 21/21 A3004 NOSIG=
202204050300 METAR MROC 050300Z VRB02KT 9999 RA BKN025 21/21 A3005 NOSIG=
202204050400 METAR MROC 050400Z VRB01KT CAVOK 21/21 A3007 RERA NOSIG=
202204050500 METAR MROC 050500Z 24003KT 9999 -DZ BCFG NSC 21/21 A3007 NOSIG=
202204050600 METAR MROC 050600Z VRB02KT 9999 BCFG NSC 21/21 A3004 NOSIG=
202204050700 METAR MROC 050700Z 07005KT CAVOK 20/20 A3001 NOSIG=
202204050800 METAR MROC 050800Z 09006KT CAVOK 20/20 A2997 NOSIG=
202204050900 METAR MROC 050900Z 08009KT CAVOK 21/19 A2995 NOSIG=
202204051000 METAR MROC 051000Z 10006KT 070V150 CAVOK 21/19 A2995 NOSIG=
202204051100 METAR MROC 051100Z VRB02KT CAVOK 21/18 A2998 NOSIG=
202204051200 METAR MROC 051200Z 08005KT CAVOK 21/18 A3000 NOSIG=
202204051300 METAR MROC 051300Z 06006KT 9999 FEW030 SCT250 23/19 A3001 NOSIG=
202204051400 METAR MROC 051400Z 08008KT 050V120 9999 FEW040 SCT250 25/19 A3004 NOSIG=
202204051500 METAR MROC 051500Z 11009KT 080V150 9999 SCT040 27/19 A3005 NOSIG=
202204051600 METAR MROC 051600Z 10011KT 9999 FEW030 BKN045 26/19 A3005 NOSIG=
202204051700 METAR MROC 051700Z 10009KT 060V130 9999 FEW025 BKN045 27/18 A3004 NOSIG=
202204051800 METAR MROC 051800Z 12007KT 060V190 9999 FEW025TCU FEW030 BKN045 29/18 A3002 BECMG 22007KT=
202204051900 METAR MROC 051900Z COR 19007KT 160V220 9999 FEW025TCU FEW030 BKN045 27/18 A2998 NOSIG=
202204052000 METAR MROC 052000Z 23009KT 210V270 9999 -RA VCSH FEW020TCU FEW030 BKN045 26/21 A2996 NOSIG=
202204052100 METAR MROC 052100Z 24007KT 200V270 8000 3000NW -SHRA FEW010 FEW020TCU OVC030 22/22 A2997 NOSIG=
202204052200 METAR MROC 052200Z 25010KT 9999 -TSRA SCT004 FEW010CB BKN025 20/20 A2998 NOSIG=
202204052300 METAR MROC 052300Z VRB03KT 5000 -RA BR FEW004 SCT025 OVC040 21/21 A2999 NOSIG=
202204060000 METAR MROC 060000Z 11003KT 070V130 9999 FEW020 BKN100 21/21 A2998 NOSIG=
202204060100 METAR MROC 060100Z 10003KT 010V120 9999 FEW030 SCT140 21/21 A2998 NOSIG=
202204060200 METAR MROC 060200Z 33003KT 9999 FEW020 SCT060 21/21 A3000 NOSIG=
202204060300 METAR MROC 060300Z 05004KT 9999 FEW025 SCT140 21/20 A3002 NOSIG=
202204060400 METAR MROC 060400Z VRB03KT 9999 FEW035 BKN140 21/21 A3003 NOSIG=
202204060500 METAR MROC 060500Z 08006KT 9999 FEW035 21/20 A3002 NOSIG=
202204060600 METAR MROC 060600Z 06008KT 9999 FEW035 22/19 A2999 NOSIG=
202204060700 METAR MROC 060700Z VRB02KT 9999 FEW030 SCT130 21/19 A2997 NOSIG=
202204060800 METAR MROC 060800Z 05003KT 010V100 9999 FEW025 20/19 A2996 NOSIG=
202204060900 METAR MROC 060900Z 02003KT 330V060 9999 FEW025 19/19 A2996 NOSIG=
202204061000 METAR MROC 061000Z 08004KT 010V140 9999 FEW025 20/19 A2996 NOSIG=
202204061100 METAR MROC 061100Z 04005KT CAVOK 19/18 A2998 NOSIG=
202204061200 METAR MROC 061200Z 07007KT CAVOK 20/18 A3000 NOSIG=
202204061300 METAR MROC 061300Z 08004KT CAVOK 23/19 A3003 NOSIG=
202204061400 METAR MROC 061400Z 08009KT 050V110 CAVOK 25/18 A3004 NOSIG=
202204061500 METAR MROC 061500Z 12006KT 070V180 CAVOK 27/18 A3005 NOSIG=
202204061600 METAR MROC 061600Z COR VRB04KT 9999 FEW045 SCT250 28/19 A3004 NOSIG=
202204061700 METAR MROC 061700Z 24008KT 220V280 9999 FEW045 SCT200 28/19 A3002 NOSIG=
202204061800 METAR MROC 061800Z 25009KT 200V290 9999 FEW040 SCT200 29/20 A2999 NOSIG=
202204061900 METAR MROC 061900Z 24010KT 190V260 9999 FEW025TCU SCT040 30/21 A2996 NOSIG=
202204062000 METAR MROC 062000Z 25009KT 200V300 9999 RA FEW020TCU BKN035 29/21 A2994 NOSIG=
202204062100 METAR MROC 062100Z 22006G16KT 3000 -TSRA FEW015CB SCT035 BKN070 19/19 A2996 NOSIG=
202204062200 METAR MROC 062200Z 23005KT 9999 4500SW FEW010 SCT035 BKN120 20/20 A2996 NOSIG=
202204062300 METAR MROC 062300Z 11004KT 9999 FEW025 SCT100 BKN200 21/21 A2997 NOSIG=
202204070000 METAR MROC 070000Z VRB02KT 9999 FEW035 SCT080 BKN200 21/21 A3000 NOSIG=
202204070100 METAR MROC 070100Z 09003KT 9999 FEW035 BKN200 21/21 A3002 NOSIG=
202204070200 METAR MROC 070200Z 02005KT 340V050 9999 FEW035 BKN200 21/21 A3002 NOSIG=
202204070300 METAR MROC 070300Z 06004KT CAVOK 21/20 A3002 NOSIG=
202204070400 METAR MROC 070400Z VRB02KT CAVOK 22/18 A3004 NOSIG=
202204070500 METAR MROC 070500Z 08009KT CAVOK 22/17 A3004 NOSIG=
202204070600 METAR MROC 070600Z 07007KT CAVOK 21/17 A3001 NOSIG=
202204070700 METAR MROC 070700Z 07007KT CAVOK 21/17 A2998 NOSIG=
202204070800 METAR MROC 070800Z 06008KT CAVOK 20/17 A2995 NOSIG=
202204070900 METAR MROC 070900Z 07008KT CAVOK 20/16 A2994 NOSIG=
202204071000 METAR MROC 071000Z 08009KT CAVOK 20/14 A2996 NOSIG=
202204071100 METAR MROC 071100Z 07008KT CAVOK 18/13 A2998 NOSIG=
202204071200 METAR MROC 071200Z 06005KT CAVOK 17/13 A3001 NOSIG=
202204071300 METAR MROC 071300Z 07004KT CAVOK 21/14 A3003 NOSIG=
202204071400 METAR MROC 071400Z 03004KT 360V080 CAVOK 24/14 A3005 NOSIG=
202204071500 METAR MROC 071500Z VRB04KT CAVOK 27/11 A3005 NOSIG=
202204071600 METAR MROC 071600Z 24008KT 200V270 CAVOK 27/16 A3005 NOSIG=
202204071700 METAR MROC 071700Z 24009KT 210V290 9999 FEW045 BKN250 27/19 A3003 NOSIG=
202204071800 METAR MROC 071800Z 23008KT 200V280 9999 FEW040 BKN250 28/19 A3001 NOSIG=
202204071900 METAR MROC 071900Z 24010KT 9999 FEW040 BKN250 28/19 A2999 NOSIG=
202204072000 METAR MROC 072000Z 21011KT 200V280 9999 FEW040 BKN250 28/19 A2996 NOSIG=
202204072100 METAR MROC 072100Z 23008KT 190V270 9999 FEW040 BKN200 27/20 A2995 NOSIG=
202204072200 METAR MROC 072200Z 23009KT 210V270 9999 FEW035 BKN250 27/21 A2994 NOSIG=
202204072300 METAR MROC 072300Z 23010KT 9999 FEW035 BKN250 25/21 A2996 NOSIG=
202204080000 METAR MROC 080000Z 24007KT 9999 VCSH FEW015TCU FEW030 BKN200 24/21 A2999 NOSIG=
202204080100 METAR MROC 080100Z 24003KT 9999 BKN010 23/22 A3002 NOSIG=
202204080200 METAR MROC 080200Z 27003KT 250V310 9999 2000W BCFG BKN020 23/23 A3003 TEMPO 5000 BR=
202204080300 METAR MROC 080300Z VRB02KT 9999 2000W BCFG BKN015 22/22 A3005 NOSIG=
202204080400 METAR MROC 080400Z 00000KT 9999 FEW005 BKN020 22/22 A3007 NOSIG=
202204080500 METAR MROC 080500Z 11003KT 9999 FEW020 SCT035 22/19 A3006 NOSIG=
202204080600 METAR MROC 080600Z 11008KT CAVOK 22/18 A3003 NOSIG=
202204080700 METAR MROC 080700Z 08006KT CAVOK 21/17 A3002 NOSIG=
202204080800 METAR MROC 080800Z 09005KT CAVOK 21/17 A3000 NOSIG=
202204080900 METAR MROC 080900Z 07006KT 040V100 CAVOK 21/17 A2999 NOSIG=
202204081000 METAR MROC 081000Z 08006KT 060V120 CAVOK 21/16 A3000 NOSIG=
202204081100 METAR MROC 081100Z 03006KT CAVOK 19/17 A3001 NOSIG=
202204081200 METAR MROC 081200Z 06004KT 030V100 CAVOK 20/17 A3003 NOSIG=
202204081300 METAR MROC 081300Z VRB03KT CAVOK 23/17 A3005 NOSIG=
202204081400 METAR MROC 081400Z 09008KT 060V140 CAVOK 26/18 A3005 NOSIG=
202204081500 METAR MROC 081500Z 11014KT 9999 FEW045 27/18 A3006 NOSIG=
202204081600 METAR MROC 081600Z 11010G20KT 070V130 9999 FEW045 29/16 A3005 NOSIG=
202204081700 METAR MROC 081700Z 10011KT 070V130 9999 SCT045 29/17 A3004 NOSIG=
202204081800 METAR MROC 081800Z 09010KT 9999 FEW045 BKN080 30/16 A3002 NOSIG=
202204081900 METAR MROC 081900Z 11006KT 070V140 9999 SCT045 SCT100 30/17 A2999 NOSIG=
202204082000 METAR MROC 082000Z VRB07KT 9999 SCT045 BKN250 30/17 A2996 NOSIG=
202204082100 METAR MROC 082100Z 22012KT 9999 VCSH FEW020TCU SCT045 BKN250 26/21 A2997 NOSIG=
202204082200 METAR MROC 082200Z 23010KT 9999 FEW015TCU BKN045 26/22 A2997 NOSIG=
202204082300 METAR MROC 082300Z 31006KT 280V350 6000 RA SCT010 BKN030 23/19 A3000 NOSIG=
202204090000 METAR MROC 090000Z VRB02KT 9999 FEW008 SCT030 BKN070 22/22 A3002 RERA NOSIG=
202204090100 METAR MROC 090100Z VRB02KT 9999 FEW010 BKN050 22/22 A3004 NOSIG=
202204090200 METAR MROC 090200Z 25003KT 9999 FEW010 BKN050 22/22 A3006 NOSIG=
202204090300 METAR MROC 090300Z 29002KT 9999 FEW010 SCT050 BKN140 22/22 A3008 NOSIG=
202204090400 METAR MROC 090400Z VRB02KT 9999 FEW025 22/20 A3008 NOSIG=
202204090500 METAR MROC 090500Z 07010KT 9999 FEW025 22/19 A3007 NOSIG=
202204090600 METAR MROC 090600Z 09007KT CAVOK 21/18 A3003 NOSIG=
202204090700 METAR MROC 090700Z 05008KT 020V100 CAVOK 22/18 A3002 NOSIG=
202204090800 METAR MROC 090800Z 10010KT CAVOK 22/18 A3001 NOSIG=
202204090900 METAR MROC 090900Z 07007KT CAVOK 21/18 A3001 NOSIG=
202204091000 METAR MROC 091000Z 11004KT 080V140 CAVOK 21/18 A3001 NOSIG=
202204091100 METAR MROC 091100Z 09009KT CAVOK 22/18 A3003 NOSIG=
202204091200 METAR MROC 091200Z 03008KT 360V070 CAVOK 21/18 A3004 NOSIG=
202204091300 METAR MROC 091300Z 11006KT 070V140 9999 SCT040 BKN080 22/19 A3007 NOSIG=
202204091400 METAR MROC 091400Z 10006KT 060V130 9999 SCT035 SCT080 24/19 A3008 NOSIG=
202204091500 METAR MROC 091500Z 10007KT 070V130 9999 -RA FEW035 BKN100 22/21 A3010 NOSIG=
202204091600 METAR MROC 091600Z 11006KT 080V140 6000 RA FEW035 OVC100 21/21 A3011 NOSIG=
202204091700 METAR MROC 091700Z 10005KT 9999 -RA FEW035 BKN100 22/21 A3010 NOSIG=
202204091800 METAR MROC 091800Z COR 10009KT 060V150 9999 FEW035 BKN100 24/19 A3006 NOSIG=
202204091900 METAR MROC 091900Z 10012KT 060V140 9999 SCT035 BKN100 25/16 A3003 NOSIG=
202204092000 METAR MROC 092000Z 09014G25KT 060V120 9999 SCT035 BKN100 24/17 A3002 NOSIG=
202204092100 METAR MROC 092100Z 10014KT 080V140 9999 FEW030 BKN040 OVC130 24/18 A3001 NOSIG=
202204092200 METAR MROC 092200Z 09013KT 9999 FEW030 SCT045 BKN130 24/16 A2999 NOSIG=
202204092300 METAR MROC 092300Z 10014G25KT 9999 FEW025 SCT045 BKN160 23/17 A2999 NOSIG=
202204100000 METAR MROC 100000Z 10012KT 070V130 9999 FEW035 BKN160 22/16 A3002 NOSIG=
202204100100 METAR MROC 100100Z 10013G25KT 9999 FEW030 SCT130 BKN200 22/17 A3003 NOSIG=
202204100200 METAR MROC 100200Z 10014KT 9999 FEW035 SCT150 BKN200 22/17 A3005 NOSIG=
202204100300 METAR MROC 100300Z 10016KT 9999 FEW035 SCT150 22/17 A3007 NOSIG=
202204100400 METAR MROC 100400Z 10016KT 9999 FEW035 BKN140 22/17 A3008 NOSIG=
202204100500 METAR MROC 100500Z 10016G26KT 9999 FEW035 BKN120 21/17 A3006 NOSIG=
202204100600 METAR MROC 100600Z 11017KT 9999 FEW040 BKN160 21/17 A3004 NOSIG=
202204100700 METAR MROC 100700Z 11015G25KT 9999 FEW040 21/17 A3002 NOSIG=
202204100800 METAR MROC 100800Z 11017KT 9999 FEW040 SCT120 21/17 A2999 NOSIG=
202204100900 METAR MROC 100900Z 11017KT 9999 FEW035 SCT120 21/17 A2998 NOSIG=
202204101000 METAR MROC 101000Z 11015KT 9999 FEW030 SCT120 21/17 A2999 NOSIG=
202204101100 METAR MROC 101100Z 10013G23KT 9999 FEW030 SCT100 21/18 A3000 NOSIG=
202204101200 METAR MROC 101200Z 10016KT 9999 FEW030 BKN100 22/17 A3001 NOSIG=
202204101300 METAR MROC 101300Z 10013G23KT 9999 FEW030 BKN100 22/16 A3003 NOSIG=
202204101400 METAR MROC 101400Z 09015G25KT 070V130 9999 FEW035 BKN120 24/15 A3005 NOSIG=
202204101500 METAR MROC 101500Z 09016KT 9999 FEW035 BKN130 24/14 A3006 NOSIG=
202204101600 METAR MROC 101600Z 10015G25KT 060V130 9999 FEW035 SCT140 26/15 A3006 WS R07 NOSIG=
202204101700 METAR MROC 101700Z 09020G30KT 060V120 9999 FEW040 SCT140 27/15 A3006 WS R07 NOSIG=
202204101800 METAR MROC 101800Z 10015G25KT 9999 FEW040 BKN140 26/17 A3003 WS R07 NOSIG=
202204101900 METAR MROC 101900Z 09018G28KT 9999 FEW035 SCT180 26/15 A3001 WS R07 NOSIG=
202204102000 METAR MROC 102000Z 09016G28KT 9999 FEW040 SCT140 28/15 A2998 WS R07 NOSIG=
202204102100 METAR MROC 102100Z 09013G23KT 9999 FEW040 SCT200 27/15 A2995 WS R07 NOSIG=
202204102200 METAR MROC 102200Z 11015G25KT 080V140 9999 FEW035 SCT120 BKN200 25/16 A2996 NOSIG=
202204102300 METAR MROC 102300Z 11012G22KT 080V140 9999 FEW035 SCT060 BKN120 25/16 A2996 NOSIG=
202204110000 METAR MROC 110000Z 10011G21KT 9999 FEW035 SCT200 24/17 A3000 NOSIG=
202204110100 METAR MROC 110100Z 10011G21KT 9999 FEW035 22/17 A3001 NOSIG=
202204110200 METAR MROC 110200Z 10010G20KT 9999 FEW035 21/17 A3001 NOSIG=
202204110300 METAR MROC 110300Z 11013G23KT 9999 FEW035 22/16 A3002 NOSIG=
202204110400 METAR MROC 110400Z 10014G24KT 9999 FEW030 21/16 A3004 NOSIG=
202204110500 METAR MROC 110500Z 10013G23KT 9999 FEW030 21/16 A3003 NOSIG=
202204110600 METAR MROC 110600Z 10016KT 9999 FEW030 21/16 A3000 NOSIG=
202204110700 METAR MROC 110700Z 11015KT 9999 FEW030 21/16 A2998 NOSIG=
202204110800 METAR MROC 110800Z 11013KT CAVOK 20/16 A2996 NOSIG=
202204110900 METAR MROC 110900Z 10015KT 070V130 CAVOK 21/16 A2995 NOSIG=
202204111000 METAR MROC 111000Z 08008KT 050V130 CAVOK 20/17 A2996 NOSIG=
202204111100 METAR MROC 111100Z 07008KT 030V100 CAVOK 20/17 A2999 NOSIG=
202204111200 METAR MROC 111200Z 11013G25KT 090V150 9999 FEW035 BKN250 21/16 A3000 NOSIG=
202204111300 METAR MROC 111300Z 10012KT 060V140 9999 FEW035 SCT250 22/16 A3003 NOSIG=
202204111400 METAR MROC 111400Z 11013G23KT 9999 FEW030 BKN200 24/15 A3005 NOSIG=
202204111500 METAR MROC 111500Z 11015G25KT 060V130 9999 FEW035 SCT200 25/15 A3007 NOSIG=
202204111600 METAR MROC 111600Z 12014KT 090V160 9999 FEW035 SCT200 26/16 A3006 WS R07 NOSIG=
202204111700 METAR MROC 111700Z 10014KT 070V130 9999 FEW040 SCT200 27/16 A3004 WS R07 NOSIG=
202204111800 METAR MROC 111800Z 09012G22KT 060V130 9999 FEW040 SCT200 28/16 A3002 WS R07 NOSIG=
202204111900 METAR MROC 111900Z 10013KT 070V130 9999 FEW040 SCT200 28/17 A2997 WS R07 NOSIG=
202204112000 METAR MROC 112000Z 09010KT 050V140 9999 FEW040 SCT200 30/16 A2995 NOSIG=
202204112100 METAR MROC 112100Z 08012KT 9999 FEW040 SCT200 27/17 A2994 NOSIG=
202204112200 METAR MROC 112200Z 08011KT CAVOK 27/17 A2993 NOSIG=
202204112300 METAR MROC 112300Z 10011KT 9999 FEW040 SCT250 25/17 A2994 NOSIG=
202204120000 METAR MROC 120000Z 10010KT 080V150 9999 FEW020 23/18 A2997 NOSIG=
202204120100 METAR MROC 120100Z 09009KT 050V120 9999 FEW020 23/17 A2998 NOSIG=
202204120200 METAR MROC 120200Z 10011KT 9999 FEW020 22/17 A3001 NOSIG=
202204120300 METAR MROC 120300Z 08010KT 050V110 9999 FEW020 23/15 A3002 NOSIG=
202204120400 METAR MROC 120400Z 11010G20KT 080V140 9999 FEW030 21/15 A3003 NOSIG=
202204120500 METAR MROC 120500Z 11012G22KT 090V150 9999 FEW030 21/15 A3002 NOSIG=
202204120600 METAR MROC 120600Z 10011G21KT CAVOK 21/15 A2999 NOSIG=
202204120700 METAR MROC 120700Z 11012G22KT 080V140 CAVOK 20/15 A2998 NOSIG=
202204120800 METAR MROC 120800Z 11013KT 070V130 CAVOK 20/15 A2996 NOSIG=
202204120900 METAR MROC 120900Z 08012KT 050V140 CAVOK 20/14 A2995 NOSIG=
202204121000 METAR MROC 121000Z 06008KT CAVOK 19/14 A2997 NOSIG=
202204121100 METAR MROC 121100Z 08010KT CAVOK 19/15 A3000 NOSIG=
202204121200 METAR MROC 121200Z 06010KT CAVOK 19/11 A3002 NOSIG=
202204121300 METAR MROC 121300Z 10010KT 070V140 CAVOK 21/14 A3004 NOSIG=
202204121400 METAR MROC 121400Z 11012KT 080V150 CAVOK 23/13 A3004 NOSIG=
202204121500 METAR MROC 121500Z 11013KT CAVOK 25/12 A3005 NOSIG=
202204121600 METAR MROC 121600Z 12009G19KT 070V170 CAVOK 28/14 A3004 NOSIG=
202204121700 METAR MROC 121700Z 11011KT 080V160 CAVOK 27/14 A3004 NOSIG=
202204121800 METAR MROC 121800Z 11008KT 070V150 CAVOK 28/15 A3000 NOSIG=
202204121900 METAR MROC 121900Z 10008KT 060V180 CAVOK 29/16 A2998 NOSIG=
202204122000 METAR MROC 122000Z 10013KT CAVOK 28/16 A2996 NOSIG=
202204122100 METAR MROC 122100Z 10011KT 060V150 9999 FEW040 SCT250 28/16 A2994 NOSIG=
202204122200 METAR MROC 122200Z 11009KT 080V150 9999 FEW040 SCT250 28/16 A2993 NOSIG=
202204122300 METAR MROC 122300Z 11011KT 9999 FEW025TCU FEW040 SCT250 26/17 A2995 NOSIG=
202204130000 METAR MROC 130000Z 13007KT 9999 FEW025TCU FEW030 24/18 A2998 NOSIG=
202204130100 METAR MROC 130100Z 11010KT 9999 FEW030 22/18 A3000 NOSIG=
202204130200 METAR MROC 130200Z 10005KT 070V140 9999 FEW030 22/18 A3003 NOSIG=
202204130300 METAR MROC 130300Z 10009KT 9999 FEW030 22/18 A3005 NOSIG=
202204130400 METAR MROC 130400Z 09005KT 9999 FEW030 SCT110 22/18 A3005 NOSIG=
202204130500 METAR MROC 130500Z 09006KT 9999 FEW030 SCT100 22/18 A3005 NOSIG=
202204130600 METAR MROC 130600Z 07006KT 050V110 9999 FEW030 21/18 A3002 NOSIG=
202204130700 METAR MROC 130700Z 11008KT 070V150 9999 FEW030 21/17 A2998 NOSIG=
202204130800 METAR MROC 130800Z 11013G23KT 9999 FEW030 21/18 A2997 NOSIG=
202204130900 METAR MROC 130900Z 10013KT 080V140 9999 FEW030 21/18 A2996 NOSIG=
202204131000 METAR MROC 131000Z 11012KT 9999 FEW030 21/18 A2995 NOSIG=
202204131100 METAR MROC 131100Z 10010G20KT 9999 FEW030 21/18 A2995 NOSIG=
202204131200 METAR MROC 131200Z 11012G22KT 060V130 9999 FEW030 BKN250 22/18 A2997 NOSIG=
202204131300 METAR MROC 131300Z 10012KT 070V130 9999 FEW030 SCT250 23/18 A3000 NOSIG=
202204131400 METAR MROC 131400Z 11014G24KT 080V140 9999 FEW035 BKN250 25/18 A3001 NOSIG=
202204131500 METAR MROC 131500Z 11014KT 9999 FEW030 BKN250 26/18 A3002 NOSIG=
202204131600 METAR MROC 131600Z 11015KT 9999 FEW025 SCT250 26/18 A3002 NOSIG=
202204131700 METAR MROC 131700Z 10013KT 9999 FEW035 SCT250 28/18 A3000 NOSIG=
202204131800 METAR MROC 131800Z 11012KT 9999 FEW035 SCT250 28/18 A2998 NOSIG=
202204131900 METAR MROC 131900Z 12010KT 9999 FEW040 29/18 A2996 NOSIG=
202204132000 METAR MROC 132000Z 13010KT 9999 SCT040 29/18 A2993 NOSIG=
202204132100 METAR MROC 132100Z 10010KT 070V130 9999 FEW020TCU SCT040 28/18 A2991 NOSIG=
202204132200 METAR MROC 132200Z 11007KT 9999 VCSH FEW025TCU BKN045 27/17 A2991 NOSIG=
202204132300 METAR MROC 132300Z 11012KT 9999 FEW030 BKN055 24/16 A2994 NOSIG=
202204140000 METAR MROC 140000Z COR 11012KT 9999 SCT040 23/17 A2997 NOSIG=
202204140100 METAR MROC 140100Z 11010KT 080V140 9999 FEW035 22/17 A2999 NOSIG=
202204140200 METAR MROC 140200Z 10011KT 070V130 9999 FEW035 22/17 A3000 NOSIG=
202204140300 METAR MROC 140300Z 10013KT 9999 FEW035 22/17 A3002 NOSIG=
202204140400 METAR MROC 140400Z 09009KT 050V120 CAVOK 22/17 A3003 NOSIG=
202204140500 METAR MROC 140500Z 09008KT CAVOK 22/18 A3002 NOSIG=
202204140600 METAR MROC 140600Z 03007KT 350V060 CAVOK 21/17 A3002 NOSIG=
202204140700 METAR MROC NIL=
202204140800 METAR MROC 140800Z 06005KT 030V090 CAVOK 21/17 A2997 NOSIG=
202204140900 METAR MROC 140900Z 07007KT CAVOK 21/17 A2995 NOSIG=
202204141000 METAR MROC 141000Z 05007KT 020V080 CAVOK 21/17 A2995 NOSIG=
202204141100 METAR MROC 141100Z 08007KT CAVOK 21/17 A2996 NOSIG=
202204141200 METAR MROC 141200Z 08008KT CAVOK 21/17 A2997 NOSIG=
202204141300 METAR MROC 141300Z 09005KT 060V150 CAVOK 23/18 A2998 NOSIG=
202204141400 METAR MROC 141400Z 09011KT 060V130 CAVOK 25/18 A3000 NOSIG=
202204141500 METAR MROC 141500Z 10013KT 070V130 CAVOK 26/18 A3002 NOSIG=
202204141600 METAR MROC 141600Z 10012KT 070V130 9999 FEW040 BKN250 27/18 A3002 NOSIG=
202204141700 METAR MROC 141700Z 11007KT 060V160 9999 FEW035 SCT050 28/18 A3002 NOSIG=
202204141800 METAR MROC 141800Z 12009KT 070V170 9999 FEW030 SCT060 29/18 A3000 TEMPO 20006KT=
202204141900 METAR MROC 141900Z 14009KT 090V230 9999 SCT035 30/19 A2995 BECMG 24007KT=
202204142000 METAR MROC 142000Z 27005KT 220V310 9999 SCT030 28/20 A2992 NOSIG=
202204142100 METAR MROC 142100Z 12005KT 9999 FEW035 SCT060 BKN250 28/19 A2991 NOSIG=
202204142200 METAR MROC 142200Z 24012KT 9999 FEW030 BKN045 23/22 A2992 NOSIG=
202204142300 METAR MROC 142300Z 22008KT 9999 FEW030 BKN045 24/20 A2993 NOSIG=
202204150000 METAR MROC 150000Z 32004KT 210V360 9999 FEW025 BKN040 24/20 A2996 NOSIG=
202204150100 METAR MROC 150100Z 11013KT 070V140 9999 FEW025 BKN080 23/18 A2999 NOSIG=
202204150200 METAR MROC 150200Z 10010G20KT 070V130 9999 FEW025 BKN080 23/18 A3001 NOSIG=
202204150300 METAR MROC 150300Z 10013KT 070V130 9999 FEW025 BKN100 23/18 A3002 NOSIG=
202204150400 METAR MROC 150400Z 11010KT 090V150 9999 FEW025 BKN100 23/18 A3003 NOSIG=
202204150500 METAR MROC 150500Z 06009KT 9999 FEW025 SCT100 23/18 A3003 NOSIG=
202204150600 METAR MROC 150600Z 08004KT 9999 FEW025 22/18 A3001 NOSIG=
202204150700 METAR MROC 150700Z 09006KT 9999 FEW025 22/18 A2999 NOSIG=
202204150800 METAR MROC 150800Z 09005KT 9999 FEW025 22/18 A2997 NOSIG=
202204150900 METAR MROC 150900Z 11005KT 080V140 9999 FEW025 21/18 A2996 NOSIG=
202204151000 METAR MROC 151000Z 10005KT 070V130 9999 FEW025 22/18 A2996 NOSIG=
202204151100 METAR MROC 151100Z VRB03KT 9999 FEW025 22/18 A2996 NOSIG=
202204151200 METAR MROC 151200Z 11009KT 9999 FEW040 22/16 A2997 NOSIG=
202204151300 METAR MROC 151300Z 11015KT 9999 FEW045 23/17 A2999 NOSIG=
202204151400 METAR MROC 151400Z 11018G28KT 9999 FEW045 25/17 A3002 NOSIG=
202204151500 METAR MROC 151500Z 10015G27KT 9999 FEW040 SCT110 26/17 A3002 NOSIG=
202204151600 METAR MROC 151600Z 10016KT CAVOK 28/17 A3003 NOSIG=
202204151700 METAR MROC 151700Z 08015KT 9999 FEW040 SCT110 28/16 A3001 NOSIG=
202204151800 METAR MROC 151800Z 10008KT 060V150 9999 FEW040 SCT200 30/16 A2999 NOSIG=
202204151900 METAR MROC 151900Z 09011KT 050V120 9999 FEW040 SCT200 29/17 A2996 NOSIG=
202204152000 METAR MROC 152000Z 07014KT 9999 FEW035 SCT200 28/16 A2994 NOSIG=
202204152100 METAR MROC 152100Z 11010KT 070V150 9999 FEW035 SCT200 30/17 A2992 NOSIG=
202204152200 METAR MROC 152200Z 12009KT 080V180 9999 FEW040 SCT090 28/18 A2991 NOSIG=
202204152300 METAR MROC 152300Z 12009KT 090V150 9999 VCSH FEW025TCU FEW035 SCT080 27/18 A2993 NOSIG=
202204160000 METAR MROC 160000Z 11006KT 070V150 9999 FEW025 BKN060 25/19 A2996 NOSIG=
202204160100 METAR MROC 160100Z 10007KT 070V140 9999 SCT040 BKN130 24/19 A2999 NOSIG=
202204160200 METAR MROC 160200Z 09005KT 050V130 9999 FEW035 BKN060 23/19 A3001 NOSIG=
202204160300 METAR MROC 160300Z 09005KT 050V120 9999 FEW025 BKN050 24/19 A3003 NOSIG=
202204160400 METAR MROC 160400Z 10012KT 9999 FEW025 BKN050 23/18 A3005 NOSIG=
202204160500 METAR MROC 160500Z 08005KT 030V120 9999 FEW025 SCT080 23/18 A3005 NOSIG=
202204160600 METAR MROC 160600Z 07003KT 9999 FEW025 SCT080 23/18 A3004 NOSIG=
202204160700 METAR MROC 160700Z 07008KT 040V100 9999 FEW025 SCT080 22/19 A3002 NOSIG=
202204160800 METAR MROC 160800Z 04005KT 9999 FEW025 SCT080 22/19 A2999 NOSIG=
202204160900 METAR MROC 160900Z 11005KT CAVOK 21/17 A2998 NOSIG=
202204161000 METAR MROC 161000Z 10008KT CAVOK 21/16 A2998 NOSIG=
202204161100 METAR MROC 161100Z 07006KT 9999 FEW040 SCT200 21/16 A2999 NOSIG=
202204161200 METAR MROC 161200Z 10010G20KT 9999 FEW035 BKN200 22/16 A3000 NOSIG=
202204161300 METAR MROC 161300Z 10013KT 9999 FEW020 BKN200 23/17 A3002 NOSIG=
202204161400 METAR MROC 161400Z 10014G24KT 070V140 9999 FEW020 BKN200 24/17 A3003 NOSIG=
202204161500 METAR MROC 161500Z 10013KT 9999 FEW020 BKN200 26/17 A3004 NOSIG=
202204161600 METAR MROC 161600Z 11011KT 080V140 9999 FEW020 BKN200 27/17 A3003 NOSIG=
202204161700 METAR MROC 161700Z 11012KT 9999 FEW020 BKN200 26/16 A3003 NOSIG=
202204161800 METAR MROC 161800Z 10012KT 9999 FEW020 BKN200 26/16 A3001 NOSIG=
202204161900 METAR MROC 161900Z 10010KT CAVOK 28/17 A2998 NOSIG=
202204162000 METAR MROC 162000Z 11009KT 070V160 CAVOK 29/18 A2995 NOSIG=
202204162100 METAR MROC 162100Z 11010G20KT 080V140 9999 FEW045 BKN080 27/18 A2994 NOSIG=
202204162200 METAR MROC 162200Z 11012KT 070V130 9999 FEW040 BKN080 26/17 A2994 NOSIG=
202204162300 METAR MROC 162300Z 10011KT 9999 SCT040 BKN200 24/16 A2996 NOSIG=
202204170000 METAR MROC 170000Z 11009KT 9999 FEW035 BKN090 23/16 A2999 NOSIG=
202204170100 METAR MROC 170100Z 11011KT 9999 FEW040 SCT090 23/17 A3001 NOSIG=
202204170200 METAR MROC 170200Z 09008KT CAVOK 22/16 A3004 NOSIG=
202204170300 METAR MROC 170300Z 09007KT 060V130 CAVOK 23/15 A3006 NOSIG=
202204170400 METAR MROC 170400Z 08007KT CAVOK 23/12 A3006 NOSIG=
202204170500 METAR MROC 170500Z 07005KT 050V110 CAVOK 22/12 A3005 NOSIG=
202204170600 METAR MROC 170600Z 07006KT CAVOK 21/11 A3003 NOSIG=
202204170700 METAR MROC 170700Z 06006KT CAVOK 21/11 A3002 NOSIG=
202204170800 METAR MROC 170800Z 04006KT CAVOK 20/12 A2999 NOSIG=
202204170900 METAR MROC 170900Z 07008KT CAVOK 20/11 A2997 NOSIG=
202204171000 METAR MROC 171000Z 07008KT CAVOK 20/11 A2996 NOSIG=
202204171100 METAR MROC 171100Z 07005KT CAVOK 21/08 A2998 NOSIG=
202204171200 METAR MROC 171200Z 10005KT CAVOK 20/09 A2999 NOSIG=
202204171300 METAR MROC 171300Z 06008KT CAVOK 22/11 A3001 NOSIG=
202204171400 METAR MROC 171400Z 09007KT 070V150 CAVOK 26/10 A3003 NOSIG=
202204171500 METAR MROC 171500Z 16006KT 080V230 CAVOK 28/09 A3004 BECMG 24007KT=
202204171600 METAR MROC 171600Z 24007KT 200V290 CAVOK 27/17 A3003 NOSIG=
202204171700 METAR MROC 171700Z 24008KT 210V270 CAVOK 28/18 A3001 NOSIG=
202204171800 METAR MROC 171800Z 22009KT 190V250 CAVOK 29/18 A2999 NOSIG=
202204171900 METAR MROC 171900Z 25010KT 220V300 CAVOK 29/19 A2997 NOSIG=
202204172000 METAR MROC 172000Z 25011KT 210V290 FEW045 BKN200 29/19 A2994 NOSIG=
202204172100 METAR MROC 172100Z 24010KT FEW025TCU FEW035 28/22 A2993 NOSIG=
202204172200 METAR MROC 172200Z COR 24009KT 9999 4000SW SCT020TCU BKN030 24/22 A2993 NOSIG=
202204172300 METAR MROC 172300Z 22006KT 9999 FEW020TCU BKN025 23/22 A2996 RERA NOSIG=
202204180000 METAR MROC 180000Z 26005KT 9999 BKN015 22/18 A2999 NOSIG=
202204180026 METAR MROC 180026Z 14004KT 100V170 9999 RA BKN020 21/21 A3001 NOSIG=
202204180100 METAR MROC 180100Z 13004KT 9999 RA BKN020 20/20 A3002 NOSIG=
202204180200 METAR MROC 180200Z 10003KT 9999 FEW030 SCT100 20/20 A3004 RERA NOSIG=
202204180300 METAR MROC 180300Z 09003KT 9999 SCT025 SCT100 21/20 A3006 NOSIG=
202204180400 METAR MROC 180400Z VRB02KT 9999 FEW025 BKN100 21/21 A3007 NOSIG=
202204180500 METAR MROC 180500Z 20003KT 9999 SCT025 BKN070 21/21 A3007 NOSIG=
202204180600 METAR MROC 180600Z VRB01KT 9999 FEW030 BKN070 21/21 A3005 NOSIG=
202204180700 METAR MROC 180700Z VRB02KT CAVOK 21/21 A3003 NOSIG=
202204180800 METAR MROC 180800Z VRB02KT CAVOK 21/21 A3003 NOSIG=
202204180900 METAR MROC 180900Z 00000KT 9999 SCT030 BKN070 20/18 A3002 NOSIG=
202204181000 METAR MROC 181000Z 09004KT 9999 SCT025 BKN080 19/17 A3002 NOSIG=
202204181100 METAR MROC 181100Z 07008KT 9999 FEW030 BKN100 19/16 A3002 NOSIG=
202204181200 METAR MROC 181200Z 07006KT 9999 FEW040 BKN120 20/16 A3003 NOSIG=
202204181300 METAR MROC 181300Z 07007KT 9999 SCT045 BKN120 22/16 A3004 NOSIG=
202204181400 METAR MROC 181400Z COR 10007KT 080V140 CAVOK 24/17 A3005 NOSIG=
202204181500 METAR MROC 181500Z 11011KT 080V140 CAVOK 26/16 A3005 NOSIG=
202204181600 METAR MROC 181600Z 11008KT 9999 FEW045 BKN200 28/15 A3004 NOSIG=
202204181700 METAR MROC 181700Z VRB03KT 9999 FEW045 BKN200 29/18 A3003 BECMG 24006KT=
202204181800 METAR MROC 181800Z 25009KT 200V280 9999 FEW045 BKN200 28/19 A3001 NOSIG=
202204181900 METAR MROC 181900Z 25009KT 210V280 9999 FEW045 BKN200 29/20 A2999 NOSIG=
202204182000 METAR MROC 182000Z 24011KT 210V280 9999 -FU SCT040 BKN250 28/21 A2996 NOSIG=
202204182100 METAR MROC 182100Z 24015KT 200V270 9999 VCSH FEW025TCU SCT045 BKN250 27/22 A2997 TEMPO SHRA=
202204182200 METAR MROC 182200Z 19007KT 130V230 9999 4000NE -TSRA SCT015CB 26/22 A2998 NOSIG=
202204182300 METAR MROC 182300Z 09004KT 9999 -RA BKN035 21/20 A2999 RETSRA NOSIG=
202204190000 METAR MROC 190000Z VRB02KT 9999 FEW045 BKN080 22/19 A3002 NOSIG=
202204190100 METAR MROC 190100Z VRB02KT 9999 FEW045 SCT080 22/20 A3005 NOSIG=
202204190200 METAR MROC 190200Z VRB02KT 9999 BKN015 21/21 A3007 NOSIG=
202204190300 METAR MROC 190300Z 00000KT 9999 SCT015 BKN030 22/21 A3009 NOSIG=
202204190400 METAR MROC 190400Z 00000KT 9999 FEW010 21/21 A3010 NOSIG=
202204190500 METAR MROC 190500Z 05004KT 9999 SCT012 21/20 A3009 NOSIG=
202204190600 METAR MROC 190600Z 08003KT 9999 SCT012 SCT025 20/20 A3008 NOSIG=
202204190700 METAR MROC 190700Z 06003KT 9999 FEW025 20/20 A3006 NOSIG=
202204190800 METAR MROC 190800Z 03004KT 330V060 CAVOK 20/20 A3003 NOSIG=
202204190900 METAR MROC 190900Z 05005KT CAVOK 19/18 A3001 NOSIG=
202204191000 METAR MROC 191000Z 06005KT CAVOK 18/17 A3000 NOSIG=
202204191100 METAR MROC 191100Z 11006KT CAVOK 19/16 A3001 NOSIG=
202204191200 METAR MROC 191200Z 07008KT 040V110 CAVOK 21/15 A3004 NOSIG=
202204191300 METAR MROC 191300Z 11009KT CAVOK 23/16 A3007 NOSIG=
202204191400 METAR MROC 191400Z 11005KT 020V190 CAVOK 25/16 A3008 NOSIG=
202204191500 METAR MROC 191500Z 11008KT 060V180 CAVOK 27/15 A3008 NOSIG=
202204191600 METAR MROC 191600Z 11011KT 080V140 CAVOK 28/15 A3007 NOSIG=
202204191700 METAR MROC 191700Z 12009KT 080V160 9999 FEW045 30/15 A3006 NOSIG=
202204191800 METAR MROC 191800Z 12008KT 090V170 9999 SCT045 29/14 A3005 NOSIG=
202204191900 METAR MROC 191900Z 24007KT 170V260 9999 BKN045 27/19 A3003 NOSIG=
202204192000 METAR MROC 192000Z 23010KT 200V260 9999 SCT045 26/21 A3001 NOSIG=
202204192100 METAR MROC 192100Z 27008KT 220V310 9999 FEW030TCU FEW030 BKN050 23/20 A3002 NOSIG=
202204192200 METAR MROC 192200Z 23005KT 210V280 9999 FEW030 BKN080 24/21 A3002 NOSIG=
202204192300 METAR MROC 192300Z 22005KT 180V260 9999 -RA BKN030 25/20 A3003 NOSIG=
202204200000 METAR MROC 200000Z 23005KT 210V270 9999 4500SW RA BKN020 21/20 A3004 NOSIG=
202204200100 METAR MROC 200100Z 12003KT 080V180 9999 BKN030 22/17 A3008 RERA NOSIG=
202204200200 METAR MROC 200200Z VRB02KT 9999 FEW020 BKN040 23/18 A3011 NOSIG=
202204200300 METAR MROC 200300Z 14004KT 090V260 9999 BKN045 22/16 A3013 NOSIG=
202204200400 METAR MROC 200400Z 05007KT CAVOK 21/16 A3013 NOSIG=
202204200500 METAR MROC 200500Z 09009KT CAVOK 21/16 A3014 NOSIG=
202204200600 METAR MROC 200600Z 08006KT CAVOK 21/15 A3010 NOSIG=
202204200700 METAR MROC 200700Z 07005KT CAVOK 20/15 A3008 NOSIG=
202204200800 METAR MROC 200800Z 03004KT CAVOK 18/14 A3006 NOSIG=
202204200900 METAR MROC 200900Z 08005KT CAVOK 19/13 A3005 NOSIG=
202204201000 METAR MROC 201000Z 09005KT CAVOK 19/13 A3006 NOSIG=
202204201100 METAR MROC 201100Z 06004KT 030V100 CAVOK 18/14 A3006 NOSIG=
202204201200 METAR MROC 201200Z 09009KT 060V120 CAVOK 20/13 A3008 NOSIG=
202204201300 METAR MROC 201300Z 08004KT 020V130 CAVOK 22/14 A3010 NOSIG=
202204201400 METAR MROC 201400Z VRB03KT CAVOK 25/14 A3012 NOSIG=
202204201500 METAR MROC 201500Z 06004KT 360V120 CAVOK 27/14 A3011 NOSIG=
202204201600 METAR MROC 201600Z 14006KT 070V190 9999 FEW045 28/14 A3011 NOSIG=
202204201700 METAR MROC 201700Z 24009KT 210V270 9999 FEW045 27/18 A3010 NOSIG=
202204201800 METAR MROC 201800Z 25010KT 220V290 9999 SCT040 28/19 A3008 NOSIG=
202204201900 METAR MROC 201900Z 25012KT 9999 SCT040 28/18 A3006 NOSIG=
202204202000 METAR MROC 202000Z 23010KT 9999 BKN040 28/20 A3003 NOSIG=
202204202100 METAR MROC 202100Z 23008KT 170V260 9999 TS VCSH SCT020CB BKN040 26/20 A3004 BECMG 5000 TSRA=
202204202200 METAR MROC 202200Z 08004KT 320V120 9999 -RA SCT020TCU BKN045 21/18 A3004 NOSIG=
202204202300 METAR MROC 202300Z 09004KT 9999 FEW030 BKN060 21/19 A3005 NOSIG=
202204210000 METAR MROC 210000Z VRB02KT 9999 FEW025 BKN080 22/19 A3006 NOSIG=
202204210100 METAR MROC 210100Z VRB02KT 9999 FEW020 BKN060 21/20 A3009 NOSIG=
202204210200 METAR MROC 210200Z 00000KT CAVOK 21/21 A3010 NOSIG=
202204210300 METAR MROC 210300Z 02004KT 360V070 CAVOK 21/19 A3010 NOSIG=
202204210400 METAR MROC 210400Z 09004KT CAVOK 19/19 A3012 NOSIG=
202204210500 METAR MROC 210500Z VRB02KT CAVOK 20/16 A3012 NOSIG=
202204210600 METAR MROC 210600Z 05003KT CAVOK 18/17 A3011 NOSIG=
202204210700 METAR MROC 210700Z VRB02KT CAVOK 18/16 A3010 NOSIG=
202204210800 METAR MROC 210800Z 07004KT CAVOK 16/16 A3009 NOSIG=
202204210900 METAR MROC 210900Z 07005KT CAVOK 17/15 A3008 NOSIG=
202204211000 METAR MROC 211000Z 03005KT 360V060 CAVOK 17/15 A3009 NOSIG=
202204211100 METAR MROC 211100Z 08005KT CAVOK 16/15 A3009 NOSIG=
202204211200 METAR MROC 211200Z 08004KT CAVOK 17/15 A3010 NOSIG=
202204211300 METAR MROC 211300Z 04005KT CAVOK 21/16 A3012 NOSIG=
202204211400 METAR MROC 211400Z 07003KT 350V110 CAVOK 24/16 A3014 NOSIG=
202204211500 METAR MROC 211500Z VRB02KT CAVOK 26/16 A3014 BECMG 24008KT=
202204211600 METAR MROC 211600Z 23007KT 190V280 9999 FEW045 27/17 A3013 NOSIG=
202204211700 METAR MROC 211700Z 24009KT 190V280 9999 FEW045 SCT250 27/17 A3012 NOSIG=
202204211800 METAR MROC 211800Z 26011KT 220V280 9999 FEW040 SCT250 27/18 A3009 NOSIG=
202204211900 METAR MROC 211900Z 25012KT 9999 FEW040 SCT250 27/19 A3007 NOSIG=
202204212000 METAR MROC 212000Z 24012KT 9999 FEW025 SCT040 27/21 A3004 NOSIG=
202204212100 METAR MROC 212100Z 25012KT 9999 VCTS BKN025 25/20 A3004 TEMPO TSRA SCT020CB=
202204212103 METAR MROC 212103Z 24010KT 9999 TS FEW020CB BKN025 25/21 A3004 TEMPO RA SCT020CB=
202204212200 METAR MROC 212200Z 24008KT 9999 FEW020 BKN035 23/21 A3005 RETS TEMPO RA BKN030=
202204212218 METAR MROC 212218Z VRB05KT 3000 RA BR SCT015 OVC030 21/19 A3006 NOSIG=
202204212300 METAR MROC 212300Z 14003KT 090V190 3000 RA BR FEW010 SCT015 OVC030 21/21 A3007 NOSIG=
202204212317 METAR MROC 212317Z 09006KT 2500 +RA BR OVC020 20/20 A3007 BECMG 5000 BR OVC015=
202204220000 METAR MROC 220000Z VRB02KT 5000 -RA BR FEW001 SCT030 OVC070 19/19 A3007 RERA TEMPO 3000 BR BKN015=
202204220100 METAR MROC 220100Z 00000KT 9999 SCT035 19/19 A3009 NOSIG=
202204220200 METAR MROC 220200Z VRB02KT 9999 FEW035 20/20 A3011 NOSIG=
202204220300 METAR MROC 220300Z 00000KT CAVOK 20/20 A3013 TEMPO BCFG=
202204220400 METAR MROC 220400Z 06003KT 360V100 CAVOK 20/20 A3013 NOSIG=
202204220500 METAR MROC 220500Z 07005KT CAVOK 19/19 A3013 NOSIG=
202204220600 METAR MROC 220600Z VRB03KT 9999 FEW030 19/19 A3011 NOSIG=
202204220700 METAR MROC 220700Z 15002KT 9999 FEW008 SCT130 18/18 A3010 NOSIG=
202204220800 METAR MROC 220800Z 08003KT 9999 FEW010 SCT150 18/18 A3008 NOSIG=
202204220900 METAR MROC 220900Z 07003KT 9999 SCT010 18/18 A3007 NOSIG=
202204221000 METAR MROC 221000Z 08003KT 9999 FEW040 18/18 A3008 NOSIG=
202204221100 METAR MROC 221100Z 06003KT 9999 FEW045 SCT230 18/18 A3009 NOSIG=
202204221200 METAR MROC 221200Z 06005KT 030V110 9999 FEW010 SCT080 18/18 A3011 NOSIG=
202204221300 METAR MROC 221300Z VRB02KT 9999 FEW045 21/19 A3012 NOSIG=
202204221400 METAR MROC 221400Z 30003KT 230V350 CAVOK 23/19 A3014 NOSIG=
202204221500 METAR MROC 221500Z 28004KT 240V320 9999 FEW030 24/19 A3014 NOSIG=
202204221600 METAR MROC 221600Z 23007KT 190V250 9999 SCT040 25/19 A3014 NOSIG=
202204221700 METAR MROC 221700Z 24008KT 190V290 9999 SCT040 BKN200 25/19 A3012 NOSIG=
202204221800 METAR MROC 221800Z 25009KT 230V300 9999 FEW020TCU SCT040 25/20 A3008 NOSIG=
202204221900 METAR MROC 221900Z 26008KT 220V290 9999 SCT020TCU FEW035 26/20 A3004 NOSIG=
202204222000 METAR MROC 222000Z 24009KT 9999 VCSH SCT020TCU SCT030 25/20 A3001 NOSIG=
202204222100 METAR MROC 222100Z 29008KT 9999 FEW010 SCT030 BKN120 24/23 A3000 NOSIG=
202204222200 METAR MROC 222200Z 25008KT 9999 VCTS FEW010CB SCT015 BKN030 23/22 A3000 NOSIG=
202204222300 METAR MROC 222300Z 03004KT 1000 R07/P2000N TSRA FEW005 SCT010CB BKN025 21/20 A3002 NOSIG=
202204230000 METAR MROC 230000Z VRB02KT 9999 -RA SCT030 BKN045 20/20 A3005 TEMPO RA=
202204230100 METAR MROC 230100Z VRB02KT 9999 3000SW -RA SCT005 BKN010 21/21 A3008 NOSIG=
202204230200 METAR MROC 230200Z 20004KT 9999 4000SW BCFG SCT005 BKN030 20/20 A3010 RERA NOSIG=
202204230300 METAR MROC 230300Z 01003KT 9999 SCT010 BKN100 20/20 A3010 NOSIG=
202204230400 METAR MROC 230400Z 02003KT 9999 FEW020 20/20 A3010 NOSIG=
202204230500 METAR MROC 230500Z 26005KT 210V350 9999 FEW015 BKN030 20/20 A3011 NOSIG=
202204230600 METAR MROC 230600Z VRB02KT 9999 BCFG FEW015 BKN030 20/20 A3009 NOSIG=
202204230700 METAR MROC 230700Z 04004KT 9999 FEW020 SCT040 20/20 A3006 NOSIG=
202204230800 METAR MROC 230800Z 10004KT 9999 FEW020 19/19 A3002 NOSIG=
202204230900 METAR MROC 230900Z 05005KT 350V070 CAVOK 19/19 A3001 NOSIG=
202204231000 METAR MROC 231000Z 19003KT 150V220 CAVOK 19/19 A3002 NOSIG=
202204231100 METAR MROC 231100Z 10004KT 070V150 CAVOK 18/18 A3003 NOSIG=
202204231200 METAR MROC 231200Z 09006KT CAVOK 20/18 A3003 NOSIG=
202204231300 METAR MROC 231300Z 09005KT CAVOK 22/19 A3005 NOSIG=
202204231400 METAR MROC 231400Z 10007KT 9999 FEW045 24/18 A3005 NOSIG=
202204231500 METAR MROC 231500Z 12005KT 060V190 CAVOK 26/19 A3005 TEMPO 24005KT=
202204231600 METAR MROC 231600Z COR 24011KT 9999 SCT040 26/19 A3005 NOSIG=
202204231700 METAR MROC 231700Z 23009KT 200V260 9999 SCT040 26/20 A3004 NOSIG=
202204231800 METAR MROC 231800Z 25010KT 9999 FEW030 SCT045 26/20 A3001 NOSIG=
202204231900 METAR MROC 231900Z 24009KT 190V290 9999 VCSH SCT020TCU FEW035 27/21 A2998 NOSIG=
202204232000 METAR MROC 232000Z COR 25009KT 220V300 9999 SHRA FEW020CB SCT020TCU SCT030 27/21 A2996 TEMPO -TSRA=
202204232100 METAR MROC 232100Z 13006KT 290V180 9999 4500S SHRA VCTS SCT020CB SCT040 21/20 A2994 NOSIG=
202204232114 METAR MROC 232114Z 09007KT 060V130 5000 TSRA SCT015CB OVC025 21/19 A2994 NOSIG=
202204232200 METAR MROC 232200Z COR 15005KT 050V200 9999 4000SW -TSRA SCT040CB BKN060 20/20 A2995 NOSIG=
202204232300 METAR MROC 232300Z 31005KT 290V360 9999 4500SW -RA BCFG FEW010 OVC040 20/20 A2997 NOSIG=
202204240000 METAR MROC 240000Z VRB03KT 9999 OVC015 20/20 A2999 NOSIG=
202204240100 METAR MROC 240100Z VRB01KT 9999 4500SW BCFG OVC010 21/20 A3000 NOSIG=
202204240200 METAR MROC 240200Z VRB01KT 9999 SCT015 BKN035 20/20 A3002 NOSIG=
202204240300 METAR MROC 240300Z VRB02KT 9999 BKN035 20/20 A3005 NOSIG=
202204240400 METAR MROC 240400Z 09004KT 9999 -RA FEW020 BKN035 20/20 A3006 NOSIG=
202204240500 METAR MROC 240500Z VRB02KT 9999 FEW020 BKN120 20/20 A3005 NOSIG=
202204240600 METAR MROC 240600Z 13004KT 100V160 9999 FEW035 BKN120 20/20 A3003 NOSIG=
202204240700 METAR MROC 240700Z 33003KT 9999 SCT035 BKN120 20/20 A3002 NOSIG=
202204240800 METAR MROC 240800Z 11003KT 9999 FEW035 19/19 A2999 NOSIG=
202204240900 METAR MROC 240900Z 05004KT 010V080 9999 FEW035 SCT120 19/19 A2999 NOSIG=
202204241000 METAR MROC 241000Z 06005KT 9999 FEW035 SCT120 19/19 A3000 NOSIG=
202204241100 METAR MROC 241100Z 10005KT 050V140 CAVOK 19/17 A3000 NOSIG=
202204241200 METAR MROC 241200Z 10003KT CAVOK 19/18 A3002 NOSIG=
202204241300 METAR MROC 241300Z VRB02KT CAVOK 21/18 A3003 NOSIG=
202204241400 METAR MROC 241400Z 00000KT CAVOK 23/18 A3005 NOSIG=
202204241500 METAR MROC 241500Z 24005KT 220V300 9999 FEW025 24/19 A3005 NOSIG=
202204241600 METAR MROC 241600Z 25007KT 220V280 9999 FEW030 25/19 A3004 NOSIG=
202204241700 METAR MROC 241700Z 26007KT 210V290 9999 FEW025 SCT035 25/20 A3003 NOSIG=
202204241800 METAR MROC 241800Z 23011KT 9999 SCT030 26/21 A3001 NOSIG=
202204241900 METAR MROC 241900Z 24007KT 180V280 9999 FEW025 SCT035 27/22 A2997 NOSIG=
202204242000 METAR MROC 242000Z 23008KT 210V270 9999 SCT030TCU 27/21 A2994 BECMG SHRA=
202204242100 METAR MROC 242100Z 23009KT 9999 VCSH FEW020TCU BKN035 26/21 A2993 NOSIG=
202204242200 METAR MROC 242200Z 25008KT 9999 VCSH FEW015TCU BKN030 24/22 A2993 NOSIG=
202204242300 METAR MROC 242300Z COR 22008KT 180V240 9999 3000S -RA VCTS SCT010CB BKN030 23/23 A2996 NOSIG=
202204250000 METAR MROC 250000Z 22010KT 8000 BCFG FEW005 OVC010 22/22 A2998 NOSIG=
202204250100 METAR MROC 250100Z 23005KT 180V250 9999 FEW008 BKN025 21/21 A3000 NOSIG=
202204250200 METAR MROC 250200Z 36004KT 330V030 9999 RA FEW010 BKN020 22/21 A3003 NOSIG=
202204250300 METAR MROC 250300Z VRB02KT 9999 FEW010 SCT025 21/21 A3003 RERA NOSIG=
202204250400 METAR MROC 250400Z 03005KT 9999 FEW010 BKN030 21/20 A3005 NOSIG=
202204250500 METAR MROC 250500Z 10004KT 9999 4500E BCFG FEW010 SCT040 BKN080 20/20 A3004 NOSIG=
202204250600 METAR MROC 250600Z 31003KT 9999 BKN030 21/21 A3004 NOSIG=
202204250700 METAR MROC 250700Z 04005KT 9999 BKN030 21/21 A3000 NOSIG=
202204250800 METAR MROC 250800Z 26004KT 9999 FEW010 BKN030 20/20 A3000 NOSIG=
202204250900 METAR MROC 250900Z VRB02KT 9999 2000SW BCFG SCT002 20/20 A2999 TEMPO 5000 BR=
202204251000 METAR MROC 251000Z 06006KT 9999 VCFG SCT004 20/20 A2998 NOSIG=
202204251100 METAR MROC 251100Z 04004KT 9999 2000SW BCFG SCT003 19/19 A2999 NOSIG=
202204251200 METAR MROC 251200Z 05005KT CAVOK 19/19 A3001 NOSIG=
202204251300 METAR MROC 251300Z 06004KT CAVOK 22/19 A3003 NOSIG=
202204251400 METAR MROC 251400Z VRB02KT 9999 FEW035 24/19 A3005 BECMG 24007KT=
202204251500 METAR MROC 251500Z 23005KT 170V270 9999 FEW030 25/19 A3005 NOSIG=
202204251600 METAR MROC 251600Z 26008KT 9999 FEW030 28/20 A3004 NOSIG=
202204251700 METAR MROC 251700Z 23007KT 220V270 9999 FEW025 SCT035 26/21 A3003 NOSIG=
202204251800 METAR MROC 251800Z 25009KT 210V270 9999 SCT025 FEW030TCU 27/22 A3001 NOSIG=
202204251900 METAR MROC 251900Z 25011KT 220V280 9999 VCTS FEW018CB FEW020TCU FEW020 27/22 A2998 BECMG SHRA=
202204252000 METAR MROC 252000Z 24008KT 210V270 9999 -TSRA FEW015 FEW020CB SCT025 26/22 A2996 NOSIG=
202204252100 METAR MROC 252100Z 04012KT 5000 TSRA SCT020CB BKN025 20/20 A2996 NOSIG=
202204252200 METAR MROC 252200Z 08004KT 060V160 8000 3000SW -RA VCTS FEW020CB BKN030 20/20 A2997 NOSIG=
202204252300 METAR MROC 252300Z 27006KT 5000 TSRA BR SCT008 SCT020CB BKN030 20/20 A3001 NOSIG=
202204260000 METAR MROC 260000Z VRB02KT 8000 RA VCTS FEW020CB BKN030 19/19 A3003 NOSIG=
202204260100 METAR MROC 260100Z 06005KT 9999 -RA FEW015 BKN030 20/20 A3005 NOSIG=
202204260200 METAR MROC 260200Z 07002KT 9999 FEW010 BKN030 20/20 A3006 NOSIG=
202204260300 METAR MROC 260300Z 00000KT 9999 FEW010 SCT030 20/20 A3007 NOSIG=
202204260400 METAR MROC 260400Z VRB02KT 9999 FEW020 BKN080 20/20 A3008 NOSIG=
202204260500 METAR MROC 260500Z 31003KT 290V350 9999 -RA FEW010 BKN070 20/20 A3008 NOSIG=
202204260600 METAR MROC 260600Z 15003KT 9999 FEW015 BKN150 19/19 A3005 NOSIG=
202204260700 METAR MROC 260700Z 10003KT 9999 FEW020 BKN150 19/19 A3003 NOSIG=
202204260800 METAR MROC 260800Z VRB03KT CAVOK 19/19 A3000 NOSIG=
202204260900 METAR MROC 260900Z 03006KT CAVOK 19/19 A3000 NOSIG=
202204261000 METAR MROC 261000Z 08003KT 020V110 CAVOK 19/19 A3000 NOSIG=
202204261100 METAR MROC 261100Z 07005KT CAVOK 19/19 A3001 NOSIG=
202204261200 METAR MROC 261200Z 06008KT CAVOK 19/19 A3002 NOSIG=
202204261300 METAR MROC NIL=
202204261400 METAR MROC 261400Z VRB03KT CAVOK 24/20 A3006 BECMG 24008KT=
202204261500 METAR MROC 261500Z VRB03KT CAVOK 26/21 A3006 NOSIG=
202204261600 METAR MROC 261600Z 26009KT CAVOK 26/21 A3005 NOSIG=
202204261700 METAR MROC 261700Z 24008KT CAVOK 26/21 A3004 NOSIG=
202204261800 METAR MROC 261800Z 24008KT 200V280 9999 FEW020TCU SCT030 27/22 A3002 TEMPO RA=
202204261900 METAR MROC 261900Z 04009KT 360V090 3000 TSRA FEW020CB SCT030 21/21 A3001 BECMG 5000=
202204262000 METAR MROC 262000Z 26003KT 210V290 9999 -RA VCTS FEW045 SCT100 22/22 A2999 NOSIG=
202204262100 METAR MROC 262100Z VRB02KT 9999 -DZ FEW015 SCT030 BKN100 22/22 A2998 NOSIG=
202204262200 METAR MROC 262200Z 00000KT 9999 FEW010 SCT030 BKN150 22/22 A2996 NOSIG=
202204262300 METAR MROC 262300Z 22004KT 180V240 9999 FEW030 BKN060 23/21 A2998 NOSIG=
202204270000 METAR MROC 270000Z 11004KT 060V170 9999 FEW035 BKN070 24/19 A3002 NOSIG=
202204270100 METAR MROC 270100Z 08003KT 040V110 9999 FEW030 SCT080 23/20 A3003 NOSIG=
202204270200 METAR MROC 270200Z 09005KT 040V120 9999 FEW030 SCT100 23/19 A3004 NOSIG=
202204270300 METAR MROC 270300Z 00000KT CAVOK 22/19 A3007 NOSIG=
202204270400 METAR MROC 270400Z VRB02KT CAVOK 22/19 A3006 NOSIG=
202204270500 METAR MROC 270500Z 32003KT 280V340 CAVOK 21/21 A3007 NOSIG=
202204270600 METAR MROC 270600Z 31001KT 9999 FEW015 BKN130 21/21 A3006 NOSIG=
202204270700 METAR MROC 270700Z 06004KT CAVOK 20/20 A3002 NOSIG=
202204270800 METAR MROC 270800Z 01003KT 340V040 CAVOK 20/20 A2999 NOSIG=
202204270900 METAR MROC 270900Z VRB02KT 9999 FEW006 BKN200 19/19 A2999 NOSIG=
202204271000 METAR MROC 271000Z 07004KT 9999 FEW015 BKN200 20/20 A2999 NOSIG=
202204271100 METAR MROC 271100Z 05003KT 020V080 CAVOK 20/20 A3000 NOSIG=
202204271200 METAR MROC 271200Z 07006KT CAVOK 21/19 A3001 NOSIG=
202204271300 METAR MROC 271300Z 11007KT CAVOK 22/19 A3002 NOSIG=
202204271400 METAR MROC 271400Z 10006KT 030V130 CAVOK 23/19 A3004 NOSIG=
202204271500 METAR MROC 271500Z 12007KT 070V150 CAVOK 25/19 A3005 NOSIG=
202204271600 METAR MROC 271600Z 11008KT 080V150 CAVOK 27/19 A3003 NOSIG=
202204271700 METAR MROC 271700Z 11009KT 070V170 9999 FEW045 SCT200 27/19 A3002 BECMG 25008KT=
202204271800 METAR MROC 271800Z 16005KT 110V240 CAVOK 28/19 A3000 NOSIG=
202204271900 METAR MROC 271900Z 25009KT 220V300 9999 FEW045 SCT200 28/22 A2997 NOSIG=
202204272000 METAR MROC 272000Z 24012KT 9999 VCTS FEW020TCU BKN025 26/22 A2994 TEMPO TSRA FEW015CB=
202204272008 SPECI MROC 272008Z 25013KT 9999 TS VCSH SCT015CB FEW020TCU 26/22 A2994 TEMPO TSRA=
202204272100 METAR MROC 272100Z 31007KT 240V360 9999 4000SW TSRA BKN010CB 23/20 A2994 BECMG 4000=
202204272102 SPECI MROC 272102Z VRB06KT 2000 TSRA BKN010CB 22/19 A2995 NOSIG=
202204272200 METAR MROC 272200Z 16004KT 100V220 4500 TSRA BCFG FEW010 BKN020CB 20/20 A2996 TEMPO 5000=
202204272236 METAR MROC 272236Z 15004KT 110V200 9999 4500SW -RA VCTS SCT025 OVC100 20/20 A2997 NOSIG=
202204272300 METAR MROC 272300Z 01004KT 330V050 9999 -TSRA FEW030CB OVC100 21/21 A2998 NOSIG=
202204280000 METAR MROC 280000Z 06004KT 360V090 9999 -RA FEW010 BKN030 22/22 A3000 NOSIG=
202204280100 METAR MROC 280100Z 09008KT 9999 3000SW RA BKN030 21/21 A3001 NOSIG=
202204280200 METAR MROC 280200Z 11008KT 9999 -RA BKN030 21/21 A3004 NOSIG=
202204280300 METAR MROC 280300Z 08006KT 9999 -DZ FEW030 BKN100 21/21 A3005 NOSIG=
202204280400 METAR MROC 280400Z 23005KT 9999 -RA FEW030 BKN100 21/21 A3007 NOSIG=
202204280500 METAR MROC 280500Z 00000KT 9999 FEW030 20/20 A3006 NOSIG=
202204280600 METAR MROC 280600Z 05003KT CAVOK 20/20 A3002 NOSIG=
202204280700 METAR MROC 280700Z 03003KT CAVOK 20/20 A3000 NOSIG=
202204280800 METAR MROC 280800Z 08005KT CAVOK 19/19 A2998 NOSIG=
202204280900 METAR MROC 280900Z 08005KT CAVOK 20/20 A2997 NOSIG=
202204281000 METAR MROC 281000Z 08007KT 040V100 CAVOK 20/19 A2997 NOSIG=
202204281100 METAR MROC 281100Z 06009KT CAVOK 20/19 A2996 NOSIG=
202204281200 METAR MROC 281200Z 07008KT CAVOK 21/19 A2998 NOSIG=
202204281300 METAR MROC 281300Z 08007KT 050V110 9999 FEW030 SCT200 22/19 A3002 NOSIG=
202204281400 METAR MROC 281400Z 10006KT 070V150 9999 FEW030 SCT200 23/19 A3004 NOSIG=
202204281500 METAR MROC 281500Z 09003KT 030V160 9999 FEW030 SCT100 BKN200 25/19 A3007 TEMPO 24005KT=
202204281600 METAR MROC 281600Z 11008KT 070V150 9999 FEW040 BKN200 26/19 A3005 NOSIG=
202204281700 METAR MROC 281700Z VRB02KT 9999 SCT045 BKN200 28/19 A3003 NOSIG=
202204281800 METAR MROC 281800Z 24008KT 210V270 9999 FEW025 SCT040 27/20 A3000 NOSIG=
202204281900 METAR MROC 281900Z 23009KT 9999 VCTS VCSH FEW025CB BKN040 25/20 A2998 TEMPO TSRA=
202204282000 METAR MROC 282000Z 10006KT 060V130 4000 TSRA FEW020CB BKN030 20/20 A2998 NOSIG=
202204282100 METAR MROC 282100Z 08005KT 9999 -RA SCT030 OVC100 21/21 A2998 NOSIG=
202204282200 METAR MROC 282200Z 13004KT 100V160 9999 -RA FEW020 BKN035 22/22 A2995 NOSIG=
202204282300 METAR MROC 282300Z COR 06004KT 010V090 9999 FEW001 BKN030 OVC120 22/22 A2997 NOSIG=
202204290000 METAR MROC 290000Z 11008KT 080V140 9999 BKN045 OVC130 22/19 A2998 NOSIG=
202204290100 METAR MROC 290100Z 11007KT 090V150 9999 FEW030 SCT060 22/18 A3001 NOSIG=
202204290200 METAR MROC 290200Z 06006KT 9999 FEW045 21/19 A3002 NOSIG=
202204290300 METAR MROC 290300Z 06004KT 020V090 9999 FEW040 BKN120 21/19 A3004 NOSIG=
202204290400 METAR MROC 290400Z 09004KT 070V140 CAVOK 20/19 A3005 NOSIG=
202204290500 METAR MROC 290500Z 08004KT 070V110 CAVOK 20/19 A3005 NOSIG=
202204290600 METAR MROC 290600Z 07008KT CAVOK 21/19 A3002 NOSIG=
202204290700 METAR MROC 290700Z 05009KT CAVOK 20/19 A2997 NOSIG=
202204290800 METAR MROC 290800Z 05007KT CAVOK 20/18 A2994 NOSIG=
202204290900 METAR MROC 290900Z 05010KT 020V080 CAVOK 20/18 A2993 NOSIG=
202204291000 METAR MROC 291000Z 07006KT 020V170 CAVOK 20/18 A2994 NOSIG=
202204291100 METAR MROC 291100Z 06007KT CAVOK 21/18 A2995 NOSIG=
202204291200 METAR MROC 291200Z 02007KT 350V060 CAVOK 21/18 A2998 NOSIG=
202204291300 METAR MROC 291300Z 04006KT 360V080 CAVOK 22/18 A3002 NOSIG=
202204291400 METAR MROC 291400Z 07007KT 030V120 9999 FEW035 BKN250 24/19 A3004 NOSIG=
202204291500 METAR MROC 291500Z VRB04KT 9999 FEW040 27/19 A3004 BECMG 25006KT=
202204291600 METAR MROC 291600Z 12004KT 070V200 9999 SCT040 27/18 A3002 NOSIG=
202204291700 METAR MROC 291700Z 24006KT 9999 BKN040 26/20 A3001 NOSIG=
202204291800 METAR MROC 291800Z 25008KT 9999 VCSH FEW025TCU BKN035 25/21 A3000 NOSIG=
202204291900 METAR MROC 291900Z VRB02KT 9999 -RA VCSH FEW020TCU BKN025 23/21 A2999 NOSIG=
202204292000 METAR MROC 292000Z VRB04KT 8000 3500W TSRA FEW020CB OVC025 22/22 A2997 NOSIG=
202204292100 METAR MROC 292100Z VRB02KT 9999 4500SW -RA FEW009 SCT025 BKN060 23/23 A2995 NOSIG=
202204292200 METAR MROC 292200Z 23007KT 9000 -DZ FEW006 SCT010 BKN020 22/22 A2995 TEMPO BKN008=
202204292300 METAR MROC 292300Z 24004KT 9999 3500W -RA DZ FEW008 SCT018 BKN070 21/21 A2996 NOSIG=
202204300000 METAR MROC 300000Z VRB02KT 9999 3500SW BCFG FEW010 OVC070 21/21 A2998 NOSIG=
202204300100 METAR MROC 300100Z VRB03KT 9999 4500SW BCFG FEW012 SCT070 BKN130 21/21 A2999 NOSIG=
202204300200 METAR MROC 300200Z 10003KT 9999 FEW030 BKN130 20/20 A3000 NOSIG=
202204300300 METAR MROC 300300Z 07010KT 9999 FEW040 SCT120 21/18 A3001 NOSIG=
202204300400 METAR MROC 300400Z 02005KT 350V070 9999 FEW040 SCT130 21/18 A3002 NOSIG=
202204300500 METAR MROC 300500Z 07008KT 9999 FEW040 21/17 A3002 NOSIG=
202204300600 METAR MROC 300600Z 10005KT 080V140 9999 FEW040 20/18 A3000 NOSIG=
202204300700 METAR MROC 300700Z 07004KT 040V100 CAVOK 21/18 A2998 NOSIG=
202204300800 METAR MROC 300800Z 36004KT CAVOK 20/20 A2997 NOSIG=
202204300900 METAR MROC 300900Z COR 07004KT CAVOK 20/19 A2995 NOSIG=
202204301000 METAR MROC 301000Z 07005KT CAVOK 20/19 A2994 NOSIG=
202204301100 METAR MROC 301100Z 06007KT CAVOK 21/18 A2997 NOSIG=
202204301200 METAR MROC 301200Z VRB02KT CAVOK 21/18 A2998 NOSIG=
202204301300 METAR MROC 301300Z 06004KT 020V110 CAVOK 22/18 A3000 NOSIG=
202204301400 METAR MROC 301400Z 02004KT 350V060 CAVOK 24/18 A3001 NOSIG=
202204301500 METAR MROC 301500Z 23004KT 140V270 CAVOK 26/20 A3001 NOSIG=
202204301600 METAR MROC 301600Z 24008KT 9999 SCT035 BKN100 24/20 A3003 NOSIG=
202204301700 METAR MROC 301700Z 24009KT 220V280 9999 SCT040 BKN100 25/21 A3001 NOSIG=
202204301800 METAR MROC 301800Z 28006KT 240V310 9999 SHRA SCT025TCU BKN060 25/21 A3000 NOSIG=
202204301900 METAR MROC 301900Z 23005KT 180V260 9999 -SHRA FEW020TCU SCT030 BKN070 24/21 A2998 NOSIG=
202204302000 METAR MROC 302000Z 25006KT 9999 -RA VCTS VCSH SCT006 FEW010CB BKN035 22/22 A2997 TEMPO 5000 TSRA=
202204302100 METAR MROC 302100Z 10004KT 070V130 5000 2300SW +RA FEW008 OVC025 20/20 A2998 RETS TEMPO 7000=
202204302200 METAR MROC 302200Z 03003KT 8000 3800SW RA FEW008 SCT060 OVC090 21/21 A2998 NOSIG=
202204302300 METAR MROC 302300Z 02003KT 9999 4000SW -RA BCFG FEW008 OVC100 20/20 A2999 NOSIG=
202205010000 METAR MROC 010000Z 12003KT 9999 -RA FEW009 BKN090 20/20 A2999 NOSIG=
202205010100 METAR MROC 010100Z 32002KT 9999 -RA BCFG FEW009 BKN090 20/20 A3004 NOSIG=
202205010200 METAR MROC 010200Z VRB02KT 9999 -RA BCFG SCT009 BKN100 20/20 A3007 NOSIG=
202205010300 METAR MROC 010300Z VRB01KT 9999 -RA FEW015 BKN110 21/21 A3007 NOSIG=
202205010400 METAR MROC 010400Z VRB02KT 9999 FEW010 SCT030 20/20 A3007 NOSIG=
202205010500 METAR MROC 010500Z 10003KT 9999 FEW010 SCT100 20/20 A3005 NOSIG=
202205010600 METAR MROC 010600Z 10004KT 9999 SCT010 20/20 A3001 NOSIG=
202205010700 METAR MROC 010700Z 09004KT 050V140 9999 FEW010 21/21 A2999 NOSIG=
202205010800 METAR MROC 010800Z 04006KT 9999 FEW010 21/21 A2997 NOSIG=
202205010900 METAR MROC 010900Z 13003KT 1000 0350N R07/0350N FG SCT005 20/20 A2997 NOSIG=
202205011000 METAR MROC 011000Z 09006KT 9999 FEW005 19/19 A2998 NOSIG=
202205011100 METAR MROC 011100Z 08006KT 9999 FEW045 20/20 A2999 NOSIG=
202205011200 METAR MROC 011200Z 08005KT CAVOK 20/20 A3002 NOSIG=
202205011300 METAR MROC 011300Z 15003KT 090V190 CAVOK 22/21 A3003 NOSIG=
202205011400 METAR MROC 011400Z VRB01KT CAVOK 23/21 A3003 BECMG 24007KT=
202205011500 METAR MROC 011500Z VRB02KT CAVOK 25/20 A3005 NOSIG=
202205011600 METAR MROC 011600Z 24006KT 200V280 9999 FEW040 BKN250 24/21 A3004 NOSIG=
202205011700 METAR MROC 011700Z 26005KT 220V280 9999 FEW040 BKN250 26/21 A3003 NOSIG=
202205011800 METAR MROC 011800Z 25007KT 210V270 9999 FEW040 BKN200 25/20 A3000 NOSIG=
202205011900 METAR MROC 011900Z 24008KT 210V270 9999 FEW025TCU FEW040 BKN200 26/21 A2998 NOSIG=
202205012000 METAR MROC 012000Z 25010KT 9999 FEW020TCU SCT040 BKN200 27/22 A2995 TEMPO TSRA=
202205012100 METAR MROC 012100Z 24009KT 9999 TSRA SCT025CB BKN030 26/22 A2996 TEMPO 5000=
202205012200 METAR MROC 012200Z 07009KT 040V110 9000 TSRA BKN020CB 22/22 A2998 TEMPO BKN010=
202205012300 METAR MROC 012300Z 08006KT 9000 4000SW -TSRA FEW030CB BKN100 20/20 A2998 TEMPO 5000=
202205020000 METAR MROC 020000Z VRB02KT 9999 -RA VCTS BKN030 21/21 A3002 NOSIG=
202205020100 METAR MROC 020100Z 01003KT 9000 -RA FEW010 BKN020 21/21 A3005 TEMPO 5000 BKN010=
202205020200 METAR MROC 020200Z 08006KT 050V110 9999 -RA FEW030 BKN090 21/21 A3006 NOSIG=
202205020300 METAR MROC 020300Z 09005KT 9999 -RA NSC 22/21 A3009 NOSIG=
202205020400 METAR MROC 020400Z 09004KT CAVOK 21/21 A3009 NOSIG=
202205020500 METAR MROC 020500Z VRB01KT 9999 BCFG NSC 21/21 A3007 NOSIG=
202205020600 METAR MROC 020600Z 07007KT CAVOK 21/21 A3003 NOSIG=
202205020700 METAR MROC 020700Z 01006KT CAVOK 21/21 A3000 NOSIG=
202205020800 METAR MROC 020800Z 09003KT CAVOK 20/20 A2998 NOSIG=
202205020900 METAR MROC 020900Z 12004KT 090V150 CAVOK 20/20 A2998 NOSIG=
202205021000 METAR MROC 021000Z 11005KT CAVOK 20/20 A2999 NOSIG=
202205021100 METAR MROC 021100Z 07009KT CAVOK 21/19 A3000 NOSIG=
202205021200 METAR MROC 021200Z 09007KT 060V120 9999 FEW040 SCT140 22/19 A3002 NOSIG=
202205021300 METAR MROC 021300Z 09007KT 9999 FEW045 SCT200 24/20 A3003 NOSIG=
202205021400 METAR MROC 021400Z 11007KT 070V160 9999 FEW045 BKN200 26/19 A3005 NOSIG=
202205021500 METAR MROC 021500Z 25006KT 210V280 9999 FEW040 BKN200 26/21 A3005 NOSIG=
202205021600 METAR MROC 021600Z 25007KT 9999 FEW040 BKN200 26/22 A3003 NOSIG=
202205021700 METAR MROC 021700Z 24008KT 200V270 9999 SCT035 SCT200 27/22 A3003 NOSIG=
202205021800 METAR MROC 021800Z 24008KT 190V290 9999 FEW020TCU SCT035 26/22 A3001 NOSIG=
202205021900 METAR MROC 021900Z 26009KT 210V290 9999 VCSH FEW020TCU BKN035 28/22 A2999 TEMPO TSRA=
202205022000 METAR MROC 022000Z 21005KT 150V260 9999 4000E -TSRA SCT020CB BKN030 26/22 A2998 NOSIG=
202205022004 SPECI MROC 022004Z 05011KT 010V070 4000 TSRA SCT015CB BKN030 24/20 A2998 NOSIG=
202205022100 METAR MROC 022100Z VRB02KT 9999 3000SW TSRA SCT015CB SCT025 20/20 A2997 NOSIG=
202205022200 METAR MROC 022200Z VRB02KT 9999 VCTS BKN040 21/21 A2997 NOSIG=
202205022300 METAR MROC 022300Z 20003KT 140V240 9999 FEW030 BKN040 21/21 A2999 NOSIG=
202205030000 METAR MROC 030000Z 00000KT 9999 -DZ BKN040 21/21 A3000 NOSIG=
202205030100 METAR MROC 030100Z VRB02KT 9999 FEW015 BKN040 21/21 A3001 TEMPO BKN015=
202205030200 METAR MROC 030200Z 25003KT 9999 FEW015 BKN030 21/21 A3005 NOSIG=
202205030300 METAR MROC 030300Z 36003KT 330V030 9999 FEW015 BKN030 22/22 A3006 BECMG 07005KT=
202205030400 METAR MROC 030400Z 12003KT 9999 FEW010 SCT025 21/21 A3005 NOSIG=
202205030500 METAR MROC 030500Z 09004KT CAVOK 21/21 A3004 NOSIG=
202205030600 METAR MROC 030600Z 07006KT CAVOK 21/21 A2999 NOSIG=
202205030700 METAR MROC 030700Z 08005KT 060V120 CAVOK 21/21 A2998 NOSIG=
202205030800 METAR MROC 030800Z 08007KT 050V120 CAVOK 22/21 A2997 NOSIG=
202205030900 METAR MROC 030900Z 29004KT 9999 FEW020 21/20 A2998 NOSIG=
202205031000 METAR MROC 031000Z 01003KT 9999 BKN040 20/20 A3000 NOSIG=
202205031100 METAR MROC 031100Z 05005KT 350V080 CAVOK 20/20 A3001 NOSIG=
202205031200 METAR MROC 031200Z 04006KT CAVOK 20/20 A3002 NOSIG=
202205031300 METAR MROC 031300Z VRB01KT CAVOK 22/20 A3004 TEMPO 24006KT=
202205031400 METAR MROC 031400Z VRB02KT 9999 FEW045 BKN200 25/21 A3005 TEMPO 24006KT=
202205031500 METAR MROC 031500Z 22007KT 190V250 9999 FEW045 BKN200 26/21 A3006 NOSIG=
202205031600 METAR MROC 031600Z 27008KT 240V300 9999 FEW045 BKN200 26/21 A3006 NOSIG=
202205031700 METAR MROC 031700Z 25007KT 220V300 9999 SCT045 27/22 A3005 NOSIG=
202205031800 METAR MROC 031800Z 25008KT 210V260 9999 VCTS VCSH FEW015CB BKN030 27/23 A3003 TEMPO TSRA=
202205031900 METAR MROC 031900Z 22009KT 9999 VCTS VCSH FEW015CB BKN030 26/22 A2999 TEMPO TSRA=
202205032000 METAR MROC 032000Z 26007KT 9999 -TSRA FEW015TCU FEW015CB BKN100 25/23 A2999 NOSIG=
202205032100 METAR MROC 032100Z 25008KT 9999 VCSH FEW015CB SCT020 OVC080 24/24 A2998 NOSIG=
202205032200 METAR MROC 032200Z 23006KT 9999 4500SW OVC004 24/24 A2996 NOSIG=
202205032300 METAR MROC 032300Z 22004KT 180V250 7000 3000SW RA FEW001 BKN006 22/22 A2998 NOSIG=
202205040000 METAR MROC 040000Z COR 26004KT 230V300 9999 -TSRA FEW002 BKN010 FEW020TCU 22/22 A3000 NOSIG=
202205040100 METAR MROC 040100Z 07009KT 9000 +TSRA SCT020CB BKN030 21/21 A3004 NOSIG=
202205040200 METAR MROC 040200Z 08005KT 9999 -TSRA FEW020CB BKN030 20/20 A3007 NOSIG=
202205040300 METAR MROC 040300Z 06008KT 9999 -RA VCTS FEW020CB BKN130 21/20 A3008 NOSIG=
202205040400 METAR MROC 040400Z 07006KT CAVOK 21/20 A3005 NOSIG=
202205040500 METAR MROC 040500Z 09009KT CAVOK 22/20 A3004 NOSIG=
202205040600 METAR MROC 040600Z 07005KT CAVOK 21/20 A3002 NOSIG=
202205040700 METAR MROC 040700Z 10004KT CAVOK 21/20 A3000 NOSIG=
202205040800 METAR MROC 040800Z VRB02KT CAVOK 20/20 A2999 NOSIG=
202205040900 METAR MROC 040900Z 34003KT CAVOK 20/20 A3000 NOSIG=
202205041000 METAR MROC 041000Z 07004KT 9999 FEW010 19/19 A3001 NOSIG=
202205041100 METAR MROC 041100Z 09004KT 9999 FEW030 SCT200 19/19 A3001 NOSIG=
202205041200 METAR MROC 041200Z 07007KT 9999 FEW030 BKN250 20/20 A3001 NOSIG=
202205041300 METAR MROC 041300Z 06007KT CAVOK 23/20 A3003 NOSIG=
202205041400 METAR MROC 041400Z 11008KT 080V160 9999 FEW035 SCT250 25/19 A3003 NOSIG=
202205041500 METAR MROC 041500Z 12007KT 060V180 9999 FEW035 BKN250 27/20 A3003 NOSIG=
202205041600 METAR MROC 041600Z 13008KT 080V180 9999 FEW035 BKN250 28/19 A3002 NOSIG=
202205041700 METAR MROC 041700Z 26007KT 230V300 9999 FEW025 SCT045 BKN250 26/22 A3003 NOSIG=
202205041800 METAR MROC 041800Z 25008KT 9999 FEW025TCU BKN040 27/22 A3003 NOSIG=
202205041900 METAR MROC 041900Z 22010KT 9999 VCSH FEW020 FEW028TCU SCT045 26/23 A2999 NOSIG=
202205042000 METAR MROC 042000Z 25011KT 9999 -TSRA FEW015CB SCT018 BKN025 25/23 A2998 TEMPO 5000=
202205042100 METAR MROC 042100Z 27006KT 250V310 3000 -TSRA FEW005 SCT010CB BKN015 22/22 A2999 NOSIG=
202205042200 METAR MROC 042200Z 19003KT 120V250 1500 -TSRA BR FEW002 FEW010CB SCT015 BKN030 21/21 A3001 TEMPO 5000=
202205042300 METAR MROC 042300Z 00000KT 9999 3000SW -RA FEW010 SCT030 BKN060 21/21 A3003 NOSIG=
202205050000 METAR MROC 050000Z 27005KT 9999 3000SW BCFG FEW005 SCT010 BKN030 21/21 A3005 NOSIG=
202205050100 METAR MROC 050100Z VRB02KT 9999 FEW010 SCT035 BKN060 21/21 A3007 NOSIG=
202205050200 METAR MROC 050200Z VRB02KT 9999 SCT008 BKN025 21/21 A3009 NOSIG=
202205050300 METAR MROC 050300Z VRB02KT 9999 FEW015 SCT030 21/21 A3009 NOSIG=
202205050400 METAR MROC 050400Z 03003KT 9999 BKN015 21/21 A3011 NOSIG=
202205050500 METAR MROC 050500Z VRB02KT 9999 FEW020 SCT100 21/21 A3008 NOSIG=
202205050555 METAR MROC 050555Z VRB01KT 5000 2000SW 21/21 A3007 NOSIG=
202205050600 METAR MROC 050600Z VRB01KT 5000 2000SW 21/21 A3007 NOSIG=
202205050700 METAR MROC 050700Z 36002KT 8000 3000S BCFG 20/20 A3006 NOSIG=
202205050800 METAR MROC 050800Z 26003KT 9000 4000S BCFG 20/20 A3005 NOSIG=
202205050900 METAR MROC 050900Z 33002KT 8000 -RA BCFG SCT005 OVC008 20/20 A3004 NOSIG=
202205051000 METAR MROC 051000Z 17002KT 4000 -RA BCFG FEW007 BKN014 OVC045 20/20 A3004 NOSIG=
202205051100 METAR MROC 051100Z 00000KT 5000 BCFG BKN002 20/20 A3005 NOSIG=
202205051200 METAR MROC 051200Z VRB02KT 9999 BKN007 OVC100 21/21 A3007 NOSIG=
202205051300 METAR MROC 051300Z 00000KT 9000 4000SW BCFG FEW005 SCT015 BKN070 22/22 A3009 NOSIG=
202205051400 METAR MROC 051400Z 23003KT 180V290 9000 3500SW BCFG FEW007 SCT013 BKN070 23/22 A3012 NOSIG=
202205051500 METAR MROC 051500Z 24006KT 210V280 9000 FEW006 SCT013 BKN060 23/22 A3013 NOSIG=
202205051600 METAR MROC 051600Z 24007KT 200V270 9999 FEW010 BKN025 24/22 A3013 NOSIG=
202205051700 METAR MROC 051700Z 25006KT 9999 FEW012 SCT025 BKN130 24/22 A3011 NOSIG=
202205051800 METAR MROC 051800Z 24006KT 200V310 9999 FEW018 SCT025 26/21 A3008 NOSIG=
202205051900 METAR MROC 051900Z 21005KT 180V260 9999 -RA VCSH FEW020TCU FEW035 BKN130 25/21 A3005 NOSIG=
202205052000 METAR MROC 052000Z 12003KT 080V150 9999 -SHRA VCTS FEW025TCU FEW035 BKN110 25/21 A3004 TEMPO -TSRA=
202205052100 METAR MROC 052100Z 04005KT 360V060 9999 -RA SCT040 BKN120 23/21 A3004 RETS NOSIG=
202205052200 METAR MROC 052200Z 09004KT 9999 -RA SCT040 BKN100 23/21 A3004 NOSIG=
202205052300 METAR MROC 052300Z 09007KT 9999 -RA NSC 21/21 A3005 NOSIG=
202205060000 METAR MROC 060000Z COR 05008KT 9999 -DZ OVC040 22/21 A3005 NOSIG=
202205060100 METAR MROC 060100Z 21004KT 170V240 9999 SCT045 21/21 A3007 NOSIG=
202205060200 METAR MROC 060200Z 32003KT 260V350 9999 FEW007 SCT012 21/21 A3010 TEMPO 5000 BR=
202205060300 METAR MROC 060300Z 33003KT 9999 BKN008 21/21 A3012 TEMPO 5000 BR=
202205060400 METAR MROC 060400Z 00000KT 9999 SCT010 BKN025 21/21 A3014 NOSIG=
202205060500 METAR MROC 060500Z 02003KT 9999 FEW010 SCT025 BKN060 21/21 A3013 NOSIG=
202205060600 METAR MROC 060600Z 13003KT 9999 FEW025 SCT060 20/20 A3012 NOSIG=
202205060700 METAR MROC 060700Z 06003KT 9999 BKN010 21/21 A3010 NOSIG=
202205060800 METAR MROC 060800Z 01003KT 9999 SCT010 BKN025 20/20 A3009 NOSIG=
202205060900 METAR MROC 060900Z 06004KT 9999 FEW025 BKN045 19/19 A3009 NOSIG=
202205061000 METAR MROC 061000Z 14003KT 080V170 9000 FEW020 BKN025 19/19 A3010 NOSIG=
202205061100 METAR MROC 061100Z 04003KT 9999 BKN020 20/20 A3011 NOSIG=
202205061200 METAR MROC 061200Z VRB02KT 9999 4500SW FEW010 SCT020 BKN030 20/20 A3013 NOSIG=
202205061300 METAR MROC 061300Z VRB02KT 9999 FEW010 SCT040 21/21 A3015 NOSIG=
202205061400 METAR MROC 061400Z VRB01KT 9999 FEW020 BKN250 23/20 A3015 NOSIG=
202205061500 METAR MROC 061500Z VRB02KT 9999 SCT020 SCT250 25/20 A3015 NOSIG=
202205061600 METAR MROC 061600Z 25005KT 200V340 9999 SCT020 SCT250 25/21 A3014 NOSIG=
202205061700 METAR MROC 061700Z 24004KT 200V340 9999 FEW025 SCT250 26/21 A3012 NOSIG=
202205061800 METAR MROC 061800Z 22006KT 190V270 9999 FEW030 SCT250 27/20 A3010 NOSIG=
202205061900 METAR MROC 061900Z 24008KT 210V280 9999 FEW020TCU BKN200 27/21 A3007 NOSIG=
202205062000 METAR MROC 062000Z 25009KT 210V270 9999 FEW020 SCT200 27/22 A3004 NOSIG=
202205062100 METAR MROC 062100Z 25007KT 220V290 9999 VCTS FEW020CB SCT035 SCT200 26/22 A3003 NOSIG=
202205062200 METAR MROC 062200Z 22005KT 190V260 9999 -TSRA VCSH FEW015CB BKN040 24/22 A3004 NOSIG=
202205062300 METAR MROC 062300Z VRB02KT 9999 -RA FEW010 BKN035 22/21 A3005 NOSIG=
202205070000 METAR MROC 070000Z VRB01KT 9999 FEW015 BKN040 23/22 A3007 NOSIG=
202205070100 METAR MROC 070100Z VRB01KT 9999 -RA SCT020 BKN140 23/23 A3007 NOSIG=
202205070200 METAR MROC 070200Z 12002KT 9999 FEW030 SCT160 22/22 A3008 NOSIG=
202205070300 METAR MROC 070300Z VRB02KT 9999 SCT020 22/22 A3010 NOSIG=
202205070400 METAR MROC 070400Z VRB02KT 9999 FEW010 21/21 A3011 NOSIG=
202205070500 METAR MROC 070500Z 05007KT CAVOK 22/22 A3009 NOSIG=
202205070600 METAR MROC 070600Z 02005KT CAVOK 20/20 A3008 NOSIG=
202205070700 METAR MROC 070700Z VRB02KT 9999 4000S BCFG FEW003 BKN200 20/20 A3006 NOSIG=
202205070800 METAR MROC 070800Z 00000KT 9999 4000S BCFG SCT003 19/19 A3005 NOSIG=
202205070900 METAR MROC 070900Z 03003KT 9999 2000S BCFG FEW002 19/19 A3005 NOSIG=
202205071000 METAR MROC 071000Z 03004KT 9999 3000S BCFG FEW006 19/19 A3006 NOSIG=
202205071100 METAR MROC 071100Z 09002KT 9999 FEW010 19/19 A3007 NOSIG=
202205071200 METAR MROC 071200Z 08006KT CAVOK 19/19 A3008 NOSIG=
202205071300 METAR MROC 071300Z 09005KT CAVOK 22/21 A3009 NOSIG=
202205071400 METAR MROC 071400Z 05007KT 020V100 CAVOK 25/19 A3009 NOSIG=
202205071500 METAR MROC 071500Z 12006KT 080V180 CAVOK 28/19 A3010 BECMG 25007KT=
202205071600 METAR MROC 071600Z 22009KT 190V250 9999 FEW030 26/21 A3010 NOSIG=
202205071700 METAR MROC 071700Z 26004KT 160V310 CAVOK 27/21 A3007 NOSIG=
202205071800 METAR MROC 071800Z 23010KT 190V270 9999 FEW030 SCT250 28/22 A3005 NOSIG=
202205071900 METAR MROC 071900Z 22012KT 190V250 9999 FEW025TCU SCT250 26/23 A3003 NOSIG=
202205072000 METAR MROC 072000Z 23008KT 190V270 9999 -TSRA SCT020CB SCT250 26/22 A3000 TEMPO 5000 TSRA SCT015CB BKN020=
202205072100 METAR MROC 072100Z 34009KT 340V010 9999 3000N TSRA BKN020CB FEW030 22/19 A3003 NOSIG=
202205072200 METAR MROC 072200Z 01004KT 9999 4000SW SCT030 BKN140 21/20 A3002 NOSIG=
202205072300 METAR MROC 072300Z VRB02KT 9999 BKN020 SCT140 22/22 A3003 NOSIG=
202205080000 METAR MROC 080000Z VRB02KT 9999 VCFG FEW020 SCT140 BKN200 21/21 A3004 NOSIG=
202205080100 METAR MROC 080100Z VRB02KT 9999 BKN030 21/21 A3006 NOSIG=
202205080200 METAR MROC 080200Z 00000KT 9999 FEW010 BKN035 21/21 A3009 NOSIG=
202205080300 METAR MROC 080300Z VRB02KT CAVOK 21/21 A3011 NOSIG=
202205080400 METAR MROC 080400Z 08005KT CAVOK 21/21 A3010 NOSIG=
202205080500 METAR MROC 080500Z 07007KT CAVOK 21/21 A3008 NOSIG=
202205080600 METAR MROC 080600Z 07008KT CAVOK 21/20 A3005 NOSIG=
202205080700 METAR MROC 080700Z VRB02KT CAVOK 20/20 A3003 NOSIG=
202205080800 METAR MROC 080800Z 01004KT CAVOK 20/20 A3003 NOSIG=
202205080900 METAR MROC 080900Z 07004KT CAVOK 19/17 A3001 NOSIG=
202205081000 METAR MROC 081000Z VRB02KT CAVOK 18/18 A3002 NOSIG=
202205081100 METAR MROC 081100Z 11003KT CAVOK 18/18 A3003 NOSIG=
202205081200 METAR MROC 081200Z 06006KT CAVOK 19/18 A3005 NOSIG=
202205081300 METAR MROC 081300Z VRB02KT CAVOK 22/19 A3007 NOSIG=
202205081400 METAR MROC 081400Z 21003KT CAVOK 25/19 A3008 NOSIG=
202205081500 METAR MROC 081500Z 24005KT 170V270 CAVOK 25/19 A3008 NOSIG=
202205081600 METAR MROC 081600Z 27005KT 230V330 9999 FEW035 26/19 A3007 NOSIG=
202205081700 METAR MROC 081700Z 26008KT 230V290 9999 SCT030 26/21 A3006 NOSIG=
202205081800 METAR MROC 081800Z 25009KT 220V290 9999 BKN030 27/22 A3004 NOSIG=
202205081900 METAR MROC 081900Z 25010KT 9999 BKN030 27/22 A3001 NOSIG=
202205082000 METAR MROC 082000Z 24009KT 210V280 9999 VCSH FEW020TCU BKN030 26/22 A2998 NOSIG=
202205082100 METAR MROC 082100Z 25009KT 9999 SCT025TCU BKN030 25/22 A2997 TEMPO TSRA=
202205082200 METAR MROC 082200Z 24011KT 9999 -DZ FEW020CB BKN020 23/23 A2997 TEMPO TSRA=
202205082300 METAR MROC 082300Z 23009KT 9000 -RA VCTS FEW005CB BKN005 22/22 A2998 TEMPO -TSRA=
202205090000 METAR MROC 090000Z 25007KT 4000 -RA BR OVC002 21/21 A3001 TEMPO BKN005=
202205090100 METAR MROC 090100Z 25005KT 9999 -DZ BKN005 21/21 A3003 NOSIG=
202205090200 METAR MROC 090200Z 24003KT 200V270 8000 -DZ BCFG FEW001 BKN005 21/21 A3005 NOSIG=
202205090300 METAR MROC 090300Z 35003KT 330V030 9999 -DZ FEW001 BKN020 21/21 A3007 NOSIG=
202205090400 METAR MROC 090400Z 06005KT 9999 FEW010 21/21 A3006 NOSIG=
202205090500 METAR MROC 090500Z VRB02KT 9999 FEW002 21/21 A3006 TEMPO BCFG BKN010=
202205090600 METAR MROC 090600Z 08003KT 9999 4500SW BCFG FEW001 20/20 A3004 TEMPO 3000 BR BKN010=
202205090700 METAR MROC 090700Z 08003KT 9999 FEW001 19/19 A3001 NOSIG=
202205090800 METAR MROC 090800Z 04004KT 9999 FEW002 19/19 A2999 NOSIG=
202205090900 METAR MROC 090900Z 10003KT 9999 FEW002 19/19 A2999 NOSIG=
202205091000 METAR MROC 091000Z 06005KT CAVOK 18/18 A3000 NOSIG=
202205091100 METAR MROC 091100Z 04008KT 9999 FEW030 19/17 A3001 NOSIG=
202205091200 METAR MROC 091200Z 06008KT CAVOK 19/18 A3002 NOSIG=
202205091300 METAR MROC 091300Z 03006KT 9999 FEW040 BKN250 22/19 A3003 NOSIG=
202205091400 METAR MROC 091400Z VRB01KT 9999 FEW040 BKN250 25/19 A3004 BECMG 25006KT=
202205091500 METAR MROC 091500Z 25009KT 220V280 9999 FEW035 BKN250 25/21 A3006 NOSIG=
202205091600 METAR MROC 091600Z 24008KT 220V280 9999 FEW035 BKN250 25/20 A3006 NOSIG=
202205091700 METAR MROC 091700Z COR 24008KT 210V270 9999 FEW035 BKN250 25/21 A3005 NOSIG=
202205091800 METAR MROC 091800Z 24007KT 210V290 9999 SCT035 27/21 A3002 NOSIG=
202205091900 METAR MROC 091900Z 24008KT 200V300 9999 SCT030 SCT250 27/22 A3000 NOSIG=
202205092000 METAR MROC 092000Z 22010KT 9999 FEW020CB BKN030 26/22 A2998 NOSIG=
202205092100 METAR MROC 092100Z 05010KT 9999 3000N SHRA FEW012CB SCT015 BKN025 21/21 A3000 TEMPO 5000=
202205092200 METAR MROC 092200Z VRB02KT 9999 3000SW -RA SCT030 BKN040 20/20 A2999 NOSIG=
202205092300 METAR MROC 092300Z 09004KT 9999 FEW010 BKN035 21/21 A3000 NOSIG=
202205100000 METAR MROC 100000Z 32003KT 270V010 9999 FEW005 BKN045 22/22 A3001 NOSIG=
202205100100 METAR MROC 100100Z VRB01KT CAVOK 21/21 A3004 NOSIG=
202205100200 METAR MROC 100200Z VRB02KT CAVOK 21/21 A3005 NOSIG=
202205100300 METAR MROC 100300Z VRB02KT CAVOK 22/22 A3008 NOSIG=
202205100400 METAR MROC 100400Z VRB02KT 9999 FEW015 BKN120 21/21 A3010 NOSIG=
202205100500 METAR MROC 100500Z 06003KT CAVOK 21/21 A3008 NOSIG=
202205100600 METAR MROC 100600Z 05004KT CAVOK 20/20 A3006 NOSIG=
202205100700 METAR MROC 100700Z 02005KT CAVOK 20/18 A3003 NOSIG=
202205100800 METAR MROC 100800Z 08005KT CAVOK 19/17 A3001 NOSIG=
202205100900 METAR MROC 100900Z 08004KT CAVOK 19/18 A2999 NOSIG=
202205101000 METAR MROC 101000Z 07003KT CAVOK 20/15 A3000 NOSIG=
202205101100 METAR MROC 101100Z 07003KT CAVOK 18/17 A3002 NOSIG=
202205101200 METAR MROC 101200Z 06005KT CAVOK 19/17 A3003 NOSIG=
202205101300 METAR MROC 101300Z 07005KT CAVOK 21/17 A3005 NOSIG=
202205101400 METAR MROC 101400Z 08004KT 360V140 CAVOK 25/17 A3006 BECMG 24007KT=
202205101500 METAR MROC 101500Z 36003KT 270V050 CAVOK 27/17 A3007 BECMG 24007KT=
202205101600 METAR MROC 101600Z 23007KT 180V260 CAVOK 26/19 A3007 NOSIG=
202205101700 METAR MROC 101700Z 24007KT 200V280 9999 FEW035 SCT120 28/20 A3005 NOSIG=
202205101800 METAR MROC 101800Z 24008KT 200V270 9999 FEW035 27/22 A3004 NOSIG=
202205101900 METAR MROC 101900Z 24007KT 200V280 9999 FEW025TCU FEW035 28/20 A3001 NOSIG=
202205102000 METAR MROC 102000Z 26010KT 230V290 9999 VCSH FEW020TCU SCT035 28/22 A2998 NOSIG=
202205102100 METAR MROC 102100Z 02009G19KT 350V080 3000 +TSRA SCT020CB BKN040 21/21 A3000 NOSIG=
202205102200 METAR MROC 102200Z 19005KT 7000 TSRA SCT020CB OVC040 20/20 A3000 NOSIG=
202205102300 METAR MROC 102300Z 05004KT 020V090 9999 -RA FEW010 SCT040 BKN080 21/21 A3000 NOSIG=
202205110000 METAR MROC 110000Z 29004KT 230V330 9999 FEW010 BKN100 22/22 A3003 NOSIG=
202205110100 METAR MROC 110100Z 33002KT 9999 FEW010 BKN100 21/21 A3005 NOSIG=
202205110200 METAR MROC 110200Z 13003KT 9999 FEW030 SCT100 21/21 A3007 NOSIG=
202205110300 METAR MROC 110300Z 03004KT CAVOK 21/21 A3008 NOSIG=
202205110400 METAR MROC 110400Z VRB02KT CAVOK 20/20 A3009 NOSIG=
202205110500 METAR MROC 110500Z 08003KT CAVOK 19/19 A3008 NOSIG=
202205110600 METAR MROC 110600Z 07004KT 9999 FEW010 19/19 A3006 NOSIG=
202205110700 METAR MROC 110700Z 06005KT CAVOK 18/18 A3002 NOSIG=
202205110800 METAR MROC 110800Z 07007KT CAVOK 19/18 A3000 NOSIG=
202205110900 METAR MROC 110900Z 06008KT CAVOK 18/17 A2999 NOSIG=
202205111000 METAR MROC 111000Z 05008KT CAVOK 19/17 A2999 NOSIG=
202205111100 METAR MROC 111100Z 05006KT CAVOK 18/17 A3000 NOSIG=
202205111200 METAR MROC 111200Z 08005KT CAVOK 20/16 A3002 NOSIG=
202205111300 METAR MROC 111300Z 04008KT CAVOK 22/17 A3004 NOSIG=
202205111400 METAR MROC 111400Z VRB02KT CAVOK 25/18 A3005 NOSIG=
202205111500 METAR MROC 111500Z VRB03KT CAVOK 27/17 A3004 NOSIG=
202205111600 METAR MROC 111600Z 12008KT 070V170 CAVOK 28/17 A3003 NOSIG=
202205111700 METAR MROC 111700Z 26009KT 9999 FEW040 27/20 A3002 NOSIG=
202205111800 METAR MROC 111800Z 24009KT 9999 FEW040 27/21 A3000 NOSIG=
202205111900 METAR MROC 111900Z 24010KT 9999 FEW040 27/22 A2998 NOSIG=
202205112000 METAR MROC 112000Z 25009KT 220V280 9999 VCTS FEW015CB SCT030 27/22 A2995 TEMPO -TSRA=
202205112100 METAR MROC 112100Z 25009KT 220V280 9999 -RA SCT020CB 26/22 A2992 TEMPO RA BKN020=
202205112200 METAR MROC 112200Z 11004KT 080V190 9999 -RA VCTS SCT020CB BKN040 24/20 A2994 TEMPO RA BKN020=
202205112204 SPECI MROC 112204Z 13003KT 080V180 9999 -TSRA SCT020CB BKN040 22/22 A2995 NOSIG=
202205112300 METAR MROC 112300Z VRB01KT 9999 3000SW BCFG FEW001 BKN045 22/22 A2997 NOSIG=
202205120000 METAR MROC 120000Z VRB02KT 9999 FEW030 SCT060 BKN200 23/21 A2999 NOSIG=
202205120100 METAR MROC 120100Z 20003KT 9999 FEW035 BKN080 23/22 A3002 TEMPO BKN015=
202205120200 METAR MROC 120200Z COR VRB02KT CAVOK 22/22 A3003 NOSIG=
202205120300 METAR MROC 120300Z VRB02KT CAVOK 22/22 A3005 NOSIG=
202205120400 METAR MROC 120400Z VRB02KT 9999 FEW005 21/21 A3005 NOSIG=
202205120500 METAR MROC 120500Z 04004KT 9999 FEW010 21/21 A3004 NOSIG=
202205120600 METAR MROC 120600Z 06004KT 360V090 9999 FEW015 21/20 A3001 NOSIG=
202205120700 METAR MROC 120700Z 07004KT CAVOK 21/20 A2998 NOSIG=
202205120800 METAR MROC 120800Z 07005KT CAVOK 19/19 A2997 NOSIG=
202205120900 METAR MROC 120900Z 01002KT CAVOK 19/19 A2996 NOSIG=
202205121000 METAR MROC 121000Z 05005KT CAVOK 19/19 A2997 NOSIG=
202205121100 METAR MROC 121100Z 04005KT CAVOK 19/19 A2998 NOSIG=
202205121200 METAR MROC 121200Z 02005KT 350V050 CAVOK 19/19 A3000 NOSIG=
202205121300 METAR MROC 121300Z 07003KT 9999 FEW040 SCT250 22/19 A3002 NOSIG=
202205121400 METAR MROC 121400Z VRB01KT 9999 FEW040 SCT250 22/19 A3002 BECMG 24005KT=
202205121500 METAR MROC 121500Z 25005KT 210V300 9999 FEW035 SCT250 24/20 A3004 NOSIG=
202205121600 METAR MROC 121600Z 24005KT 200V300 9999 SCT035 BKN120 25/20 A3003 NOSIG=
202205121700 METAR MROC 121700Z 24006KT 200V270 9999 SCT035 27/22 A3001 NOSIG=
202205121800 METAR MROC 121800Z 23009KT 190V260 9999 SCT035 26/21 A2998 NOSIG=
202205121900 METAR MROC 121900Z 24009KT 210V270 9999 BKN035 27/21 A2995 NOSIG=
202205122000 METAR MROC 122000Z 24009KT 9999 RA FEW025TCU SCT030 26/21 A2993 BECMG TSRA FEW020CB=
202205122100 METAR MROC 122100Z 24009KT 9999 4000SW RA SCT020TCU BKN030 23/23 A2993 TEMPO 5000=
202205122200 METAR MROC 122200Z 25007KT 5000 -RA BR FEW001 BKN005 22/22 A2993 NOSIG=
202205122205 METAR MROC 122205Z 23007KT 0500 R07/P2000N FG OVC001 21/21 A2993 NOSIG=
202205122300 METAR MROC 122300Z 23009KT 0100 -RA FG OVC001 21/21 A2996 NOSIG=
202205130000 METAR MROC 130000Z VRB02KT 8000 BR FEW001 OVC030 21/21 A2999 TEMPO 3000 BKN010=
202205130100 METAR MROC 130100Z 35002KT 9999 FEW010 BKN025 21/21 A3001 NOSIG=
202205130200 METAR MROC 130200Z VRB02KT 9999 FEW010 BKN030 21/21 A3003 NOSIG=
202205130300 METAR MROC 130300Z 00000KT 9999 FEW010 BKN030 21/21 A3004 NOSIG=
202205130400 METAR MROC 130400Z VRB02KT 9999 FEW010 BKN025 21/21 A3005 NOSIG=
202205130500 METAR MROC 130500Z VRB01KT 9999 BKN025 21/21 A3004 NOSIG=
202205130600 METAR MROC 130600Z 04003KT 9999 SCT015 BKN080 21/21 A3002 NOSIG=
202205130700 METAR MROC 130700Z 11003KT 9999 FEW025 SCT100 20/20 A2999 NOSIG=
202205130800 METAR MROC 130800Z 09004KT 9999 FEW035 SCT080 20/20 A2997 NOSIG=
202205130900 METAR MROC 130900Z 08003KT 030V120 9999 FEW030 20/20 A2995 NOSIG=
202205131000 METAR MROC 131000Z 08003KT 040V100 CAVOK 20/20 A2995 NOSIG=
202205131100 METAR MROC 131100Z 07006KT 050V110 9999 FEW035 BKN100 20/20 A2998 NOSIG=
202205131200 METAR MROC 131200Z 06005KT 030V090 9999 FEW040 BKN150 21/20 A3000 NOSIG=
202205131300 METAR MROC 131300Z 04007KT 350V070 9999 FEW040 BKN120 22/20 A3002 NOSIG=
202205131400 METAR MROC 131400Z 10007KT 050V140 9999 FEW040 BKN120 23/19 A3002 NOSIG=
202205131500 METAR MROC 131500Z 11007KT 070V140 9999 FEW040 BKN120 25/19 A3002 NOSIG=
202205131600 METAR MROC 131600Z 10008KT 070V130 9999 FEW040 BKN150 26/19 A3002 NOSIG=
202205131700 METAR MROC 131700Z 20005KT 110V230 9999 SCT040 BKN150 26/21 A3002 NOSIG=
202205131800 METAR MROC 131800Z 26008KT 220V290 9999 FEW020TCU SCT040 BKN150 26/21 A3000 NOSIG=
202205131900 METAR MROC 131900Z 24007KT 210V280 9999 FEW020TCU BKN035 26/21 A2998 NOSIG=
202205132000 METAR MROC 132000Z 21009KT 130V250 3000 TSRA SCT015CB BKN020 23/23 A2998 TEMPO 1500 BKN010=
202205132005 SPECI MROC 132005Z 13007KT 060V210 0500 +TSRA BKN006 SCT015CB 22/22 A2999 NOSIG=
202205132100 METAR MROC 132100Z 33004KT 9000 RA VCTS FEW020CB BKN030 20/20 A2997 NOSIG=
202205132200 METAR MROC 132200Z VRB02KT 4000 -RA BR FEW005 SCT015 BKN030 20/20 A2998 NOSIG=
202205132300 METAR MROC 132300Z 09003KT 310V120 9999 -RA VCFG FEW015 SCT030 BKN100 20/20 A3000 NOSIG=
202205140000 METAR MROC 140000Z 05003KT 9999 -RA FEW030 BKN070 21/21 A3001 NOSIG=
202205140100 METAR MROC 140100Z 10004KT 9999 -DZ NSC 20/20 A3003 NOSIG=
202205140200 METAR MROC 140200Z 09004KT 9999 FEW030 BKN120 21/21 A3004 NOSIG=
202205140300 METAR MROC 140300Z 09007KT 060V140 9999 FEW030 BKN120 21/20 A3006 NOSIG=
202205140400 METAR MROC 140400Z 04008KT 9999 FEW030 BKN120 22/20 A3006 NOSIG=
202205140500 METAR MROC 140500Z 01003KT CAVOK 22/19 A3006 NOSIG=
202205140600 METAR MROC 140600Z 03006KT CAVOK 21/20 A3004 NOSIG=
202205140700 METAR MROC 140700Z 06004KT CAVOK 22/19 A3001 NOSIG=
202205140800 METAR MROC 140800Z 07005KT 010V120 CAVOK 20/20 A2998 NOSIG=
202205140900 METAR MROC 140900Z 05003KT CAVOK 20/20 A2996 NOSIG=
202205141000 METAR MROC 141000Z 34003KT 310V020 CAVOK 20/20 A2997 NOSIG=
202205141100 METAR MROC 141100Z 10003KT CAVOK 19/19 A2999 NOSIG=
202205141200 METAR MROC 141200Z 09004KT CAVOK 20/20 A3001 NOSIG=
202205141300 METAR MROC 141300Z 06009KT CAVOK 22/19 A3003 NOSIG=
202205141400 METAR MROC 141400Z 10007KT 060V140 9999 FEW045 SCT120 25/19 A3004 NOSIG=
202205141500 METAR MROC 141500Z 09005KT 060V150 9999 FEW040 SCT150 26/19 A3004 NOSIG=
202205141600 METAR MROC 141600Z 24005KT 170V280 9999 FEW040 SCT170 27/20 A3004 NOSIG=
202205141700 METAR MROC 141700Z 23006KT 190V290 9999 SCT040 SCT170 28/20 A3003 NOSIG=
202205141800 METAR MROC 141800Z 24009KT 210V270 9999 SCT030TCU SCT170 27/22 A3002 NOSIG=
202205141900 METAR MROC 141900Z 24011KT 220V280 9999 VCTS VCSH FEW020CB BKN035 26/22 A3000 TEMPO TSRA=
202205142000 METAR MROC 142000Z 19005KT 130V300 7000 -TSRA SCT015CB BKN035 24/22 A2999 NOSIG=
202205142100 METAR MROC 142100Z COR 14003KT 080V190 9999 2000SW -TSRA FEW006 SCT045CB BKN090 20/20 A3000 NOSIG=
202205142200 METAR MROC 142200Z 34004KT 320V030 9999 3000SW -RA FEW010 BKN040 21/21 A3000 RETS NOSIG=
202205142300 METAR MROC 142300Z 04003KT 350V080 9999 4500SW -RA FEW008 BKN100 21/21 A3001 NOSIG=
202205150000 METAR MROC 150000Z 09003KT 060V130 9999 -RA NSC 21/21 A3003 NOSIG=
202205150100 METAR MROC 150100Z 05005KT 030V160 9999 -RA NSC 22/22 A3005 NOSIG=
202205150200 METAR MROC 150200Z 08004KT CAVOK 21/21 A3007 NOSIG=
202205150300 METAR MROC 150300Z VRB02KT CAVOK 21/21 A3007 NOSIG=
202205150400 METAR MROC 150400Z 06003KT 010V080 9999 FEW010 BKN120 21/21 A3008 NOSIG=
202205150500 METAR MROC 150500Z 09003KT CAVOK 20/20 A3007 NOSIG=
202205150600 METAR MROC 150600Z 08003KT CAVOK 20/20 A3005 NOSIG=
202205150700 METAR MROC 150700Z 07005KT CAVOK 20/20 A3002 NOSIG=
202205150800 METAR MROC 150800Z 06003KT CAVOK 20/20 A3000 NOSIG=
202205150900 METAR MROC 150900Z 04005KT CAVOK 20/20 A2998 NOSIG=
202205151000 METAR MROC 151000Z 08003KT CAVOK 20/20 A2998 NOSIG=
202205151100 METAR MROC 151100Z 09003KT CAVOK 20/20 A2999 NOSIG=
202205151200 METAR MROC 151200Z 04003KT 010V080 CAVOK 21/19 A3003 NOSIG=
202205151300 METAR MROC 151300Z 03005KT CAVOK 22/20 A3005 NOSIG=
202205151400 METAR MROC 151400Z 06005KT 360V090 CAVOK 24/20 A3007 NOSIG=
202205151500 METAR MROC 151500Z 22005KT 180V250 9999 FEW040 BKN200 24/21 A3008 NOSIG=
202205151600 METAR MROC 151600Z VRB04KT 9999 FEW035 BKN200 26/21 A3007 NOSIG=
202205151700 METAR MROC 151700Z 24006KT 200V270 9999 FEW030 BKN200 26/21 A3005 NOSIG=
202205151800 METAR MROC 151800Z 23007KT 200V290 9999 SCT030TCU BKN200 27/21 A3002 NOSIG=
202205151900 METAR MROC 151900Z 26009KT 210V290 9999 SCT030TCU BKN140 26/21 A3000 NOSIG=
202205152000 METAR MROC 152000Z COR 36006KT 340V080 9999 VCSH FEW020TCU SCT040 BKN200 25/20 A2999 TEMPO TSRA=
202205152032 METAR MROC 152032Z 27010KT 230V300 9999 2500SW RA BKN020TCU 22/22 A2997 NOSIG=
202205152100 METAR MROC 152100Z 27010KT 230V300 9999 2000SW -TSRA SCT020CB BKN020 22/22 A2997 TEMPO 5000=
202205152200 METAR MROC 152200Z 22003KT 160V260 9999 3000SW TSRA SCT020CB BKN025 21/21 A2998 NOSIG=
202205152300 METAR MROC 152300Z VRB01KT 9999 TSRA BKN015CB 21/21 A3002 NOSIG=
202205160000 METAR MROC 160000Z COR 08004KT 9000 +RA VCTS FEW025CB OVC040 21/21 A3005 NOSIG=
202205160100 METAR MROC 160100Z 07007KT 9999 RA NSC 21/21 A3004 NOSIG=
202205160200 METAR MROC 160200Z 08007KT 9999 -RA NSC 21/21 A3004 NOSIG=
202205160300 METAR MROC 160300Z 13004KT 9999 -RA NSC 21/21 A3006 NOSIG=
202205160400 METAR MROC 160400Z VRB02KT CAVOK 21/21 A3006 NOSIG=
202205160500 METAR MROC 160500Z VRB01KT CAVOK 21/21 A3006 NOSIG=
202205160600 METAR MROC 160600Z 07003KT CAVOK 20/20 A3006 NOSIG=
202205160700 METAR MROC 160700Z 07007KT CAVOK 20/20 A3003 NOSIG=
202205160800 METAR MROC 160800Z 07006KT CAVOK 20/20 A3001 NOSIG=
202205160900 METAR MROC 160900Z 08004KT CAVOK 20/20 A3000 NOSIG=
202205161000 METAR MROC 161000Z 12004KT 100V210 9999 FEW048 SCT200 20/19 A3003 NOSIG=
202205161100 METAR MROC 161100Z 08003KT CAVOK 19/19 A3002 NOSIG=
202205161200 METAR MROC 161200Z 04006KT CAVOK 21/19 A3003 NOSIG=
202205161300 METAR MROC 161300Z COR VRB02KT CAVOK 21/19 A3007 NOSIG=
202205161400 METAR MROC 161400Z VRB02KT CAVOK 22/20 A3010 NOSIG=
202205161500 METAR MROC 161500Z 24004KT 210V280 9999 FEW040 OVC080 23/21 A3013 NOSIG=
202205161600 METAR MROC 161600Z VRB02KT 9999 FEW035 OVC080 23/20 A3010 NOSIG=
202205161700 METAR MROC 161700Z 27004KT 220V290 9999 FEW030 BKN100 24/21 A3010 NOSIG=
202205161800 METAR MROC 161800Z 24005KT 190V300 9999 FEW020 BKN110 25/20 A3007 NOSIG=
202205161900 METAR MROC 161900Z 26005KT 230V350 9999 FEW020 SCT160 27/21 A3004 NOSIG=
202205162000 METAR MROC 162000Z COR 20009KT 9999 FEW025TCU SCT070 27/21 A3001 NOSIG=
202205162100 METAR MROC 162100Z 24009KT 9999 -TSRA SCT020CB BKN040 26/23 A2999 TEMPO 5000 TSRA=
202205162200 METAR MROC 162200Z 10004KT 030V150 3000 +TSRA OVC020CB 19/19 A3003 NOSIG=
202205162300 METAR MROC 162300Z VRB01KT 7000 -RA VCTS FEW020CB BKN080 20/20 A3006 NOSIG=
202205170000 METAR MROC 170000Z 02005G17KT 360V070 8000 RA VCFG FEW010 OVC080 21/21 A3008 NOSIG=
202205170100 METAR MROC 170100Z 03007KT 9999 -RA NSC 21/21 A3009 NOSIG=
202205170200 METAR MROC 170200Z VRB02KT 9999 -RA NSC 21/21 A3011 NOSIG=
202205170300 METAR MROC 170300Z 00000KT 9999 -RA NSC 21/21 A3012 NOSIG=
202205170400 METAR MROC 170400Z COR VRB01KT 9999 1000S BCFG BKN003 20/20 A3014 TEMPO 5000 BR=
202205170500 METAR MROC 170500Z VRB02KT 5000 BR BKN005 20/20 A3014 NOSIG=
202205170600 METAR MROC 170600Z 05005KT 9999 SCT015 BKN180 20/20 A3013 NOSIG=
202205170700 METAR MROC 170700Z 08004KT 9999 FEW015 BKN140 20/20 A3010 NOSIG=
202205170800 METAR MROC 170800Z 02003KT 9999 FEW025 BKN180 20/20 A3010 NOSIG=
202205170900 METAR MROC 170900Z VRB02KT 9999 OVC020 20/20 A3009 NOSIG=
202205171000 METAR MROC 171000Z VRB01KT 9999 OVC020 20/20 A3010 NOSIG=
202205171100 METAR MROC 171100Z 08005KT 9999 BKN030 20/20 A3010 NOSIG=
202205171200 METAR MROC 171200Z 07005KT CAVOK 21/21 A3011 NOSIG=
202205171300 METAR MROC 171300Z 08006KT CAVOK 22/20 A3013 NOSIG=
202205171400 METAR MROC 171400Z 09006KT 060V130 CAVOK 24/20 A3013 NOSIG=
202205171500 METAR MROC 171500Z 10007KT 070V130 CAVOK 25/19 A3014 NOSIG=
202205171600 METAR MROC 171600Z 11011KT CAVOK 24/19 A3015 NOSIG=
202205171700 METAR MROC 171700Z 11009KT 070V130 CAVOK 25/19 A3014 NOSIG=
202205171800 METAR MROC 171800Z 10009KT 070V130 9999 FEW040 BKN120 25/20 A3013 NOSIG=
202205171900 METAR MROC 171900Z 11007KT 080V150 9999 FEW040 BKN120 26/20 A3010 NOSIG=
202205172000 METAR MROC 172000Z 14006KT 080V200 9999 SCT025 BKN120 26/19 A3008 BECMG 24007KT=
202205172100 METAR MROC 172100Z 25007KT 220V290 9999 4000N FEW006 BKN010 23/23 A3008 TEMPO 8000=
202205172200 METAR MROC 172200Z 26005KT 9999 4500N BCFG SCT010 BKN120 23/23 A3008 NOSIG=
202205172300 METAR MROC 172300Z 28004KT 240V330 9999 4500N BCFG BKN010 SCT120 22/22 A3010 NOSIG=
202205180000 METAR MROC 180000Z VRB02KT 5000 BR BKN005 22/22 A3011 NOSIG=
202205180100 METAR MROC 180100Z VRB01KT 9999 BCFG BKN010 22/22 A3013 NOSIG=
202205180200 METAR MROC 180200Z 00000KT 9999 BCFG FEW020 BKN180 22/22 A3014 NOSIG=
202205180300 METAR MROC 180300Z 07003KT 340V120 9999 FEW030 BKN180 22/22 A3015 NOSIG=
202205180400 METAR MROC 180400Z 11005KT 9999 FEW030 BKN180 22/20 A3015 NOSIG=
202205180500 METAR MROC 180500Z 07005KT 9999 FEW025 BKN180 22/20 A3015 NOSIG=
202205180600 METAR MROC 180600Z 05005KT 010V090 9999 FEW025 BKN180 22/19 A3013 NOSIG=
202205180700 METAR MROC 180700Z 02005KT 9999 FEW025 BKN140 22/20 A3011 NOSIG=
202205180800 METAR MROC 180800Z VRB01KT 9999 FEW030 BKN200 22/20 A3009 NOSIG=
202205180900 METAR MROC 180900Z 07006KT 030V110 9999 FEW020 BKN120 21/20 A3009 NOSIG=
202205181000 METAR MROC 181000Z 05004KT 030V090 9999 FEW020 BKN120 22/20 A3009 NOSIG=
202205181100 METAR MROC 181100Z VRB02KT 9999 FEW020 BKN035 22/20 A3010 NOSIG=
202205181200 METAR MROC 181200Z 07003KT 030V170 9999 FEW020 BKN035 22/20 A3011 NOSIG=
202205181300 METAR MROC 181300Z 22005KT 9999 FEW040 BKN110 22/22 A3014 NOSIG=
202205181400 METAR MROC 181400Z 27004KT 240V310 9999 FEW035 BKN120 22/22 A3015 NOSIG=
202205181500 METAR MROC 181500Z 26006KT 230V290 9999 SCT025 BKN140 23/23 A3017 NOSIG=
202205181600 METAR MROC 181600Z 25006KT 230V300 9999 FEW012 SCT025 BKN140 24/23 A3017 NOSIG=
202205181700 METAR MROC 181700Z 25003KT 210V290 9999 FEW015 SCT025 BKN180 25/22 A3016 NOSIG=
202205181800 METAR MROC 181800Z 25007KT 9999 SCT022 BKN200 25/22 A3014 NOSIG=
202205181900 METAR MROC 181900Z 23007KT 9999 FEW018TCU SCT028 BKN150 25/22 A3010 BECMG SHRA=
202205182000 METAR MROC 182000Z 27007KT 240V310 9999 3000SW -RA FEW007 SCT015 BKN040 22/22 A3008 RESHRA NOSIG=
202205182100 METAR MROC 182100Z 26005KT 9999 3000SW BCFG BKN008 SCT025 22/22 A3006 NOSIG=
202205182200 METAR MROC 182200Z 25003KT 210V290 9000 VCFG FEW010 BKN100 23/23 A3005 NOSIG=
202205182300 METAR MROC 182300Z 25004KT 8000 VCFG SCT010 BKN100 22/22 A3006 NOSIG=
202205190000 METAR MROC 190000Z 24003KT 5000 BR BKN005 22/22 A3009 NOSIG=
202205190100 METAR MROC 190100Z 23003KT 5000 BR FEW002 BKN005 21/21 A3011 NOSIG=
202205190200 METAR MROC 190200Z VRB02KT 5000 BR FEW003 BKN015 22/22 A3013 NOSIG=
202205190300 METAR MROC 190300Z VRB02KT 3000 -RA BR FEW002 BKN120 21/21 A3015 BECMG 9999=
202205190400 METAR MROC 190400Z VRB02KT 9999 BCFG FEW001 BKN120 21/21 A3015 NOSIG=
202205190500 METAR MROC 190500Z 08005KT 9999 BCFG FEW001 BKN120 21/20 A3013 NOSIG=
202205190600 METAR MROC 190600Z 28004KT 9999 4000SW BR SCT002 BKN120 21/21 A3012 TEMPO 3000=
202205190700 METAR MROC 190700Z 00000KT 4000 BR FEW001 SCT005 BKN010 21/21 A3009 NOSIG=
202205190800 METAR MROC 190800Z VRB01KT 9999 4000SW BCFG BKN015 21/21 A3007 NOSIG=
202205190900 METAR MROC 190900Z 00000KT 5000 BR SCT001 BKN080 21/21 A3006 TEMPO BKN005=
202205191000 METAR MROC 191000Z 00000KT 9999 BCFG FEW002 BKN080 20/20 A3006 NOSIG=
202205191100 METAR MROC 191100Z VRB02KT 9999 FEW002 BKN100 20/20 A3007 NOSIG=
202205191200 METAR MROC 191200Z VRB02KT 9999 FEW002 BKN100 20/20 A3008 NOSIG=
202205191300 METAR MROC 191300Z 10003KT 060V140 CAVOK 22/22 A3009 NOSIG=
202205191400 METAR MROC 191400Z VRB01KT 9999 FEW008 BKN120 24/21 A3010 NOSIG=
202205191500 METAR MROC 191500Z 24004KT 210V300 9999 FEW012 SCT120 24/22 A3011 NOSIG=
202205191600 METAR MROC 191600Z 25006KT 220V300 9999 SCT020 BKN070 24/21 A3011 NOSIG=
202205191700 METAR MROC 191700Z 23006KT 9999 VCSH FEW020TCU SCT025 BKN060 25/21 A3009 NOSIG=
202205191800 METAR MROC 191800Z 24009KT 9999 FEW003 FEW018TCU SCT020 BKN090 25/22 A3007 NOSIG=
202205191900 METAR MROC 191900Z 25010KT 9999 4000SW -DZ SCT007 BKN015 22/22 A3005 BECMG 5000 RA BR BKN010=
202205192000 METAR MROC 192000Z 27006KT 3000 RA BR SCT005 BKN015 21/21 A3005 TEMPO 5000=
202205192100 METAR MROC 192100Z 32004KT 260V350 6000 2500SW -RA BCFG SCT005 BKN015 21/21 A3004 NOSIG=
202205192200 METAR MROC 192200Z 33003KT 300V360 9999 3000SW -RA BCFG SCT015 BKN025 21/21 A3004 NOSIG=
202205192300 METAR MROC 192300Z VRB02KT 9999 3000SW -RA BCFG FEW001 BKN030 OVC140 21/21 A3005 NOSIG=
202205200000 METAR MROC 200000Z 17002KT 9999 3000SW -RA BCFG FEW002 BKN025 21/21 A3007 NOSIG=
202205200100 METAR MROC 200100Z VRB02KT 8000 3000SW RA BCFG BKN015 20/20 A3009 NOSIG=
202205200200 METAR MROC 200200Z 00000KT 9999 4000SW -RA BCFG FEW002 BKN025 20/20 A3010 NOSIG=
202205200300 METAR MROC 200300Z COR 19002KT 9999 -DZ BCFG FEW002 OVC015 20/20 A3012 NOSIG=
202205200400 METAR MROC 200400Z 26002KT 6000 -RA BCFG SCT003 OVC100 20/20 A3013 NOSIG=
202205200500 METAR MROC 200500Z 33003KT 8000 -RA VCFG SCT003 OVC100 20/20 A3013 NOSIG=
202205200600 METAR MROC 200600Z 29003KT 250V330 8000 -RA VCFG SCT005 OVC100 20/20 A3011 NOSIG=
202205200700 METAR MROC 200700Z 28002KT 6000 -RA PRFG FEW001 OVC120 20/20 A3009 NOSIG=
202205200800 METAR MROC 200800Z 18001KT 5000 0500SW -RA MIFG FEW001 OVC120 20/20 A3007 NOSIG=
202205200900 METAR MROC 200900Z VRB01KT 2000 0500SW BR SCT001 BKN120 20/20 A3005 NOSIG=
202205201000 METAR MROC 201000Z 00000KT 2000 0500SW BR BKN004 SCT120 20/20 A3006 NOSIG=
202205201100 METAR MROC 201100Z 25002KT 5000 BR FEW005 BKN018 20/20 A3008 NOSIG=
202205201200 METAR MROC 201200Z VRB02KT 2500 BR SCT002 BKN010 20/20 A3009 NOSIG=
202205201300 METAR MROC 201300Z 00000KT 3000 BR FEW002 BKN015 20/20 A3011 NOSIG=
202205201400 METAR MROC 201400Z 21003KT 2000 -DZ BR SCT003 BKN015 21/21 A3014 NOSIG=
202205201500 METAR MROC 201500Z 08004KT 030V110 9999 VCFG FEW005 SCT020 BKN090 22/22 A3013 NOSIG=
202205201600 METAR MROC 201600Z 06003KT 030V130 9999 FEW030 BKN120 24/22 A3012 NOSIG=
202205201700 METAR MROC 201700Z VRB01KT 9999 FEW030 BKN120 26/20 A3011 NOSIG=
202205201800 METAR MROC 201800Z 25008KT 9999 SCT020 BKN120 24/22 A3010 NOSIG=
202205201900 METAR MROC 201900Z 24009KT 9999 RA SCT015 BKN080 24/21 A3009 NOSIG=
202205202000 METAR MROC 202000Z 23008KT 190V260 5000 RA BR SCT007 BKN030 22/22 A3008 NOSIG=
202205202100 METAR MROC 202100Z 26006KT 9999 4000S -RA BCFG FEW006 OVC010 22/22 A3007 NOSIG=
202205202200 METAR MROC 202200Z 24006KT 9999 RA BKN010 22/22 A3007 TEMPO 5000 BR=
202205202240 METAR MROC 202240Z 23004KT 200V260 5000 -RA BR FEW005 OVC040 20/20 A3009 NOSIG=
202205202300 METAR MROC 202300Z 00000KT 5000 -RA BR FEW005 OVC040 20/20 A3010 NOSIG=
202205210000 METAR MROC 210000Z 04006KT 9999 -RA BCFG FEW005 BKN100 21/21 A3012 NOSIG=
202205210100 METAR MROC 210100Z 08003KT 340V100 9999 -RA NSC 20/20 A3012 NOSIG=
202205210200 METAR MROC 210200Z 09003KT 9999 -RA NSC 20/20 A3013 NOSIG=
202205210300 METAR MROC 210300Z 09005KT 9999 -RA NSC 20/20 A3013 NOSIG=
202205210400 METAR MROC 210400Z 08006KT 9999 RA FEW010 BKN100 20/20 A3012 NOSIG=
202205210500 METAR MROC 210500Z 08005KT 9999 -RA NSC 20/20 A3012 NOSIG=
202205210600 METAR MROC 210600Z VRB02KT 9999 RA NSC 20/20 A3011 NOSIG=
202205210700 METAR MROC 210700Z VRB02KT CAVOK 20/20 A3010 RERA NOSIG=
202205210800 METAR MROC 210800Z VRB02KT CAVOK 19/19 A3010 NOSIG=
202205210900 METAR MROC 210900Z 12003KT 0300 R07/0500D FG BKN002 19/19 A3010 NOSIG=
202205211000 METAR MROC 211000Z 08002KT 9999 -RA BCFG NSC 19/19 A3010 NOSIG=
202205211100 METAR MROC 211100Z 04003KT 360V060 9999 BCFG FEW003 BKN130 19/19 A3013 NOSIG=
202205211200 METAR MROC 211200Z VRB02KT CAVOK 19/19 A3015 NOSIG=
202205211300 METAR MROC 211300Z 11003KT 060V120 CAVOK 20/20 A3016 NOSIG=
202205211400 METAR MROC 211400Z 10004KT 080V140 CAVOK 21/21 A3015 NOSIG=
202205211500 METAR MROC 211500Z VRB02KT CAVOK 23/20 A3016 BECMG 25006KT=
202205211600 METAR MROC 211600Z VRB02KT CAVOK 24/19 A3015 NOSIG=
202205211700 METAR MROC 211700Z 00000KT 9999 FEW045 SCT090 BKN140 26/20 A3014 NOSIG=
202205211800 METAR MROC 211800Z 23003KT 150V300 9999 FEW040 BKN100 27/20 A3012 NOSIG=
202205211900 METAR MROC 211900Z 24007KT 190V310 9999 FEW040 BKN180 27/21 A3009 NOSIG=
202205212000 METAR MROC 212000Z 25010KT 9999 FEW040 BKN180 25/21 A3007 NOSIG=
202205212100 METAR MROC 212100Z 24010KT 210V270 9999 FEW012 BKN160 24/22 A3006 NOSIG=
202205212200 METAR MROC 212200Z 26008KT 9999 SCT008 BKN160 23/22 A3008 NOSIG=
202205212300 METAR MROC 212300Z 26005KT 240V300 9999 FEW008 SCT020 BKN200 22/22 A3011 NOSIG=
202205220000 METAR MROC 220000Z 10002KT 9999 FEW010 BKN230 22/22 A3011 NOSIG=
202205220100 METAR MROC 220100Z VRB02KT CAVOK 22/22 A3013 NOSIG=
202205220200 METAR MROC 220200Z 31004KT 260V330 9999 VCFG SCT005 21/21 A3014 TEMPO BKN010=
202205220300 METAR MROC 220300Z VRB01KT CAVOK 21/21 A3016 NOSIG=
202205220400 METAR MROC 220400Z VRB02KT 9999 BCFG FEW004 20/20 A3016 NOSIG=
202205220500 METAR MROC 220500Z 01005KT 9999 BCFG FEW003 21/21 A3016 NOSIG=
202205220600 METAR MROC 220600Z VRB02KT 9999 BCFG FEW005 SCT220 20/20 A3014 NOSIG=
202205220700 METAR MROC 220700Z VRB02KT CAVOK 19/19 A3012 NOSIG=
202205220800 METAR MROC 220800Z 36003KT CAVOK 19/19 A3011 NOSIG=
202205220900 METAR MROC 220900Z 08004KT CAVOK 19/19 A3009 NOSIG=
202205221000 METAR MROC 221000Z 09003KT CAVOK 19/19 A3010 NOSIG=
202205221100 METAR MROC 221100Z 08005KT CAVOK 20/20 A3011 NOSIG=
202205221200 METAR MROC 221200Z 08004KT 060V120 CAVOK 20/18 A3012 NOSIG=
202205221300 METAR MROC 221300Z 07003KT 010V110 CAVOK 23/19 A3014 NOSIG=
202205221400 METAR MROC 221400Z VRB02KT CAVOK 24/19 A3015 BECMG 25005KT=
202205221500 METAR MROC 221500Z 25004KT 210V290 9999 FEW040 25/20 A3015 NOSIG=
202205221600 METAR MROC 221600Z 24006KT 190V270 9999 FEW040 26/21 A3015 NOSIG=
202205221700 METAR MROC 221700Z 24008KT 220V290 9999 FEW035 26/21 A3013 NOSIG=
202205221800 METAR MROC 221800Z 24006KT 190V310 9999 FEW035 27/22 A3011 NOSIG=
202205221900 METAR MROC 221900Z 25010KT 220V290 9999 SCT030 27/23 A3009 NOSIG=
202205222000 METAR MROC 222000Z 24010KT 9999 SCT030 SCT180 27/23 A3007 NOSIG=
202205222100 METAR MROC 222100Z 25009KT 9999 VCTS FEW015CB SCT025 BKN200 26/22 A3006 TEMPO RA=
202205222200 METAR MROC 222200Z 22007KT 9999 TS VCSH FEW015CB SCT020 BKN200 26/22 A3006 TEMPO RA=
202205222300 METAR MROC 222300Z 21006KT 180V240 9999 FEW015 SCT025 BKN060 24/22 A3007 RESHRA NOSIG=
202205230000 METAR MROC 230000Z 15003KT 100V200 9999 SCT040 BKN200 24/19 A3008 NOSIG=
202205230100 METAR MROC 230100Z VRB02KT 9999 SCT035 BKN060 23/21 A3009 NOSIG=
202205230200 METAR MROC 230200Z 10003KT CAVOK 22/21 A3011 NOSIG=
202205230300 METAR MROC 230300Z VRB01KT 9999 FEW040 23/21 A3011 NOSIG=
202205230400 METAR MROC 230400Z 06003KT 020V100 CAVOK 22/21 A3010 NOSIG=
202205230500 METAR MROC 230500Z VRB01KT 9999 BKN030 21/21 A3011 NOSIG=
202205230600 METAR MROC 230600Z VRB02KT 9999 FEW015 SCT035 21/21 A3008 NOSIG=
202205230700 METAR MROC 230700Z 06004KT 360V080 CAVOK 21/21 A3006 NOSIG=
202205230800 METAR MROC 230800Z VRB02KT CAVOK 20/20 A3005 NOSIG=
202205230900 METAR MROC 230900Z 08003KT 060V120 CAVOK 19/19 A3003 NOSIG=
202205231000 METAR MROC 231000Z 03004KT 360V070 CAVOK 20/20 A3004 NOSIG=
202205231100 METAR MROC 231100Z 07006KT CAVOK 20/19 A3005 NOSIG=
202205231200 METAR MROC 231200Z 11004KT CAVOK 19/19 A3006 NOSIG=
202205231300 METAR MROC 231300Z 09004KT 050V120 CAVOK 22/19 A3007 NOSIG=
202205231400 METAR MROC 231400Z 10004KT 060V120 CAVOK 25/18 A3007 NOSIG=
202205231500 METAR MROC 231500Z 14004KT 060V200 9999 FEW030 BKN200 26/19 A3009 BECMG 24004KT=
202205231600 METAR MROC 231600Z 29007KT 9999 SCT035 BKN200 26/19 A3006 NOSIG=
202205231700 METAR MROC 231700Z 23007KT 200V270 9999 FEW035 BKN200 28/21 A3005 NOSIG=
202205231800 METAR MROC 231800Z 24010KT 210V270 9999 FEW035 BKN200 27/22 A3003 NOSIG=
202205231900 METAR MROC 231900Z 25011KT 220V280 9999 BKN035 SCT200 26/23 A3001 NOSIG=
202205232000 METAR MROC 232000Z 25010KT 9999 VCTS FEW020 SCT030TCU 27/23 A2999 BECMG TSRA SCT020CB=
202205232100 METAR MROC 232100Z 05011KT 5000 -TSRA SCT015CB BKN025 22/21 A2999 NOSIG=
202205232200 METAR MROC 232200Z VRB02KT 9000 3000S -TSRA FEW015CB BKN025 20/20 A3001 NOSIG=
202205232300 METAR MROC 232300Z 07005KT 9999 FEW010 SCT030 BKN100 21/21 A3002 RERA NOSIG=
202205240000 METAR MROC 240000Z 07003KT 9999 FEW040 BKN180 21/21 A3003 NOSIG=
202205240100 METAR MROC 240100Z VRB01KT 9999 FEW030 BKN180 21/21 A3005 NOSIG=
202205240200 METAR MROC 240200Z 15003KT 9999 FEW030 BKN170 21/21 A3008 NOSIG=
202205240300 METAR MROC 240300Z 01004KT 9999 FEW030 BKN140 21/21 A3008 NOSIG=
202205240400 METAR MROC 240400Z VRB02KT CAVOK 21/21 A3006 NOSIG=
202205240500 METAR MROC 240500Z 09002KT CAVOK 20/20 A3003 NOSIG=
202205240600 METAR MROC 240600Z 29002KT 9999 FEW001 BKN090 21/21 A3003 TEMPO 5000 BR BKN010=
202205240700 METAR MROC 240700Z 09003KT 9999 FEW010 SCT020 BKN090 20/20 A3002 TEMPO BKN010=
202205240800 METAR MROC 240800Z 07004KT 9999 FEW020 BKN090 21/21 A2999 NOSIG=
202205240900 METAR MROC 240900Z 10005KT CAVOK 20/20 A2998 NOSIG=
202205241000 METAR MROC 241000Z 07007KT CAVOK 20/20 A2997 NOSIG=
202205241100 METAR MROC 241100Z 07005KT CAVOK 20/19 A2997 NOSIG=
202205241200 METAR MROC 241200Z VRB01KT 9999 BCFG FEW002 OVC200 20/20 A2999 NOSIG=
202205241300 METAR MROC 241300Z VRB02KT 9999 BCFG FEW002 OVC200 21/21 A3001 NOSIG=
202205241400 METAR MROC 241400Z 16003KT 060V220 9999 FEW008 OVC200 23/21 A3002 NOSIG=
202205241500 METAR MROC 241500Z VRB04KT 9999 FEW020 SCT030 BKN200 24/20 A3005 TEMPO 24005KT=
202205241600 METAR MROC 241600Z 23006KT 190V260 9999 FEW025 SCT100 BKN250 24/21 A3004 NOSIG=
202205241700 METAR MROC 241700Z 25007KT 220V300 9999 FEW030 BKN120 26/21 A3001 NOSIG=
202205241800 METAR MROC 241800Z COR 25011KT 9999 3500SW -RA FEW005 SCT008 BKN025 22/22 A3001 TEMPO 5000 BR=
202205241900 METAR MROC 241900Z 24012KT 210V280 9999 -RA VCTS FEW018CB SCT025 BKN100 23/22 A2998 NOSIG=
202205242000 METAR MROC 242000Z 25010KT 9999 VCTS FEW008CB BKN015 22/22 A2998 TEMPO TSRA=
202205242100 METAR MROC 242100Z 28007KT 9999 -RA VCTS FEW005 BKN010 FEW020CB 22/21 A2999 NOSIG=
202205242200 METAR MROC 242200Z VRB02KT 9999 -RA FEW005 SCT010 BKN020 21/21 A2998 NOSIG=
202205242300 METAR MROC 242300Z VRB02KT 9999 DZ FEW005 SCT020 BKN040 21/21 A2998 NOSIG=
202205250000 METAR MROC 250000Z 30003KT 230V010 9999 FEW010 BKN100 21/21 A2999 NOSIG=
202205250100 METAR MROC 250100Z VRB02KT CAVOK 21/21 A2999 NOSIG=
202205250200 METAR MROC 250200Z COR 30003KT 230V360 9999 BCFG FEW005 BKN120 20/20 A3003 NOSIG=
202205250300 METAR MROC 250300Z 27003KT 9999 FEW005 BKN120 21/21 A3006 NOSIG=
202205250400 METAR MROC 250400Z 00000KT 9999 BKN010 21/21 A3007 NOSIG=
202205250500 METAR MROC 250500Z VRB01KT 9999 BKN010 21/21 A3007 NOSIG=
202205250600 METAR MROC 250600Z VRB02KT 9999 BKN015 21/21 A3005 NOSIG=
202205250700 METAR MROC 250700Z 01002KT 9999 FEW010 BKN025 21/21 A3001 NOSIG=
202205250800 METAR MROC 250800Z 14002KT 9999 4000SW BCFG FEW001 BKN020 20/20 A3000 NOSIG=
202205250900 METAR MROC 250900Z 01002KT 9999 BKN015 19/19 A3001 NOSIG=
202205251000 METAR MROC 251000Z VRB02KT 9999 FEW010 SCT015 20/20 A3000 NOSIG=
202205251100 METAR MROC 251100Z 10003KT 9999 FEW025 SCT200 19/19 A3001 NOSIG=
202205251200 METAR MROC 251200Z 06005KT 030V090 CAVOK 20/20 A3003 NOSIG=
202205251300 METAR MROC 251300Z 09003KT 060V130 CAVOK 22/21 A3004 NOSIG=
202205251400 METAR MROC 251400Z 08004KT 9999 FEW040 BKN200 22/20 A3004 TEMPO 24006KT=
202205251500 METAR MROC 251500Z VRB03KT 9999 FEW025 OVC200 23/20 A3007 NOSIG=
202205251600 METAR MROC 251600Z 26005KT 9999 FEW025 OVC200 23/20 A3008 NOSIG=
202205251700 METAR MROC 251700Z COR 26004KT 220V300 9999 SCT020 BKN200 24/19 A3007 NOSIG=
202205251800 METAR MROC 251800Z 23005KT 190V270 9999 SCT030 OVC200 25/21 A3005 NOSIG=
202205251900 METAR MROC 251900Z 26007KT 220V280 9999 SCT025TCU OVC200 25/21 A3003 NOSIG=
202205252000 METAR MROC 252000Z 24007KT 9999 VCSH FEW015TCU SCT030 BKN180 24/22 A3001 TEMPO TSRA=
202205252100 METAR MROC 252100Z 25007KT 9999 VCSH FEW010 FEW015TCU BKN030 23/23 A3000 NOSIG=
202205252200 METAR MROC 252200Z 27005KT 9999 -RA FEW010 FEW015TCU SCT030 BKN100 22/22 A3000 NOSIG=
202205252300 METAR MROC 252300Z 24005KT 9999 BCFG FEW005 BKN010 22/22 A3001 TEMPO 5000 BR=
202205260000 METAR MROC 260000Z 25003KT 9999 BCFG FEW005 BKN020 21/21 A3002 NOSIG=
202205260100 METAR MROC 260100Z 24004KT 0100 R07/1500U FG VCTS VV002 21/21 A3005 NOSIG=
202205260200 METAR MROC 260200Z 25004KT 220V290 3000 R07/2000D BR FEW002 BKN015 21/21 A3006 TEMPO 0500 FG=
202205260300 METAR MROC 260300Z 24004KT 200V260 3000 BR FEW002 OVC010 21/21 A3008 NOSIG=
202205260400 METAR MROC 260400Z 26004KT 230V310 1000 -DZ BR OVC002 21/21 A3010 NOSIG=
202205260500 METAR MROC 260500Z 21003KT 1000 BR OVC002 21/21 A3010 NOSIG=
202205260600 METAR MROC 260600Z 25002KT 1000 BR OVC002 21/21 A3008 NOSIG=
202205260700 METAR MROC 260700Z 00000KT 9999 4500SW -DZ BKN002 21/21 A3006 NOSIG=
202205260800 METAR MROC 260800Z VRB02KT 9999 -DZ BKN002 21/21 A3005 NOSIG=
202205260900 METAR MROC 260900Z 00000KT 9999 SCT010 20/20 A3004 NOSIG=
202205261000 METAR MROC 261000Z 36004KT 9999 SCT010 20/20 A3005 NOSIG=
202205261100 METAR MROC 261100Z 10004KT 080V140 9999 SCT030 20/20 A3004 NOSIG=
202205261200 METAR MROC 261200Z 06007KT 9999 FEW040 BKN200 21/21 A3005 NOSIG=
202205261300 METAR MROC 261300Z 04004KT 350V100 9999 FEW002 SCT110 24/21 A3008 NOSIG=
202205261400 METAR MROC 261400Z 10007KT 070V130 CAVOK 25/20 A3009 NOSIG=
202205261500 METAR MROC 261500Z 10006KT 360V150 9999 FEW030 SCT180 27/20 A3009 NOSIG=
202205261600 METAR MROC 261600Z 11008KT 9999 FEW020 SCT180 27/19 A3009 NOSIG=
202205261700 METAR MROC 261700Z VRB05KT 9999 FEW040 SCT100 BKN250 28/19 A3007 NOSIG=
202205261800 METAR MROC 261800Z 17005KT 080V230 9999 FEW035 BKN250 30/20 A3004 NOSIG=
202205261900 METAR MROC 261900Z 24009KT 200V270 9999 FEW015TCU BKN040 27/23 A3002 NOSIG=
202205262000 METAR MROC 262000Z COR 24009KT 220V280 9999 3000N -TSRA FEW015CB BKN040 25/23 A3001 TEMPO 5000=
202205262100 METAR MROC 262100Z COR 25008KT 220V290 9999 3000N RA VCTS BKN008 FEW015CB 22/22 A3001 NOSIG=
202205262103 METAR MROC 262103Z 28007KT 240V330 4000 +TSRA BKN007 FEW010CB 22/22 A3000 NOSIG=
202205262200 METAR MROC 262200Z 34005KT 5000 RA BKN008 21/20 A3001 NOSIG=
202205262300 METAR MROC 262300Z 26005KT 230V290 9999 OVC006 21/21 A3002 RERA NOSIG=
202205270000 METAR MROC 270000Z VRB04KT 9999 VCTS BKN008 FEW010CB 21/21 A3004 NOSIG=
202205270100 METAR MROC 270100Z VRB01KT 9999 BKN010 21/21 A3007 NOSIG=
202205270200 METAR MROC 270200Z 24002KT 9999 BKN008 21/21 A3009 TEMPO 5000 BR=
202205270300 METAR MROC 270300Z VRB02KT 9999 4000S BCFG SCT003 BKN006 21/21 A3011 TEMPO 5000 BR=
202205270400 METAR MROC 270400Z 23004KT 4000 BR SCT002 OVC010 21/20 A3012 NOSIG=
202205270500 METAR MROC 270500Z 27004KT 250V310 4000 BR FEW001 BKN005 21/21 A3012 NOSIG=
202205270600 METAR MROC 270600Z 04002KT 8000 BCFG SCT004 BKN010 21/21 A3010 NOSIG=
202205270700 METAR MROC 270700Z 09005KT CAVOK 20/20 A3005 NOSIG=
202205270800 METAR MROC 270800Z 08008KT CAVOK 21/21 A3003 NOSIG=
202205270900 METAR MROC 270900Z 08006KT CAVOK 20/20 A3002 NOSIG=
202205271000 METAR MROC 271000Z 09005KT CAVOK 20/20 A3001 NOSIG=
202205271100 METAR MROC 271100Z 08008KT CAVOK 21/18 A3002 NOSIG=
202205271200 METAR MROC 271200Z 10008KT CAVOK 22/19 A3004 NOSIG=
202205271300 METAR MROC 271300Z 08006KT 040V110 CAVOK 23/18 A3006 NOSIG=
202205271400 METAR MROC 271400Z 09006KT 060V120 CAVOK 25/19 A3006 NOSIG=
202205271500 METAR MROC 271500Z 11007KT 060V150 CAVOK 27/19 A3006 NOSIG=
202205271600 METAR MROC 271600Z 11012KT 070V160 9999 FEW045 BKN200 27/19 A3007 NOSIG=
202205271700 METAR MROC 271700Z 08009KT 050V120 9999 FEW040 SCT060 BKN200 28/19 A3006 NOSIG=
202205271800 METAR MROC 271800Z 25008KT 210V290 9999 SCT040 BKN200 26/21 A3005 NOSIG=
202205271900 METAR MROC 271900Z 22007KT 150V260 9999 -RA FEW025 SCT040 BKN200 26/22 A3004 NOSIG=
202205272000 METAR MROC 272000Z 26010KT 9999 SCT015 BKN045 24/23 A3002 BECMG TSRA FEW010CB=
202205272100 METAR MROC 272100Z 25010KT 9999 SCT015 BKN100 23/23 A3001 NOSIG=
202205272200 METAR MROC 272200Z 25007KT 9999 SHRA OVC010 22/22 A3001 BECMG 5000 BR=
202205272300 METAR MROC 272300Z 27007KT 240V300 9999 BKN015 22/22 A3002 NOSIG=
202205280000 METAR MROC 280000Z 26004KT 190V300 9999 4500S BCFG OVC008 22/22 A3004 TEMPO 5000 BR=
202205280100 METAR MROC 280100Z VRB02KT 9999 FEW006 BKN035 21/21 A3005 NOSIG=
202205280200 METAR MROC 280200Z 19003KT 9999 4500S BCFG BKN008 21/21 A3007 NOSIG=
202205280300 METAR MROC 280300Z VRB02KT 9999 -RA FEW008 BKN020 21/20 A3009 NOSIG=
202205280400 METAR MROC 280400Z VRB02KT 9999 FEW008 SCT030 21/20 A3009 NOSIG=
202205280500 METAR MROC 280500Z 09003KT 9999 FEW025 21/20 A3008 NOSIG=
202205280600 METAR MROC 280600Z 09003KT CAVOK 20/20 A3006 NOSIG=
202205280700 METAR MROC 280700Z 07007KT CAVOK 20/20 A3002 NOSIG=
202205280800 METAR MROC 280800Z 05004KT 9999 FEW010 20/19 A3001 NOSIG=
202205280900 METAR MROC 280900Z 09004KT CAVOK 18/18 A3000 NOSIG=
202205281000 METAR MROC 281000Z 09003KT CAVOK 19/18 A3001 NOSIG=
202205281100 METAR MROC 281100Z 03004KT CAVOK 18/18 A3001 NOSIG=
202205281200 METAR MROC 281200Z 06006KT 9999 FEW008 BKN200 19/18 A3002 NOSIG=
202205281300 METAR MROC 281300Z 08004KT CAVOK 22/18 A3004 NOSIG=
202205281400 METAR MROC 281400Z 11004KT 080V150 CAVOK 24/19 A3005 NOSIG=
202205281500 METAR MROC 281500Z 12004KT 070V180 9999 FEW035 SCT160 BKN200 25/18 A3005 BECMG 25006KT=
202205281600 METAR MROC 281600Z 20006KT 9999 FEW035 SCT160 BKN200 27/19 A3005 NOSIG=
202205281700 METAR MROC 281700Z 26007KT 9999 FEW030 BKN120 25/20 A3005 NOSIG=
202205281800 METAR MROC 281800Z 25007KT 220V300 9999 FEW035 SCT120 BKN200 26/21 A3003 NOSIG=
202205281900 METAR MROC 281900Z 24007KT 210V270 9999 VCTS FEW020CB FEW030 BKN200 27/21 A2999 TEMPO TSRA=
202205282000 METAR MROC 282000Z 21010KT 8000 -RA VCTS FEW015CB SCT030 BKN060 22/20 A2999 NOSIG=
202205282100 METAR MROC 282100Z VRB02KT 9999 -RA VCTS SCT010CB BKN120 22/22 A2997 NOSIG=
202205282200 METAR MROC 282200Z VRB01KT 9999 -RA VCTS SCT025CB BKN120 22/22 A2997 NOSIG=
202205282300 METAR MROC 282300Z 27004KT 240V310 9999 -RA VCTS FEW005 FEW020CB BKN025 21/21 A3000 NOSIG=
202205290000 METAR MROC 290000Z 36004KT 330V060 4000 TSRA BKN015CB 21/21 A3000 NOSIG=
202205290100 METAR MROC 290100Z VRB02KT 9999 -RA SCT020 BKN080 20/20 A3003 NOSIG=
202205290200 METAR MROC 290200Z 14002KT CAVOK 20/20 A3003 NOSIG=
202205290300 METAR MROC 290300Z VRB02KT CAVOK 21/20 A3006 NOSIG=
202205290400 METAR MROC 290400Z 05004KT 9999 FEW005 BKN100 21/21 A3008 TEMPO 5000 BR=
202205290500 METAR MROC 290500Z 05004KT 9999 SCT030 20/20 A3005 NOSIG=
202205290600 METAR MROC 290600Z 06005KT CAVOK 20/20 A3002 NOSIG=
202205290700 METAR MROC 290700Z 07006KT CAVOK 21/21 A2999 NOSIG=
202205290800 METAR MROC 290800Z 07005KT CAVOK 21/21 A2998 NOSIG=
202205290900 METAR MROC 290900Z VRB01KT CAVOK 20/20 A2996 NOSIG=
202205291000 METAR MROC 291000Z VRB02KT 0100 R07/P2000N FG BKN001 19/19 A2997 NOSIG=
202205291100 METAR MROC 291100Z 10003KT 9999 VCTS NSC 19/19 A2998 NOSIG=
202205291200 METAR MROC 291200Z 02004KT CAVOK 19/19 A3000 NOSIG=
202205291300 METAR MROC 291300Z VRB02KT 9999 FEW040 BKN200 22/22 A3003 NOSIG=
202205291400 METAR MROC 291400Z VRB01KT 9999 FEW040 SCT100 BKN200 24/19 A3003 NOSIG=
202205291500 METAR MROC 291500Z VRB03KT 9999 FEW040 BKN200 25/20 A3003 BECMG 24006KT=
202205291600 METAR MROC 291600Z 24007KT 210V300 9999 SCT030 25/22 A3004 NOSIG=
202205291700 METAR MROC 291700Z 25008KT 220V280 9999 FEW020TCU SCT030 25/21 A3003 NOSIG=
202205291800 METAR MROC 291800Z 24006KT 210V280 9999 FEW020TCU BKN030 25/21 A3001 NOSIG=
202205291900 METAR MROC 291900Z 22009KT 190V260 9999 VCTS VCSH FEW015CB BKN030 24/22 A2998 TEMPO TSRA=
202205292000 METAR MROC 292000Z 23008KT 200V260 9999 VCSH SCT015TCU BKN030 23/23 A2996 NOSIG=
202205292100 METAR MROC 292100Z 25009KT 9999 3500SW -DZ VCTS FEW005 BKN010 FEW020CB 21/21 A2997 NOSIG=
202205292200 METAR MROC 292200Z 24005KT 9999 3000SW DZ SCT002 BKN007 21/21 A2997 NOSIG=
202205292300 METAR MROC 292300Z 21005KT 180V240 3000 -RA BR BKN005 21/21 A2998 NOSIG=
202205300000 METAR MROC 300000Z 28003KT 250V010 9999 -RA BCFG FEW001 BKN020 20/20 A3001 NOSIG=
202205300100 METAR MROC 300100Z 03004KT 9999 -RA BCFG FEW001 BKN030 21/21 A3002 NOSIG=
202205300200 METAR MROC 300200Z 08003KT 9999 -RA FEW020 BKN070 20/20 A3004 NOSIG=
202205300300 METAR MROC 300300Z 26002KT 9999 -RA FEW006 BKN070 20/20 A3006 TEMPO 5000 BR=
202205300400 METAR MROC 300400Z 00000KT 9999 -RA BCFG SCT010 BKN025 20/20 A3007 NOSIG=
202205300500 METAR MROC 300500Z VRB02KT 9999 -RA BCFG SCT005 BKN010 20/20 A3007 NOSIG=
202205300600 METAR MROC 300600Z VRB02KT 9999 BCFG SCT005 BKN025 20/20 A3006 NOSIG=
202205300700 METAR MROC 300700Z 07003KT 9999 FEW010 OVC100 20/20 A3004 NOSIG=
202205300800 METAR MROC 300800Z 05003KT CAVOK 20/19 A3001 NOSIG=
202205300900 METAR MROC 300900Z 07006KT CAVOK 20/19 A3000 NOSIG=
202205301000 METAR MROC 301000Z 07006KT CAVOK 20/20 A2999 NOSIG=
202205301100 METAR MROC 301100Z 07006KT CAVOK 20/20 A2998 NOSIG=
202205301200 METAR MROC 301200Z 09004KT CAVOK 19/18 A3000 NOSIG=
202205301300 METAR MROC 301300Z 07004KT CAVOK 21/20 A3002 NOSIG=
202205301400 METAR MROC 301400Z 07003KT 010V120 CAVOK 25/18 A3002 NOSIG=
202205301500 METAR MROC 301500Z 10005KT 050V130 CAVOK 26/19 A3003 NOSIG=
202205301600 METAR MROC 301600Z 10010KT 070V130 CAVOK 26/19 A3003 NOSIG=
202205301700 METAR MROC 301700Z COR 12003KT 060V170 CAVOK 28/20 A3002 BECMG 25006KT=
202205301800 METAR MROC 301800Z 23008KT 210V270 9999 FEW040 BKN130 25/21 A3001 NOSIG=
202205301900 METAR MROC 301900Z 25011KT 9999 FEW040 BKN140 25/23 A2999 NOSIG=
202205302000 METAR MROC 302000Z COR 25008KT 9999 VCTS FEW020CB FEW025TCU SCT035 BKN140 25/22 A2997 TEMPO -TSRA=
202205302100 METAR MROC 302100Z 26006KT 9999 VCTS SCT015 FEW020CB BKN200 25/22 A2996 NOSIG=
202205302200 METAR MROC 302200Z 25006KT 9999 TSRA SCT020CB BKN025 23/22 A2998 NOSIG=
202205302300 METAR MROC 302300Z VRB02KT 9000 -TSRA FEW010 FEW020CB BKN050 21/21 A3000 NOSIG=
202205310000 METAR MROC 310000Z VRB03KT 9999 -RA FEW010 BKN100 21/21 A3001 NOSIG=
202205310100 METAR MROC 310100Z 08003KT 9999 -RA FEW010 BKN100 21/21 A3002 NOSIG=
202205310200 METAR MROC 310200Z 00000KT 9999 SCT020 21/21 A3004 NOSIG=
202205310300 METAR MROC 310300Z 25004KT 9999 SCT015 21/21 A3006 NOSIG=
202205310400 METAR MROC 310400Z 27004KT 240V300 9999 SCT010 BKN030 21/21 A3007 NOSIG=
202205310500 METAR MROC 310500Z 30003KT 270V330 9999 BKN010 21/21 A3008 NOSIG=
202205310600 METAR MROC 310600Z 33003KT 320V020 9999 BKN010 21/21 A3006 NOSIG=
202205310700 METAR MROC 310700Z 05002KT 9999 FEW015 BKN140 20/20 A3003 NOSIG=
202205310800 METAR MROC 310800Z 10003KT CAVOK 20/20 A3001 NOSIG=
202205310900 METAR MROC 310900Z COR 32003KT CAVOK 20/20 A3001 NOSIG=
202205311000 METAR MROC 311000Z 08002KT CAVOK 20/20 A3001 NOSIG=
202205311100 METAR MROC 311100Z 07004KT CAVOK 20/20 A3001 NOSIG=
202205311200 METAR MROC 311200Z 06005KT 010V080 CAVOK 21/21 A3003 NOSIG=
202205311300 METAR MROC 311300Z 08004KT CAVOK 22/20 A3004 NOSIG=
202205311400 METAR MROC 311400Z 10003KT 060V140 CAVOK 25/20 A3006 NOSIG=
202205311500 METAR MROC 311500Z 20003KT 130V250 CAVOK 26/20 A3005 NOSIG=
202205311600 METAR MROC 311600Z 22006KT 180V250 9999 FEW040 SCT250 26/20 A3004 NOSIG=
202205311700 METAR MROC 311700Z 24008KT 210V290 9999 FEW040 27/21 A3003 NOSIG=
202205311800 METAR MROC 311800Z 24009KT 210V270 9999 VCTS FEW035CB FEW035 28/21 A3001 BECMG TSRA=
202205311900 METAR MROC 311900Z 21009KT 9999 -RA VCTS SCT020 BKN025CB 26/22 A3001 BECMG TSRA=
202205312000 METAR MROC 312000Z 24008KT 9999 VCTS FEW020 SCT030CB BKN120 25/21 A2998 NOSIG=
202205312100 METAR MROC 312100Z 26008KT 9999 3000SW RA VCTS SCT010CB BKN015 23/23 A2998 BECMG 3000 +TSRA=
202205312200 METAR MROC 312200Z 35004KT 260V070 3000 1000N TSRA FEW002 BKN005 22/22 A2998 NOSIG=
202205312300 METAR MROC 312300Z 29004KT 210V020 1000 R07/1800N +TSRA OVC005 20/20 A3000 NOSIG=
202206010000 METAR MROC 010000Z 35003KT 310V050 5000 -RA FEW001 SCT010 OVC100 20/20 A3003 NOSIG=
202206010100 METAR MROC 010100Z 31005KT 5000 RA FEW001 SCT005 OVC100 20/20 A3006 NOSIG=
202206010200 METAR MROC 010200Z 34005KT 5000 RA SCT008 OVC100 20/20 A3008 NOSIG=
202206010300 METAR MROC 010300Z COR 32004KT 9999 -RA SCT010 OVC100 20/20 A3009 NOSIG=
202206010400 METAR MROC 010400Z VRB02KT 9999 -DZ BKN015 20/20 A3010 NOSIG=
202206010500 METAR MROC 010500Z 12002KT 9999 FEW010 BKN025 20/19 A3010 NOSIG=
202206010600 METAR MROC 010600Z 04003KT 9999 BKN020 20/20 A3006 NOSIG=
202206010700 METAR MROC 010700Z 15003KT 120V180 9999 FEW010 BKN100 20/20 A3004 NOSIG=
202206010800 METAR MROC 010800Z 06004KT 9999 FEW010 BKN120 20/20 A3003 NOSIG=
202206010900 METAR MROC 010900Z 04004KT CAVOK 20/20 A3002 NOSIG=
202206011000 METAR MROC 011000Z 07003KT CAVOK 19/19 A3002 NOSIG=
202206011100 METAR MROC 011100Z 05005KT CAVOK 19/19 A3001 NOSIG=
202206011200 METAR MROC 011200Z 07006KT CAVOK 19/19 A3003 NOSIG=
202206011300 METAR MROC 011300Z 10004KT 070V130 CAVOK 22/20 A3004 NOSIG=
202206011400 METAR MROC 011400Z 20003KT 9999 FEW035 SCT150 BKN200 23/20 A3005 NOSIG=
202206011500 METAR MROC 011500Z 25006KT 9999 FEW030 SCT150 BKN200 24/20 A3006 NOSIG=
202206011600 METAR MROC 011600Z 24006KT 9999 FEW030 SCT150 BKN200 25/20 A3004 NOSIG=
202206011700 METAR MROC 011700Z 23009KT 9999 FEW020TCU FEW030 BKN200 25/20 A3004 NOSIG=
202206011800 METAR MROC 011800Z 23009KT 9999 FEW020TCU FEW030 SCT060 BKN200 26/21 A3001 NOSIG=
202206011900 METAR MROC 011900Z 26012KT 9999 FEW020TCU SCT030 BKN060 26/22 A2999 NOSIG=
202206012000 METAR MROC 012000Z 25015KT 9999 4000N SHRA SCT015TCU BKN025 23/22 A2999 NOSIG=
202206012100 METAR MROC 012100Z COR VRB02KT 5000 -RA BR OVC010 20/20 A3000 RESHRA NOSIG=
202206012200 METAR MROC 012200Z 24004KT 9999 -TSRA FEW010CB FEW015 OVC120 20/20 A3000 TEMPO 5000 BKN010=
202206012300 METAR MROC 012300Z 26006KT 220V290 9999 RA FEW005 SCT015 OVC100 20/20 A3002 TEMPO 3000 BKN010=
202206020000 METAR MROC 020000Z 34005KT 230V030 9999 -RA FEW008 OVC120 20/20 A3004 NOSIG=
202206020100 METAR MROC 020100Z 34001KT 9999 RA SCT010 BKN100 19/19 A3005 NOSIG=
202206020200 METAR MROC 020200Z VRB02G12KT 9999 -RA FEW015 OVC100 20/20 A3006 NOSIG=
202206020300 METAR MROC 020300Z 00000KT 9999 -RA SCT015 BKN130 19/19 A3008 NOSIG=
202206020400 METAR MROC 020400Z 00000KT 9999 -RA FEW020 BKN100 19/19 A3009 NOSIG=
202206020500 METAR MROC 020500Z VRB01KT 9999 FEW015 BKN120 19/19 A3008 NOSIG=
202206020600 METAR MROC 020600Z 34002KT 9999 FEW010 BKN120 19/19 A3007 NOSIG=
202206020700 METAR MROC 020700Z VRB02KT 9999 SCT010 BKN100 20/20 A3005 NOSIG=
202206020800 METAR MROC 020800Z 21002KT 9999 FEW008 BKN020 OVC100 19/19 A3003 NOSIG=
202206020900 METAR MROC 020900Z 00000KT 9999 BKN015 OVC100 19/19 A3002 NOSIG=
202206021000 METAR MROC 021000Z 06002KT 9999 SCT015 OVC120 19/19 A3002 NOSIG=
202206021100 METAR MROC 021100Z VRB01KT 9999 FEW015 OVC100 19/19 A3004 NOSIG=
202206021200 METAR MROC 021200Z 33001KT 9999 BKN020 OVC100 20/20 A3005 NOSIG=
202206021300 METAR MROC 021300Z 00000KT 9999 FEW010 SCT020 BKN200 21/21 A3006 NOSIG=
202206021400 METAR MROC 021400Z VRB02KT 9999 FEW010 BKN020 22/19 A3008 NOSIG=
202206021500 METAR MROC 021500Z 20003KT 8000 -RA FEW010 SCT030 BKN060 21/21 A3009 NOSIG=
202206021600 METAR MROC 021600Z 00000KT 9999 FEW010 OVC100 23/19 A3009 NOSIG=
202206021700 METAR MROC 021700Z VRB02KT 9999 FEW020 OVC100 24/18 A3008 NOSIG=
202206021800 METAR MROC 021800Z 21004KT 160V250 9999 FEW030 SCT090 BKN120 23/19 A3007 NOSIG=
202206021900 METAR MROC 021900Z 25005KT 210V280 9999 VCSH FEW030 SCT060 BKN100 24/19 A3005 NOSIG=
202206022000 METAR MROC 022000Z 24007KT 200V300 9999 BKN020 SCT060 24/19 A3003 NOSIG=
202206022100 METAR MROC 022100Z VRB02KT 9999 SCT040 BKN100 24/17 A3002 NOSIG=
202206022200 METAR MROC 022200Z 24007KT 9999 FEW015CB SCT020 BKN100 22/20 A3002 TEMPO TSRA=
202206022300 METAR MROC 022300Z 24005KT 200V280 9999 SCT020 BKN100 22/20 A3003 NOSIG=
202206030000 METAR MROC 030000Z VRB02KT 9999 DZ FEW020 BKN080 21/20 A3005 NOSIG=
202206030100 METAR MROC 030100Z 03002KT 9999 -RA FEW020 BKN100 21/20 A3006 NOSIG=
202206030200 METAR MROC 030200Z COR 25003KT 9999 -RA BKN015 21/19 A3010 NOSIG=
202206030300 METAR MROC 030300Z 31003KT 280V020 9999 -RA FEW001 BKN010 21/20 A3010 NOSIG=
202206030400 METAR MROC 030400Z 26003KT 9999 BCFG FEW001 SCT007 BKN080 20/20 A3012 TEMPO BKN010=
202206030500 METAR MROC 030500Z VRB01KT 9999 4000SW PRFG FEW001 SCT010 BKN100 20/20 A3011 NOSIG=
202206030600 METAR MROC 030600Z VRB01KT 5000 BR SCT001 BKN150 20/20 A3010 NOSIG=
202206030700 METAR MROC 030700Z 09005KT 9999 BCFG FEW001 BKN150 20/19 A3006 NOSIG=
202206030800 METAR MROC 030800Z 08007KT CAVOK 20/19 A3003 NOSIG=
202206030900 METAR MROC 030900Z 04004KT CAVOK 20/18 A3003 NOSIG=
202206031000 METAR MROC 031000Z 08004KT CAVOK 19/17 A3003 NOSIG=
202206031100 METAR MROC 031100Z 34002KT 9999 PRFG FEW001 18/18 A3004 NOSIG=
202206031200 METAR MROC 031200Z VRB02KT 9999 BCFG FEW001 BKN180 19/17 A3005 NOSIG=
202206031300 METAR MROC 031300Z 05003KT 020V080 9999 FEW030 BKN150 21/18 A3008 NOSIG=
202206031400 METAR MROC 031400Z COR VRB01KT 9999 FEW035 BKN150 23/18 A3009 BECMG 25006KT=
202206031500 METAR MROC 031500Z 06003KT 340V110 9999 FEW035 SCT140 25/18 A3007 NOSIG=
202206031600 METAR MROC 031600Z 25006KT 9999 SCT035 SCT140 25/19 A3006 NOSIG=
202206031700 METAR MROC 031700Z 25006KT 190V310 9999 SCT030 SCT140 26/18 A3006 NOSIG=
202206031800 METAR MROC 031800Z 25009KT 9999 SCT035 SCT140 26/18 A3005 NOSIG=
202206031900 METAR MROC 031900Z COR 23009KT 190V260 9999 SCT035 27/19 A3003 NOSIG=
202206032000 METAR MROC 032000Z 25012KT 9999 SCT035 BKN200 26/20 A3002 NOSIG=
202206032100 METAR MROC 032100Z COR 26010KT 230V290 9999 4500SW BKN010 25/20 A3001 NOSIG=
202206032200 METAR MROC 032200Z 25012KT 0500 R07/0350N -RA FG VCTS BKN002 FEW010CB 21/21 A3001 TEMPO TSRA=
202206032300 METAR MROC 032300Z COR 24007KT 1500 -RA BR OVC002 20/20 A3004 TEMPO 5000=
202206040000 METAR MROC 040000Z 23005KT 4000 -RA BR OVC005 20/20 A3005 NOSIG=
202206040100 METAR MROC 040100Z 22005KT 180V240 9999 -RA VCFG BKN007 19/19 A3006 NOSIG=
202206040200 METAR MROC 040200Z 06002KT 9999 -RA BKN012 19/19 A3008 NOSIG=
202206040300 METAR MROC 040300Z VRB02KT 9999 SCT030 BKN160 19/19 A3010 NOSIG=
202206040400 METAR MROC 040400Z 01003KT 9999 BKN030 20/19 A3010 NOSIG=
202206040500 METAR MROC 040500Z 11003KT 9999 FEW030 BKN160 20/19 A3009 NOSIG=
202206040600 METAR MROC 040600Z 02003KT CAVOK 20/19 A3007 NOSIG=
202206040700 METAR MROC 040700Z VRB02KT 9999 2000SW BCFG SCT010 BKN160 19/19 A3007 NOSIG=
202206040800 METAR MROC 040800Z 08003KT 9999 BCFG FEW030 SCT160 19/19 A3006 NOSIG=
202206040900 METAR MROC 040900Z 08004KT 9999 BCFG FEW030 SCT180 19/18 A3006 NOSIG=
202206041000 METAR MROC 041000Z 04005KT 9999 BCFG FEW030 SCT120 19/18 A3005 NOSIG=
202206041100 METAR MROC 041100Z 06003KT CAVOK 19/18 A3005 NOSIG=
202206041200 METAR MROC 041200Z 10005KT CAVOK 18/17 A3004 NOSIG=
202206041300 METAR MROC 041300Z VRB02KT CAVOK 20/18 A3005 NOSIG=
202206041400 METAR MROC 041400Z VRB01KT CAVOK 22/19 A3008 BECMG 24006KT=
202206041500 METAR MROC 041500Z 25003KT 200V330 9999 FEW040 BKN160 24/19 A3008 NOSIG=
202206041600 METAR MROC 041600Z 24006KT 210V270 9999 FEW040 BKN160 25/17 A3007 NOSIG=
202206041700 METAR MROC 041700Z 25008KT 230V290 9999 FEW035 26/17 A3006 NOSIG=
202206041800 METAR MROC 041800Z 26008KT 220V300 9999 FEW035 26/18 A3005 NOSIG=
202206041900 METAR MROC 041900Z 25008KT 210V300 9999 FEW035 26/19 A3003 NOSIG=
202206042000 METAR MROC 042000Z 25010KT 210V280 9999 FEW020TCU SCT035 26/20 A3002 NOSIG=
202206042100 METAR MROC 042100Z 24008KT 200V280 9999 FEW030 26/20 A2999 NOSIG=
202206042200 METAR MROC 042200Z 25008KT 9999 FEW030 25/20 A2998 NOSIG=
202206042300 METAR MROC 042300Z 26009KT 9999 SCT020 23/20 A2998 NOSIG=
202206050000 METAR MROC 050000Z 25006KT 9999 BKN012 22/20 A3000 NOSIG=
202206050100 METAR MROC 050100Z 26007KT 220V290 9999 OVC008 21/21 A3002 NOSIG=
202206050200 METAR MROC 050200Z 27006KT 9999 OVC006 21/20 A3004 NOSIG=
202206050300 METAR MROC 050300Z 28003KT 240V320 9999 OVC007 21/20 A3005 NOSIG=
202206050400 METAR MROC 050400Z 25004KT 9999 FEW005 BKN015 21/20 A3007 NOSIG=
202206050500 METAR MROC 050500Z 25004KT 220V280 9999 -RA FEW004 BKN008 21/20 A3007 NOSIG=
202206050600 METAR MROC 050600Z VRB02KT 9999 3000SW DZ BCFG OVC005 21/20 A3006 NOSIG=
202206050700 METAR MROC 050700Z 23003KT 4000 DZ BR FEW002 OVC005 20/20 A3005 NOSIG=
202206050800 METAR MROC 050800Z 26004KT 4000 DZ BR OVC004 20/20 A3004 NOSIG=
202206050900 METAR MROC 050900Z 03004KT 350V060 9999 RA FEW005 BKN100 20/20 A3003 NOSIG=
202206051000 METAR MROC 051000Z VRB02KT 9999 FEW005 BKN100 20/20 A3003 RERA NOSIG=
202206051100 METAR MROC 051100Z 07002KT 9999 FEW030 BKN100 21/20 A3003 NOSIG=
202206051200 METAR MROC 051200Z 09002KT 9999 FEW001 BKN100 21/20 A3004 NOSIG=
202206051300 METAR MROC 051300Z VRB02KT 9999 FEW030 SCT100 BKN250 23/20 A3004 NOSIG=
202206051400 METAR MROC 051400Z VRB01KT 9999 FEW020 SCT100 BKN250 25/19 A3007 NOSIG=
202206051500 METAR MROC 051500Z 24003KT 160V310 9999 FEW020 BKN250 25/20 A3008 NOSIG=
202206051600 METAR MROC 051600Z 26006KT 170V320 9999 SCT025 SCT050 26/20 A3007 NOSIG=
202206051700 METAR MROC 051700Z 25010KT 220V280 9999 VCSH SCT020 BKN250 26/20 A3006 NOSIG=
202206051800 METAR MROC 051800Z 25009KT 210V280 9999 VCTS SCT030TCU BKN250 26/20 A3004 NOSIG=
202206051900 METAR MROC 051900Z 24010KT 9999 SCT020TCU OVC100 25/20 A3002 TEMPO SHRA BKN020=
202206052000 METAR MROC 052000Z 24008KT 9999 FEW020 SCT100 OVC180 23/21 A3000 NOSIG=
202206052100 METAR MROC 052100Z 24005KT 210V270 9999 RA SCT030 OVC100 23/21 A2999 NOSIG=
202206052200 METAR MROC 052200Z 21003KT 170V250 9999 SCT020 OVC100 23/20 A2999 RERA NOSIG=
202206052300 METAR MROC 052300Z 32003KT 280V350 9999 4000N -TSRA FEW030CB SCT050 BKN100 23/20 A3005 NOSIG=
202206060000 METAR MROC 060000Z 05006KT 030V090 8000 -TSRA FEW015CB SCT025 OVC100 21/19 A3006 NOSIG=
202206060100 METAR MROC NIL=
202206060200 METAR MROC NIL=
202206060300 METAR MROC 060300Z 06004KT 9999 FEW008 SCT100 20/19 A3005 NOSIG=
202206060400 METAR MROC 060400Z 31003KT 9999 BCFG FEW004 SCT030 19/19 A3007 NOSIG=
202206060500 METAR MROC 060500Z 13003KT 9999 BCFG FEW005 SCT100 19/19 A3006 NOSIG=
202206060600 METAR MROC 060600Z 09003KT 9999 SCT025 19/19 A3006 NOSIG=
202206060700 METAR MROC 060700Z 06006KT 9999 FEW040 SCT200 19/18 A3003 NOSIG=
202206060800 METAR MROC 060800Z 03003KT CAVOK 19/18 A3001 NOSIG=
202206060900 METAR MROC 060900Z 04004KT 9999 FEW003 SCT010 19/18 A3002 NOSIG=
202206061000 METAR MROC 061000Z 13003KT 9999 FEW003 BKN020 18/18 A3003 NOSIG=
202206061100 METAR MROC 061100Z 02004KT 9999 VCFG FEW003 SCT030 BKN140 19/18 A3005 NOSIG=
202206061200 METAR MROC 061200Z VRB02KT 9999 VCFG FEW005 BKN010 19/18 A3006 NOSIG=
202206061300 METAR MROC 061300Z 26003KT 230V310 9999 4000SW VCFG FEW005 BKN010 20/18 A3008 NOSIG=
202206061400 METAR MROC 061400Z VRB02KT 5000 2000SW BR BKN005 20/19 A3010 NOSIG=
202206061500 METAR MROC 061500Z 00000KT 9999 4000SW VCFG FEW015 BKN015 21/19 A3011 NOSIG=
202206061600 METAR MROC 061600Z VRB02KT 9999 SCT030 23/19 A3011 NOSIG=
202206061700 METAR MROC 061700Z VRB02KT 9999 SCT030 25/20 A3007 NOSIG=
202206061800 METAR MROC 061800Z 25006KT 210V310 9999 BKN030 25/19 A3005 NOSIG=
202206061900 METAR MROC 061900Z 25007KT 200V290 9999 FEW020TCU BKN030 25/20 A3002 NOSIG=
202206062000 METAR MROC 062000Z 24010KT 9999 BKN030 25/21 A3000 NOSIG=
202206062100 METAR MROC 062100Z 23011KT 9999 VCSH FEW010TCU SCT015 BKN025 23/21 A3000 NOSIG=
202206062200 METAR MROC 062200Z 27009KT 8000 3000SW -RA VCTS FEW005 FEW010CB BKN015 21/20 A3001 TEMPO 5000 TSRA=
202206062300 METAR MROC 062300Z 24005KT 1500 TSRA BKN005 SCT010CB 20/20 A3003 NOSIG=
202206070000 METAR MROC 070000Z 23003KT 130V260 3000 1000SW -RA BR FEW005 SCT015 BKN030 20/20 A3005 RETSRA NOSIG=
202206070100 METAR MROC 070100Z 35004KT 9999 FEW010 SCT020 BKN080 20/20 A3008 NOSIG=
202206070200 METAR MROC 070200Z 00000KT 9999 FEW010 SCT035 BKN080 20/19 A3009 NOSIG=
202206070300 METAR MROC 070300Z 00000KT 9999 SCT005 BKN035 20/19 A3010 NOSIG=
202206070400 METAR MROC 070400Z 26003KT 230V320 9999 FEW008 OVC100 20/19 A3011 NOSIG=
202206070500 METAR MROC 070500Z VRB02KT 9999 4000W FEW008 OVC025 20/20 A3010 NOSIG=
202206070600 METAR MROC 070600Z 00000KT 9999 FEW005 OVC025 20/20 A3008 NOSIG=
202206070700 METAR MROC 070700Z 03002KT 9999 FEW010 BKN040 20/19 A3005 NOSIG=
202206070800 METAR MROC 070800Z VRB01KT 9999 FEW015 BKN035 20/20 A3004 NOSIG=
202206070900 METAR MROC 070900Z VRB01KT 9999 FEW020 BKN040 20/20 A3002 NOSIG=
202206071000 METAR MROC 071000Z COR 28003KT 260V330 1000 BR FEW002 BKN020 19/19 A3002 NOSIG=
202206071100 METAR MROC 071100Z 24002KT 4000 BR BKN010 20/19 A3004 NOSIG=
202206071200 METAR MROC 071200Z VRB01KT 8000 R07/0800U DZ OVC010 20/19 A3007 NOSIG=
202206071300 METAR MROC 071300Z VRB02KT 8000 3000SW BCFG FEW005 OVC010 20/20 A3009 NOSIG=
202206071400 METAR MROC 071400Z 18003KT 150V210 9999 4500SW BCFG FEW005 BKN020 21/19 A3010 BECMG 25006KT=
202206071500 METAR MROC 071500Z 24006KT 7000 2000SW R07/0325D BCFG FEW001 BKN010 20/20 A3010 TEMPO 5000 BR=
202206071600 METAR MROC 071600Z VRB03KT 9999 FEW005 BKN020 22/20 A3011 NOSIG=
202206071700 METAR MROC 071700Z 24005KT 190V270 9999 BKN020 23/20 A3008 NOSIG=
202206071800 METAR MROC 071800Z 24007KT 210V270 9999 FEW010TCU BKN020 23/20 A3006 NOSIG=
202206071900 METAR MROC 071900Z COR 22004KT 190V250 7000 3000N -TSRA FEW010CB BKN025 23/20 A3004 NOSIG=
202206072000 METAR MROC 072000Z VRB02KT 8000 RA FEW010 BKN020 21/20 A3002 RESHRA NOSIG=
202206072100 METAR MROC 072100Z 00000KT 9999 SCT015 BKN080 22/20 A3001 RERA NOSIG=
202206072200 METAR MROC 072200Z 24003KT 190V260 9999 FEW015 SCT045 BKN120 23/21 A3000 NOSIG=
202206072300 METAR MROC 072300Z 25005KT 8000 3000N BCFG FEW005 SCT010 BKN045 21/21 A3001 BECMG BKN010=
202206080000 METAR MROC 080000Z 25004KT 230V310 5000 1500SW BR SCT005 BKN015 20/20 A3004 BECMG 3000 BKN010=
202206080100 METAR MROC 080100Z 00000KT 3000 1000SW BR OVC002 20/20 A3006 NOSIG=
202206080200 METAR MROC 080200Z VRB02KT 1500 BR OVC002 20/20 A3008 NOSIG=
202206080300 METAR MROC 080300Z 28004KT 1500 -DZ BR SCT005 BKN010 21/20 A3008 NOSIG=
202206080400 METAR MROC 080400Z 25003KT 2000 -RA BR OVC002 21/20 A3009 NOSIG=
202206080500 METAR MROC 080500Z COR 24003KT 230V300 9999 1500SW R07/1400N PRFG SCT001 BKN005 20/20 A3009 TEMPO 2000 BR=
202206080600 METAR MROC 080600Z VRB01KT 0100 R07/1700U FG OVC001 20/20 A3007 NOSIG=
202206080700 METAR MROC 080700Z VRB02KT 8000 0300SW R07/0375D PRFG OVC002 20/20 A3005 NOSIG=
202206080800 METAR MROC 080800Z VRB02KT 8000 VCFG BKN002 20/20 A3004 NOSIG=
202206080900 METAR MROC 080900Z 00000KT 9999 4000SW BCFG SCT003 BKN005 20/20 A3004 NOSIG=
202206081000 METAR MROC 081000Z VRB02KT 9999 4000SW BCFG SCT003 BKN005 20/19 A3004 TEMPO 3000 RA BR=
202206081100 METAR MROC 081100Z 04005KT 9999 FEW001 SCT080 BKN250 20/19 A3004 NOSIG=
202206081200 METAR MROC 081200Z 26004KT 240V310 0300 R07/0400N FG SCT001 BKN003 20/20 A3006 TEMPO 3000 BR BKN010=
202206081300 METAR MROC 081300Z 31004KT 280V340 0500 R07/2000N FG OVC003 19/19 A3008 NOSIG=
202206081400 METAR MROC 081400Z 26004KT 230V310 2000 0500SW BR SCT001 BKN005 20/20 A3009 NOSIG=
202206081500 METAR MROC 081500Z 24007KT 8000 2000SW BCFG SCT001 BKN005 20/20 A3010 NOSIG=
202206081600 METAR MROC 081600Z 26007KT 9999 4000SW DZ BCFG SCT005 BKN015 21/20 A3010 NOSIG=
202206081700 METAR MROC 081700Z 24007KT 220V280 9999 FEW010 BKN020 22/20 A3008 NOSIG=
202206081800 METAR MROC 081800Z 26007KT 220V280 9999 FEW015 BKN025 24/21 A3005 NOSIG=
202206081900 METAR MROC 081900Z 24006KT 9999 FEW015TCU BKN020 23/19 A3003 NOSIG=
202206082000 METAR MROC 082000Z 26008KT 240V300 9999 VCTS FEW010 FEW015CB BKN020 22/20 A3001 NOSIG=
202206082100 METAR MROC 082100Z 23006KT 200V260 9999 VCTS FEW010CB BKN015 22/20 A3000 TEMPO 5000 TSRA=
202206082137 METAR MROC 082137Z 20004KT 170V230 9999 RA FEW007 BKN012 21/20 A3002 NOSIG=
202206082200 METAR MROC 082200Z 22004KT 190V250 9999 -TSRA FEW010CB OVC120 21/20 A3001 NOSIG=
202206082300 METAR MROC 082300Z 20006KT 190V250 4000 -RA BR BKN003 20/20 A3002 NOSIG=
202206090000 METAR MROC 090000Z 23003KT 9999 FEW010 OVC035 20/19 A3005 NOSIG=
202206090100 METAR MROC 090100Z 32001KT 9999 OVC030 20/19 A3008 NOSIG=
202206090200 METAR MROC 090200Z 03005KT 9999 -RA FEW020 OVC040 20/18 A3009 NOSIG=
202206090300 METAR MROC 090300Z 12003KT 9999 -RA OVC040 19/19 A3010 NOSIG=
202206090400 METAR MROC 090400Z 01003KT 9999 FEW015 SCT035 20/19 A3009 NOSIG=
202206090500 METAR MROC 090500Z 00000KT 9999 FEW035 19/18 A3009 NOSIG=
202206090600 METAR MROC 090600Z VRB02KT 9999 FEW015 BKN030 19/19 A3008 NOSIG=
202206090700 METAR MROC 090700Z 04004KT 9999 SCT030 19/18 A3006 NOSIG=
202206090800 METAR MROC 090800Z 12004KT CAVOK 19/18 A3002 NOSIG=
202206090900 METAR MROC 090900Z 03004KT CAVOK 19/18 A3002 NOSIG=
202206091000 METAR MROC 091000Z 36003KT CAVOK 18/17 A3003 NOSIG=
202206091100 METAR MROC 091100Z VRB01KT 0100 R07/1100U FG SCT001 17/17 A3004 BECMG 9999=
202206091200 METAR MROC 091200Z 06004KT 9999 BCFG FEW040 BKN200 18/18 A3005 NOSIG=
202206091300 METAR MROC 091300Z 01005KT 350V050 9999 FEW040 BKN200 21/18 A3006 NOSIG=
202206091400 METAR MROC 091400Z VRB02KT 9999 FEW040 BKN200 24/19 A3008 BECMG 25006KT=
202206091500 METAR MROC 091500Z 28005KT 220V340 9999 SCT040 24/19 A3008 NOSIG=
202206091600 METAR MROC 091600Z 24004KT 220V280 9999 BKN040 24/19 A3007 NOSIG=
202206091700 METAR MROC 091700Z 11005KT 020V180 9999 BKN040 26/19 A3006 NOSIG=
202206091800 METAR MROC 091800Z 12007KT 090V160 9999 SCT045 BKN200 26/19 A3003 NOSIG=
202206091900 METAR MROC 091900Z 12005KT 080V160 9999 FEW035 BKN080 27/18 A3000 NOSIG=
202206092000 METAR MROC 092000Z 22007KT 160V270 9999 FEW035 BKN070 25/22 A2999 NOSIG=
202206092100 METAR MROC 092100Z 24009KT 190V280 9999 VCTS FEW020CB FEW045 BKN050 25/22 A2998 TEMPO TSRA=
202206092200 METAR MROC 092200Z 25007KT 190V320 9999 TSRA FEW002 FEW010CB OVC020 22/21 A2999 NOSIG=
202206092300 METAR MROC 092300Z 32004KT 250V030 9999 -RA FEW002 OVC007 20/20 A3002 RETS NOSIG=
202206100000 METAR MROC 100000Z 25006KT 6000 1500SW BCFG OVC005 20/20 A3004 NOSIG=
202206100005 METAR MROC 100005Z 27005KT 3000 R07/1400D BR OVC002 20/20 A3004 NOSIG=
202206100100 METAR MROC 100100Z 00000KT 9999 4500SW BCFG FEW002 SCT015 20/20 A3007 NOSIG=
202206100200 METAR MROC 100200Z COR 10002KT 5000 2000SW -RA BR BKN001 20/19 A3006 NOSIG=
202206100300 METAR MROC 100300Z 11002KT CAVOK 20/19 A3005 NOSIG=
202206100400 METAR MROC 100400Z VRB02KT 7000 BCFG FEW004 BKN020 20/20 A3005 NOSIG=
202206100500 METAR MROC 100500Z VRB02KT 9999 FEW003 BKN130 20/20 A3005 NOSIG=
202206100600 METAR MROC 100600Z VRB01KT 0100 R07/0375N FG OVC002 19/19 A3004 NOSIG=
202206100700 METAR MROC 100700Z VRB01KT 8000 BCFG FEW001 BKN020 20/20 A3004 NOSIG=
202206100800 METAR MROC 100800Z VRB02KT 8000 BCFG FEW005 BKN020 19/19 A3002 NOSIG=
202206100900 METAR MROC 100900Z 07005KT CAVOK 19/18 A3000 NOSIG=
202206101000 METAR MROC 101000Z 07006KT CAVOK 19/17 A3000 NOSIG=
202206101100 METAR MROC 101100Z 07007KT CAVOK 19/17 A3000 NOSIG=
202206101200 METAR MROC 101200Z 06009KT 9999 FEW005 BKN200 20/17 A3001 NOSIG=
202206101300 METAR MROC 101300Z 19004KT 150V230 CAVOK 21/18 A3005 NOSIG=
202206101400 METAR MROC 101400Z 29004KT 240V340 9999 FEW015 BKN160 22/18 A3007 NOSIG=
202206101500 METAR MROC 101500Z 25006KT 220V300 9999 FEW015 BKN160 22/19 A3008 NOSIG=
202206101600 METAR MROC 101600Z 26004KT 230V300 9999 FEW025 OVC130 23/19 A3006 NOSIG=
202206101700 METAR MROC 101700Z 25005KT 200V300 9999 FEW030 BKN140 25/19 A3004 NOSIG=
202206101800 METAR MROC 101800Z 26006KT 220V350 9999 FEW030 BKN200 26/19 A3001 NOSIG=
202206101900 METAR MROC 101900Z 25006KT 210V310 9999 FEW030 BKN180 26/19 A2999 NOSIG=
202206102000 METAR MROC 102000Z 25010KT 9999 VCSH SCT025TCU BKN120 24/20 A2997 TEMPO SHRA=
202206102100 METAR MROC 102100Z 14004KT 090V180 9999 -RA FEW010 FEW015TCU BKN030 22/21 A2997 NOSIG=
202206102200 METAR MROC 102200Z 13003KT 090V200 9999 FEW010TCU OVC190 23/20 A2996 NOSIG=
202206102300 METAR MROC 102300Z 10002KT 9999 FEW015 SCT080 BKN180 23/20 A2998 NOSIG=
202206110000 METAR MROC 110000Z 22008KT 2500 TSRA FEW005CB OVC008 20/20 A3002 NOSIG=
202206110100 METAR MROC 110100Z VRB02KT 9999 4500SW -RA SCT007 BKN035 20/19 A3004 RETSRA NOSIG=
202206110200 METAR MROC 110200Z VRB02KT 9999 -RA FEW005 BKN040 20/19 A3007 NOSIG=
202206110300 METAR MROC 110300Z 04004KT 360V120 9999 -RA FEW005 BKN040 21/20 A3008 NOSIG=
202206110400 METAR MROC 110400Z 10005KT 9999 FEW030 BKN045 20/19 A3008 NOSIG=
202206110500 METAR MROC 110500Z 09006KT 9999 BKN040 21/19 A3007 NOSIG=
202206110600 METAR MROC 110600Z 10003KT 080V140 9999 FEW045 BKN140 20/19 A3003 NOSIG=
202206110700 METAR MROC 110700Z VRB02KT CAVOK 20/18 A3000 NOSIG=
202206110800 METAR MROC 110800Z VRB02KT CAVOK 20/19 A3000 NOSIG=
202206110900 METAR MROC 110900Z 09003KT CAVOK 20/19 A3000 NOSIG=
202206111000 METAR MROC 111000Z VRB01KT CAVOK 20/18 A3001 NOSIG=
202206111100 METAR MROC 111100Z 08003KT CAVOK 19/19 A3001 NOSIG=
202206111200 METAR MROC 111200Z 06005KT CAVOK 20/18 A3002 NOSIG=
202206111300 METAR MROC 111300Z 33003KT 270V030 CAVOK 22/19 A3003 NOSIG=
202206111400 METAR MROC 111400Z 28004KT 240V340 CAVOK 23/19 A3004 NOSIG=
202206111500 METAR MROC 111500Z 24004KT 200V270 9999 FEW035 SCT250 24/20 A3004 NOSIG=
202206111600 METAR MROC 111600Z 25007KT 210V310 9999 SCT035 SCT250 25/19 A3004 NOSIG=
202206111700 METAR MROC 111700Z 25009KT 210V290 9999 SCT035 SCT250 25/20 A3003 NOSIG=
202206111800 METAR MROC 111800Z 26009KT 230V290 9999 FEW020TCU BKN035 26/20 A3001 NOSIG=
202206111900 METAR MROC 111900Z 23012KT 9999 FEW020TCU SCT035 25/21 A2998 NOSIG=
202206112000 METAR MROC 112000Z 23007KT 190V260 9999 VCSH FEW020TCU SCT025 BKN080 26/21 A2995 BECMG RA=
202206112100 METAR MROC 112100Z 17005KT 130V220 8000 SHRA VCTS FEW015CB BKN020 23/21 A2995 NOSIG=
202206112200 METAR MROC 112200Z 09008KT 050V110 1500 TSRA SCT010CB BKN015 20/20 A2997 NOSIG=
202206112300 METAR MROC 112300Z 31003KT 240V030 3000 -TSRA FEW010CB BKN015 20/20 A3000 NOSIG=
202206120000 METAR MROC 120000Z 09004KT 9999 RA BKN020 20/20 A3001 RETSRA NOSIG=
202206120100 METAR MROC 120100Z 08003KT 9999 RA FEW005 BKN020 20/20 A3004 NOSIG=
202206120200 METAR MROC 120200Z 03003KT 350V050 9999 RA BKN020 20/20 A3004 NOSIG=
202206120300 METAR MROC 120300Z VRB03KT 9999 -RA NSC 21/20 A3005 NOSIG=
202206120400 METAR MROC 120400Z 08004KT 060V150 9999 -RA NSC 21/19 A3005 NOSIG=
202206120500 METAR MROC 120500Z 28003KT 250V320 CAVOK 20/20 A3005 NOSIG=
202206120600 METAR MROC 120600Z 20003KT 150V220 2000 BR FEW010 BKN100 20/19 A3004 TEMPO 0500 FG=
202206120700 METAR MROC 120700Z 31003KT 190V330 8000 BCFG FEW015 BKN100 20/19 A3003 NOSIG=
202206120800 METAR MROC 120800Z VRB02KT 9999 FEW015 OVC120 20/20 A3002 NOSIG=
202206120900 METAR MROC 120900Z 11003KT CAVOK 20/19 A3001 NOSIG=
202206121000 METAR MROC 121000Z 06003KT CAVOK 20/19 A3000 NOSIG=
202206121100 METAR MROC 121100Z 10004KT CAVOK 19/19 A3000 NOSIG=
202206121200 METAR MROC 121200Z 07002KT CAVOK 20/19 A3001 NOSIG=
202206121300 METAR MROC 121300Z 31003KT 8000 VCFG FEW005 SCT015 BKN100 20/19 A3005 TEMPO BKN010=
202206121400 METAR MROC 121400Z 32003KT 290V030 9999 BCFG FEW010 SCT020 BKN100 21/19 A3007 NOSIG=
202206121500 METAR MROC 121500Z VRB02KT 9999 SCT020 BKN100 22/20 A3009 NOSIG=
202206121600 METAR MROC 121600Z VRB02KT 9999 SCT020 BKN100 23/19 A3008 NOSIG=
202206121700 METAR MROC 121700Z 26004KT 220V340 9999 SCT015 BKN045 23/20 A3007 NOSIG=
202206121800 METAR MROC 121800Z 22008KT 190V350 9999 FEW015 SCT025 BKN045 23/20 A3006 NOSIG=
202206121900 METAR MROC 121900Z 26005KT 210V300 9999 FEW025 SCT045 BKN180 24/19 A3004 NOSIG=
202206122000 METAR MROC 122000Z 28007KT 240V310 9999 BKN025 SCT045 24/20 A3002 NOSIG=
202206122100 METAR MROC 122100Z 28007KT 230V320 9999 FEW015TCU BKN020 24/20 A3001 NOSIG=
202206122200 METAR MROC 122200Z 24012KT 9999 VCSH FEW015TCU BKN020 22/19 A3001 NOSIG=
202206122300 METAR MROC 122300Z 24007KT 9999 VCSH FEW015 BKN020 21/18 A3005 NOSIG=
202206130000 METAR MROC 130000Z 26005KT 220V280 9999 -RA FEW015 BKN020 21/18 A3006 NOSIG=
202206130100 METAR MROC 130100Z 29004KT 260V280 9999 -RA FEW010 BKN020 20/19 A3009 NOSIG=
202206130200 METAR MROC 130200Z 33003KT 9999 RA FEW005 BKN015 20/19 A3011 NOSIG=
202206130300 METAR MROC 130300Z 00000KT 9999 RA FEW005 BKN130 20/19 A3011 NOSIG=
202206130400 METAR MROC 130400Z 07002KT 9999 -RA NSC 20/19 A3011 NOSIG=
202206130500 METAR MROC 130500Z 09002KT CAVOK 19/19 A3011 NOSIG=
202206130600 METAR MROC 130600Z 33002KT 9999 -DZ BCFG NSC 20/19 A3010 NOSIG=
202206130700 METAR MROC 130700Z VRB01KT 9999 3500SW BCFG FEW005 BKN130 19/19 A3008 NOSIG=
202206130800 METAR MROC 130800Z 09002KT 9999 4500SW BCFG FEW002 BKN120 19/19 A3006 NOSIG=
202206130900 METAR MROC 130900Z 08004KT 9999 FEW002 SCT130 19/18 A3005 NOSIG=
202206131000 METAR MROC 131000Z 06005KT CAVOK 19/18 A3004 NOSIG=
202206131100 METAR MROC 131100Z 07005KT CAVOK 19/17 A3005 NOSIG=
202206131200 METAR MROC 131200Z 06005KT CAVOK 19/17 A3007 NOSIG=
202206131300 METAR MROC 131300Z 08005KT CAVOK 20/18 A3009 NOSIG=
202206131400 METAR MROC 131400Z 08004KT CAVOK 21/18 A3011 NOSIG=
202206131500 METAR MROC 131500Z 08003KT 050V120 CAVOK 24/17 A3010 NOSIG=
202206131600 METAR MROC 131600Z 26003KT 9999 FEW045 BKN180 26/17 A3009 NOSIG=
202206131700 METAR MROC 131700Z 24011KT 9999 FEW045 26/18 A3008 NOSIG=
202206131800 METAR MROC 131800Z 26012KT 220V280 9999 DZ FEW020CB SCT030 26/19 A3006 NOSIG=
202206131900 METAR MROC 131900Z 25011KT 9999 SHRA FEW015 BKN015TCU 25/20 A3005 NOSIG=
202206132000 METAR MROC 132000Z 25013KT 9999 SHRA FEW015TCU BKN040 22/20 A3004 NOSIG=
202206132100 METAR MROC 132100Z 24007KT 200V260 9999 4000SW -DZ BCFG FEW005 BKN010 21/20 A3004 NOSIG=
202206132200 METAR MROC 132200Z 23007KT 5000 RA FEW002 OVC010 20/19 A3005 NOSIG=
202206132300 METAR MROC 132300Z 19004KT 1500 BR FEW002 OVC005 20/19 A3006 NOSIG=
202206140000 METAR MROC 140000Z 09003KT 9999 DZ FEW005 BKN035 20/19 A3006 NOSIG=
202206140100 METAR MROC 140100Z 06004KT CAVOK 20/19 A3008 NOSIG=
202206140200 METAR MROC 140200Z 09003KT CAVOK 20/19 A3010 NOSIG=
202206140300 METAR MROC 140300Z 08004KT CAVOK 20/19 A3011 NOSIG=
202206140400 METAR MROC 140400Z VRB02KT 9999 -DZ FEW025 SCT045 BKN100 20/19 A3012 NOSIG=
202206140500 METAR MROC 140500Z VRB02KT 9999 -DZ SCT025 BKN100 20/19 A3012 NOSIG=
202206140600 METAR MROC 140600Z 08005KT 9999 -DZ FEW045 OVC100 20/19 A3009 NOSIG=
202206140700 METAR MROC 140700Z 10006KT CAVOK 20/19 A3006 NOSIG=
202206140800 METAR MROC 140800Z VRB02KT CAVOK 20/19 A3005 NOSIG=
202206140900 METAR MROC 140900Z 07003KT 9999 FEW015 SCT100 BKN200 19/18 A3004 NOSIG=
202206141000 METAR MROC 141000Z 10003KT CAVOK 19/18 A3003 NOSIG=
202206141100 METAR MROC 141100Z 07005KT CAVOK 19/18 A3003 NOSIG=
202206141200 METAR MROC 141200Z 06004KT CAVOK 19/18 A3003 NOSIG=
202206141300 METAR MROC 141300Z VRB02KT 9999 FEW010 21/18 A3004 BECMG 26004KT=
202206141400 METAR MROC 141400Z VRB02KT CAVOK 23/19 A3005 NOSIG=
202206141500 METAR MROC 141500Z 20004KT 170V250 CAVOK 24/17 A3006 NOSIG=
202206141600 METAR MROC 141600Z 23007KT 190V260 CAVOK 25/18 A3007 NOSIG=
202206141700 METAR MROC 141700Z 24011KT 9999 FEW045 BKN100 25/19 A3006 NOSIG=
202206141800 METAR MROC 141800Z 26011KT 9999 FEW040 BKN130 24/19 A3005 NOSIG=
202206141900 METAR MROC 141900Z 25011KT 9999 BKN040 22/19 A3003 TEMPO TSRA=
202206142000 METAR MROC 142000Z 23007KT 200V260 9999 BKN030 23/20 A3002 NOSIG=
202206142100 METAR MROC 142100Z 24007KT 9999 BKN030 OVC100 23/19 A3000 NOSIG=
202206142106 METAR MROC 142106Z 25009KT 9999 -SHRA FEW020TCU BKN025 OVC100 22/20 A2999 TEMPO 5000=
202206142200 METAR MROC 142200Z 29008KT 230V310 9999 BKN015 OVC100 21/19 A3000 RESHRA NOSIG=
202206142300 METAR MROC 142300Z 23003KT 9999 -RA FEW010 SCT035 OVC120 21/20 A3001 NOSIG=
202206150000 METAR MROC 150000Z 22006KT 3000 -RA BR FEW004 BKN015 20/20 A3002 NOSIG=
202206150100 METAR MROC 150100Z 27004KT 5000 -RA FEW005 BKN035 20/19 A3004 NOSIG=
202206150200 METAR MROC 150200Z VRB01KT 9999 -RA BKN010 20/19 A3006 NOSIG=
202206150300 METAR MROC 150300Z COR VRB01KT 9999 -RA FEW005 BKN100 20/19 A3006 NOSIG=
202206150400 METAR MROC 150400Z 26003KT 200V340 9999 FEW005 BKN045 20/19 A3007 NOSIG=
202206150500 METAR MROC 150500Z VRB02KT 9999 FEW010 BKN120 20/19 A3006 NOSIG=
202206150600 METAR MROC 150600Z COR 19003KT 9999 4500SW -RA BCFG FEW005 BKN080 19/19 A3004 NOSIG=
202206150700 METAR MROC 150700Z 00000KT 8000 2000SW BCFG FEW001 BKN005 19/19 A3003 NOSIG=
202206150800 METAR MROC 150800Z 08002KT 9999 FEW005 BKN180 20/19 A3000 NOSIG=
202206150900 METAR MROC 150900Z 09003KT CAVOK 19/18 A2999 NOSIG=
202206151000 METAR MROC 151000Z 10004KT CAVOK 19/19 A2999 NOSIG=
202206151100 METAR MROC 151100Z 08003KT CAVOK 19/18 A2999 NOSIG=
202206151200 METAR MROC 151200Z 09003KT CAVOK 19/18 A3001 NOSIG=
202206151300 METAR MROC 151300Z VRB02KT 9999 FEW035 SCT200 21/18 A3003 NOSIG=
202206151400 METAR MROC 151400Z VRB02KT 9999 FEW030 BKN200 23/18 A3003 BECMG 24007KT=
202206151500 METAR MROC 151500Z VRB03KT 9999 FEW035 BKN180 24/19 A3004 NOSIG=
202206151600 METAR MROC 151600Z 23007KT 180V260 9999 FEW020 BKN080 23/20 A3004 NOSIG=
202206151700 METAR MROC 151700Z 24008KT 210V280 9999 BKN020 24/20 A3003 NOSIG=
202206151800 METAR MROC 151800Z 25010KT 9999 BKN025 25/19 A3003 NOSIG=
202206151900 METAR MROC 151900Z 26008KT 210V290 9999 VCSH FEW020 BKN035 25/20 A3000 NOSIG=
202206152000 METAR MROC 152000Z 26008KT 9999 VCSH FEW025 BKN035 23/20 A2999 NOSIG=
202206152100 METAR MROC 152100Z 29007KT 260V070 9999 -RA BKN010 21/21 A2999 TEMPO 5000 BR=
202206152200 METAR MROC 152200Z 32005KT 260V330 5000 RA BKN008 20/20 A2999 NOSIG=
202206152300 METAR MROC 152300Z 31005KT 260V360 3000 +RA BKN008TCU 20/20 A3001 NOSIG=
202206160000 METAR MROC 160000Z 26006KT 230V290 4000 -RA BR OVC008 20/20 A3003 NOSIG=
202206160100 METAR MROC 160100Z 30003KT 7000 -RA OVC015 20/20 A3005 NOSIG=
202206160200 METAR MROC 160200Z 27004KT 8000 3000SW -RA BR OVC005 20/20 A3007 NOSIG=
202206160300 METAR MROC 160300Z 27003KT 240V350 8000 BCFG BKN005 20/20 A3008 NOSIG=
202206160400 METAR MROC 160400Z 27005KT 5000 DZ BR BKN005 20/20 A3010 NOSIG=
202206160500 METAR MROC 160500Z 31004KT 5000 -DZ BR BKN004 20/19 A3010 NOSIG=
202206160600 METAR MROC 160600Z 27005KT 240V310 5000 RA BR SCT004 BKN010 19/19 A3009 NOSIG=
202206160700 METAR MROC 160700Z VRB02KT 5000 RA BR SCT002 BKN010 19/19 A3008 NOSIG=
202206160800 METAR MROC 160800Z 24003KT 210V270 1200 R07/1400D -RA BR BKN001 19/19 A3006 NOSIG=
202206160900 METAR MROC 160900Z 23004KT 0500 R07/0900D -RA FG BKN002 19/19 A3005 NOSIG=
202206161000 METAR MROC 161000Z 20002KT 5000 -RA BR FEW003 BKN005 19/19 A3006 NOSIG=
202206161100 METAR MROC 161100Z 00000KT 9999 -RA FEW004 SCT100 BKN120 19/19 A3006 NOSIG=
202206161200 METAR MROC 161200Z 11004KT 9999 FEW002 BKN120 19/19 A3008 NOSIG=
202206161300 METAR MROC 161300Z 10004KT 9999 FEW001 BKN100 20/19 A3009 NOSIG=
202206161400 METAR MROC 161400Z 11003KT 070V140 9999 FEW002 SCT080 BKN200 23/20 A3009 NOSIG=
202206161500 METAR MROC 161500Z VRB02KT 9999 FEW040 BKN080 25/18 A3010 BECMG 24006KT=
202206161600 METAR MROC 161600Z VRB04KT 9999 FEW040 BKN120 25/17 A3009 NOSIG=
202206161700 METAR MROC 161700Z 24005KT 180V290 9999 FEW040 BKN120 26/16 A3008 NOSIG=
202206161800 METAR MROC 161800Z 24009KT 190V290 9999 FEW040 BKN150 26/19 A3007 NOSIG=
202206161900 METAR MROC 161900Z 25012KT 9999 VCSH FEW035TCU SCT035 BKN180 26/19 A3005 NOSIG=
202206162000 METAR MROC 162000Z 25011KT 9999 SCT030 BKN120 23/20 A3005 NOSIG=
202206162100 METAR MROC 162100Z 25011KT 220V280 9999 FEW025 SCT080 BKN200 22/19 A3004 NOSIG=
202206162200 METAR MROC 162200Z 25007KT 9999 VCSH FEW015 SCT025 BKN200 21/19 A3004 NOSIG=
202206162300 METAR MROC 162300Z 25004KT 9999 FEW010 SCT015 BKN100 21/20 A3006 NOSIG=
202206170000 METAR MROC 170000Z 00000KT 9999 FEW015 SCT040 BKN100 21/18 A3008 NOSIG=
202206170100 METAR MROC 170100Z 00000KT 9999 FEW015 SCT040 BKN120 21/19 A3010 NOSIG=
202206170200 METAR MROC 170200Z 00000KT 9999 -RA FEW015 SCT030 BKN120 21/20 A3011 NOSIG=
202206170300 METAR MROC 170300Z VRB02KT 9999 FEW015 SCT030 BKN120 21/20 A3012 NOSIG=
202206170400 METAR MROC 170400Z COR 24002KT 8000 3000SW BCFG BKN008 20/20 A3012 TEMPO 5000 BR=
202206170500 METAR MROC 170500Z VRB01KT 9999 BCFG BKN005 20/20 A3012 NOSIG=
202206170600 METAR MROC 170600Z 13002KT 9999 BKN030 19/19 A3011 NOSIG=
202206170700 METAR MROC 170700Z 10001KT 9999 FEW030 SCT120 19/19 A3009 NOSIG=
202206170800 METAR MROC 170800Z VRB01KT 9999 FEW005 SCT010 19/19 A3008 NOSIG=
202206170900 METAR MROC 170900Z VRB01KT 9999 FEW002 OVC015 19/19 A3007 NOSIG=
202206171000 METAR MROC 171000Z 09002KT 9999 FEW005 OVC020 19/19 A3006 NOSIG=
202206171100 METAR MROC 171100Z 10004KT 9999 SCT020 19/18 A3006 NOSIG=
202206171200 METAR MROC 171200Z COR 06003KT CAVOK 19/17 A3006 NOSIG=
202206171300 METAR MROC 171300Z 07006KT CAVOK 21/18 A3008 NOSIG=
202206171400 METAR MROC 171400Z 10004KT 060V140 CAVOK 24/18 A3008 NOSIG=
202206171500 METAR MROC 171500Z VRB02KT 9999 FEW045 BKN200 25/17 A3008 TEMPO 24006KT=
202206171600 METAR MROC 171600Z 26006KT 9999 FEW045 BKN200 25/20 A3009 NOSIG=
202206171700 METAR MROC 171700Z 25006KT 180V280 9999 FEW040 BKN200 25/19 A3008 NOSIG=
202206171800 METAR MROC 171800Z 24007KT 9999 FEW035 BKN200 25/20 A3007 NOSIG=
202206171900 METAR MROC 171900Z COR 25008KT 9999 FEW020TCU SCT035 BKN200 24/19 A3005 NOSIG=
202206172000 METAR MROC 172000Z 27007KT 220V300 9999 VCSH FEW020TCU SCT030 BKN200 26/21 A3002 NOSIG=
202206172100 METAR MROC 172100Z 23010KT 190V260 9999 VCTS FEW015CB FEW025 SCT035 BKN180 25/20 A3002 BECMG SHRA=
202206172200 METAR MROC 172200Z 24004KT 170V280 8000 3000N -TSRA FEW015CB FEW025 SCT035 BKN100 21/20 A3004 NOSIG=
202206172300 METAR MROC 172300Z 25003KT 210V310 9999 3500N -RA SCT010 BKN100 21/20 A3005 RETSRA NOSIG=
202206180000 METAR MROC 180000Z 35003KT 300V030 8000 3000SW RA BCFG FEW010 OVC080 21/20 A3006 NOSIG=
202206180100 METAR MROC 180100Z VRB02KT 9999 4000SW -RA BCFG FEW008 SCT015 BKN080 21/20 A3008 NOSIG=
202206180200 METAR MROC 180200Z 25004KT 1500 -RA BR OVC003 20/20 A3010 NOSIG=
202206180300 METAR MROC 180300Z 24003KT 1500 BR BKN003 SCT008 20/20 A3010 NOSIG=
202206180400 METAR MROC 180400Z 00000KT 3000 BR BKN003 20/20 A3011 NOSIG=
202206180500 METAR MROC 180500Z 19002KT 9999 3000SW BCFG SCT003 BKN010 20/20 A3011 NOSIG=
202206180600 METAR MROC 180600Z VRB02KT 9999 3000SW BCFG SCT002 BKN015 20/20 A3009 NOSIG=
202206180700 METAR MROC 180700Z VRB02KT 9999 3000SW BCFG FEW001 SCT005 BKN010 20/20 A3006 NOSIG=
202206180800 METAR MROC 180800Z VRB02KT 5000 BR BKN002 OVC015 20/20 A3005 NOSIG=
202206180900 METAR MROC 180900Z 16002KT 5000 2000SW -DZ BR SCT002 BKN015 20/20 A3004 NOSIG=
202206181000 METAR MROC 181000Z 22002KT 5000 2000SW BCFG SCT002 OVC005 20/20 A3003 NOSIG=
202206181100 METAR MROC 181100Z 00000KT 9999 4000SW BCFG FEW001 SCT010 BKN020 20/19 A3003 NOSIG=
202206181200 METAR MROC 181200Z 23001KT 2000 BR FEW001 OVC010 20/20 A3004 NOSIG=
202206181300 METAR MROC 181300Z 24002KT 2000 BR BKN003 20/20 A3005 NOSIG=
202206181400 METAR MROC 181400Z 26003KT 230V300 3000 BR SCT007 BKN015 21/20 A3007 NOSIG=
202206181500 METAR MROC 181500Z 25003KT 210V310 8000 VCFG SCT007 BKN020 22/20 A3008 NOSIG=
202206181600 METAR MROC 181600Z VRB02KT 9999 BKN030 25/20 A3007 NOSIG=
202206181700 METAR MROC 181700Z 25005KT 200V290 9999 SCT025 BKN150 25/19 A3006 NOSIG=
202206181800 METAR MROC 181800Z COR 25009KT 9999 VCSH FEW020TCU SCT025 SCT180 26/21 A3003 NOSIG=
202206181900 METAR MROC 181900Z 25009KT 9999 VCTS VCSH FEW015CB SCT020 BKN150 24/21 A3002 NOSIG=
202206182000 METAR MROC 182000Z 23007KT 9999 4000N RA VCTS FEW005CB BKN015 22/21 A3001 TEMPO TSRA=
202206182100 METAR MROC 182100Z COR 24007KT 3000 -RA VCTS FEW010CB OVC015 21/21 A3001 RETSRA NOSIG=
202206182200 METAR MROC 182200Z 26006KT 230V300 5000 -RA BR VCTS FEW005 FEW010CB OVC012 20/20 A3002 NOSIG=
202206182300 METAR MROC 182300Z COR 26006KT 4000 -RA BR BKN003 20/20 A3003 NOSIG=
202206190000 METAR MROC 190000Z 27005KT 5000 BR OVC003 20/20 A3006 NOSIG=
202206190100 METAR MROC 190100Z VRB02KT 5000 RA OVC015 20/19 A3008 NOSIG=
202206190200 METAR MROC 190200Z 09002KT 9999 FEW004 OVC050 20/20 A3009 NOSIG=
202206190300 METAR MROC 190300Z 00000KT CAVOK 20/19 A3008 NOSIG=
202206190400 METAR MROC 190400Z VRB02KT 9999 BCFG SCT015 BKN025 20/20 A3009 NOSIG=
202206190500 METAR MROC 190500Z VRB02KT 8000 2000SW BCFG SCT005 BKN015 20/19 A3009 NOSIG=
202206190600 METAR MROC 190600Z VRB02KT 8000 2000SW BCFG SCT005 BKN015 20/20 A3008 NOSIG=
202206190700 METAR MROC 190700Z 00000KT 9999 2000SW BCFG FEW005 OVC015 20/20 A3005 NOSIG=
202206190800 METAR MROC 190800Z 03003KT 8000 2000SW BCFG OVC005 20/19 A3003 NOSIG=
202206190900 METAR MROC 190900Z 04003KT 9999 FEW015 19/18 A3001 NOSIG=
202206191000 METAR MROC 191000Z 05004KT 9999 4500SW BCFG NSC 18/17 A3002 NOSIG=
202206191100 METAR MROC 191100Z 10003KT 9999 BCFG FEW002 BKN100 18/17 A3001 NOSIG=
202206191200 METAR MROC 191200Z 36003KT 9999 BCFG FEW002 BKN100 18/17 A3003 NOSIG=
202206191300 METAR MROC 191300Z VRB02KT 9999 BCFG FEW008 BKN130 21/18 A3004 NOSIG=
202206191400 METAR MROC 191400Z VRB01KT 9999 BCFG FEW010 BKN130 22/19 A3006 NOSIG=
202206191500 METAR MROC 191500Z VRB02KT 9999 FEW010 BKN130 23/19 A3006 BECMG 25006KT=
202206191600 METAR MROC 191600Z 25005KT 210V290 9999 SCT030 BKN120 23/19 A3007 NOSIG=
202206191700 METAR MROC 191700Z 24007KT 9999 FEW020TCU SCT045 BKN120 23/20 A3007 NOSIG=
202206191800 METAR MROC 191800Z 26007KT 220V290 9999 -RA FEW015TCU SCT030 BKN100 24/20 A3004 NOSIG=
202206191900 METAR MROC 191900Z 23008KT 190V270 9999 VCSH FEW010TCU SCT020 BKN100 23/20 A3002 NOSIG=
202206192000 METAR MROC 192000Z 25008KT 9999 -RA FEW008 OVC050 22/21 A3001 TEMPO 5000 BR=
202206192100 METAR MROC 192100Z 29003KT 240V330 8000 -RA BCFG FEW003 BKN010 21/20 A3000 NOSIG=
202206192200 METAR MROC 192200Z 22007KT 4000 RA BR BKN004 20/19 A3001 NOSIG=
202206192300 METAR MROC 192300Z 22003KT 2000 -RA BR BKN002 19/19 A3003 NOSIG=
202206200000 METAR MROC 200000Z VRB02KT 3000 1500S RA BR SCT002 OVC015 19/19 A3006 NOSIG=
202206200100 METAR MROC 200100Z 09004KT 9999 -RA FEW006 BKN030 19/19 A3008 NOSIG=
202206200200 METAR MROC 200200Z 11003KT 9999 -RA NSC 19/19 A3009 NOSIG=
202206200300 METAR MROC 200300Z VRB02KT 9999 4500S -RA BCFG FEW001 SCT060 OVC110 20/19 A3008 NOSIG=
202206200400 METAR MROC 200400Z VRB02KT 9999 4500SW BCFG FEW010 BKN100 19/19 A3010 NOSIG=
202206200500 METAR MROC 200500Z 26003KT 240V300 4000 BR FEW002 OVC005 19/19 A3011 NOSIG=
202206200600 METAR MROC 200600Z 33002KT 9999 4500SW BCFG FEW003 BKN010 19/19 A3009 NOSIG=
202206200700 METAR MROC 200700Z 16002KT 9999 4500SW BCFG FEW005 BKN030 19/19 A3006 NOSIG=
202206200800 METAR MROC 200800Z VRB01KT 9999 FEW005 BKN040 19/19 A3006 NOSIG=
202206200900 METAR MROC 200900Z 06005KT 9999 FEW005 BKN040 19/18 A3004 NOSIG=
202206201000 METAR MROC 201000Z 07005KT CAVOK 19/18 A3003 NOSIG=
202206201100 METAR MROC 201100Z 07006KT CAVOK 20/18 A3003 NOSIG=
202206201200 METAR MROC 201200Z 14004KT 110V170 9999 FEW005 BKN120 19/18 A3005 NOSIG=
202206201300 METAR MROC 201300Z 04004KT 9999 FEW002 BKN120 20/18 A3006 NOSIG=
202206201400 METAR MROC 201400Z VRB03KT 9999 FEW003 BKN150 25/19 A3006 BECMG 24006KT=
202206201500 METAR MROC 201500Z 24008KT 9999 FEW040 BKN150 23/20 A3007 NOSIG=
202206201600 METAR MROC 201600Z 25009KT 220V280 9999 SCT040 BKN200 24/20 A3007 NOSIG=
202206201700 METAR MROC 201700Z 26008KT 210V290 9999 BKN025 23/20 A3009 NOSIG=
202206201800 METAR MROC 201800Z 23009KT 9999 VCTS VCSH FEW020CB BKN025 23/20 A3008 BECMG TSRA=
202206201900 METAR MROC 201900Z 24006KT 9999 VCSH FEW025CB BKN030 22/20 A3005 NOSIG=
202206202000 METAR MROC 202000Z 25005KT 240V300 9999 -RA FEW005 SCT010 BKN030 21/20 A3004 NOSIG=
202206202100 METAR MROC 202100Z COR 24008KT 8000 2000SW RA BKN008 21/20 A3004 TEMPO 3000 OVC005=
202206202200 METAR MROC 202200Z 25004KT 5000 RA VCTS BKN008 20/20 A3005 NOSIG=
202206202300 METAR MROC 202300Z 25003KT 5000 2000SW -TSRA SCT005CB OVC010 20/20 A3007 RERA NOSIG=
202206210000 METAR MROC 210000Z 26003KT 5000 -RA BR FEW001 BKN010 20/20 A3007 RETSRA NOSIG=
202206210100 METAR MROC 210100Z VRB02KT 8000 -RA OVC008 20/20 A3008 NOSIG=
202206210200 METAR MROC 210200Z COR VRB02KT 9999 4500SW BKN005 20/20 A3009 NOSIG=
202206210300 METAR MROC 210300Z 35004KT 9999 -RA FEW005 BKN030 20/20 A3010 NOSIG=
202206210400 METAR MROC 210400Z VRB02KT 9999 4500S -RA BCFG VCTS FEW002 FEW020CB BKN050 20/20 A3011 NOSIG=
202206210500 METAR MROC 210500Z 11003KT 9999 -RA NSC 20/20 A3009 NOSIG=
202206210600 METAR MROC 210600Z 05003KT 010V120 CAVOK 20/19 A3008 NOSIG=
202206210700 METAR MROC 210700Z VRB01KT 9999 FEW010 20/19 A3005 NOSIG=
202206210800 METAR MROC 210800Z VRB01KT CAVOK 19/19 A3004 NOSIG=
202206210900 METAR MROC 210900Z 28002KT 9999 FEW003 19/19 A3004 NOSIG=
202206211000 METAR MROC 211000Z 00000KT CAVOK 19/19 A3004 NOSIG=
202206211100 METAR MROC 211100Z 00000KT 9999 2000SW BCFG FEW002 18/18 A3006 TEMPO 5000 BR=
202206211200 METAR MROC 211200Z 07003KT 9999 1500S BCFG FEW001 BKN150 18/18 A3007 NOSIG=
202206211300 METAR MROC 211300Z 04005KT 360V080 9999 FEW010 SCT150 BKN200 21/19 A3008 NOSIG=
202206211400 METAR MROC 211400Z 04004KT 360V080 CAVOK 23/19 A3008 NOSIG=
202206211500 METAR MROC 211500Z 09003KT 9999 FEW035 BKN200 25/18 A3008 BECMG 24005KT=
202206211600 METAR MROC 211600Z 25005KT 200V300 9999 FEW035 BKN200 24/21 A3008 NOSIG=
202206211700 METAR MROC 211700Z 26006KT 220V290 9999 SCT035 BKN200 25/20 A3006 NOSIG=
202206211800 METAR MROC 211800Z 24007KT 9999 FEW020TCU BKN035 25/20 A3005 NOSIG=
202206211900 METAR MROC 211900Z 24007KT 220V280 9999 -TSRA FEW020CB SCT035 BKN060 25/20 A3004 NOSIG=
202206212000 METAR MROC 212000Z 23004KT 9999 -RA VCTS FEW015CB SCT035 BKN060 23/20 A3002 RETSRA NOSIG=
202206212100 METAR MROC 212100Z VRB04KT 9999 VCTS FEW003 FEW030CB BKN035 23/21 A3001 NOSIG=
202206212200 METAR MROC 212200Z 26004KT 9999 -DZ VCSH FEW003 SCT020 BKN100 22/19 A3002 NOSIG=
202206212300 METAR MROC 212300Z VRB02KT 9999 VCSH FEW001 SCT025 BKN120 22/18 A3003 NOSIG=
202206220000 METAR MROC 220000Z 11005KT 9999 -RA FEW001 SCT030 BKN100 20/19 A3006 NOSIG=
202206220100 METAR MROC 220100Z 10004KT 070V130 9999 -RA FEW035 BKN120 21/19 A3009 NOSIG=
202206220200 METAR MROC 220200Z VRB05KT 9999 -RA FEW030 BKN120 21/19 A3009 NOSIG=
202206220300 METAR MROC 220300Z /////KT 9999 -RA NSC 21/19 A3010 NOSIG=
202206220400 METAR MROC 220400Z 08005KT 9999 -DZ NSC 20/19 A3008 NOSIG=
202206220500 METAR MROC 220500Z 06007KT CAVOK 21/18 A3004 NOSIG=
202206220600 METAR MROC 220600Z 06006KT 030V090 CAVOK 21/18 A3001 NOSIG=
202206220700 METAR MROC 220700Z 06005KT 030V090 CAVOK 21/17 A3000 NOSIG=
202206220800 METAR MROC 220800Z 09008KT 060V130 CAVOK 21/17 A2998 NOSIG=
202206220900 METAR MROC 220900Z 06005KT 030V100 CAVOK 20/16 A2997 NOSIG=
202206221000 METAR MROC 221000Z 03008KT CAVOK 20/16 A2997 NOSIG=
202206221100 METAR MROC 221100Z VRB01KT 9999 FEW035 20/16 A2998 NOSIG=
202206221200 METAR MROC 221200Z 08003KT 9999 R07/0600N FEW045 SCT120 20/16 A3000 NOSIG=
202206221300 METAR MROC 221300Z 06004KT 020V100 9999 FEW035 SCT200 22/16 A3001 NOSIG=
202206221400 METAR MROC 221400Z 11015KT 080V160 9999 FEW035 SCT200 24/17 A3002 NOSIG=
202206221500 METAR MROC 221500Z 12012KT 080V150 9999 FEW045 SCT200 26/17 A3001 NOSIG=
202206221600 METAR MROC 221600Z 11013KT 080V160 CAVOK 27/16 A3002 NOSIG=
202206221700 METAR MROC 221700Z 14009KT 100V200 9999 FEW040 SCT060 27/17 A3001 BECMG 22007KT=
202206221800 METAR MROC 221800Z 24011KT 200V280 9999 SCT020 BKN050 26/21 A2999 NOSIG=
202206221900 METAR MROC 221900Z 25004KT 9999 3000N SHRA SCT020TCU BKN030 25/20 A2998 RETSRA NOSIG=
202206222000 METAR MROC 222000Z 20006KT 9999 4000W TSRA BCFG FEW010CB BKN030 20/19 A2997 NOSIG=
202206222100 METAR MROC 222100Z 25005KT 9999 4000W TSRA BCFG FEW015CB SCT030 BKN080 20/19 A2998 NOSIG=
202206222200 METAR MROC 222200Z 31003KT 280V030 9999 4000S RA FEW010 BKN020 20/20 A2998 NOSIG=
202206222300 METAR MROC 222300Z COR 29003KT 250V320 9999 -RA FEW005 BKN015 20/20 A3001 NOSIG=
202206230000 METAR MROC 230000Z VRB01KT 9999 FEW002 BKN015 20/20 A3001 NOSIG=
202206230100 METAR MROC 230100Z 15003KT 090V170 9999 4000SW BCFG FEW002 BKN010 20/20 A3001 NOSIG=
202206230200 METAR MROC 230200Z 26003KT 230V290 3000 1000SW BR FEW001 OVC005 20/20 A3003 NOSIG=
202206230231 METAR MROC 230231Z COR 10005KT 340V100 9999 4000SW BCFG FEW005 BKN010 20/20 A3004 NOSIG=
202206230300 METAR MROC 230300Z VRB02KT 9999 4500SW BCFG FEW005 BKN020 20/20 A3004 NOSIG=
202206230400 METAR MROC 230400Z 10003KT 9999 4000SW BCFG SCT020 BKN150 20/20 A3004 NOSIG=
202206230500 METAR MROC 230500Z VRB02KT 9999 4500SW BCFG FEW015 BKN045 20/19 A3003 NOSIG=
202206230600 METAR MROC 230600Z 08004KT 9999 FEW040 BKN200 20/19 A3002 NOSIG=
202206230700 METAR MROC 230700Z 08004KT CAVOK 20/18 A2999 NOSIG=
202206230800 METAR MROC 230800Z 07004KT 9999 FEW025 SCT200 19/17 A2998 NOSIG=
202206230900 METAR MROC 230900Z 08005KT 9999 FEW025 18/17 A2998 NOSIG=
202206231000 METAR MROC 231000Z 04004KT 360V090 9999 FEW025 18/17 A2998 NOSIG=
202206231100 METAR MROC 231100Z 05006KT CAVOK 18/16 A2998 NOSIG=
202206231200 METAR MROC 231200Z 07006KT CAVOK 20/16 A3000 NOSIG=
202206231300 METAR MROC 231300Z 07005KT CAVOK 21/17 A3001 NOSIG=
202206231400 METAR MROC 231400Z 10007KT 060V140 CAVOK 24/18 A3001 BECMG 25007KT=
202206231500 METAR MROC 231500Z 13006KT 080V190 CAVOK 26/17 A3000 BECMG 25007KT=
202206231600 METAR MROC 231600Z 25009KT 9999 FEW040 BKN200 24/20 A3001 NOSIG=
202206231700 METAR MROC 231700Z 25009KT 9999 FEW040 BKN200 25/19 A3001 NOSIG=
202206231800 METAR MROC 231800Z 24011KT 9999 SCT035 BKN200 25/20 A2999 NOSIG=
202206231900 METAR MROC 231900Z 25010KT 220V280 9999 VCTS FEW020CB FEW025TCU BKN035 26/21 A2996 BECMG TSRA=
202206232000 METAR MROC 232000Z 23008KT 9999 -TSRA FEW015CB BKN030 25/21 A2995 NOSIG=
202206232100 METAR MROC 232100Z 20007KT 170V230 9999 3000SW TSRA FEW010CB BKN015 22/21 A2994 TEMPO 5000 BKN005=
202206232200 METAR MROC 232200Z 23004KT 200V260 8000 3000SW RA OVC005 22/21 A2995 NOSIG=
202206232300 METAR MROC 232300Z 02004KT 270V070 7000 3000SW TSRA BCFG FEW005 FEW012CB BKN035 20/19 A2998 NOSIG=
202206240000 METAR MROC 240000Z COR 08003KT 9999 4000SW -RA VCTS FEW008 FEW010CB BKN030 20/19 A3001 NOSIG=
202206240100 METAR MROC 240100Z COR 10003KT 9999 4000SW -RA FEW010 BKN035 20/20 A3004 NOSIG=
202206240200 METAR MROC 240200Z 00000KT 9999 4000SW RA FEW010 BKN040 20/19 A3006 NOSIG=
202206240300 METAR MROC 240300Z 07003KT 9999 RA FEW030 OVC070 20/19 A3007 NOSIG=
202206240400 METAR MROC 240400Z 09003KT 9000 -RA BCFG NSC 20/19 A3009 NOSIG=
202206240500 METAR MROC 240500Z 06006KT 9999 -RA NSC 20/19 A3008 NOSIG=
202206240600 METAR MROC 240600Z 07004KT 9999 -RA NSC 20/19 A3007 NOSIG=
202206240700 METAR MROC 240700Z VRB02KT CAVOK 19/19 A3004 NOSIG=
202206240800 METAR MROC 240800Z 09004KT 9999 -RA NSC 19/19 A3002 NOSIG=
202206240900 METAR MROC 240900Z 09006KT 9999 -RA NSC 19/18 A2999 NOSIG=
202206241000 METAR MROC 241000Z 10004KT 060V200 CAVOK 20/17 A2997 NOSIG=
202206241100 METAR MROC 241100Z 08004KT 070V200 CAVOK 20/17 A2999 NOSIG=
202206241200 METAR MROC 241200Z VRB02KT CAVOK 20/18 A3003 NOSIG=
202206241300 METAR MROC 241300Z VRB03KT 9999 FEW010 BKN150 20/18 A3006 NOSIG=
202206241400 METAR MROC 241400Z 08003KT 010V130 9999 FEW020 BKN120 21/19 A3005 NOSIG=
202206241500 METAR MROC 241500Z VRB02KT 9999 FEW040 SCT120 BKN200 25/18 A3006 NOSIG=
202206241600 METAR MROC 241600Z 08008KT 050V140 9999 FEW045 SCT120 BKN180 25/18 A3005 NOSIG=
202206241700 METAR MROC 241700Z 10009KT 060V150 9999 FEW045 BKN150 26/18 A3004 BECMG 22006KT=
202206241800 METAR MROC 241800Z 11009KT 080V180 9999 SCT045 BKN150 27/18 A3001 NOSIG=
202206241900 METAR MROC 241900Z 12008KT 080V180 9999 SCT040 BKN150 27/18 A3001 NOSIG=
202206242000 METAR MROC 242000Z 22010KT 9999 -TSRA FEW020CB SCT035 BKN100 26/21 A3000 NOSIG=
202206242100 METAR MROC 242100Z 24008KT 9999 -TSRA FEW020CB BKN040 21/19 A3001 NOSIG=
202206242200 METAR MROC 242200Z 23004KT 8000 -RA BCFG FEW005 BKN050 20/20 A3002 TEMPO 5000 BR=
202206242300 METAR MROC 242300Z 32003KT 260V010 9999 BCFG FEW005 SCT030 BKN070 21/19 A3003 NOSIG=
202206250000 METAR MROC 250000Z VRB02KT 9999 BCFG FEW005 SCT025 BKN040 21/19 A3006 NOSIG=
202206250100 METAR MROC 250100Z 00000KT 9999 FEW010 BKN050 21/20 A3007 NOSIG=
202206250200 METAR MROC 250200Z 18002KT 9999 FEW015 BKN060 20/20 A3009 NOSIG=
202206250300 METAR MROC 250300Z VRB02KT 9999 FEW010 BKN040 20/20 A3010 NOSIG=
202206250400 METAR MROC 250400Z VRB02KT 9999 FEW005 BKN020 20/20 A3012 NOSIG=
202206250500 METAR MROC 250500Z VRB02KT 9999 FEW005 BKN020 20/19 A3011 NOSIG=
202206250600 METAR MROC 250600Z 31003KT 9999 DZ FEW005 BKN030 20/20 A3009 NOSIG=
202206250700 METAR MROC 250700Z 30003KT 270V330 9999 RA FEW005 BKN020 20/19 A3007 NOSIG=
202206250800 METAR MROC 250800Z 35003KT 9999 FEW005 BKN110 20/19 A3004 RERA NOSIG=
202206250900 METAR MROC 250900Z 08003KT 360V110 9999 FEW005 BKN110 20/19 A3002 NOSIG=
202206251000 METAR MROC 251000Z VRB02KT CAVOK 19/19 A3003 NOSIG=
202206251100 METAR MROC 251100Z 34002KT 9999 FEW005 BKN110 20/19 A3004 NOSIG=
202206251200 METAR MROC 251200Z 05006KT 9999 FEW005 BKN120 20/19 A3005 NOSIG=
202206251300 METAR MROC 251300Z 10004KT 9999 FEW002 BKN140 21/18 A3007 NOSIG=
202206251400 METAR MROC 251400Z 09004KT 060V130 9999 FEW002 BKN120 22/18 A3008 NOSIG=
202206251500 METAR MROC 251500Z 24004KT 9999 4500SW BCFG FEW002 BKN150 22/20 A3010 NOSIG=
202206251600 METAR MROC 251600Z 24004KT 200V290 9999 4500SW BCFG FEW035 BKN120 23/19 A3010 NOSIG=
202206251700 METAR MROC 251700Z 24005KT 200V290 9999 SCT035 BKN150 24/20 A3009 NOSIG=
202206251800 METAR MROC 251800Z 24006KT 180V280 9999 SCT030 26/20 A3005 BECMG SCT020TCU=
202206251900 METAR MROC 251900Z 23009KT 200V260 9999 VCSH FEW025TCU SCT030 26/21 A3003 BECMG SHRA=
202206252000 METAR MROC 252000Z 24005KT 200V270 9999 -RA VCTS FEW020CB BKN030 22/21 A3003 RETSRA NOSIG=
202206252100 METAR MROC 252100Z 25005KT 220V280 9999 4000SW SCT004 BKN035 21/20 A3003 NOSIG=
202206252200 METAR MROC 252200Z 22005KT 9999 FEW008 SCT030 BKN100 22/20 A3002 NOSIG=
202206252300 METAR MROC 252300Z 25007KT 0500 R07/0800N -DZ FG BKN004 20/20 A3005 NOSIG=
202206260000 METAR MROC 260000Z 25004KT 210V290 5000 -DZ BR OVC005 20/20 A3007 NOSIG=
202206260100 METAR MROC 260100Z COR VRB02KT 5000 BR FEW008 BKN030 20/19 A3008 NOSIG=
202206260200 METAR MROC 260200Z VRB02KT 9999 FEW006 BKN020 20/19 A3011 NOSIG=
202206260300 METAR MROC 260300Z 26003KT 240V300 6000 1000SW OVC010 20/19 A3012 TEMPO 3000 BR=
202206260400 METAR MROC 260400Z VRB02KT 2000 BR OVC002 20/19 A3013 TEMPO 0500 FG=
202206260500 METAR MROC 260500Z 20002KT 2500 BR SCT001 OVC003 20/19 A3014 TEMPO 0500 FG=
202206260600 METAR MROC 260600Z VRB02KT 9999 FEW010 OVC080 20/19 A3011 NOSIG=
202206260700 METAR MROC 260700Z 08002KT 9999 R07/1200N BCFG FEW010 20/19 A3010 NOSIG=
202206260800 METAR MROC 260800Z 02003KT CAVOK 20/19 A3006 NOSIG=
202206260900 METAR MROC 260900Z 08002KT CAVOK 20/19 A3004 NOSIG=
202206261000 METAR MROC 261000Z 04004KT CAVOK 20/18 A3004 NOSIG=
202206261100 METAR MROC 261100Z 09003KT 040V130 9999 1000S R07/1300D BCFG FEW001 BKN100 20/18 A3006 NOSIG=
202206261200 METAR MROC 261200Z 06004KT CAVOK 21/18 A3007 NOSIG=
202206261300 METAR MROC 261300Z 07006KT 9999 4500SW BCFG FEW030 BKN200 22/18 A3008 NOSIG=
202206261400 METAR MROC 261400Z 12003KT 030V200 9999 4500SW BCFG FEW001 BKN200 23/18 A3009 NOSIG=
202206261500 METAR MROC 261500Z 29005KT 260V320 9999 4500SW BCFG FEW001 SCT035 BKN200 23/20 A3009 NOSIG=
202206261600 METAR MROC 261600Z 12004KT 060V200 9999 4500SW FEW001 BKN040 24/19 A3011 NOSIG=
202206261700 METAR MROC 261700Z 10008KT 9999 VCSH FEW001 BKN040 BKN120 24/19 A3010 NOSIG=
202206261800 METAR MROC 261800Z VRB04KT 9999 4500SW VCSH FEW001 BKN035 OVC080 23/20 A3009 REDZ NOSIG=
202206261900 METAR MROC 261900Z 10006KT 050V120 9999 4500SW VCSH FEW001 BKN035 OVC080 23/20 A3006 NOSIG=
202206262000 METAR MROC 262000Z 12006KT 080V200 9999 VCSH FEW002 BKN035 23/18 A3004 NOSIG=
202206262100 METAR MROC 262100Z 12006KT 090V150 9999 BKN035 22/17 A3004 NOSIG=
202206262200 METAR MROC 262200Z 12010KT 080V160 9999 FEW035 SCT060 BKN180 23/18 A3003 NOSIG=
202206262300 METAR MROC 262300Z 11007KT 9999 FEW035 SCT150 BKN180 23/18 A3005 NOSIG=
202206270000 METAR MROC 270000Z 25003KT 190V330 9999 FEW010 SCT150 BKN200 22/20 A3006 NOSIG=
202206270100 METAR MROC 270100Z 24003KT 5000 2000SW BR BKN003 21/20 A3009 NOSIG=
202206270200 METAR MROC 270200Z VRB02KT 3000 1200SW BR OVC003 21/20 A3011 NOSIG=
202206270300 METAR MROC 270300Z VRB02KT 9999 SCT035 21/20 A3013 NOSIG=
202206270400 METAR MROC 270400Z 03003KT 350V090 CAVOK 20/19 A3013 NOSIG=
202206270500 METAR MROC 270500Z 12004KT 080V160 CAVOK 19/19 A3012 NOSIG=
202206270600 METAR MROC 270600Z 05003KT 010V110 CAVOK 20/18 A3012 NOSIG=
202206270700 METAR MROC 270700Z 02004KT CAVOK 19/17 A3009 NOSIG=
202206270800 METAR MROC 270800Z 07003KT CAVOK 18/17 A3009 NOSIG=
202206270900 METAR MROC 270900Z 09004KT CAVOK 18/17 A3009 NOSIG=
202206271000 METAR MROC 271000Z 09003KT CAVOK 18/17 A3009 NOSIG=
202206271100 METAR MROC 271100Z 07006KT CAVOK 18/17 A3009 NOSIG=
202206271200 METAR MROC 271200Z 17003KT 130V200 CAVOK 19/17 A3010 NOSIG=
202206271300 METAR MROC 271300Z 03005KT 360V060 9999 FEW005 BKN140 20/18 A3013 NOSIG=
202206271400 METAR MROC 271400Z VRB01KT CAVOK 22/18 A3013 BECMG 25006KT=
202206271500 METAR MROC 271500Z 00000KT 9999 FEW040 BKN080 24/18 A3015 NOSIG=
202206271600 METAR MROC 271600Z 28005KT 9999 FEW040 BKN080 22/19 A3015 NOSIG=
202206271700 METAR MROC 271700Z VRB02KT 9999 RA FEW030 BKN050 23/20 A3014 NOSIG=
202206271800 METAR MROC 271800Z 10006KT 070V130 9999 RA FEW030 BKN090 24/19 A3013 NOSIG=
202206271900 METAR MROC 271900Z 10008KT 9999 RA FEW020 BKN100 23/19 A3011 NOSIG=
202206272000 METAR MROC 272000Z 09004KT 040V140 9999 -DZ FEW035 BKN120 24/19 A3007 NOSIG=
202206272100 METAR MROC 272100Z 10008KT 060V140 CAVOK 25/17 A3004 NOSIG=
202206272200 METAR MROC 272200Z COR 16004KT 090V230 9999 -RA FEW035 SCT120 BKN150 24/17 A3003 NOSIG=
202206272300 METAR MROC 272300Z 08006KT 9999 -RA FEW035 SCT120 BKN150 23/17 A3004 NOSIG=
202206280000 METAR MROC 280000Z 06005KT 9999 FEW045 BKN140 23/16 A3006 NOSIG=
202206280100 METAR MROC 280100Z 07004KT 9999 -RA FEW035 BKN120 22/17 A3007 NOSIG=
202206280200 METAR MROC 280200Z 06005KT 9999 FEW035 BKN120 21/17 A3009 NOSIG=
202206280300 METAR MROC 280300Z 07005KT CAVOK 21/17 A3010 NOSIG=
202206280400 METAR MROC 280400Z 30003KT 240V320 9999 4500SW BCFG FEW002 BKN150 20/19 A3012 NOSIG=
202206280500 METAR MROC 280500Z 27003KT 220V330 9999 4000S BCFG FEW005 BKN150 20/19 A3012 NOSIG=
202206280600 METAR MROC 280600Z VRB02KT 9999 4500SW BCFG SCT005 BKN120 20/18 A3011 NOSIG=
202206280700 METAR MROC 280700Z 18002KT 9999 4500SW BCFG FEW015 BKN120 19/18 A3011 NOSIG=
202206280800 METAR MROC 280800Z 04005KT 9999 FEW010 BKN120 20/18 A3010 NOSIG=
202206280900 METAR MROC 280900Z VRB02KT CAVOK 19/18 A3009 NOSIG=
202206281000 METAR MROC 281000Z 07005KT CAVOK 19/17 A3008 NOSIG=
202206281100 METAR MROC 281100Z 04008KT CAVOK 19/17 A3008 NOSIG=
202206281200 METAR MROC 281200Z 06004KT 9999 FEW040 BKN120 19/17 A3009 NOSIG=
202206281300 METAR MROC 281300Z VRB02KT 9999 FEW040 BKN130 22/17 A3011 NOSIG=
202206281400 METAR MROC 281400Z 09004KT 020V140 9999 FEW040 SCT130 24/18 A3011 NOSIG=
202206281500 METAR MROC 281500Z 12006KT 090V170 9999 FEW035 SCT120 24/17 A3012 NOSIG=
202206281600 METAR MROC 281600Z 12006KT 080V180 9999 FEW035 BKN100 26/17 A3013 NOSIG=
202206281700 METAR MROC 281700Z 14007KT 100V180 9999 FEW030 BKN060 26/17 A3013 NOSIG=
202206281800 METAR MROC 281800Z 25008KT 9999 FEW020 BKN040 24/20 A3011 NOSIG=
202206281900 METAR MROC 281900Z 25007KT 9999 VCSH FEW020TCU BKN035 24/20 A3009 TEMPO RA=
202206282000 METAR MROC 282000Z 26007KT 9999 VCSH FEW020TCU BKN030 24/21 A3006 NOSIG=
202206282100 METAR MROC 282100Z 25007KT 9999 VCSH FEW020TCU BKN035 24/20 A3009 TEMPO RA=
202206282200 METAR MROC 282200Z 26008KT 9999 4000S RA VCTS BCFG FEW005 FEW010CB BKN010 20/19 A3009 BECMG 5000 BR=
202206282300 METAR MROC 282300Z 24005KT 8000 -RA BCFG FEW005 BKN025 19/18 A3010 NOSIG=
202206290000 METAR MROC 290000Z 13003KT 090V170 8000 2000SW BCFG FEW001 BKN010 19/19 A3011 NOSIG=
202206290100 METAR MROC 290100Z 09003KT 9999 -RA FEW010 BKN040 19/19 A3012 NOSIG=
202206290200 METAR MROC 290200Z 06005KT 9999 -RA NSC 20/19 A3014 NOSIG=
202206290300 METAR MROC 290300Z 09005KT CAVOK 20/19 A3015 NOSIG=
202206290400 METAR MROC 290400Z 06006KT 9999 -RA FEW030 SCT060 BKN100 21/19 A3016 NOSIG=
202206290500 METAR MROC 290500Z 05007KT 9999 FEW030 BKN100 21/18 A3015 NOSIG=
202206290600 METAR MROC 290600Z 07003KT 020V120 9999 FEW030 SCT100 BKN200 20/18 A3012 NOSIG=
202206290700 METAR MROC 290700Z 04006KT 010V080 9999 FEW030 SCT100 21/18 A3009 NOSIG=
202206290800 METAR MROC 290800Z 09008KT 040V130 9999 FEW030 BKN120 21/17 A3008 NOSIG=
202206290900 METAR MROC 290900Z 10007KT 060V130 9999 FEW030 BKN120 20/17 A3007 NOSIG=
202206291000 METAR MROC 291000Z 07007KT 020V130 9999 FEW030 BKN120 21/17 A3007 NOSIG=
202206291100 METAR MROC 291100Z 09011KT CAVOK 21/16 A3008 NOSIG=
202206291200 METAR MROC 291200Z 11010G20KT 9999 FEW035 BKN120 21/15 A3009 NOSIG=
202206291300 METAR MROC 291300Z 12008KT 090V160 9999 FEW030 BKN120 21/16 A3011 NOSIG=
202206291400 METAR MROC 291400Z 10008KT 9999 FEW030 BKN120 22/17 A3012 NOSIG=
202206291500 METAR MROC 291500Z 11009KT 080V150 CAVOK 24/17 A3012 RMK BKN120 NOSIG=
202206291600 METAR MROC 291600Z 12010KT 080V140 CAVOK 26/17 A3012 NOSIG=
202206291700 METAR MROC 291700Z 12007KT 080V180 9999 FEW045 SCT120 26/17 A3010 NOSIG=
202206291800 METAR MROC 291800Z 27008KT 240V300 9999 FEW020TCU SCT045 25/20 A3009 NOSIG=
202206291900 METAR MROC 291900Z 24008KT 210V280 9999 FEW020TCU SCT040 BKN100 25/21 A3008 NOSIG=
202206292000 METAR MROC 292000Z 24007KT 200V290 9999 FEW015 SCT045 24/21 A3006 NOSIG=
202206292100 METAR MROC 292100Z 24007KT 9999 SCT025 26/21 A3004 NOSIG=
202206292200 METAR MROC 292200Z 23008KT 9999 BKN020 24/21 A3003 NOSIG=
202206292300 METAR MROC 292300Z 25006KT 9999 FEW015 SCT045 BKN160 23/21 A3003 NOSIG=
202206300000 METAR MROC 300000Z 24005KT 200V260 9999 4500SW BCFG SCT005 BKN010 22/21 A3007 RERA NOSIG=
202206300100 METAR MROC 300100Z 24004KT 9999 FEW030 21/21 A3008 NOSIG=
202206300200 METAR MROC 300200Z 07006KT 9999 FEW020 22/18 A3010 NOSIG=
202206300300 METAR MROC 300300Z 05004KT 350V100 CAVOK 22/19 A3011 NOSIG=
202206300400 METAR MROC 300400Z VRB02KT CAVOK 21/20 A3010 NOSIG=
202206300500 METAR MROC 300500Z 07005KT 340V120 9999 FEW005 21/18 A3011 NOSIG=
202206300600 METAR MROC 300600Z 06007KT 9999 SCT035 21/18 A3009 NOSIG=
202206300700 METAR MROC 300700Z 11008KT 9999 FEW040 22/18 A3007 NOSIG=
202206300800 METAR MROC 300800Z 10006KT 070V140 CAVOK 22/18 A3006 NOSIG=
202206300900 METAR MROC 300900Z 27005KT 5000 1000SW BR BKN005 19/19 A3006 NOSIG=
202206301000 METAR MROC 301000Z 34003KT 300V010 8000 1000SW BCFG SCT002 19/19 A3006 NOSIG=
202206301100 METAR MROC 301100Z VRB02KT 9999 BCFG FEW030 18/18 A3007 NOSIG=
202206301200 METAR MROC 301200Z 04005KT 020V080 9999 BCFG NSC 19/17 A3007 NOSIG=
202206301300 METAR MROC 301300Z 10006KT 080V140 9999 FEW040 BKN120 21/18 A3007 NOSIG=
202206301400 METAR MROC 301400Z COR 12010KT 9999 BKN040 24/18 A3009 NOSIG=
202206301500 METAR MROC 301500Z 09011KT 060V120 9999 SCT040 26/17 A3010 NOSIG=
202206301600 METAR MROC 301600Z 08014KT 050V110 9999 SCT045 27/18 A3009 NOSIG=
202206301700 METAR MROC 301700Z 08012KT 9999 SCT040 BKN200 27/17 A3008 NOSIG=
202206301800 METAR MROC 301800Z 09012KT 9999 SCT045 BKN200 27/18 A3007 NOSIG=
202206301900 METAR MROC 301900Z 10011KT 070V140 9999 SCT045 BKN200 26/18 A3005 NOSIG=
202206302000 METAR MROC 302000Z 10008KT 060V130 9999 SCT040 BKN200 26/17 A3004 NOSIG=
202206302100 METAR MROC 302100Z 10006KT 040V160 9999 FEW005 BKN040 26/17 A3000 NOSIG=
202206302200 METAR MROC 302200Z 08009KT 060V120 9999 SCT045 BKN200 26/17 A3001 NOSIG=
202206302300 METAR MROC 302300Z 09008KT 9999 BKN040 25/17 A3002 NOSIG=
202207010000 METAR MROC 010000Z 09008KT 9999 -DZ FEW003 BKN040 24/17 A3003 NOSIG=
202207010100 METAR MROC 010100Z VRB02KT 9999 BKN025 23/18 A3003 NOSIG=
202207010200 METAR MROC 010200Z VRB03KT 9999 FEW030 23/17 A3005 NOSIG=
202207010300 METAR MROC 010300Z 11009KT 9999 FEW030 SCT200 22/18 A3005 NOSIG=
202207010400 METAR MROC 010400Z 11009KT CAVOK 22/18 A3005 NOSIG=
202207010500 METAR MROC 010500Z 11010KT CAVOK 22/18 A3004 NOSIG=
202207010600 METAR MROC 010600Z 12014KT 090V150 9999 FEW045 SCT200 22/18 A3001 NOSIG=
202207010700 METAR MROC 010700Z 11012KT 9999 FEW030 BKN090 22/18 A3000 NOSIG=
202207010800 METAR MROC 010800Z VRB01KT 9999 -RA FEW030 BKN100 21/18 A2999 NOSIG=
202207010900 METAR MROC 010900Z 09004KT CAVOK 21/18 A2999 NOSIG=
202207011000 METAR MROC 011000Z VRB02KT 9999 FEW003 20/18 A2997 NOSIG=
202207011100 METAR MROC 011100Z VRB02KT 9999 4500S BCFG FEW001 BKN035 19/19 A2999 NOSIG=
202207011200 METAR MROC 011200Z 34002KT 8000 1000SW R07/0375N BCFG SCT002 BKN040 19/19 A3001 NOSIG=
202207011300 METAR MROC 011300Z VRB03KT 2000 -RA FEW001 BKN020 20/19 A3004 NOSIG=
202207011400 METAR MROC 011400Z 08003KT 050V110 4000 -RA SCT010 OVC070 20/19 A3004 NOSIG=
202207011500 METAR MROC 011500Z 10005KT 8000 3000S -RA SCT040 BKN100 20/20 A3004 NOSIG=
202207011600 METAR MROC 011600Z 10003KT 060V160 9999 4500SW -RA SCT035 BKN090 22/20 A3004 NOSIG=
202207011700 METAR MROC 011700Z 12004KT 090V150 9999 -RA FEW001 SCT040 OVC100 23/20 A3003 NOSIG=
202207011800 METAR MROC 011800Z VRB02KT 9999 -DZ SCT030 OVC110 24/20 A3000 NOSIG=
202207011900 METAR MROC 011900Z 27005KT 9999 4000SW -DZ BCFG FEW035 OVC110 23/20 A2999 NOSIG=
202207012000 METAR MROC 012000Z 24006KT 5000 -RA BCFG SCT005 BKN010 22/21 A2997 NOSIG=
202207012100 METAR MROC 012100Z 25005KT 220V290 4000 -RA BCFG FEW005 SCT010 BKN030 22/21 A2995 TEMPO BKN010=
202207012200 METAR MROC 012200Z 22002KT 5000 -RA BCFG FEW003 SCT010 BKN030 21/20 A2993 NOSIG=
202207012300 METAR MROC 012300Z 27004KT 240V300 5000 2000SW -RA BCFG FEW003 BKN025 21/20 A2994 NOSIG=
202207020000 METAR MROC 020000Z COR 25004KT 220V280 3000 -RA BR FEW001 BKN015 21/20 A2994 NOSIG=
202207020100 METAR MROC 020100Z 24005KT 210V270 1200 R07/0700N -RA BR OVC002 20/20 A2996 NOSIG=
202207020200 METAR MROC 020200Z 26005KT 3000 1200SW RA BR OVC002 20/20 A2997 NOSIG=
202207020300 METAR MROC 020300Z 25006KT 0600 R07/700N RA FG OVC001 20/20 A2997 NOSIG=
202207020400 METAR MROC 020400Z 22005KT 200V260 1000 R07/P2000N -DZ BR OVC002 20/20 A2998 NOSIG=
202207020500 METAR MROC 020500Z 26003KT 210V300 1200 R07/1600U BR OVC004 20/20 A2998 NOSIG=
202207020600 METAR MROC 020600Z 30004KT 5000 -DZ BR FEW010 SCT030 OVC100 20/20 A2996 NOSIG=
202207020700 METAR MROC 020700Z VRB02KT 5000 1000SW BR OVC003 20/20 A2995 NOSIG=
202207020800 METAR MROC 020800Z VRB01KT 5000 BR OVC020 20/20 A2994 NOSIG=
202207020900 METAR MROC 020900Z VRB02KT 5000 -RA BR OVC015 20/20 A2993 NOSIG=
202207021000 METAR MROC 021000Z 24002KT 5000 BR FEW002 BKN060 20/20 A2993 NOSIG=
202207021100 METAR MROC 021100Z 00000KT 5000 BR SCT001 BKN015 20/20 A2994 NOSIG=
202207021200 METAR MROC 021200Z VRB02KT 5000 BR OVC015 20/20 A2997 NOSIG=
202207021300 METAR MROC 021300Z VRB01KT 8000 BCFG SCT005 BKN100 22/20 A2998 NOSIG=
202207021400 METAR MROC 021400Z VRB02KT 9999 BKN015 SCT100 22/20 A3001 NOSIG=
202207021500 METAR MROC 021500Z 24005KT 9999 FEW020 SCT070 BKN120 22/20 A3003 NOSIG=
202207021600 METAR MROC 021600Z COR 26006KT 5000 DZ BR BKN006 22/21 A3003 NOSIG=
202207021700 METAR MROC 021700Z 24004KT 210V280 8000 -RA VCFG BKN006 22/21 A3002 NOSIG=
202207021800 METAR MROC 021800Z VRB03KT 9999 FEW015 SCT050 BKN120 23/20 A3001 NOSIG=
202207021900 METAR MROC 021900Z 26005KT 240V300 9999 SCT020 BKN100 24/21 A3000 NOSIG=
202207022000 METAR MROC 022000Z 27008KT 230V300 9999 BKN025 24/21 A2997 NOSIG=
202207022100 METAR MROC 022100Z 25008KT 9999 VCSH BKN020 23/20 A2997 NOSIG=
202207022200 METAR MROC 022200Z 30006KT 9999 VCSH FEW015TCU BKN020 23/20 A2997 NOSIG=
202207022300 METAR MROC 022300Z COR 25005KT 220V290 7000 -RA VCSH SCT015TCU BKN020 23/20 A2998 NOSIG=
202207030000 METAR MROC 030000Z VRB02KT 8000 -RA BCFG FEW005 BKN020 22/21 A3000 NOSIG=
202207030100 METAR MROC 030100Z 01004KT 9999 3000S +RA BCFG FEW005 BKN025 21/21 A3004 NOSIG=
202207030200 METAR MROC 030200Z 18003KT 9999 3000SW +RA BCFG FEW005 BKN010 21/21 A3006 NOSIG=
202207030300 METAR MROC 030300Z 23003KT 200V260 9999 4000SW RA BCFG FEW002 BKN005 20/20 A3007 NOSIG=
202207030400 METAR MROC 030400Z VRB02KT 9999 4000SW BCFG SCT003 BKN010 20/20 A3006 NOSIG=
202207030500 METAR MROC 030500Z 13003KT 100V160 9999 FEW005 BKN120 20/20 A3005 NOSIG=
202207030600 METAR MROC 030600Z VRB03KT 9999 4500SW BCFG FEW001 BKN150 20/20 A3005 NOSIG=
202207030700 METAR MROC 030700Z 05003KT 9999 FEW001 BKN200 20/20 A3005 NOSIG=
202207030800 METAR MROC 030800Z 06006KT CAVOK 19/18 A3002 NOSIG=
202207030900 METAR MROC 030900Z 04008KT CAVOK 20/18 A3000 NOSIG=
202207031000 METAR MROC 031000Z 08006KT CAVOK 20/18 A3000 NOSIG=
202207031100 METAR MROC 031100Z 06006KT 030V090 CAVOK 20/18 A3001 NOSIG=
202207031200 METAR MROC 031200Z VRB02KT 9999 -DZ NSC 20/17 A3003 NOSIG=
202207031300 METAR MROC 031300Z VRB03KT 9999 -RA NSC 20/18 A3005 NOSIG=
202207031400 METAR MROC 031400Z 16003KT 9999 -RA NSC 19/19 A3006 NOSIG=
202207031500 METAR MROC 031500Z 27002KT 9999 FEW010 BKN120 21/20 A3009 NOSIG=
202207031600 METAR MROC 031600Z 22002KT 9999 FEW008 BKN120 22/18 A3009 NOSIG=
202207031700 METAR MROC 031700Z VRB04KT 9999 FEW045 SCT180 24/20 A3008 NOSIG=
202207031800 METAR MROC 031800Z 11004KT 9999 SCT045 BKN200 25/19 A3007 TEMPO 25005KT=
202207031900 METAR MROC 031900Z 13004KT 080V160 9999 BKN040 25/19 A3005 NOSIG=
202207032000 METAR MROC 032000Z 19004KT 110V260 9999 SCT040 BKN120 25/19 A3003 NOSIG=
202207032100 METAR MROC 032100Z VRB02KT 9999 BKN040 26/19 A3002 NOSIG=
202207032200 METAR MROC 032200Z 18005KT 120V240 9999 FEW040 BKN120 25/19 A3002 NOSIG=
202207032300 METAR MROC 032300Z 25006KT 220V280 9999 FEW045 BKN140 23/22 A3003 NOSIG=
202207040000 METAR MROC 040000Z VRB04KT 9999 FEW005 SCT080 BKN120 22/21 A3006 NOSIG=
202207040100 METAR MROC 040100Z 25003KT 9999 BCFG FEW045 BKN150 21/21 A3008 NOSIG=
202207040200 METAR MROC 040200Z 34003KT 290V020 9999 3000SW BCFG FEW005 BKN120 21/21 A3009 NOSIG=
202207040300 METAR MROC 040300Z 08005KT 9999 FEW005 BKN120 22/20 A3009 NOSIG=
202207040400 METAR MROC 040400Z 05006KT CAVOK 22/18 A3008 NOSIG=
202207040500 METAR MROC 040500Z 11011G21KT CAVOK 22/18 A3007 NOSIG=
202207040600 METAR MROC 040600Z 08006KT 040V140 CAVOK 22/17 A3005 NOSIG=
202207040700 METAR MROC 040700Z 06011KT 060V120 CAVOK 22/17 A3003 NOSIG=
202207040800 METAR MROC 040800Z 05006KT 350V090 CAVOK 22/17 A3003 NOSIG=
202207040900 METAR MROC 040900Z 04009KT 9999 FEW040 SCT180 22/17 A3003 NOSIG=
202207041000 METAR MROC 041000Z 09009KT 050V120 9999 FEW030 SCT180 21/18 A3002 NOSIG=
202207041100 METAR MROC 041100Z 05005KT 020V090 9999 FEW030 SCT180 21/17 A3003 NOSIG=
202207041200 METAR MROC 041200Z 04003KT 360V100 CAVOK 21/17 A3004 NOSIG=
202207041300 METAR MROC 041300Z 08008KT 050V120 CAVOK 23/18 A3005 NOSIG=
202207041400 METAR MROC 041400Z 10008KT 070V150 9999 FEW045 25/18 A3004 NOSIG=
202207041500 METAR MROC 041500Z 11010KT 080V140 9999 SCT045 SCT080 25/19 A3006 NOSIG=
202207041600 METAR MROC 041600Z 10010KT 060V160 9999 SCT040 SCT200 27/19 A3006 NOSIG=
202207041700 METAR MROC 041700Z 07005KT 9999 VCSH FEW020TCU BKN040 27/19 A3006 BECMG 24006KT=
202207041800 METAR MROC 041800Z 29010KT 9999 3500SW VCSH FEW020TCU BKN040 24/21 A3006 TEMPO 5000 SHRA=
202207041900 METAR MROC 041900Z 18009KT 120V210 8000 SHRA VCTS FEW015CB BKN040 23/20 A3005 NOSIG=
202207042000 METAR MROC 042000Z 11009KT 080V140 8000 RA FEW010 BKN040 21/19 A3006 NOSIG=
202207042100 METAR MROC 042100Z 11008KT 9999 -RA NSC 21/19 A3004 NOSIG=
202207042200 METAR MROC 042200Z 02003KT 340V070 CAVOK 21/19 A3004 NOSIG=
202207042300 METAR MROC 042300Z 08004KT 9999 FEW045 OVC100 22/19 A3004 NOSIG=
202207050000 METAR MROC 050000Z 08003KT 050V130 9999 FEW008 OVC100 22/19 A3005 NOSIG=
202207050100 METAR MROC 050100Z 25004KT 200V260 CAVOK 20/19 A3007 NOSIG=
202207050200 METAR MROC 050200Z 34004KT 9999 FEW045 OVC120 20/19 A3008 NOSIG=
202207050300 METAR MROC 050300Z 04003KT 360V060 9999 FEW040 BKN100 20/19 A3008 NOSIG=
202207050400 METAR MROC 050400Z VRB02KT 9999 FEW010 BKN120 20/19 A3009 NOSIG=
202207050500 METAR MROC 050500Z 35003KT 330V040 9999 FEW030 BKN120 20/19 A3011 NOSIG=
202207050600 METAR MROC 050600Z 09003KT 040V150 9999 FEW030 BKN140 19/19 A3009 NOSIG=
202207050700 METAR MROC 050700Z 35003KT 9999 FEW005 BKN180 19/18 A3007 NOSIG=
202207050800 METAR MROC 050800Z 11004KT CAVOK 19/18 A3004 NOSIG=
202207050900 METAR MROC 050900Z VRB01KT CAVOK 18/17 A3002 NOSIG=
202207051000 METAR MROC 051000Z VRB04KT CAVOK 20/18 A3002 NOSIG=
202207051100 METAR MROC 051100Z 07005KT CAVOK 19/17 A3003 NOSIG=
202207051200 METAR MROC 051200Z 03005KT CAVOK 20/18 A3003 NOSIG=
202207051300 METAR MROC 051300Z 07003KT 040V110 9999 FEW040 BKN200 22/18 A3004 NOSIG=
202207051400 METAR MROC 051400Z VRB02KT 9999 FEW040 BKN220 24/19 A3005 NOSIG=
202207051500 METAR MROC 051500Z 10007KT 070V140 9999 FEW040 BKN200 27/19 A3006 NOSIG=
202207051600 METAR MROC 051600Z 09008KT 050V120 9999 FEW035 BKN150 27/19 A3004 NOSIG=
202207051700 METAR MROC 051700Z 11011KT 090V170 9999 SCT040 BKN100 28/19 A3003 NOSIG=
202207051800 METAR MROC 051800Z 15007KT 100V190 9999 SCT040 BKN100 27/19 A3003 NOSIG=
202207051900 METAR MROC 051900Z 21009KT 170V240 9999 VCSH BKN040 26/22 A3000 TEMPO RA=
202207052000 METAR MROC 052000Z 19008KT 150V210 9999 -RA VCTS FEW035CB BKN040 24/21 A3000 BECMG 5000 TSRA=
202207052100 METAR MROC 052100Z 30004KT 260V050 9999 VCTS FEW040 OVC100 22/20 A3001 RETSRA NOSIG=
202207052200 METAR MROC 052200Z 32004KT 250V360 9999 FEW010 SCT030 BKN120 22/20 A3000 NOSIG=
202207052300 METAR MROC 052300Z VRB02KT 9999 FEW020 BKN120 22/20 A3000 NOSIG=
202207060000 METAR MROC 060000Z VRB02KT 9999 FEW030 BKN120 22/20 A3002 NOSIG=
202207060100 METAR MROC 060100Z COR VRB02KT CAVOK 22/20 A3003 NOSIG=
202207060200 METAR MROC 060200Z 33002KT CAVOK 21/20 A3003 NOSIG=
202207060300 METAR MROC 060300Z 08005KT 050V110 CAVOK 22/19 A3004 NOSIG=
202207060400 METAR MROC 060400Z 10005KT 070V130 9999 FEW040 BKN140 22/19 A3005 NOSIG=
202207060500 METAR MROC 060500Z 31004KT 9999 FEW040 BKN160 21/19 A3006 NOSIG=
202207060600 METAR MROC 060600Z VRB02KT 9999 FEW040 BKN180 20/19 A3005 NOSIG=
202207060700 METAR MROC 060700Z 32002KT 9999 FEW010 BKN130 20/19 A3003 NOSIG=
202207060800 METAR MROC 060800Z 05003KT 9999 FEW020 SCT130 BKN210 20/18 A3002 NOSIG=
202207060900 METAR MROC 060900Z 10002KT CAVOK 19/18 A3002 NOSIG=
202207061000 METAR MROC 061000Z 06004KT CAVOK 19/18 A3003 NOSIG=
202207061100 METAR MROC 061100Z 05005KT CAVOK 19/18 A3002 NOSIG=
202207061200 METAR MROC 061200Z 01004KT CAVOK 19/18 A3003 NOSIG=
202207061300 METAR MROC 061300Z VRB02KT CAVOK 21/18 A3005 NOSIG=
202207061400 METAR MROC 061400Z 21003KT 140V310 9999 FEW040 SCT150 23/20 A3005 NOSIG=
202207061500 METAR MROC 061500Z 25009KT 220V280 9999 FEW045 SCT150 23/19 A3008 NOSIG=
202207061600 METAR MROC 061600Z 26005KT 230V210 9999 SCT035 24/20 A3008 NOSIG=
202207061700 METAR MROC 061700Z 26007KT 220V290 9999 BKN030 25/21 A3007 NOSIG=
202207061800 METAR MROC 061800Z 25006KT 210V310 9999 FEW025TCU BKN030 25/21 A3004 NOSIG=
202207061900 METAR MROC 061900Z 25008KT 9999 -RA VCTS FEW020CB BKN025 25/21 A3001 TEMPO RA OVC020=
202207061922 METAR MROC 061922Z 22012KT 5000 TSRA SCT005CB BKN008 22/21 A3001 BECMG 3000=
202207062000 METAR MROC 062000Z 26006KT 230V290 8000 -RA VCTS SCT002 FEW015CB BKN020 21/21 A3001 RETSRA TEMPO RA=
202207062100 METAR MROC 062100Z 26003KT 220V310 5000 -RA VCFG BKN008 21/21 A2999 NOSIG=
202207062200 METAR MROC 062200Z VRB03KT 7000 3000SW -RA VCFG FEW010 BKN035 21/21 A3000 NOSIG=
202207062300 METAR MROC 062300Z VRB02KT 9000 3000SW -RA BCFG FEW003 SCT025 BKN070 21/21 A3001 NOSIG=
202207070000 METAR MROC 070000Z 08005KT 030V130 9999 FEW005 SCT030 BKN120 21/19 A3001 NOSIG=
202207070100 METAR MROC 070100Z 07003KT 360V110 9999 -RA NSC 21/19 A3003 NOSIG=
202207070200 METAR MROC 070200Z 11007KT 080V140 CAVOK 22/19 A3005 NOSIG=
202207070300 METAR MROC 070300Z 07006KT 020V130 9999 -RA FEW035 OVC120 22/19 A3004 NOSIG=
202207070400 METAR MROC 070400Z 09009KT 050V130 9999 -RA FEW035 BKN120 22/18 A3002 NOSIG=
202207070500 METAR MROC 070500Z 11016G27KT 9999 RA FEW035 BKN120 22/18 A3001 NOSIG=
202207070600 METAR MROC 070600Z 12012G22KT 080V150 9999 FEW040 BKN130 22/18 A3001 RERA NOSIG=
202207070700 METAR MROC 070700Z 10009KT 070V130 CAVOK 22/18 A2999 NOSIG=
202207070800 METAR MROC 070800Z 21005KT 130V250 CAVOK 22/18 A2999 NOSIG=
202207070900 METAR MROC 070900Z 02008KT 340V060 CAVOK 20/19 A3001 NOSIG=
202207071000 METAR MROC 071000Z 03006KT 360V060 CAVOK 20/19 A3000 NOSIG=
202207071100 METAR MROC 071100Z 09006KT 050V120 CAVOK 21/18 A2999 NOSIG=
202207071200 METAR MROC 071200Z 12009KT 080V160 9999 FEW035 BKN120 22/18 A3002 NOSIG=
202207071300 METAR MROC 071300Z 06005KT 020V110 9999 FEW035 BKN150 22/18 A3003 NOSIG=
202207071400 METAR MROC 071400Z VRB02KT 9999 FEW035 BKN200 24/19 A3004 NOSIG=
202207071500 METAR MROC 071500Z VRB02KT 9999 FEW030 BKN200 24/19 A3003 NOSIG=
202207071600 METAR MROC 071600Z 07016G26KT 040V100 9999 SCT030 BKN220 26/17 A3003 NOSIG=
202207071700 METAR MROC 071700Z 09010KT 9999 SCT035 BKN120 26/17 A3004 NOSIG=
202207071800 METAR MROC 071800Z 12012KT 070V140 9999 FEW035 BKN120 27/19 A3000 NOSIG=
202207071900 METAR MROC 071900Z 10012KT 9999 FEW040 BKN180 26/18 A2999 NOSIG=
202207072000 METAR MROC 072000Z 10011KT 9999 FEW040 BKN180 25/18 A2999 NOSIG=
202207072100 METAR MROC 072100Z 10009KT 9999 FEW035 BKN180 25/17 A2998 NOSIG=
202207072200 METAR MROC 072200Z 10012KT 9999 FEW035 BKN150 26/17 A2998 NOSIG=
202207072300 METAR MROC 072300Z 13008KT 100V170 9999 FEW040 BKN150 24/17 A2997 NOSIG=
202207080000 METAR MROC 080000Z 13007KT 100V160 9999 FEW035 BKN150 23/17 A2999 NOSIG=
202207080100 METAR MROC 080100Z 11009KT 080V140 9999 FEW040 BKN150 22/16 A2999 NOSIG=
202207080200 METAR MROC 080200Z 11012KT CAVOK 22/17 A3001 NOSIG=
202207080300 METAR MROC 080300Z 11013KT 9999 FEW040 SCT150 22/16 A3003 NOSIG=
202207080400 METAR MROC 080400Z 11012KT 090V160 9999 FEW035 21/16 A3004 NOSIG=
202207080500 METAR MROC 080500Z 11012KT CAVOK 21/16 A3004 NOSIG=
202207080600 METAR MROC 080600Z 11013KT CAVOK 21/15 A3002 NOSIG=
202207080700 METAR MROC 080700Z 11012G22KT CAVOK 21/15 A3001 NOSIG=
202207080800 METAR MROC 080800Z 12009KT 090V160 CAVOK 20/15 A3000 NOSIG=
202207080900 METAR MROC 080900Z 11010KT CAVOK 20/16 A3000 NOSIG=
202207081000 METAR MROC 081000Z 12011KT CAVOK 20/15 A3002 NOSIG=
202207081100 METAR MROC 081100Z 12010KT 090V150 CAVOK 21/14 A3001 NOSIG=
202207081200 METAR MROC 081200Z 11007KT 070V140 CAVOK 21/14 A3003 NOSIG=
202207081300 METAR MROC 081300Z 12009KT 090V160 CAVOK 23/16 A3004 NOSIG=
202207081400 METAR MROC 081400Z 10007KT 070V160 CAVOK 24/16 A3004 NOSIG=
202207081500 METAR MROC 081500Z 13010KT 090V160 CAVOK 26/18 A3004 NOSIG=
202207081600 METAR MROC 081600Z 07010KT 020V110 9999 FEW040 BKN200 27/18 A3005 NOSIG=
202207081700 METAR MROC 081700Z 10009KT 080V140 9999 BKN040 27/18 A3005 NOSIG=
202207081800 METAR MROC 081800Z 09007KT 050V150 9999 SCT040 BKN200 28/17 A3003 NOSIG=
202207081900 METAR MROC 081900Z VRB05KT 9999 BKN045 27/21 A3002 NOSIG=
202207082000 METAR MROC 082000Z 26011KT 9999 BKN040 26/22 A3001 NOSIG=
202207082100 METAR MROC 082100Z 24009KT 9999 -TSRA FEW015CB BKN030 25/22 A3002 NOSIG=
202207082132 METAR MROC 082132Z COR 25005KT 9999 -RA VCTS FEW015CB BKN015 23/22 A3002 NOSIG=
202207082200 METAR MROC 082200Z 22007KT 9999 TS FEW006CB BKN010 23/22 A3002 NOSIG=
202207082300 METAR MROC 082300Z 26004KT 200V310 9999 BKN010 23/21 A3003 RETS NOSIG=
202207090000 METAR MROC 090000Z VRB02KT 9999 2000SW BCFG SCT007 SCT020 22/21 A3003 NOSIG=
202207090100 METAR MROC 090100Z 22005KT 190V250 9999 3000NW BCFG OVC010 22/21 A3006 NOSIG=
202207090200 METAR MROC 090200Z 02005KT 190V250 9999 VCTS FEW020CB BKN140 22/21 A3008 NOSIG=
202207090300 METAR MROC 090300Z 12004KT 080V170 CAVOK 22/19 A3006 NOSIG=
202207090400 METAR MROC 090400Z 12009KT 100V160 9999 FEW010 BKN150 23/19 A3006 NOSIG=
202207090500 METAR MROC 090500Z 29004KT 240V340 9999 2000SW BCFG FEW005 SCT150 21/21 A3009 TEMPO 5000 BR=
202207090600 METAR MROC 090600Z 33003KT 3000 BR OVC005 21/21 A3008 NOSIG=
202207090700 METAR MROC 090700Z VRB02KT 5000 2000SW BR FEW005 BKN015 21/21 A3007 NOSIG=
202207090800 METAR MROC 090800Z VRB02KT 9999 3000SW BCFG FEW008 SCT060 20/20 A3006 NOSIG=
202207090900 METAR MROC 090900Z 03006KT 9999 SCT040 20/19 A3006 NOSIG=
202207091000 METAR MROC 091000Z 04007KT 9999 BCFG FEW030 21/19 A3005 NOSIG=
202207091100 METAR MROC 091100Z 22004KT 0100 R07/1100U FG NSC 19/19 A3006 NOSIG=
202207091200 METAR MROC 091200Z 34004KT 9999 1500SW R07/0650U BCFG FEW002 SCT060 20/19 A3007 NOSIG=
202207091300 METAR MROC 091300Z VRB01KT 9999 BCFG FEW001 BKN045 20/20 A3010 NOSIG=
202207091400 METAR MROC 091400Z 12003KT 060V230 9999 FEW015 SCT045 BKN100 24/20 A3011 NOSIG=
202207091500 METAR MROC 091500Z 07006KT 9999 4000NE OVC045 23/20 A3014 NOSIG=
202207091600 METAR MROC 091600Z 09003KT 010V160 9999 -RA BKN045 22/20 A3013 NOSIG=
202207091700 METAR MROC 091700Z 12005KT 070V190 9999 SCT045 BKN130 24/20 A3010 NOSIG=
202207091800 METAR MROC 091800Z 12008KT 080V170 9999 FEW035 SCT120 27/19 A3008 TEMPO 25007KT=
202207091900 METAR MROC 091900Z 11010KT 080V160 9999 FEW035 SCT120 28/18 A3005 NOSIG=
202207092000 METAR MROC 092000Z 11008KT 070V140 9999 FEW035 SCT170 28/19 A3003 NOSIG=
202207092100 METAR MROC 092100Z 12006KT 090V240 9999 FEW020 SCT040 BKN140 27/19 A3002 NOSIG=
202207092200 METAR MROC 092200Z 21006KT 160V240 9999 FEW040 BKN060 25/22 A3003 NOSIG=
202207092300 METAR MROC 092300Z 21006KT 160V240 9999 BKN045 24/19 A3007 NOSIG=
202207100000 METAR MROC 100000Z 10007KT 9999 OVC045 23/19 A3010 NOSIG=
202207100100 METAR MROC 100100Z 07004KT 040V110 CAVOK 23/18 A3010 NOSIG=
202207100200 METAR MROC 100200Z 07005KT CAVOK 22/18 A3010 NOSIG=
202207100300 METAR MROC 100300Z 03006KT CAVOK 22/18 A3012 NOSIG=
202207100400 METAR MROC 100400Z 09005KT 060V130 CAVOK 23/17 A3013 NOSIG=
202207100500 METAR MROC 100500Z 08006KT 040V130 CAVOK 22/17 A3013 NOSIG=
202207100600 METAR MROC 100600Z 07007KT 9999 NSC 22/17 A3011 NOSIG=
202207100700 METAR MROC 100700Z 26003KT 240V300 9999 FEW010 BKN140 21/19 A3010 NOSIG=
202207100800 METAR MROC 100800Z 23002KT 9999 BCFG FEW005 SCT010 BKN160 20/20 A3009 NOSIG=
202207100900 METAR MROC 100900Z VRB01KT 9999 BKN010 20/20 A3008 NOSIG=
202207101000 METAR MROC 101000Z 09003KT 9999 SCT010 20/19 A3008 NOSIG=
202207101100 METAR MROC 101100Z 11004KT CAVOK 19/18 A3010 NOSIG=
202207101200 METAR MROC 101200Z 05004KT CAVOK 20/17 A3010 NOSIG=
202207101300 METAR MROC 101300Z VRB02KT CAVOK 20/18 A3010 NOSIG=
202207101400 METAR MROC 101400Z 25003KT 200V290 CAVOK 22/19 A3011 NOSIG=
202207101500 METAR MROC 101500Z 31005KT 280V030 9999 FEW045 SCT150 24/19 A3012 NOSIG=
202207101600 METAR MROC 101600Z 26005KT 240V300 9999 FEW035 SCT150 24/19 A3012 NOSIG=
202207101700 METAR MROC 101700Z 24007KT 210V270 9999 BKN047 28/20 A3010 NOSIG=
202207101800 METAR MROC 101800Z VRB03KT 9999 FEW030 BKN060 25/20 A3008 NOSIG=
202207101900 METAR MROC 101900Z 25003KT 140V310 9999 BKN030 25/20 A3005 NOSIG=
202207102000 METAR MROC 102000Z 24008KT 210V270 9999 SCT020 BKN060 25/21 A3002 NOSIG=
202207102100 METAR MROC 102100Z 26010KT 9999 VCTS VCSH FEW015CB BKN030 25/21 A3002 BECMG SHRA=
202207102200 METAR MROC 102200Z 24010KT 9999 VCSH FEW010 BKN020 23/22 A3001 NOSIG=
202207102300 METAR MROC 102300Z 25008KT 9999 -RA SCT003 BKN008 22/22 A3002 BECMG 5000 RA BR=
202207110000 METAR MROC 110000Z COR 27007KT 7000 3000SW BCFG SCT002 BKN005 21/21 A3005 TEMPO 3000 BR=
202207110100 METAR MROC 110100Z 22004KT 0500 R07/0450N RA FG SCT001 OVC005 21/21 A3006 NOSIG=
202207110200 METAR MROC 110200Z 24004KT 0200 R07/0600U FG VV001 21/20 A3009 RERA NOSIG=
202207110300 METAR MROC 110300Z 28004KT 250V320 3000 1500SW RA BR BCFG SCT001 BKN005 21/20 A3011 TEMPO 5000=
202207110400 METAR MROC 110400Z 24003KT 200V270 4000 -DZ BR BKN004 21/20 A3011 NOSIG=
202207110500 METAR MROC 110500Z 26003KT 220V300 4000 BR OVC003 20/20 A3010 NOSIG=
202207110600 METAR MROC 110600Z VRB02KT 5000 BR SCT004 BKN010 21/20 A3007 NOSIG=
202207110700 METAR MROC 110700Z VRB02KT 9999 FEW004 BKN020 21/20 A3004 NOSIG=
202207110800 METAR MROC 110800Z 31004KT 9999 FEW010 20/20 A3002 NOSIG=
202207110900 METAR MROC 110900Z 14003KT 100V210 9999 4500S BCFG FEW004 BKN010 20/20 A3001 NOSIG=
202207111000 METAR MROC 111000Z 09002KT 9999 SCT010 20/20 A3002 NOSIG=
202207111100 METAR MROC 111100Z VRB01KT CAVOK 20/19 A3003 NOSIG=
202207111200 METAR MROC 111200Z VRB02KT CAVOK 20/19 A3004 NOSIG=
202207111300 METAR MROC 111300Z VRB02KT 9999 4000SW BCFG FEW005 21/20 A3005 BECMG 24005KT=
202207111400 METAR MROC 111400Z 00000KT 9999 FEW030 SCT250 24/19 A3006 BECMG 25006KT=
202207111500 METAR MROC 111500Z 26004KT 170V320 9999 FEW045 26/21 A3005 NOSIG=
202207111600 METAR MROC 111600Z 24008KT 9999 BKN045 24/21 A3007 NOSIG=
202207111700 METAR MROC 111700Z 24006KT 200V270 9999 VCSH BKN035 25/20 A3004 NOSIG=
202207111800 METAR MROC 111800Z 25010KT 220V280 9999 VCSH FEW020TCU BKN035 24/21 A3003 NOSIG=
202207111900 METAR MROC 111900Z 24008KT 9999 -RA BKN015 24/22 A3001 NOSIG=
202207112000 METAR MROC 112000Z 25011KT 9999 VCSH FEW001 BKN010 23/22 A3001 TEMPO SHRA SCT020TCU=
202207112100 METAR MROC 112100Z 25008KT 8000 3000SW -RA FEW008 SCT012 BKN025 22/21 A3000 BECMG 5000 RA BKN010=
202207112200 METAR MROC 112200Z 26004KT 230V300 8000 RA FEW005 SCT020 BKN120 21/21 A2999 NOSIG=
202207112300 METAR MROC 112300Z 29004KT 240V350 8000 3500W RA BCFG FEW005 BKN060 21/20 A3002 NOSIG=
202207120000 METAR MROC 120000Z 27005KT 240V320 9000 -DZ BKN006 21/20 A3003 NOSIG=
202207120100 METAR MROC 120100Z COR VRB02KT 9000 SCT008 BKN025 20/20 A3006 NOSIG=
202207120200 METAR MROC 120200Z VRB02KT 9999 SCT008 BKN030 21/20 A3009 NOSIG=
202207120300 METAR MROC 120300Z 32003KT 290V350 9999 SCT008 BKN030 21/20 A3011 NOSIG=
202207120400 METAR MROC 120400Z COR VRB01KT 9999 BKN015 21/20 A3011 NOSIG=
202207120500 METAR MROC 120500Z VRB02KT 9999 FEW015 BKN080 21/20 A3010 NOSIG=
202207120600 METAR MROC 120600Z 06004KT CAVOK 20/19 A3009 NOSIG=
202207120700 METAR MROC 120700Z 07005KT CAVOK 20/18 A3007 NOSIG=
202207120800 METAR MROC 120800Z 07004KT 9999 FEW045 BKN150 19/18 A3005 NOSIG=
202207120900 METAR MROC 120900Z VRB02KT 9999 FEW040 BKN150 19/18 A3004 NOSIG=
202207121000 METAR MROC 121000Z 07003KT CAVOK 19/18 A3003 NOSIG=
202207121100 METAR MROC 121100Z 09005KT 9999 FEW045 18/17 A3003 NOSIG=
202207121200 METAR MROC 121200Z 07005KT CAVOK 19/17 A3002 NOSIG=
202207121300 METAR MROC 121300Z 08006KT CAVOK 20/18 A3004 NOSIG=
202207121400 METAR MROC 121400Z 06006KT CAVOK 23/19 A3006 NOSIG=
202207121500 METAR MROC 121500Z 08009KT 020V110 CAVOK 23/19 A3007 NOSIG=
202207121600 METAR MROC 121600Z 09005KT 060V120 CAVOK 23/19 A3007 NOSIG=
202207121700 METAR MROC 121700Z COR 11004KT 040V150 9999 -RA FEW040 BKN150 23/19 A3007 NOSIG=
202207121800 METAR MROC 121800Z COR 07003KT 010V120 9999 FEW045 BKN150 25/20 A3005 NOSIG=
202207121900 METAR MROC 121900Z 26006KT 9999 SCT030 BKN150 24/21 A3003 NOSIG=
202207122000 METAR MROC 122000Z 25007KT 220V310 9999 FEW020 SCT050 BKN120 25/21 A3002 NOSIG=
202207122100 METAR MROC 122100Z 22008KT 190V250 9999 BKN025 23/20 A3000 NOSIG=
202207122200 METAR MROC 122200Z 24009KT 9999 BKN010 22/20 A3000 NOSIG=
202207122300 METAR MROC 122300Z 26008KT 9999 FEW002 BKN005 22/21 A3002 NOSIG=
202207130000 METAR MROC 130000Z 27004KT 210V330 7000 3000SW BKN005 21/20 A3004 NOSIG=
202207130100 METAR MROC 130100Z 26002KT 9999 3500SW BCFG SCT005 BKN015 21/21 A3005 NOSIG=
202207130200 METAR MROC 130200Z VRB02KT 9999 3500SW BCFG BKN008 21/20 A3006 NOSIG=
202207130300 METAR MROC 130300Z 24001KT 9999 3500SW BCFG BKN008 21/20 A3009 NOSIG=
202207130400 METAR MROC 130400Z VRB02KT 9999 3000SW BCFG BKN005 21/20 A3011 NOSIG=
202207130500 METAR MROC 130500Z 23002KT 9000 3000S BCFG BKN003 21/20 A3010 TEMPO 5000=
202207130600 METAR MROC 130600Z VRB02KT 3000 BR BCFG SCT002 BKN008 21/20 A3009 NOSIG=
202207130700 METAR MROC 130700Z 35003KT 320V090 5000 BR BCFG SCT005 BKN010 21/20 A3007 NOSIG=
202207130800 METAR MROC 130800Z 26002KT 5000 -DZ BR SCT005 BKN010 21/20 A3005 NOSIG=
202207130900 METAR MROC 130900Z 25001KT 7000 2300SW BCFG SCT004 BKN012 21/20 A3005 NOSIG=
202207131000 METAR MROC 131000Z 00000KT 9000 2500SW BCFG FEW003 SCT009 BKN025 21/20 A3004 NOSIG=
202207131100 METAR MROC 131100Z VRB02KT 9999 3000SW BCFG BKN020 BKN180 21/20 A3005 NOSIG=
202207131200 METAR MROC 131200Z 02004KT 9999 4000SW BCFG FEW001 BKN180 20/19 A3006 NOSIG=
202207131300 METAR MROC 131300Z 07007KT 9999 4500SW BCFG FEW005 BKN130 22/18 A3008 NOSIG=
202207131400 METAR MROC 131400Z 09009KT CAVOK 24/18 A3008 NOSIG=
202207131500 METAR MROC 131500Z 11006KT 080V140 CAVOK 24/19 A3008 NOSIG=
202207131600 METAR MROC 131600Z 23010KT 200V260 9999 SCT020 SCT200 24/22 A3009 NOSIG=
202207131700 METAR MROC 131700Z 28009KT 9999 BKN020 24/21 A3009 NOSIG=
202207131800 METAR MROC 131800Z 25008KT 210V270 9999 VCSH FEW020TCU BKN020 24/21 A3007 NOSIG=
202207131900 METAR MROC 131900Z 25008KT 220V280 9999 -RA FEW010 SCT012 OVC020 23/21 A3005 TEMPO 5000 SHRA=
202207132000 METAR MROC 132000Z 28006KT 260V320 9999 VCSH FEW010 SCT020TCU BKN100 23/21 A3003 NOSIG=
202207132100 METAR MROC 132100Z 26005KT 7000 -DZ BCFG SCT007 BKN015 22/21 A3003 NOSIG=
202207132200 METAR MROC 132200Z 21009KT 5000 TSRA BKN005 SCT015CB 20/20 A3005 NOSIG=
202207132300 METAR MROC 132300Z 25004KT 7000 RA VCTS FEW005 BKN010 FEW015CB 20/19 A3008 NOSIG=
202207140000 METAR MROC 140000Z 34003KT 320V040 8000 3000SW RA BCFG FEW005 BKN080 20/19 A3010 NOSIG=
202207140100 METAR MROC 140100Z VRB01KT 9999 -RA FEW005 BKN100 20/19 A3010 NOSIG=
202207140200 METAR MROC 140200Z 11004KT 9999 FEW010 BKN120 20/19 A3008 NOSIG=
202207140300 METAR MROC 140300Z VRB02KT CAVOK 19/19 A3012 NOSIG=
202207140400 METAR MROC 140400Z 33004KT 9999 FEW010 SCT060 BKN120 20/19 A3016 NOSIG=
202207140500 METAR MROC 140500Z 07004KT 9999 RA FEW010 SCT070 BKN150 20/19 A3015 NOSIG=
202207140600 METAR MROC 140600Z 08003KT 9999 3500SW RA FEW015 BKN070 19/19 A3013 NOSIG=
202207140700 METAR MROC 140700Z VRB02KT 9999 -RA SCT050 BKN130 19/19 A3009 NOSIG=
202207140800 METAR MROC 140800Z 09003KT CAVOK 19/19 A3007 NOSIG=
202207140900 METAR MROC 140900Z 04003KT CAVOK 19/18 A3005 NOSIG=
202207141000 METAR MROC 141000Z 08003KT CAVOK 18/18 A3005 NOSIG=
202207141100 METAR MROC 141100Z 05006KT CAVOK 18/17 A3007 NOSIG=
202207141200 METAR MROC 141200Z 09005KT CAVOK 19/17 A3009 NOSIG=
202207141300 METAR MROC 141300Z 06005KT CAVOK 20/19 A3009 NOSIG=
202207141400 METAR MROC 141400Z 07005KT 030V110 CAVOK 24/19 A3011 NOSIG=
202207141500 METAR MROC 141500Z 12006KT 060V180 CAVOK 25/19 A3012 BECMG 24006KT=
202207141600 METAR MROC 141600Z 11009KT 080V170 CAVOK 27/19 A3012 NOSIG=
202207141700 METAR MROC 141700Z 13007KT 090V200 9999 FEW040 SCT180 28/18 A3011 NOSIG=
202207141800 METAR MROC 141800Z 17005KT 100V240 9999 SCT045 SCT120 28/19 A3009 NOSIG=
202207141900 METAR MROC 141900Z 24011KT 9999 BKN035 26/22 A3007 NOSIG=
202207142000 METAR MROC 142000Z 25013KT 9999 VCTS SCT015CB OVC020 24/21 A3006 TEMPO 5000 TSRA=
202207142100 METAR MROC 142100Z 32008G18KT 260V360 9999 TSRA SCT008CB BKN016 22/19 A3007 NOSIG=
202207142200 METAR MROC 142200Z 26009KT 9999 SCT004 BKN100 21/20 A3008 NOSIG=
202207142300 METAR MROC 142300Z 15003KT 090V210 4000 RA BKN004 OVC017 20/20 A3010 NOSIG=
202207150000 METAR MROC 150000Z 04007KT 9999 -RA FEW030 BKN100 21/20 A3008 NOSIG=
202207150100 METAR MROC 150100Z VRB02KT 9999 -RA NSC 21/20 A3010 NOSIG=
202207150200 METAR MROC 150200Z 33003KT 300V360 9999 FEW015 OVC140 21/19 A3011 NOSIG=
202207150300 METAR MROC 150300Z 11003KT 9999 FEW030 BKN130 20/20 A3014 NOSIG=
202207150400 METAR MROC 150400Z COR 09004KT 060V120 9999 3500SW BCFG FEW035 BKN130 20/18 A3014 NOSIG=
202207150500 METAR MROC 150500Z 08005KT 9999 FEW030 BKN130 21/18 A3012 NOSIG=
202207150600 METAR MROC 150600Z 04007KT 360V070 CAVOK 21/18 A3011 NOSIG=
202207150700 METAR MROC 150700Z 03004KT 350V100 9999 FEW030 BKN200 20/18 A3008 NOSIG=
202207150800 METAR MROC 150800Z 10008KT 060V140 CAVOK 21/18 A3005 NOSIG=
202207150900 METAR MROC 150900Z 08008KT CAVOK 22/18 A3005 NOSIG=
202207151000 METAR MROC 151000Z 10008KT CAVOK 21/18 A3005 NOSIG=
202207151100 METAR MROC 151100Z 06008KT CAVOK 21/18 A3005 NOSIG=
202207151200 METAR MROC 151200Z 10007KT 9999 FEW035 BKN180 21/18 A3007 NOSIG=
202207151300 METAR MROC 151300Z 12008KT 080V150 9999 FEW035 BKN180 22/18 A3009 NOSIG=
202207151400 METAR MROC 151400Z 12010KT 080V140 9999 FEW035 BKN200 23/18 A3009 NOSIG=
202207151500 METAR MROC 151500Z 13008KT 100V170 9999 SCT035 BKN200 24/19 A3012 NOSIG=
202207151600 METAR MROC 151600Z 12007KT 080V190 9999 VCSH SCT035 BKN200 25/19 A3012 NOSIG=
202207151700 METAR MROC 151700Z 08010KT 9999 SCT035 BKN200 25/18 A3011 NOSIG=
202207151800 METAR MROC 151800Z 11005KT 9999 BKN035 25/18 A3010 NOSIG=
202207151900 METAR MROC 151900Z 15004KT 120V200 9999 BKN035 25/19 A3008 NOSIG=
202207152000 METAR MROC 152000Z 11004KT 060V180 9999 BKN035 26/19 A3005 NOSIG=
202207152100 METAR MROC 152100Z 25005KT 200V330 9999 SCT035 BKN050 26/21 A3004 NOSIG=
202207152200 METAR MROC 152200Z 21006KT 180V250 9999 BKN045 24/21 A3002 NOSIG=
202207152300 METAR MROC 152300Z 25007KT 9999 SCT040 BKN100 24/21 A3002 NOSIG=
202207160000 METAR MROC 160000Z 25005KT 9999 FEW040 BKN100 22/21 A3006 NOSIG=
202207160100 METAR MROC 160100Z VRB02KT 9999 FEW004 SCT014 22/20 A3007 NOSIG=
202207160200 METAR MROC 160200Z VRB03KT 9999 FEW030 OVC060 22/18 A3008 NOSIG=
202207160300 METAR MROC 160300Z 34004KT 310V040 CAVOK 21/20 A3009 NOSIG=
202207160400 METAR MROC 160400Z VRB02KT 9999 FEW030 21/20 A3010 NOSIG=
202207160500 METAR MROC 160500Z VRB02KT 9999 FEW035 SCT080 21/19 A3011 NOSIG=
202207160600 METAR MROC 160600Z VRB02KT 9999 FEW040 20/18 A3008 NOSIG=
202207160700 METAR MROC 160700Z 04003KT 010V090 9999 FEW040 19/18 A3006 NOSIG=
202207160800 METAR MROC 160800Z 06005KT 030V110 CAVOK 20/17 A3005 NOSIG=
202207160900 METAR MROC 160900Z 08004KT 050V110 CAVOK 20/17 A3004 NOSIG=
202207161000 METAR MROC 161000Z 10005KT 050V140 CAVOK 21/17 A3004 NOSIG=
202207161100 METAR MROC 161100Z 09006KT 030V170 CAVOK 20/17 A3004 NOSIG=
202207161200 METAR MROC 161200Z 13009KT 090V170 CAVOK 21/17 A3003 NOSIG=
202207161300 METAR MROC 161300Z 12009KT 080V170 9999 FEW040 23/17 A3003 NOSIG=
202207161400 METAR MROC 161400Z 11014KT 9999 FEW045 24/17 A3006 NOSIG=
202207161500 METAR MROC 161500Z 11016KT 9999 FEW040 SCT200 25/17 A3006 NOSIG=
202207161600 METAR MROC 161600Z 09013KT 9999 FEW035 SCT150 25/17 A3006 NOSIG=
202207161700 METAR MROC 161700Z 08012KT 050V110 9999 FEW035 SCT150 26/17 A3006 NOSIG=
202207161800 METAR MROC 161800Z 10012KT 060V130 9999 FEW040 28/16 A3005 NOSIG=
202207161900 METAR MROC 161900Z 09012KT 060V120 9999 FEW045 28/17 A3002 NOSIG=
202207162000 METAR MROC 162000Z COR 10011G21KT 060V130 9999 SCT045 29/17 A3001 NOSIG=
202207162100 METAR MROC 162100Z COR 13008KT 090V190 9999 FEW045 SCT060 29/18 A3000 NOSIG=
202207162200 METAR MROC 162200Z 12008KT 070V160 9999 SCT035 SCT200 28/16 A3000 NOSIG=
202207162300 METAR MROC 162300Z 25010KT 9999 SCT040 SCT250 23/22 A3001 NOSIG=
202207170000 METAR MROC 170000Z 26007KT 9999 4500N BKN005 22/21 A3003 NOSIG=
202207170100 METAR MROC 170100Z COR 24002KT 9999 4500SW OVC005 22/21 A3004 NOSIG=
202207170200 METAR MROC 170200Z 25003KT 9999 FEW015 BKN045 21/21 A3004 NOSIG=
202207170300 METAR MROC 170300Z VRB02KT 9999 BCFG FEW025 21/20 A3005 NOSIG=
202207170400 METAR MROC 170400Z 04005KT 350V080 CAVOK 22/18 A3006 NOSIG=
202207170500 METAR MROC 170500Z 03006KT CAVOK 21/19 A3006 NOSIG=
202207170600 METAR MROC 170600Z 10011KT CAVOK 22/17 A3003 NOSIG=
202207170700 METAR MROC 170700Z 10008KT 050V130 CAVOK 21/17 A3002 NOSIG=
202207170800 METAR MROC 170800Z 07005KT CAVOK 21/17 A3001 NOSIG=
202207170900 METAR MROC 170900Z 03007KT CAVOK 21/17 A2998 NOSIG=
202207171000 METAR MROC 171000Z 07007KT 020V110 CAVOK 21/17 A2999 NOSIG=
202207171100 METAR MROC 171100Z 06004KT 020V110 CAVOK 20/17 A2999 NOSIG=
202207171200 METAR MROC 171200Z 10010KT 060V130 9999 FEW040 22/16 A3000 NOSIG=
202207171300 METAR MROC 171300Z 09008KT 010V130 CAVOK 23/17 A3001 NOSIG=
202207171400 METAR MROC 171400Z 11012KT 9999 FEW040 BKN200 25/17 A3003 NOSIG=
202207171500 METAR MROC 171500Z 11013KT 080V170 9999 FEW045 SCT200 26/16 A3005 NOSIG=
202207171600 METAR MROC 171600Z 08011KT 050V120 9999 FEW045 SCT200 27/17 A3004 NOSIG=
202207171700 METAR MROC 171700Z 09011KT 060V120 9999 SCT045 28/18 A3003 NOSIG=
202207171800 METAR MROC 171800Z 08011KT 9999 BKN035 27/18 A3003 NOSIG=
202207171900 METAR MROC 171900Z 09008KT 060V120 9999 BKN035 28/18 A3001 NOSIG=
202207172000 METAR MROC 172000Z 14006KT 070V200 9999 BKN035 28/18 A2999 NOSIG=
202207172100 METAR MROC 172100Z 25011KT 9999 BKN040 25/22 A2999 NOSIG=
202207172200 METAR MROC 172200Z 27007KT 9999 SCT035 BKN200 25/22 A2998 NOSIG=
202207172300 METAR MROC 172300Z 24008KT 9999 BKN015 SCT200 23/22 A3001 NOSIG=
202207180000 METAR MROC 180000Z 26007KT 9999 BKN005 22/21 A3003 NOSIG=
202207180100 METAR MROC 180100Z VRB01KT 7000 BCFG BKN005 22/21 A3003 NOSIG=
202207180200 METAR MROC 180200Z VRB02KT 9999 4500SW VCFG FEW008 SCT030 BKN100 22/21 A3003 NOSIG=
202207180300 METAR MROC 180300Z 08003KT 050V110 9999 FEW010 BKN030 22/20 A3005 NOSIG=
202207180400 METAR MROC 180400Z 32003KT 270V030 9999 FEW020 21/20 A3005 NOSIG=
202207180500 METAR MROC 180500Z 20004KT 100V250 9999 FEW030 21/19 A3005 NOSIG=
202207180600 METAR MROC 180600Z VRB02KT 9999 SCT045 21/17 A3005 NOSIG=
202207180700 METAR MROC 180700Z VRB02KT 9999 BKN040 21/18 A3004 NOSIG=
202207180800 METAR MROC 180800Z VRB02KT 9999 FEW040 21/17 A3001 NOSIG=
202207180900 METAR MROC 180900Z VRB02KT 9999 BKN040 21/18 A3001 NOSIG=
202207181000 METAR MROC 181000Z 04003KT 350V090 9999 FEW040 20/18 A3002 NOSIG=
202207181100 METAR MROC 181100Z 05006KT 9999 VCTS FEW035 21/18 A3002 NOSIG=
202207181200 METAR MROC 181200Z 03005KT 9999 SCT040 20/18 A3004 NOSIG=
202207181300 METAR MROC 181300Z 12007KT 090V170 9999 FEW040 SCT200 23/18 A3005 NOSIG=
202207181400 METAR MROC 181400Z 11008KT 9999 BKN040 25/19 A3007 NOSIG=
202207181500 METAR MROC 181500Z 12011KT 9999 -RA SCT030 BKN120 24/19 A3007 NOSIG=
202207181600 METAR MROC 181600Z 12011KT 090V190 9999 FEW040 BKN120 26/20 A3006 NOSIG=
202207181700 METAR MROC 181700Z 16009KT 100V190 9999 FEW045 BKN100 27/19 A3004 NOSIG=
202207181800 METAR MROC 181800Z 28010KT 9999 FEW015 BKN180 25/21 A3003 NOSIG=
202207181900 METAR MROC 181900Z 25007KT 9999 FEW015 BKN180 25/22 A3002 NOSIG=
202207182000 METAR MROC 182000Z 24005KT 200V260 9999 FEW015TCU FEW030 BKN150 25/22 A3000 NOSIG=
202207182100 METAR MROC 182100Z 24006KT 210V310 9999 FEW015 SCT030 25/21 A2998 NOSIG=
202207182200 METAR MROC 182200Z 24008KT 9999 -RA FEW008 BKN030 23/22 A2999 NOSIG=
202207182300 METAR MROC 182300Z 23005KT 190V250 9999 4000N BCFG FEW004 BKN015 23/22 A3000 TEMPO 5000 BR=
202207190000 METAR MROC 190000Z 26005KT 0500 R07/0350D FG OVC002 22/21 A3002 NOSIG=
202207190100 METAR MROC 190100Z 26004KT 230V290 0500 R07/0500D FG VV002 21/21 A3004 NOSIG=
202207190200 METAR MROC 190200Z VRB02KT 4000 1500SW BR FEW002 BKN015 21/21 A3005 NOSIG=
202207190300 METAR MROC 190300Z VRB01KT 5000 2000SW BR FEW001 BKN010 21/21 A3005 NOSIG=
202207190400 METAR MROC 190400Z VRB02KT 1500 BR BKN003 21/21 A3007 NOSIG=
202207190500 METAR MROC 190500Z 01003KT 350V070 9999 FEW025 SCT120 21/21 A3006 NOSIG=
202207190600 METAR MROC 190600Z 07003KT 050V120 9999 FEW025 SCT120 22/20 A3005 NOSIG=
202207190700 METAR MROC 190700Z 08003KT 9999 FEW025 SCT160 21/19 A3003 NOSIG=
202207190800 METAR MROC 190800Z 06003KT 340V130 9999 FEW025 SCT160 23/19 A3003 NOSIG=
202207190900 METAR MROC 190900Z 03009KT CAVOK 21/19 A3003 NOSIG=
202207191000 METAR MROC 191000Z 09006KT 060V130 CAVOK 21/18 A3003 NOSIG=
202207191100 METAR MROC 191100Z 08007KT CAVOK 22/18 A3005 NOSIG=
202207191200 METAR MROC 191200Z 08005KT CAVOK 21/18 A3005 NOSIG=
202207191300 METAR MROC 191300Z 10007KT CAVOK 22/18 A3004 NOSIG=
202207191400 METAR MROC 191400Z 11009KT 080V140 CAVOK 24/18 A3005 NOSIG=
202207191500 METAR MROC 191500Z 12008KT 090V150 CAVOK 25/18 A3004 NOSIG=
202207191600 METAR MROC 191600Z 11010KT 9999 FEW045 SCT120 OVC200 27/19 A3007 NOSIG=
202207191700 METAR MROC 191700Z 11006KT 070V150 CAVOK 28/18 A3005 BECMG 24006KT=
202207191800 METAR MROC 191800Z 26010KT 230V290 9999 FEW020 SCT050 OVC200 25/21 A3003 NOSIG=
202207191900 METAR MROC 191900Z 27008KT 240V300 9999 FEW020 BKN070 25/22 A3002 NOSIG=
202207192000 METAR MROC 192000Z 25006KT 220V290 9999 VCTS SCT013 BKN060 25/21 A3001 NOSIG=
202207192100 METAR MROC 192100Z 26007KT 240V300 9999 FEW010 BKN060 25/22 A2999 NOSIG=
202207192200 METAR MROC 192200Z 25008KT 9999 FEW010 SCT030 25/21 A3001 TEMPO RA=
202207192300 METAR MROC 192300Z 24005KT 9999 FEW008 SCT025 24/22 A3000 NOSIG=
202207200000 METAR MROC 200000Z 26004KT 230V310 7000 BCFG SCT006 BKN025 22/22 A3002 TEMPO 4000 BR=
202207200100 METAR MROC 200100Z 28004KT 9999 4000W BCFG FEW002 SCT010 BKN030 22/21 A3005 NOSIG=
202207200200 METAR MROC 200200Z VRB02KT 9999 FEW005 SCT060 22/21 A3005 NOSIG=
202207200300 METAR MROC 200300Z VRB01KT 9999 FEW007 SCT060 22/21 A3007 NOSIG=
202207200400 METAR MROC 200400Z 06005KT 020V090 9999 FEW045 BKN130 23/19 A3006 NOSIG=
202207200500 METAR MROC 200500Z 09006KT 050V120 CAVOK 22/19 A3006 NOSIG=
202207200600 METAR MROC 200600Z 12008KT 080V150 9999 FEW045 BKN130 23/19 A3006 NOSIG=
202207200700 METAR MROC 200700Z 11004KT 070V150 CAVOK 22/18 A3002 NOSIG=
202207200800 METAR MROC 200800Z 10005KT CAVOK 22/18 A3002 NOSIG=
202207200900 METAR MROC 200900Z VRB01KT CAVOK 21/18 A3002 NOSIG=
202207201000 METAR MROC 201000Z 09003KT CAVOK 21/18 A3000 NOSIG=
202207201100 METAR MROC 201100Z 09006KT 9999 -RA NSC 22/18 A3001 NOSIG=
202207201200 METAR MROC 201200Z 02003KT 9999 RA NSC 20/19 A2998 NOSIG=
202207201300 METAR MROC 201300Z COR 09010KT 060V120 CAVOK 22/19 A3001 RERA NOSIG=
202207201400 METAR MROC 201400Z 07009G19KT 020V110 9999 FEW040 BKN200 25/17 A3002 NOSIG=
202207201500 METAR MROC 201500Z 10011KT 9999 FEW040 BKN200 25/18 A3003 NOSIG=
202207201600 METAR MROC 201600Z 10011KT 070V130 9999 FEW045 BKN200 27/19 A3003 NOSIG=
202207201700 METAR MROC 201700Z 10008KT 080V140 9999 FEW040 BKN200 27/19 A3003 NOSIG=
202207201800 METAR MROC 201800Z 08009KT 050V120 9999 FEW045 BKN200 27/19 A3000 NOSIG=
202207201900 METAR MROC 201900Z 22008KT 180V270 9999 SCT045 BKN200 25/22 A2998 NOSIG=
202207202000 METAR MROC 202000Z 27006KT 240V330 9999 FEW015 SCT030 BKN070 25/22 A2998 NOSIG=
202207202100 METAR MROC 202100Z 26008KT 9999 FEW015 BKN030 25/22 A2997 NOSIG=
202207202200 METAR MROC 202200Z 24010KT 9999 VCSH SCT010 BKN030 24/22 A2998 TEMPO BKN010=
202207202300 METAR MROC 202300Z 25008KT 9999 3000SW VCSH BKN008 23/22 A2999 TEMPO 3000 BR=
202207210000 METAR MROC 210000Z 26006KT 1000 R07/1500D -RA BR OVC002 22/21 A3002 NOSIG=
202207210100 METAR MROC 210100Z 25003KT 0100 R07/0450D FG VV001 21/21 A3004 NOSIG=
202207210200 METAR MROC 210200Z 25003KT 0500 -DZ FG VV001 21/21 A3005 NOSIG=
202207210300 METAR MROC 210300Z 33003KT 5000 2000SW BR BCFG OVC003 21/21 A3007 NOSIG=
202207210400 METAR MROC 210400Z VRB02KT 6000 2000SW BCFG SCT002 BKN010 21/20 A3008 NOSIG=
202207210500 METAR MROC 210500Z 00000KT 6000 2000SW BCFG SCT002 BKN210 21/20 A3007 NOSIG=
202207210534 METAR MROC 210534Z 26003KT 240V300 5000 1000SW BR SCT002 BKN010 21/21 A3006 NOSIG=
202207210600 METAR MROC 210600Z VRB02KT 8000 3000SW BCFG SCT002 20/20 A3005 NOSIG=
202207210700 METAR MROC 210700Z VRB02KT 3000 BR BKN002 20/20 A3004 NOSIG=
202207210800 METAR MROC 210800Z 34003KT 5000 2000SW BR BCFG SCT002 BKN040 20/20 A3002 NOSIG=
202207210900 METAR MROC 210900Z VRB01KT 0300 R07/0450D FG OVC001 20/20 A3000 NOSIG=
202207211000 METAR MROC 211000Z VRB02KT 4000 1800SW BR FEW002 SCT040 BKN070 20/20 A3001 NOSIG=
202207211100 METAR MROC 211100Z 07004KT 9999 4000SW BCFG FEW005 SCT030 20/19 A3000 NOSIG=
202207211200 METAR MROC 211200Z 03003KT 340V130 9999 VCFG FEW030 BKN200 20/19 A3001 NOSIG=
202207211300 METAR MROC 211300Z 06003KT 300V090 9999 FEW035 BKN200 21/19 A3003 NOSIG=
202207211400 METAR MROC 211400Z 10010KT 080V140 9999 FEW030 SCT120 BKN200 24/19 A3003 NOSIG=
202207211500 METAR MROC 211500Z 28003KT 9999 FEW030 SCT120 BKN200 24/20 A3003 NOSIG=
202207211600 METAR MROC 211600Z 09011G21KT 9999 FEW030 SCT120 BKN200 25/17 A3004 NOSIG=
202207211700 METAR MROC 211700Z 07011KT 9999 SCT030 BKN150 26/18 A3004 NOSIG=
202207211800 METAR MROC 211800Z 06015KT 060V130 9999 SCT030 BKN160 26/17 A3002 NOSIG=
202207211900 METAR MROC 211900Z 09011KT 9999 SCT030 BKN180 26/16 A2999 NOSIG=
202207212000 METAR MROC 212000Z 08012KT 050V110 9999 SCT040 BKN180 27/15 A2998 NOSIG=
202207212100 METAR MROC 212100Z 08010KT 9999 FEW040 BKN150 25/15 A2998 NOSIG=
202207212200 METAR MROC 212200Z 08009KT 9999 FEW040 BKN180 25/15 A2997 NOSIG=
202207212300 METAR MROC 212300Z 11008KT 080V140 9999 VCSH SCT040 BKN150 24/17 A2999 TEMPO RA BKN015=
202207220000 METAR MROC 220000Z 11009KT 9999 4000SW -DZ VCSH BKN040 BKN080 23/18 A3000 TEMPO RA BKN015=
202207220100 METAR MROC 220100Z 10006KT 9999 -RA FEW040 BKN080 22/19 A3003 NOSIG=
202207220200 METAR MROC 220200Z VRB02KT 9999 4000SW -RA BCFG FEW025 BKN060 21/18 A3006 NOSIG=
202207220300 METAR MROC 220300Z 22004KT 9999 3000SW -RA BCFG FEW003 BKN080 20/20 A3008 NOSIG=
202207220400 METAR MROC 220400Z VRB02KT 9999 FEW006 BKN100 20/20 A3010 NOSIG=
202207220500 METAR MROC 220500Z 26003KT 9999 SCT004 OVC080 20/20 A3011 NOSIG=
202207220600 METAR MROC 220600Z 26003KT 230V330 9999 SCT010 BKN040 20/20 A3009 NOSIG=
202207220700 METAR MROC 220700Z 31003KT 9999 SCT015 BKN100 20/19 A3007 NOSIG=
202207220800 METAR MROC 220800Z 33003KT 310V010 9999 BKN010 20/19 A3004 NOSIG=
202207220900 METAR MROC 220900Z 00000KT 9999 BKN012 20/19 A3003 NOSIG=
202207221000 METAR MROC 221000Z 19002KT 9999 SCT025 19/19 A3003 NOSIG=
202207221100 METAR MROC 221100Z 02003KT 9999 BKN010 19/18 A3004 NOSIG=
202207221200 METAR MROC 221200Z 04004KT 360V070 9999 FEW020 BKN100 20/18 A3005 NOSIG=
202207221300 METAR MROC 221300Z 09004KT 060V120 9999 FEW020 BKN200 20/18 A3006 NOSIG=
202207221400 METAR MROC 221400Z 07003KT 040V130 9999 FEW025 SCT200 23/19 A3007 NOSIG=
202207221500 METAR MROC 221500Z VRB01KT 9999 FEW025 BKN100 24/18 A3007 BECMG 24005KT=
202207221600 METAR MROC 221600Z 24006KT 200V260 9999 FEW025 BKN100 24/20 A3007 NOSIG=
202207221700 METAR MROC 221700Z 24006KT 210V270 9999 VCSH FEW025 SCT040 BKN100 25/19 A3007 NOSIG=
202207221800 METAR MROC 221800Z 23006KT 210V280 9999 BKN040 25/20 A3006 NOSIG=
202207221900 METAR MROC 221900Z 28005KT 150V320 9999 RA FEW015TCU BKN025 24/20 A3005 BECMG SHRA=
202207222000 METAR MROC 222000Z 21008KT 9999 -TSRA BKN008 FEW010CB 21/20 A3003 BECMG 5000=
202207222100 METAR MROC 222100Z 34003KT 200V010 9999 FEW010 SCT035 BKN050 22/20 A3003 NOSIG=
202207222200 METAR MROC 222200Z VRB02KT 9999 FEW035 SCT050 BKN120 23/20 A3001 NOSIG=
202207222300 METAR MROC 222300Z 25003KT 210V270 9999 FEW010 SCT040 BKN100 22/21 A3003 NOSIG=
202207230000 METAR MROC 230000Z 25003KT 9999 FEW010 SCT040 BKN100 22/21 A3004 NOSIG=
202207230100 METAR MROC 230100Z VRB02KT 9999 FEW010 BKN100 22/18 A3006 NOSIG=
202207230200 METAR MROC 230200Z 27004KT 240V320 9999 FEW005 OVC100 21/20 A3008 NOSIG=
202207230300 METAR MROC 230300Z 25003KT 9999 2000SW FEW005 SCT015 21/20 A3008 NOSIG=
202207230400 METAR MROC 230400Z VRB02KT 9999 2000SW BCFG SCT003 BKN010 21/20 A3009 NOSIG=
202207230500 METAR MROC 230500Z VRB01KT 9999 3000SW BCFG SCT005 BKN010 21/20 A3010 NOSIG=
202207230600 METAR MROC 230600Z 06004KT 9999 4500SW BCFG BKN020 20/19 A3008 NOSIG=
202207230700 METAR MROC 230700Z 07005KT 9999 FEW025 BKN120 20/18 A3006 NOSIG=
202207230800 METAR MROC 230800Z 05011KT CAVOK 21/18 A3004 NOSIG=
202207230900 METAR MROC 230900Z 09005KT CAVOK 21/18 A3003 NOSIG=
202207231000 METAR MROC 231000Z 03004KT 360V060 CAVOK 21/18 A3002 NOSIG=
202207231100 METAR MROC 231100Z 08004KT 060V130 CAVOK 22/18 A3003 NOSIG=
202207231200 METAR MROC 231200Z 03005KT CAVOK 21/18 A3003 NOSIG=
202207231300 METAR MROC 231300Z VRB01KT CAVOK 23/18 A3005 NOSIG=
202207231400 METAR MROC 231400Z 05005KT 010V070 CAVOK 23/18 A3007 NOSIG=
202207231500 METAR MROC 231500Z 09003KT 010V160 CAVOK 25/19 A3007 NOSIG=
202207231600 METAR MROC 231600Z 12010KT 090V170 9999 FEW035 SCT120 27/19 A3007 BECMG 24006KT=
202207231700 METAR MROC 231700Z 11010KT 080V150 9999 FEW035 SCT120 28/18 A3007 NOSIG=
202207231800 METAR MROC 231800Z 11009KT 080V160 9999 SCT030 BKN120 28/18 A3005 NOSIG=
202207231900 METAR MROC 231900Z 12009KT 070V160 9999 SCT035 BKN110 28/19 A3003 NOSIG=
202207232000 METAR MROC 232000Z 10007G17KT 070V150 9999 FEW040 BKN140 28/17 A3001 NOSIG=
202207232100 METAR MROC 232100Z 12009KT 080V160 9999 SCT040 BKN120 27/19 A3001 TEMPO 23006KT=
202207232200 METAR MROC 232200Z 17008KT 120V240 9999 FEW045 BKN150 25/19 A3000 NOSIG=
202207232300 METAR MROC 232300Z 26007KT 230V300 9999 FEW008 BKN150 22/21 A3001 NOSIG=
202207240000 METAR MROC 240000Z 26005KT 230V290 9999 FEW006 SCT035 BKN110 22/21 A3004 NOSIG=
202207240100 METAR MROC 240100Z 27005KT 9999 FEW005 SCT030 BKN120 22/21 A3007 NOSIG=
202207240200 METAR MROC 240200Z COR 26003KT 220V280 9999 BCFG FEW005 SCT015 BKN140 21/20 A3009 NOSIG=
202207240300 METAR MROC 240300Z VRB01KT 9999 4000SW BCFG FEW005 SCT080 BKN140 21/21 A3009 NOSIG=
202207240400 METAR MROC 240400Z 31003KT 9999 BCFG FEW010 SCT045 BKN140 21/20 A3011 NOSIG=
202207240500 METAR MROC 240500Z 09003KT 9999 FEW045 BKN140 22/18 A3011 NOSIG=
202207240600 METAR MROC 240600Z 12004KT 070V170 9999 FEW035 SCT120 BKN200 22/18 A3008 NOSIG=
202207240700 METAR MROC 240700Z 31003KT 270V340 9999 FEW035 SCT120 BKN200 20/19 A3006 NOSIG=
202207240800 METAR MROC 240800Z 02003KT 9999 FEW035 20/19 A3004 NOSIG=
202207240900 METAR MROC 240900Z 04003KT 360V080 9999 FEW035 21/17 A3002 NOSIG=
202207241000 METAR MROC 241000Z VRB02KT 9999 FEW030 SCT200 20/17 A3002 NOSIG=
202207241100 METAR MROC 241100Z VRB01KT 9999 BCFG FEW035 BKN200 19/17 A3004 NOSIG=
202207241200 METAR MROC 241200Z 04005KT 020V080 9999 BCFG FEW035 SCT120 BKN200 20/17 A3005 NOSIG=
202207241300 METAR MROC 241300Z 07005KT 030V100 9999 BCFG FEW035 BKN200 21/17 A3005 NOSIG=
202207241400 METAR MROC 241400Z 08005KT 040V130 9999 FEW040 BKN200 22/18 A3007 NOSIG=
202207241500 METAR MROC 241500Z VRB03KT 9999 FEW040 BKN200 23/18 A3008 NOSIG=
202207241600 METAR MROC 241600Z 11008KT 9999 -RA FEW035 BKN200 23/18 A3008 NOSIG=
202207241700 METAR MROC 241700Z 07008KT 360V120 9999 FEW040 SCT200 27/18 A3007 NOSIG=
202207241800 METAR MROC 241800Z 10009KT 050V140 CAVOK 28/16 A3004 NOSIG=
202207241900 METAR MROC 241900Z 09008KT 030V160 9999 FEW045 SCT170 28/16 A3002 NOSIG=
202207242000 METAR MROC 242000Z VRB05KT 9999 FEW035 SCT160 28/16 A3000 TEMPO 25006KT=
202207242100 METAR MROC 242100Z 24008KT 9999 FEW030 BKN070 24/21 A3000 NOSIG=
202207242200 METAR MROC 242200Z 23006KT 9999 VCSH FEW007 BKN030 23/22 A3001 TEMPO RA=
202207242300 METAR MROC 242300Z 24005KT 210V270 9999 SCT030 BKN050 23/21 A3000 NOSIG=
202207250000 METAR MROC 250000Z 25005KT 9000 4000NW BCFG BKN010 22/21 A3003 TEMPO 5000 BR=
202207250100 METAR MROC 250100Z VRB01KT 9999 SCT005 BKN010 21/20 A3005 NOSIG=
202207250200 METAR MROC 250200Z VRB02KT 9999 FEW005 SCT060 21/20 A3007 NOSIG=
202207250300 METAR MROC 250300Z VRB02KT CAVOK 20/20 A3008 NOSIG=
202207250400 METAR MROC 250400Z 07005KT 9999 3000SW BCFG NSC 20/16 A3009 NOSIG=
202207250500 METAR MROC 250500Z 03005KT 330V090 9999 4000SW BCFG NSC 20/18 A3011 NOSIG=
202207250600 METAR MROC 250600Z 06005KT 9999 4000SW BCFG NSC 20/16 A3009 NOSIG=
202207250700 METAR MROC 250700Z VRB02KT 9999 BCFG NSC 19/16 A3007 NOSIG=
202207250800 METAR MROC 250800Z 08004KT 040V100 9999 BCFG NSC 19/15 A3005 NOSIG=
202207250900 METAR MROC 250900Z 05007KT 9999 BCFG NSC 18/15 A3004 NOSIG=
202207251000 METAR MROC 251000Z 05006KT CAVOK 17/14 A3003 NOSIG=
202207251100 METAR MROC 251100Z 08006KT CAVOK 16/12 A3003 NOSIG=
202207251200 METAR MROC 251200Z 05008KT 020V080 CAVOK 18/13 A3004 NOSIG=
202207251300 METAR MROC 251300Z 04007KT 360V090 CAVOK 21/14 A3005 NOSIG=
202207251400 METAR MROC 251400Z 11009KT 080V150 CAVOK 24/13 A3006 NOSIG=
202207251500 METAR MROC 251500Z 11011G21KT 080V140 CAVOK 25/14 A3006 NOSIG=
202207251600 METAR MROC 251600Z 11012KT 080V140 CAVOK 27/14 A3006 NOSIG=
202207251700 METAR MROC 251700Z 11005KT 070V170 9999 FEW040 28/14 A3006 NOSIG=
202207251800 METAR MROC 251800Z 26009KT 210V280 9999 FEW045 SCT250 26/19 A3005 NOSIG=
202207251900 METAR MROC 251900Z 25011KT 220V280 9999 BKN040 26/20 A3004 NOSIG=
202207252000 METAR MROC 252000Z 24010KT 210V270 9999 SCT035 26/21 A3002 NOSIG=
202207252100 METAR MROC 252100Z 25014KT 9999 FEW030 BKN045 25/21 A3000 NOSIG=
202207252200 METAR MROC 252200Z 25009KT 230V290 9999 VCTS SCT015CB BKN047 25/20 A3002 TEMPO RA=
202207252300 METAR MROC 252300Z VRB04KT 9999 -RA FEW025TCU OVC030 22/17 A3003 NOSIG=
202207252308 METAR MROC 252308Z 03009KT 010V110 5000 RA OVC023 22/19 A3003 NOSIG=
202207260000 METAR MROC 260000Z VRB04KT 9000 2000SW RA BKN025 OVC050 19/18 A3005 NOSIG=
202207260100 METAR MROC 260100Z VRB02KT 9999 FEW025 OVC100 20/19 A3008 RERA NOSIG=
202207260200 METAR MROC 260200Z 29003KT 240V340 9999 OVC030 20/19 A3011 NOSIG=
202207260300 METAR MROC 260300Z 33002KT 9999 OVC010 21/20 A3011 NOSIG=
202207260400 METAR MROC 260400Z 27004KT 240V300 9999 SCT010 BKN240 21/20 A3011 NOSIG=
202207260500 METAR MROC 260500Z VRB02KT 9999 FEW006 BKN010 20/20 A3012 TEMPO 5000 BR=
202207260600 METAR MROC 260600Z 02003KT 9999 FEW006 BKN015 21/19 A3010 NOSIG=
202207260700 METAR MROC 260700Z 05004KT 360V070 9999 FEW025 BKN160 21/19 A3008 NOSIG=
202207260800 METAR MROC 260800Z 08004KT 360V070 9999 FEW025 BKN130 20/19 A3007 NOSIG=
202207260900 METAR MROC 260900Z VRB02KT CAVOK 20/18 A3006 NOSIG=
202207261000 METAR MROC 261000Z VRB02KT CAVOK 20/18 A3007 NOSIG=
202207261100 METAR MROC 261100Z 03003KT 010V070 CAVOK 20/18 A3006 NOSIG=
202207261200 METAR MROC 261200Z 05006KT 010V070 CAVOK 20/17 A3007 NOSIG=
202207261300 METAR MROC 261300Z 04005KT 020V080 9999 FEW005 BKN120 22/17 A3009 NOSIG=
202207261400 METAR MROC 261400Z 10006KT 9999 FEW045 BKN120 24/16 A3010 NOSIG=
202207261500 METAR MROC 261500Z 24004KT 9999 FEW040 BKN150 23/19 A3011 NOSIG=
202207261600 METAR MROC 261600Z COR 18003KT 080V240 9999 FEW040 BKN150 25/18 A3011 NOSIG=
202207261700 METAR MROC 261700Z 24006KT 9999 FEW040 BKN120 24/20 A3012 NOSIG=
202207261800 METAR MROC 261800Z 24007KT 9999 VCSH FEW030 SCT050 OVC100 23/20 A3011 NOSIG=
202207261900 METAR MROC 261900Z VRB02KT 9999 -DZ VCSH FEW015 SCT045 OVC100 24/21 A3008 NOSIG=
202207262000 METAR MROC 262000Z VRB01KT 9999 SCT025 BKN080 25/18 A3006 NOSIG=
202207262100 METAR MROC 262100Z 20005KT 170V260 9999 FEW030 SCT050 BKN080 23/21 A3004 NOSIG=
202207262200 METAR MROC 262200Z 16004KT 100V200 5000 2000SW -RA BR SCT005 BKN015 21/18 A3005 NOSIG=
202207262300 METAR MROC 262300Z 21003KT 180V250 9999 2000SW -RA FEW005 SCT030 BKN080 20/19 A3007 NOSIG=
202207270000 METAR MROC 270000Z 00000KT 8000 2000SW -RA VCFG FEW005 SCT010 BKN025 20/19 A3010 NOSIG=
202207270100 METAR MROC 270100Z 00000KT 9999 2000SW -RA BCFG OVC015 20/19 A3012 NOSIG=
202207270200 METAR MROC 270200Z 16003KT 140V200 9999 BCFG SCT015 BKN045 20/19 A3014 NOSIG=
202207270300 METAR MROC 270300Z 00000KT 8000 2000SW VCFG FEW005 BKN045 20/19 A3015 NOSIG=
202207270400 METAR MROC 270400Z 00000KT 5000 BR SCT003 BKN012 20/19 A3014 NOSIG=
202207270500 METAR MROC 270500Z 00000KT 5000 2000SW BR OVC005 20/19 A3014 NOSIG=
202207270600 METAR MROC 270600Z 17002KT 0800 R07/P2000N FG BKN005 19/19 A3012 NOSIG=
202207270700 METAR MROC 270700Z 02002KT 9000 BCFG FEW002 19/19 A3008 NOSIG=
202207270800 METAR MROC 270800Z 04003KT 350V070 CAVOK 19/18 A3006 NOSIG=
202207270900 METAR MROC 270900Z 04004KT CAVOK 18/17 A3004 NOSIG=
202207271000 METAR MROC 271000Z 06008KT CAVOK 19/17 A3005 NOSIG=
202207271100 METAR MROC 271100Z 04005KT 010V080 9999 FEW030 18/17 A3007 NOSIG=
202207271200 METAR MROC 271200Z 03005KT CAVOK 19/17 A3008 NOSIG=
202207271300 METAR MROC 271300Z 07005KT CAVOK 21/17 A3008 NOSIG=
202207271400 METAR MROC 271400Z 25005KT 9999 FEW045 SCT200 22/17 A3010 NOSIG=
202207271500 METAR MROC 271500Z 25006KT 9999 FEW045 23/19 A3011 NOSIG=
202207271600 METAR MROC 271600Z 26007KT 9999 FEW040 24/19 A3011 NOSIG=
202207271700 METAR MROC 271700Z 26008KT 230V290 9999 FEW035 24/20 A3012 NOSIG=
202207271800 METAR MROC 271800Z 26009KT 9999 BKN030 25/20 A3010 NOSIG=
202207271900 METAR MROC 271900Z 27007KT 250V310 9999 3000S RA FEW015 BKN030 23/20 A3008 NOSIG=
202207272000 METAR MROC 272000Z 25006KT 240V300 9999 VCTS FEW015CB BKN030 23/21 A3006 NOSIG=
202207272100 METAR MROC 272100Z 26010KT 9999 VCSH FEW005 SCT020 BKN030 23/21 A3004 NOSIG=
202207272107 METAR MROC 272107Z 24009KT 9999 RA FEW005 SCT020 BKN030 22/20 A3004 NOSIG=
202207272200 METAR MROC 272200Z 22008KT 3000 -RA VCTS BKN005 SCT015CB 21/21 A3005 RETSRA NOSIG=
202207272300 METAR MROC 272300Z 24007KT 2000 -TSRA BR BKN005 SCT015CB 20/19 A3007 NOSIG=
202207280000 METAR MROC 280000Z 26005KT 5000 2000SW BR BKN005 SCT015 20/19 A3009 NOSIG=
202207280100 METAR MROC 280100Z VRB02KT 8000 VCFG OVC010 20/19 A3011 NOSIG=
202207280200 METAR MROC 280200Z VRB02KT 9999 -DZ BCFG FEW005 OVC015 19/19 A3013 NOSIG=
202207280300 METAR MROC 280300Z 00000KT 9999 SCT010 BKN020 20/19 A3014 NOSIG=
202207280400 METAR MROC 280400Z 07002KT 9999 SCT020 BKN040 20/18 A3015 NOSIG=
202207280500 METAR MROC 280500Z 10003KT 9999 SCT025 19/19 A3013 NOSIG=
202207280600 METAR MROC 280600Z 09004KT 9999 FEW030 19/19 A3011 NOSIG=
202207280700 METAR MROC 280700Z 09005KT CAVOK 19/18 A3009 NOSIG=
202207280800 METAR MROC 280800Z 03004KT CAVOK 19/18 A3007 NOSIG=
202207280900 METAR MROC 280900Z VRB02KT 0100 R07/375D FG BKN002 18/18 A3007 BECMG 1200 BR BKN003=
202207281000 METAR MROC 281000Z VRB01KT 0400 R07/450N FG BKN002 18/18 A3006 BECMG 1200 BR=
202207281100 METAR MROC 281100Z 08002KT 9999 2500SW R07/0550N BCFG FEW002 18/18 A3007 NOSIG=
202207281200 METAR MROC 281200Z 07004KT 9999 BCFG FEW001 SCT030 18/17 A3008 NOSIG=
202207281300 METAR MROC 281300Z 04006KT 9999 BCFG FEW040 20/18 A3010 NOSIG=
202207281400 METAR MROC 281400Z 04004KT 350V080 9999 FEW040 23/18 A3010 NOSIG=
202207281500 METAR MROC 281500Z 10006KT 060V170 9999 FEW040 SCT100 26/17 A3010 NOSIG=
202207281600 METAR MROC 281600Z 10006KT 030V180 9999 FEW040 BKN100 27/17 A3010 NOSIG=
202207281700 METAR MROC 281700Z 10006KT 060V150 9999 SCT045 BKN120 27/18 A3008 NOSIG=
202207281800 METAR MROC 281800Z 12005KT 080V160 9999 BKN040 27/18 A3007 NOSIG=
202207281900 METAR MROC 281900Z 12005KT 070V170 9999 BKN040 25/19 A3005 BECMG 25007KT=
202207282000 METAR MROC 282000Z 31007KT 280V020 9999 VCTS FEW015CB FEW045 BKN120 24/21 A3003 NOSIG=
202207282100 METAR MROC 282100Z 26006KT 9999 FEW040 BKN140 23/21 A3003 TEMPO SHRA=
202207282200 METAR MROC 282200Z VRB04KT 9999 SCT040 BKN180 23/20 A3003 NOSIG=
202207282300 METAR MROC 282300Z VRB02KT CAVOK 23/20 A3004 NOSIG=
202207290000 METAR MROC 290000Z 12003KT 080V170 9999 FEW040 SCT140 BKN200 23/17 A3005 NOSIG=
202207290100 METAR MROC 290100Z 06005KT 010V090 CAVOK 23/15 A3005 NOSIG=
202207290200 METAR MROC 290200Z 00000KT 9999 4500SW VCFG FEW008 BKN150 21/16 A3007 NOSIG=
202207290300 METAR MROC 290300Z 25002KT 9999 1000SW BCFG FEW002 20/20 A3008 NOSIG=
202207290400 METAR MROC 290400Z 10003KT 9999 FEW010 19/19 A3008 NOSIG=
202207290500 METAR MROC 290500Z 08006KT CAVOK 19/15 A3007 NOSIG=
202207290600 METAR MROC 290600Z 05010KT CAVOK 19/16 A3005 NOSIG=
202207290700 METAR MROC 290700Z 05009KT CAVOK 20/16 A3003 NOSIG=
202207290800 METAR MROC 290800Z 05005KT 010V090 CAVOK 20/16 A3002 NOSIG=
202207290900 METAR MROC 290900Z 11013KT 9999 FEW035 20/16 A3001 NOSIG=
202207291000 METAR MROC 291000Z 05007KT 030V090 9999 FEW035 20/16 A3002 NOSIG=
202207291100 METAR MROC 291100Z 06008KT CAVOK 19/16 A3002 NOSIG=
202207291200 METAR MROC 291200Z 02004KT 350V070 CAVOK 19/16 A3004 NOSIG=
202207291300 METAR MROC 291300Z 04006KT 360V060 CAVOK 22/16 A3005 NOSIG=
202207291400 METAR MROC 291400Z 10005KT 050V160 CAVOK 24/16 A3007 NOSIG=
202207291500 METAR MROC 291500Z 11007KT 070V160 CAVOK 25/17 A3007 NOSIG=
202207291600 METAR MROC 291600Z 10006KT 050V140 CAVOK 27/17 A3007 BECMG 25006KT=
202207291700 METAR MROC 291700Z 25008KT 210V280 CAVOK 26/19 A3005 NOSIG=
202207291800 METAR MROC 291800Z 24007KT 210V280 9999 SCT035 27/21 A3002 NOSIG=
202207291900 METAR MROC 291900Z 24007KT 200V280 9999 BKN040 27/19 A3000 NOSIG=
202207292000 METAR MROC 292000Z 24009KT 9999 BKN035 25/21 A2999 NOSIG=
202207292100 METAR MROC 292100Z 25010KT 230V290 9999 SCT030 24/21 A2998 TEMPO RA=
202207292200 METAR MROC 292200Z 25007KT 220V310 9999 BKN015 23/21 A2998 NOSIG=
202207292300 METAR MROC 292300Z 25006KT 9999 OVC009 22/21 A2999 NOSIG=
202207300000 METAR MROC 300000Z 25004KT 9999 OVC009 22/21 A3002 NOSIG=
202207300100 METAR MROC 300100Z 23004KT 9999 OVC006 21/21 A3003 NOSIG=
202207300200 METAR MROC 300200Z VRB02KT 9999 3000SW BCFG SCT004 OVC010 21/21 A3004 NOSIG=
202207300300 METAR MROC 300300Z 24002KT 9999 FEW010 21/20 A3005 NOSIG=
202207300400 METAR MROC 300400Z COR VRB02KT 9999 BCFG SCT035 21/20 A3007 NOSIG=
202207300500 METAR MROC 300500Z VRB02KT 9999 BCFG FEW035 21/20 A3007 NOSIG=
202207300600 METAR MROC 300600Z 05003KT 9999 BCFG FEW035 21/19 A3006 NOSIG=
202207300700 METAR MROC 300700Z VRB02KT 9999 BCFG NSC 21/18 A3004 NOSIG=
202207300800 METAR MROC 300800Z VRB01KT CAVOK 19/18 A3003 NOSIG=
202207300900 METAR MROC 300900Z 07005KT 050V110 CAVOK 19/18 A3002 NOSIG=
202207301000 METAR MROC 301000Z 04003KT 010V080 9999 FEW040 20/17 A3003 NOSIG=
202207301100 METAR MROC 301100Z 06008KT 9999 SCT040 21/17 A3003 NOSIG=
202207301200 METAR MROC 301200Z 04004KT 360V070 9999 FEW040 SCT150 20/17 A3004 NOSIG=
202207301300 METAR MROC 301300Z 09007KT 060V120 9999 FEW040 BKN160 23/18 A3005 NOSIG=
202207301400 METAR MROC 301400Z 10007KT 060V140 CAVOK 25/18 A3006 NOSIG=
202207301500 METAR MROC 301500Z 10010KT 070V140 CAVOK 27/18 A3006 NOSIG=
202207301600 METAR MROC 301600Z 08011KT 9999 FEW040 28/17 A3007 NOSIG=
202207301700 METAR MROC 301700Z 10011KT 9999 FEW045 29/18 A3004 NOSIG=
202207301800 METAR MROC 301800Z COR 09011KT 070V130 9999 FEW045 BKN200 29/18 A3003 NOSIG=
202207301900 METAR MROC 301900Z 13008KT 090V190 9999 SCT045 BKN200 29/19 A3000 NOSIG=
202207302000 METAR MROC 302000Z 11007KT 070V200 9999 SCT040 30/18 A2998 TEMPO 25006KT=
202207302100 METAR MROC 302100Z 25011KT 9999 VCTS FEW030TCU FEW030CB SCT040 26/23 A2998 NOSIG=
202207302200 METAR MROC 302200Z 26010KT 9999 SCT010 BKN025 24/22 A2998 NOSIG=
202207302300 METAR MROC 302300Z 27005KT 230V300 9999 3000SW BKN005 23/22 A3001 TEMPO 3000 BR=
202207310000 METAR MROC 310000Z 26004KT 230V310 3000 1200SW BR OVC002 22/22 A3003 NOSIG=
202207310100 METAR MROC 310100Z COR 27005KT 0500 R07/0700N FG OVC001 22/22 A3004 NOSIG=
202207310200 METAR MROC 310200Z VRB02KT 9999 3000SW BCFG FEW003 BKN035 22/22 A3007 NOSIG=
202207310300 METAR MROC 310300Z 27003KT 230V310 9999 VCTS FEW030CB SCT035 22/21 A3007 NOSIG=
202207310400 METAR MROC 310400Z 28003KT CAVOK 22/21 A3010 NOSIG=
202207310500 METAR MROC 310500Z 10003KT 040V130 9999 FEW040 SCT160 21/21 A3008 NOSIG=
202207310600 METAR MROC 310600Z 10005KT 040V130 9999 FEW040 22/19 A3006 NOSIG=
202207310700 METAR MROC 310700Z 09008KT CAVOK 22/18 A3004 NOSIG=
202207310800 METAR MROC 310800Z 11009KT CAVOK 22/18 A3002 NOSIG=
202207310900 METAR MROC 310900Z 10005KT 060V190 9999 FEW025 22/17 A3003 NOSIG=
202207311000 METAR MROC 311000Z 11009KT 9999 FEW025 22/17 A3002 NOSIG=
202207311100 METAR MROC 311100Z 10010KT 070V130 CAVOK 21/17 A3002 NOSIG=
202207311200 METAR MROC 311200Z 09009KT 060V120 CAVOK 22/18 A3003 NOSIG=
202207311300 METAR MROC 311300Z 09012KT 060V120 9999 FEW030 SCT060 BKN200 24/19 A3005 NOSIG=
202207311400 METAR MROC 311400Z 11010G20KT 080V140 9999 FEW030 SCT060 BKN200 24/19 A3005 NOSIG=
202207311500 METAR MROC 311500Z 10010G20KT 9999 FEW035 SCT060 BKN200 25/19 A3006 NOSIG=
202207311600 METAR MROC 311600Z 09011G21KT 060V120 9999 FEW035 BKN200 26/18 A3008 NOSIG=
202207311700 METAR MROC 311700Z 07017G27KT 9999 FEW040 SCT200 28/17 A3006 NOSIG=
202207311800 METAR MROC 311800Z 06014G24KT 9999 FEW040 SCT200 29/17 A3004 NOSIG=
202207311900 METAR MROC 311900Z 07015G25KT 9999 FEW045 SCT200 28/16 A3002 NOSIG=
202207312000 METAR MROC 312000Z 06017G27KT 9999 FEW045 BKN200 29/15 A3001 NOSIG=
202207312100 METAR MROC 312100Z 07015KT 040V110 9999 FEW040 BKN200 27/14 A3000 NOSIG=
202207312200 METAR MROC 312200Z 07014KT 9999 FEW040 BKN200 26/14 A2999 NOSIG=
202207312300 METAR MROC 312300Z 08008KT 9999 FEW040 BKN200 25/14 A3001 NOSIG=
202208010000 METAR MROC 010000Z 07008KT 9999 FEW040 BKN200 24/15 A3002 NOSIG=
202208010100 METAR MROC 010100Z 09007KT 9999 FEW040 SCT200 23/16 A3003 NOSIG=
202208010200 METAR MROC 010200Z 09008KT 9999 FEW040 BKN200 23/17 A3005 NOSIG=
202208010300 METAR MROC 010300Z 10007KT CAVOK 22/17 A3006 NOSIG=
202208010400 METAR MROC 010400Z 09008KT 070V130 CAVOK 22/17 A3008 NOSIG=
202208010500 METAR MROC 010500Z 12004KT 080V170 CAVOK 21/16 A3007 NOSIG=
202208010600 METAR MROC 010600Z 11007KT 070V140 CAVOK 22/16 A3006 NOSIG=
202208010700 METAR MROC 010700Z 12008KT CAVOK 21/17 A3006 NOSIG=
202208010800 METAR MROC 010800Z 10009KT CAVOK 21/16 A3003 NOSIG=
202208010900 METAR MROC 010900Z 10008KT CAVOK 21/16 A3002 NOSIG=
202208011000 METAR MROC 011000Z 04004KT 010V090 CAVOK 20/16 A3002 NOSIG=
202208011100 METAR MROC 011100Z 04005KT CAVOK 19/15 A3003 NOSIG=
202208011200 METAR MROC 011200Z 10008KT CAVOK 21/16 A3003 NOSIG=
202208011300 METAR MROC 011300Z 12013KT 080V150 CAVOK 22/16 A3005 NOSIG=
202208011400 METAR MROC 011400Z 12012KT 090V170 CAVOK 24/16 A3004 NOSIG=
202208011500 METAR MROC 011500Z 12009KT 100V160 CAVOK 24/17 A3005 NOSIG=
202208011600 METAR MROC 011600Z 08015KT 050V110 9999 FEW035 BKN200 27/16 A3006 NOSIG=
202208011700 METAR MROC 011700Z 07014G24KT 040V110 9999 FEW035 SCT060 BKN200 28/16 A3005 NOSIG=
202208011800 METAR MROC 011800Z 11012KT 060V150 CAVOK 29/17 A3004 NOSIG=
202208011900 METAR MROC 011900Z 13005G15KT 070V180 CAVOK 30/17 A3001 NOSIG=
202208012000 METAR MROC 012000Z 08009KT 030V110 CAVOK 30/17 A3000 NOSIG=
202208012100 METAR MROC 012100Z 24012KT 9999 FEW015TCU BKN030 25/21 A3000 NOSIG=
202208012200 METAR MROC 012200Z 25006KT 220V320 9999 RA VCTS FEW015CB SCT020 BKN040 23/21 A3001 NOSIG=
202208012300 METAR MROC 012300Z 22005KT 190V250 9999 FEW005 BKN010 22/21 A3001 NOSIG=
202208020000 METAR MROC 020000Z 25004KT 210V300 9999 VCSH FEW004 BKN008 FEW015TCU 22/21 A3003 NOSIG=
202208020100 METAR MROC 020100Z 25005KT 9999 BCFG FEW003 BKN007 21/21 A3005 NOSIG=
202208020200 METAR MROC 020200Z 26004KT 9999 4500SW BCFG BKN005 21/21 A3006 NOSIG=
202208020300 METAR MROC 020300Z VRB01KT 9999 4000SW -RA BCFG FEW005 BKN090 21/20 A3006 NOSIG=
202208020400 METAR MROC 020400Z 19003KT 9999 4500SW BCFG SCT006 BKN100 21/20 A3008 NOSIG=
202208020500 METAR MROC 020500Z 36004KT 320V020 9999 4500SW BCFG FEW005 SCT120 20/20 A3007 NOSIG=
202208020600 METAR MROC 020600Z 26004KT 5000 BR FEW002 BKN005 20/20 A3005 NOSIG=
202208020700 METAR MROC 020700Z VRB02KT 7000 VCFG SCT003 BKN120 20/20 A3003 NOSIG=
202208020800 METAR MROC 020800Z 09003KT 050V110 9999 4000SW BCFG BKN008 20/20 A3001 NOSIG=
202208020900 METAR MROC 020900Z VRB02KT 9999 3000SW BCFG SCT002 BKN030 20/19 A2999 TEMPO 3000 BR BKN005=
202208021000 METAR MROC 021000Z 24003KT 8000 BCFG FEW001 BKN004 20/20 A3002 TEMPO 3000 BR=
202208021100 METAR MROC 021100Z 05003KT 020V090 9999 SCT004 BKN025 21/19 A3001 NOSIG=
202208021200 METAR MROC 021200Z 10003KT 9999 4000SW BCFG FEW040 SCT080 BKN200 20/19 A3001 NOSIG=
202208021300 METAR MROC 021300Z VRB04KT 9999 4000S BCFG FEW001 SCT130 BKN200 22/18 A3002 NOSIG=
202208021400 METAR MROC 021400Z 03005KT 9999 4000S BCFG FEW001 SCT080 BKN140 22/18 A3002 NOSIG=
202208021500 METAR MROC 021500Z 25007KT 210V270 CAVOK 22/19 A3006 NOSIG=
202208021600 METAR MROC 021600Z 26007KT 200V290 9999 SCT025 BKN140 23/19 A3005 NOSIG=
202208021700 METAR MROC 021700Z 26008KT 220V280 9999 BKN030 23/19 A3004 NOSIG=
202208021800 METAR MROC 021800Z 24006KT 9999 SCT025 BKN140 24/20 A3002 NOSIG=
202208021900 METAR MROC 021900Z 23009KT 210V270 9999 FEW015 BKN130 24/20 A3000 NOSIG=
202208022000 METAR MROC 022000Z 25008KT 9999 SCT010 BKN120 23/21 A2998 NOSIG=
202208022100 METAR MROC 022100Z 25009KT 9999 VCSH BKN008 22/20 A2998 NOSIG=
202208022200 METAR MROC 022200Z 29003KT 250V340 3000 TSRA SCT006 FEW010CB BKN015 21/20 A2999 NOSIG=
202208022300 METAR MROC 022300Z 24004KT 190V250 5000 RA BR SCT003 BKN010 21/20 A3001 NOSIG=
202208030000 METAR MROC 030000Z 24004KT 5000 RA BR SCT003 BKN008 20/20 A3003 NOSIG=
202208030100 METAR MROC 030100Z 22004KT 1500 +RA BR SCT002 BKN005 20/20 A3005 NOSIG=
202208030200 METAR MROC 030200Z VRB02KT 4000 1500SW -RA BR SCT002 BKN005 20/20 A3006 NOSIG=
202208030300 METAR MROC 030300Z 05004KT 360V070 9999 4000SW -RA BCFG SCT005 BKN100 20/20 A3006 NOSIG=
202208030400 METAR MROC 030400Z 09003KT 9999 -DZ NSC 20/19 A3006 NOSIG=
202208030500 METAR MROC 030500Z 08011KT CAVOK 20/18 A3003 NOSIG=
202208030600 METAR MROC 030600Z 11012KT CAVOK 21/18 A3002 NOSIG=
202208030700 METAR MROC 030700Z 11009KT 080V160 CAVOK 21/18 A3000 NOSIG=
202208030800 METAR MROC 030800Z 09008KT 060V130 CAVOK 21/18 A2997 NOSIG=
202208030900 METAR MROC 030900Z 07006KT 9999 FEW035 SCT120 21/18 A2997 NOSIG=
202208031000 METAR MROC 031000Z 05005KT 9999 FEW030 BKN100 20/18 A2999 NOSIG=
202208031100 METAR MROC 031100Z 08005KT 050V140 9999 FEW030 BKN100 21/18 A3000 NOSIG=
202208031200 METAR MROC 031200Z 02003KT 340V070 9999 BCFG FEW030 SCT060 BKN100 21/18 A3001 NOSIG=
202208031300 METAR MROC 031300Z 25004KT 220V290 0500 R07/P2000N FG SCT001 BKN003 19/19 A3004 NOSIG=
202208031400 METAR MROC 031400Z 30004KT 8000 BCFG SCT004 SCT130 21/19 A3005 NOSIG=
202208031500 METAR MROC 031500Z VRB03KT 9999 FEW020 BKN045 22/19 A3005 NOSIG=
202208031600 METAR MROC 031600Z 26003KT 230V330 CAVOK 23/19 A3005 NOSIG=
202208031700 METAR MROC 031700Z 28005KT 250V310 9999 VCFG NSC 24/20 A3004 NOSIG=
202208031800 METAR MROC 031800Z VRB02KT 9999 4000SW SHRA FEW020TCU BKN030 25/20 A3002 NOSIG=
202208031900 METAR MROC 031900Z 20004KT 150V240 4000 -RA BCFG FEW002 SCT020 OVC035 20/20 A3001 NOSIG=
202208032000 METAR MROC 032000Z 03003KT 350V150 5000 -RA BR FEW010 SCT030 BKN045 20/19 A3002 NOSIG=
202208032100 METAR MROC 032100Z 18004KT 150V220 5000 -RA BKN010 20/19 A3003 NOSIG=
202208032200 METAR MROC 032200Z 06004KT 020V080 9999 -RA FEW040 OVC100 20/19 A3002 NOSIG=
202208032300 METAR MROC 032300Z 10008KT 9999 -RA NSC 20/17 A3000 NOSIG=
202208040000 METAR MROC 040000Z 11011KT 9999 -RA NSC 20/17 A3003 NOSIG=
202208040100 METAR MROC 040100Z 11011KT 9999 -DZ NSC 20/17 A3004 NOSIG=
202208040200 METAR MROC 040200Z 11012KT CAVOK 21/17 A3005 NOSIG=
202208040300 METAR MROC 040300Z COR 10009KT 070V130 9999 -DZ NSC 21/17 A3005 NOSIG=
202208040400 METAR MROC 040400Z 11009KT CAVOK 21/16 A3005 NOSIG=
202208040500 METAR MROC 040500Z 11010KT 080V140 CAVOK 21/17 A3004 NOSIG=
202208040600 METAR MROC 040600Z 05009KT CAVOK 21/17 A3003 NOSIG=
202208040700 METAR MROC 040700Z 08007KT CAVOK 21/17 A3000 NOSIG=
202208040800 METAR MROC 040800Z VRB02KT CAVOK 20/17 A2999 NOSIG=
202208040900 METAR MROC 040900Z 24002KT 9999 FEW002 SCT130 19/17 A3001 NOSIG=
202208041000 METAR MROC 041000Z 05004KT 040V100 9999 BKN003 19/18 A3000 NOSIG=
202208041100 METAR MROC 041100Z 07004KT CAVOK 19/17 A3001 NOSIG=
202208041200 METAR MROC 041200Z 05006KT CAVOK 19/17 A3003 NOSIG=
202208041300 METAR MROC 041300Z 07005KT CAVOK 21/17 A3004 NOSIG=
202208041400 METAR MROC 041400Z VRB02KT CAVOK 23/18 A3005 BECMG 25006KT=
202208041500 METAR MROC 041500Z 25004KT 210V300 9999 FEW045 BKN130 23/19 A3007 NOSIG=
202208041600 METAR MROC 041600Z 24007KT 9999 FEW045 BKN130 23/19 A3007 NOSIG=
202208041700 METAR MROC 041700Z 25007KT 9999 FEW035 BKN130 24/20 A3006 NOSIG=
202208041800 METAR MROC 041800Z 24007KT 210V300 9999 FEW030 BKN120 24/20 A3004 NOSIG=
202208041900 METAR MROC 041900Z 25007KT 9999 FEW030 SCT100 26/20 A3000 NOSIG=
202208042000 METAR MROC 042000Z 25008KT 220V280 9999 VCTS FEW030CB BKN080 25/20 A2998 BECMG TSRA=
202208042100 METAR MROC 042100Z 09004KT 020V120 3000 TSRA FEW008CB BKN013 20/19 A2999 NOSIG=
202208042200 METAR MROC 042200Z VRB02KT 9999 -RA VCTS FEW040 BKN070 20/18 A2998 NOSIG=
202208042300 METAR MROC 042300Z 02003KT 9999 -RA FEW010 OVC100 21/19 A3000 NOSIG=
202208050000 METAR MROC 050000Z VRB02KT 9999 -DZ FEW003 BKN030 OVC100 20/20 A3003 TEMPO 5000 BR=
202208050100 METAR MROC 050100Z VRB02KT 9999 -DZ FEW050 BKN150 20/20 A3004 NOSIG=
202208050200 METAR MROC 050200Z 33003KT 9999 FEW015 BKN100 20/20 A3006 NOSIG=
202208050300 METAR MROC 050300Z VRB01KT 2000 SCT001 BKN100 20/19 A3008 NOSIG=
202208050400 METAR MROC 050400Z 05002KT 9999 FEW001 BKN100 20/20 A3009 NOSIG=
202208050500 METAR MROC 050500Z 03004KT 9999 SCT020 BKN120 20/20 A3008 NOSIG=
202208050600 METAR MROC 050600Z 07003KT 9999 FEW030 SCT120 20/19 A3004 NOSIG=
202208050700 METAR MROC 050700Z 09004KT CAVOK 19/18 A3001 NOSIG=
202208050800 METAR MROC 050800Z 01004KT CAVOK 19/18 A3000 NOSIG=
202208050900 METAR MROC 050900Z 06005KT 030V100 CAVOK 19/18 A2999 NOSIG=
202208051000 METAR MROC 051000Z 09004KT 060V120 CAVOK 19/17 A2999 NOSIG=
202208051100 METAR MROC 051100Z 04004KT CAVOK 19/17 A2999 NOSIG=
202208051200 METAR MROC 051200Z 07008KT CAVOK 21/18 A3001 NOSIG=
202208051300 METAR MROC 051300Z 06007KT 020V080 CAVOK 22/18 A3002 NOSIG=
202208051400 METAR MROC 051400Z 10007KT 070V130 9999 FEW040 24/18 A3002 NOSIG=
202208051500 METAR MROC 051500Z 12006KT 010V180 9999 FEW035 26/18 A3002 BECMG 24007KT=
202208051600 METAR MROC 051600Z 11009KT 060V160 9999 FEW040 SCT130 28/18 A3002 NOSIG=
202208051700 METAR MROC 051700Z 11011KT 070V140 9999 SCT040 27/18 A3001 NOSIG=
202208051800 METAR MROC 051800Z 12008KT 080V160 9999 FEW040 BKN070 27/19 A3000 NOSIG=
202208051900 METAR MROC 051900Z 10007KT 070V140 9999 FEW040 BKN070 27/19 A2998 NOSIG=
202208052000 METAR MROC 052000Z 22010KT 180V240 VCTS VCSH FEW010CB SCT030 BKN070 26/22 A2995 BECMG TSRA SCT010CB=
202208052100 METAR MROC 052100Z 23006KT 9999 1000N -TSRA SCT010CB BKN025 24/21 A2997 NOSIG=
202208052200 METAR MROC 052200Z 21003KT 180V300 9999 VCTS VCSH FEW010 FEW020CB SCT035 BKN100 21/20 A2997 RETSRA NOSIG=
202208052300 METAR MROC 052300Z 29006KT 200V360 9999 VCSH FEW015 SCT030 BKN060 21/20 A2998=
202208060000 METAR MROC 060000Z 05003KT 020V090 9000 -RA FEW010 SCT030 BKN060 22/20 A3000 NOSIG=
202208060100 METAR MROC 060100Z 07007KT 9999 SCT030 BKN080 21/20 A3003 NOSIG=
202208060200 METAR MROC 060200Z 08004KT 040V100 9999 -RA SCT030 BKN060 21/20 A3005 NOSIG=
202208060300 METAR MROC 060300Z 02003KT 9999 -RA BCFG SCT030 BKN080 21/20 A3006 NOSIG=
202208060400 METAR MROC 060400Z VRB01KT 9999 -RA BCFG FEW020 SCT050 OVC100 21/20 A3007 NOSIG=
202208060500 METAR MROC 060500Z 10003KT 9999 -DZ FEW045 SCT080 OVC130 20/20 A3006 NOSIG=
202208060600 METAR MROC 060600Z 08005KT 9999 -DZ FEW020 BKN120 21/19 A3004 NOSIG=
202208060700 METAR MROC 060700Z 05005KT 9999 -RA NSC 21/19 A3001 NOSIG=
202208060800 METAR MROC 060800Z 08003KT 050V110 CAVOK 21/19 A2997 NOSIG=
202208060900 METAR MROC 060900Z 10006KT CAVOK 21/18 A2995 NOSIG=
202208061000 METAR MROC 061000Z 09004KT 060V130 CAVOK 21/18 A2995 NOSIG=
202208061100 METAR MROC 061100Z 08003KT 340V130 CAVOK 20/18 A2997 NOSIG=
202208061200 METAR MROC 061200Z VRB02KT 9999 FEW035 OVC180 21/18 A2999 NOSIG=
202208061300 METAR MROC 061300Z 00000KT 9999 FEW040 SCT100 22/19 A3002 NOSIG=
202208061400 METAR MROC 061400Z VRB02KT 9999 FEW035 SCT100 BKN180 23/19 A3004 NOSIG=
202208061500 METAR MROC 061500Z 12009KT 090V150 9999 FEW035 SCT060 BKN140 25/19 A3004 NOSIG=
202208061600 METAR MROC 061600Z 11008KT 9999 VCSH FEW030 BKN050 25/19 A3004 NOSIG=
202208061700 METAR MROC 061700Z 11009KT 070V150 9999 SCT035 BKN100 26/19 A3003 NOSIG=
202208061800 METAR MROC 061800Z 10008KT 080V160 9999 BKN035 27/18 A3001 NOSIG=
202208061900 METAR MROC 061900Z 07008KT 040V110 9999 BKN045 27/17 A2999 NOSIG=
202208062000 METAR MROC 062000Z VRB04KT 9999 BKN035 25/19 A2997 NOSIG=
202208062100 METAR MROC 062100Z 21004KT 100V240 9999 FEW030 SCT050 BKN100 22/20 A2996 NOSIG=
202208062200 METAR MROC 062200Z 09008KT 9999 FEW030 SCT050 BKN120 23/17 A2997 NOSIG=
202208062300 METAR MROC 062300Z 07006KT 010V110 9999 FEW030 SCT050 BKN120 23/18 A2999 NOSIG=
202208070000 METAR MROC 070000Z 08006KT 9999 SCT040 BKN120 22/18 A3000 NOSIG=
202208070100 METAR MROC 070100Z 11005KT 9999 FEW035 SCT120 BKN200 22/18 A3004 NOSIG=
202208070200 METAR MROC 070200Z 09003KT 050V130 9999 FEW035 SCT120 BKN200 21/18 A3006 NOSIG=
202208070300 METAR MROC 070300Z VRB02KT 9999 FEW035 SCT120 BKN200 21/19 A3007 NOSIG=
202208070400 METAR MROC 070400Z 32003KT 280V020 CAVOK 20/19 A3007 NOSIG=
202208070500 METAR MROC 070500Z VRB02KT 9999 FEW015 SCT035 20/19 A3007 NOSIG=
202208070600 METAR MROC 070600Z VRB01KT 9999 VCFG FEW015 BKN020 20/19 A3005 NOSIG=
202208070700 METAR MROC 070700Z VRB02KT 9999 FEW015 BKN025 19/18 A3003 NOSIG=
202208070800 METAR MROC 070800Z 05004KT 9999 FEW040 SCT100 19/18 A3000 NOSIG=
202208070900 METAR MROC 070900Z 05006KT CAVOK 19/17 A2999 NOSIG=
202208071000 METAR MROC 071000Z 05006KT 9999 FEW015 SCT100 20/17 A2998 NOSIG=
202208071100 METAR MROC 071100Z 07006KT 9999 FEW015 BKN100 20/17 A3000 NOSIG=
202208071200 METAR MROC 071200Z 07006KT 040V100 9999 FEW040 BKN150 21/17 A3001 NOSIG=
202208071300 METAR MROC 071300Z 06008KT 9999 FEW045 BKN150 22/18 A3003 NOSIG=
202208071400 METAR MROC 071400Z 08006KT 9999 FEW035 BKN120 23/18 A3004 NOSIG=
202208071500 METAR MROC 071500Z 10008KT 050V130 9999 FEW035 BKN120 25/18 A3004 NOSIG=
202208071600 METAR MROC 071600Z 19005KT 110V270 9999 FEW040 BKN140 25/20 A3003 BECMG 25006KT=
202208071700 METAR MROC 071700Z 25011KT 9999 SCT030 BKN180 24/20 A3003 NOSIG=
202208071800 METAR MROC 071800Z 25007KT 210V290 9999 SCT030 25/20 A3001 NOSIG=
202208071900 METAR MROC 071900Z 25009KT 9999 BKN030 25/21 A2999 NOSIG=
202208072000 METAR MROC 072000Z 25010KT 220V280 9999 FEW015TCU BKN030 24/21 A2997 NOSIG=
202208072100 METAR MROC 072100Z 24010KT 220V280 9999 OVC010 23/21 A2996 TEMPO RA=
202208072200 METAR MROC 072200Z 26006KT 4500 RA VCTS SCT005 FEW015CB OVC040 21/20 A2997 NOSIG=
202208072300 METAR MROC 072300Z 27004KT 210V310 8000 -RA BKN007 21/20 A2998 RETS NOSIG=
202208080000 METAR MROC 080000Z 29004KT 9999 -RA BCFG BKN005 21/20 A3000 NOSIG=
202208080100 METAR MROC 080100Z COR VRB02KT 9999 -RA FEW005 BKN010 21/20 A3002 NOSIG=
202208080200 METAR MROC 080200Z 00000KT 9999 -RA OVC010 21/21 A3005 TEMPO 3000 BR=
202208080300 METAR MROC 080300Z 00000KT 9999 4500SW BCFG SCT003 OVC010 21/21 A3004 NOSIG=
202208080400 METAR MROC 080400Z 23005KT 0500 FG VV/// 21/21 A3006 NOSIG=
202208080500 METAR MROC 080500Z 25004KT 0500 -RA FG VV/// 20/20 A3005 NOSIG=
202208080600 METAR MROC 080600Z VRB02KT 0500 FG VV/// 20/20 A3003 BECMG 07003KT=
202208080700 METAR MROC 080700Z VRB02KT 1500 BR BKN002 SCT025 20/20 A3000 NOSIG=
202208080707 METAR MROC 080707Z 01003KT 9999 2000SW BCFG FEW025 BKN080 20/20 A3000 NOSIG=
202208080800 METAR MROC 080800Z 04003KT 9999 BCFG FEW025 BKN150 20/20 A2998 NOSIG=
202208080900 METAR MROC 080900Z VRB02KT 9999 2000SW BCFG FEW002 SCT150 20/20 A2999 NOSIG=
202208081000 METAR MROC 081000Z VRB02KT 9999 4500SW BCFG NSC 20/19 A2999 NOSIG=
202208081100 METAR MROC 081100Z VRB01KT 9999 4500SW BCFG NSC 20/19 A2998 NOSIG=
202208081200 METAR MROC 081200Z 26004KT 0500 R07/P2000N FG NSC 20/19 A3002 NOSIG=
202208081300 METAR MROC 081300Z 03003KT 9999 4000SW BCFG FEW002 BKN130 20/20 A3005 NOSIG=
202208081400 METAR MROC 081400Z VRB02KT 9999 VCFG FEW002 BKN130 21/20 A3006 NOSIG=
202208081500 METAR MROC 081500Z VRB02KT 9999 FEW005 BKN050 22/20 A3006 NOSIG=
202208081600 METAR MROC 081600Z COR 09003KT 030V190 CAVOK 25/19 A3005 TEMPO 24006KT=
202208081700 METAR MROC 081700Z 10003KT 070V140 CAVOK 26/19 A3004 TEMPO 24006KT=
202208081800 METAR MROC 081800Z COR VRB02KT 9999 SCT040 BKN090 26/19 A3002 NOSIG=
202208081900 METAR MROC 081900Z VRB03KT 9999 FEW040 BKN120 26/20 A2998 NOSIG=
202208082000 METAR MROC 082000Z VRB02KT 9999 SCT040 BKN120 27/20 A2996 NOSIG=
202208082100 METAR MROC 082100Z 18005KT 110V220 9999 SCT035 OVC200 27/20 A2995 NOSIG=
202208082200 METAR MROC 082200Z 27006KT 240V320 9999 SCT035 OVC150 24/22 A2995 TEMPO RA=
202208082300 METAR MROC 082300Z 25006KT 7000 FEW010 SCT030 BKN200 23/22 A2997 NOSIG=
202208090000 METAR MROC 090000Z COR 24004KT 220V290 8000 3000SW BCFG FEW003 SCT040 BKN200 22/21 A2999 NOSIG=
202208090100 METAR MROC 090100Z 26004KT 8000 4000SW BCFG FEW006 SCT060 22/21 A3000 NOSIG=
202208090200 METAR MROC 090200Z 32002KT 8000 3000SW BCFG BKN030 22/21 A3003 NOSIG=
202208090300 METAR MROC 090300Z 08006KT 8000 3000SW BCFG SCT035 22/18 A3003 NOSIG=
202208090400 METAR MROC 090400Z 12007KT 9999 FEW015 22/18 A3004 NOSIG=
202208090500 METAR MROC 090500Z 11007KT 060V140 9999 FEW020 22/18 A3004 NOSIG=
202208090600 METAR MROC 090600Z 01005KT 350V050 9999 4000SW BCFG FEW010 SCT200 21/19 A3003 NOSIG=
202208090700 METAR MROC 090700Z 10007KT 070V130 CAVOK 22/18 A3001 NOSIG=
202208090800 METAR MROC 090800Z 09005KT 030V130 9999 FEW015 22/18 A3000 NOSIG=
202208090900 METAR MROC 090900Z 11010KT 080V140 9999 FEW010 22/18 A3000 NOSIG=
202208091000 METAR MROC 091000Z 11009KT 080V140 9999 FEW040 22/18 A3000 NOSIG=
202208091100 METAR MROC 091100Z 12009KT 080V160 9999 FEW040 BKN150 22/18 A3000 NOSIG=
202208091200 METAR MROC 091200Z 00000KT 9999 FEW040 BKN200 21/18 A3001 NOSIG=
202208091300 METAR MROC 091300Z 10010KT CAVOK 24/18 A3001 NOSIG=
202208091400 METAR MROC 091400Z 10011KT 070V130 9999 FEW040 BKN200 25/18 A3004 NOSIG=
202208091500 METAR MROC 091500Z 08010KT 9999 FEW045 BKN200 27/17 A3006 NOSIG=
202208091600 METAR MROC 091600Z 11007KT 060V180 CAVOK 28/17 A3005 BECMG 25007KT=
202208091700 METAR MROC 091700Z 11009KT 070V130 CAVOK 29/19 A3004 NOSIG=
202208091800 METAR MROC 091800Z 12008KT 070V170 9999 FEW045 BKN200 29/18 A3002 NOSIG=
202208091900 METAR MROC 091900Z 19005KT 100V260 9999 FEW035 BKN200 29/20 A2999 NOSIG=
202208092000 METAR MROC 092000Z 24010KT 200V260 9999 SCT013 BKN045 26/23 A2998 NOSIG=
202208092100 METAR MROC 092100Z 23009KT 190V250 9999 4500SW VCTS FEW010CB BKN020 24/21 A2999 TEMPO RA=
202208092200 METAR MROC 092200Z 33008KT 280V360 1000 R07/P2000N TSRA SCT010CB OVC012 23/22 A3000 NOSIG=
202208092300 METAR MROC 092300Z 30003KT 240V030 9999 FEW008 SCT030 OVC100 21/20 A3002 RETSRA NOSIG=
202208100000 METAR MROC 100000Z VRB02KT 9999 FEW030 SCT060 21/20 A3003 NOSIG=
202208100100 METAR MROC 100100Z 33002KT 9999 SCT030 BKN120 22/21 A3006 NOSIG=
202208100200 METAR MROC 100200Z VRB02KT 9999 SCT035 BKN100 22/20 A3010 NOSIG=
202208100300 METAR MROC 100300Z VRB02KT 9999 SCT035 BKN100 21/20 A3012 NOSIG=
202208100400 METAR MROC 100400Z 04005KT 360V070 9999 FEW035 BKN120 22/19 A3010 NOSIG=
202208100500 METAR MROC 100500Z 09007KT CAVOK 21/18 A3007 NOSIG=
202208100600 METAR MROC 100600Z 11008KT CAVOK 22/18 A3004 NOSIG=
202208100700 METAR MROC 100700Z 12009KT CAVOK 22/18 A3002 NOSIG=
202208100800 METAR MROC 100800Z 12010KT CAVOK 22/18 A3002 NOSIG=
202208100900 METAR MROC 100900Z 02005KT 350V050 CAVOK 21/18 A3002 NOSIG=
202208101000 METAR MROC 101000Z VRB02KT CAVOK 21/18 A3003 NOSIG=
202208101100 METAR MROC 101100Z 07004KT 040V110 9999 FEW040 OVC100 20/18 A3005 NOSIG=
202208101200 METAR MROC 101200Z 05004KT 9999 FEW040 BKN100 21/18 A3006 NOSIG=
202208101300 METAR MROC 101300Z 08009KT 010V120 9999 FEW040 BKN200 23/19 A3007 NOSIG=
202208101400 METAR MROC 101400Z 11010G20KT 080V140 9999 FEW035 BKN200 25/19 A3008 NOSIG=
202208101500 METAR MROC 101500Z 10010G20KT CAVOK 27/19 A3008 NOSIG=
202208101600 METAR MROC 101600Z 08010G20KT 050V110 9999 FEW040 BKN200 27/18 A3008 NOSIG=
202208101700 METAR MROC 101700Z 09007G17KT CAVOK 28/18 A3009 NOSIG=
202208101800 METAR MROC 101800Z 07008KT 040V110 9999 FEW045 SCT060 BKN200 29/18 A3006 NOSIG=
202208101900 METAR MROC 101900Z 24011KT 9999 FEW025 BKN045 25/22 A3005 NOSIG=
202208102000 METAR MROC 102000Z 25008KT 9999 FEW025 SCT045 BKN200 26/23 A3004 NOSIG=
202208102100 METAR MROC 102100Z 24007KT CAVOK 25/22 A3002 NOSIG=
202208102200 METAR MROC 102200Z 25007KT 9999 FEW015 BKN040 25/22 A3002 NOSIG=
202208102300 METAR MROC 102300Z 25006KT 9999 FEW015 BKN035 23/22 A3003 NOSIG=
202208110000 METAR MROC 110000Z 26005KT 240V310 9999 FEW010 BKN030 23/21 A3005 NOSIG=
202208110100 METAR MROC 110100Z 25004KT 9999 4000SW OVC005 22/22 A3007 NOSIG=
202208110200 METAR MROC 110200Z 23004KT 190V270 8000 2000SW BCFG BKN003 22/22 A3008 NOSIG=
202208110300 METAR MROC 110300Z 22004KT 9999 4000SW FEW002 BKN008 22/21 A3012 NOSIG=
202208110400 METAR MROC 110400Z 00000KT 9999 FEW010 BKN120 22/21 A3011 NOSIG=
202208110500 METAR MROC 110500Z VRB02KT 9999 BKN010 21/21 A3011 NOSIG=
202208110600 METAR MROC 110600Z 22003KT 2000 BR SCT002 BKN008 21/21 A3010 NOSIG=
202208110700 METAR MROC 110700Z VRB02KT 1500 BR SCT001 BKN005 21/21 A3007 NOSIG=
202208110800 METAR MROC 110800Z 01002KT 9999 SCT002 BKN020 21/21 A3006 NOSIG=
202208110900 METAR MROC 110900Z VRB02KT 9999 SCT020 SCT100 21/20 A3005 NOSIG=
202208111000 METAR MROC 111000Z VRB02KT 5000 1000SW PRFG SCT002 BKN008 21/20 A3005 NOSIG=
202208111100 METAR MROC 111100Z 18003KT 6000 3000SW BCFG FEW001 BKN080 20/20 A3005 NOSIG=
202208111200 METAR MROC 111200Z 31003KT 5000 R07/P2000N BCFG NSC 21/20 A3007 NOSIG=
202208111300 METAR MROC 111300Z 12003KT 9999 BCFG FEW010 SCT100 BKN200 22/20 A3008 NOSIG=
202208111400 METAR MROC 111400Z 07008KT 050V110 CAVOK 24/19 A3006 NOSIG=
202208111500 METAR MROC 111500Z 23013KT CAVOK 24/21 A3009 NOSIG=
202208111600 METAR MROC 111600Z 25010KT 220V280 9999 SCT020 BKN200 24/21 A3011 NOSIG=
202208111700 METAR MROC 111700Z 25011KT 9999 FEW015 SCT020 BKN200 25/21 A3010 NOSIG=
202208111800 METAR MROC 111800Z 24009KT 210V280 9999 SCT015 BKN025 24/21 A3008 NOSIG=
202208111900 METAR MROC 111900Z 23006KT 190V260 9999 FEW025 SCT025 BKN200 24/21 A3007 NOSIG=
202208112000 METAR MROC 112000Z 23008KT 200V260 9999 VCSH FEW015 SCT025 BKN045 24/20 A3005 NOSIG=
202208112100 METAR MROC 112100Z 24008KT 9999 VCTS FEW010 FEW015CB BKN025 22/20 A3004 NOSIG=
202208112200 METAR MROC 112200Z 25007KT 6000 +RA VCTS SCT003 BKN007 FEW010CB 21/21 A3004 RETSRA NOSIG=
202208112300 METAR MROC 112300Z 23005KT 3000 RA BR SCT002 BKN005 20/20 A3007 NOSIG=
202208112307 METAR MROC 112307Z 25006KT 0500 R07/0650D RA FG SCT002 BKN003 20/20 A3007 NOSIG=
202208120000 METAR MROC 120000Z 24011KT 3000 TSRA BR BKN004 SCT010CB 20/19 A3011 NOSIG=
202208120100 METAR MROC 120100Z VRB02KT 8000 RA BCFG FEW005 BKN010 20/20 A3012 NOSIG=
202208120200 METAR MROC 120200Z VRB02KT 9999 RA FEW010 BKN025 20/19 A3013 NOSIG=
202208120300 METAR MROC 120300Z 03003KT 360V060 9999 -RA FEW010 BKN130 20/19 A3013 NOSIG=
202208120400 METAR MROC 120400Z 10003KT 9999 FEW010 BKN150 20/19 A3014 NOSIG=
202208120500 METAR MROC 120500Z 04005KT CAVOK 20/19 A3014 NOSIG=
202208120600 METAR MROC 120600Z 07006KT CAVOK 20/18 A3011 NOSIG=
202208120700 METAR MROC 120700Z 07007KT CAVOK 20/18 A3009 NOSIG=
202208120800 METAR MROC 120800Z 10004KT CAVOK 19/18 A3007 NOSIG=
202208120900 METAR MROC 120900Z 06004KT CAVOK 20/18 A3007 NOSIG=
202208121000 METAR MROC 121000Z 06004KT CAVOK 19/18 A3008 NOSIG=
202208121100 METAR MROC 121100Z 07003KT CAVOK 19/18 A3008 NOSIG=
202208121200 METAR MROC 121200Z 12004KT CAVOK 19/18 A3009 NOSIG=
202208121300 METAR MROC 121300Z 09003KT CAVOK 20/18 A3012 NOSIG=
202208121400 METAR MROC 121400Z 01005KT CAVOK 22/18 A3012 NOSIG=
202208121500 METAR MROC 121500Z 26004KT 190V320 CAVOK 23/19 A3013 NOSIG=
202208121600 METAR MROC 121600Z 29004KT 260V320 CAVOK 23/19 A3013 NOSIG=
202208121700 METAR MROC 121700Z 29003KT 220V340 CAVOK 24/20 A3012 NOSIG=
202208121800 METAR MROC 121800Z 25007KT 220V280 9999 SCT030 BKN120 25/20 A3011 NOSIG=
202208121900 METAR MROC 121900Z 25008KT 210V290 9999 SCT030 26/21 A3009 NOSIG=
202208121949 METAR MROC 121949Z 25006KT 9999 TS FEW015CB SCT030 BKN200 25/20 A3007 NOSIG=
202208122000 METAR MROC 122000Z 25008KT 230V300 9999 TS SCT015CB SCT020TCU 24/21 A3006 BECMG 5000 TSRA=
202208122100 METAR MROC 122100Z 24009KT 9999 4000E -RA VCTS VCSH FEW005 FEW010CB BKN015 23/21 A3006 RETS TEMPO BKN008=
202208122200 METAR MROC 122200Z 23004KT 180V260 3000 +TSRA BKN005CB 22/21 A3008 NOSIG=
202208122300 METAR MROC 122300Z 09004KT 060V130 2000 TSRA FEW005 BKN010 SCT015CB 19/19 A3009 NOSIG=
202208130000 METAR MROC 130000Z 07004KT 8000 3000S RA BCFG FEW005 SCT020 BKN080 20/19 A3008 NOSIG=
202208130100 METAR MROC 130100Z 35003KT 280V060 9999 4000SW -RA BCFG FEW005 BKN060 20/19 A3010 NOSIG=
202208130200 METAR MROC 130200Z COR 18003KT 7000 3000SW BCFG FEW005 SCT015 BKN120 20/19 A3012 RERA NOSIG=
202208130300 METAR MROC 130300Z 08002KT 9999 3000SW BCFG FEW005 BKN140 20/19 A3013 NOSIG=
202208130400 METAR MROC 130400Z 00000KT CAVOK 20/19 A3015 NOSIG=
202208130500 METAR MROC 130500Z VRB02KT CAVOK 20/19 A3015 NOSIG=
202208130600 METAR MROC 130600Z 06003KT CAVOK 19/18 A3014 NOSIG=
202208130700 METAR MROC 130700Z 09005KT 9999 FEW025 BKN150 19/18 A3012 NOSIG=
202208130800 METAR MROC 130800Z 07004KT CAVOK 19/18 A3010 NOSIG=
202208130900 METAR MROC 130900Z 36004KT CAVOK 19/18 A3009 NOSIG=
202208131000 METAR MROC 131000Z 09003KT 9999 FEW010 SCT120 19/18 A3010 NOSIG=
202208131100 METAR MROC 131100Z VRB02KT CAVOK 19/18 A3009 NOSIG=
202208131200 METAR MROC 131200Z 05003KT CAVOK 18/17 A3011 NOSIG=
202208131300 METAR MROC 131300Z 07004KT CAVOK 21/18 A3012 NOSIG=
202208131400 METAR MROC 131400Z 12005KT 080V160 CAVOK 24/19 A3013 NOSIG=
202208131500 METAR MROC 131500Z VRB02KT CAVOK 25/20 A3013 BECMG 24006KT=
202208131600 METAR MROC 131600Z 22005KT 160V260 CAVOK 26/20 A3013 NOSIG=
202208131700 METAR MROC 131700Z 22006KT 210V270 9999 FEW030 SCT200 26/20 A3012 NOSIG=
202208131800 METAR MROC 131800Z 23008KT 9999 FEW030 27/19 A3010 NOSIG=
202208131900 METAR MROC 131900Z 22010KT 190V260 9999 TSRA BKN020CB 24/21 A3008 NOSIG=
202208132000 METAR MROC 132000Z 25005KT 220V280 9999 TSRA SCT012CB OVC025 22/20 A3010 NOSIG=
202208132100 METAR MROC 132100Z VRB02KT 9999 -TSRA SCT006CB OVC030 21/19 A3009 NOSIG=
202208132200 METAR MROC 132200Z 04003KT 330V060 9999 -RA FEW004 SCT025 OVC100 21/20 A3005 NOSIG=
202208132300 METAR MROC 132300Z 25003KT 220V290 9999 -RA SCT015 BKN180 21/21 A3005 NOSIG=
202208140000 METAR MROC 140000Z VRB02KT 5000 BR FEW010 BKN130 21/20 A3007 NOSIG=
202208140100 METAR MROC 140100Z VRB02KT 9999 BCFG FEW035 BKN150 21/20 A3009 NOSIG=
202208140200 METAR MROC 140200Z VRB03G16KT 9999 BCFG FEW015 BKN040 21/19 A3010 NOSIG=
202208140300 METAR MROC 140300Z 16003KT 9999 BCFG FEW005 BKN040 20/20 A3012 NOSIG=
202208140400 METAR MROC 140400Z VRB02KT 9999 3000SW BCFG FEW005 BKN040 21/20 A3014 NOSIG=
202208140500 METAR MROC 140500Z 09002KT 9999 3000SW BCFG FEW010 BKN060 20/20 A3014 NOSIG=
202208140600 METAR MROC 140600Z 12003KT 090V150 9999 3000SW BCFG FEW005 SCT030 19/19 A3012 NOSIG=
202208140700 METAR MROC 140700Z VRB02KT 9999 3000SW BCFG FEW005 BKN020 19/19 A3013 NOSIG=
202208140800 METAR MROC 140800Z 00000KT 9999 3000SW BCFG FEW005 BKN025 20/19 A3009 NOSIG=
202208140900 METAR MROC 140900Z 10005KT 9999 4000SW BCFG FEW005 BKN025 19/19 A3007 NOSIG=
202208141000 METAR MROC 141000Z 04004KT 350V060 CAVOK 19/18 A3007 NOSIG=
202208141100 METAR MROC 141100Z 05004KT 360V090 CAVOK 19/18 A3006 NOSIG=
202208141200 METAR MROC 141200Z 08004KT 9999 BCFG FEW010 BKN200 19/18 A3008 NOSIG=
202208141300 METAR MROC 141300Z 02004KT 330V060 9999 VCFG FEW002 BKN200 22/18 A3009 NOSIG=
202208141400 METAR MROC 141400Z COR 08004KT 050V110 9999 FEW045 SCT200 24/18 A3010 NOSIG=
202208141500 METAR MROC 141500Z VRB02KT 9999 FEW045 SCT200 26/18 A3009 NOSIG=
202208141600 METAR MROC 141600Z VRB04KT CAVOK 28/18 A3009 NOSIG=
202208141700 METAR MROC 141700Z 20006KT 140V270 CAVOK 28/21 A3009 NOSIG=
202208141800 METAR MROC 141800Z 24009KT 9999 BKN035 27/21 A3006 NOSIG=
202208141900 METAR MROC 141900Z 25014KT 210V270 9999 TSRA FEW020CB BKN035 26/22 A3004 NOSIG=
202208142000 METAR MROC 142000Z VRB03KT 9999 4500SW -TSRA FEW010CB BKN060 21/20 A3005 NOSIG=
202208142038 METAR MROC 142038Z VRB02KT 9999 -DZ VCTS BKN005 OVC050 21/20 A3005 RETSRA NOSIG=
202208142100 METAR MROC 142100Z 28005KT 250V340 9999 BCFG BKN007 21/20 A3005 NOSIG=
202208142200 METAR MROC 142200Z 24003KT 190V270 8000 BCFG OVC005 21/21 A3003 NOSIG=
202208142300 METAR MROC 142300Z 32003KT 210V360 7000 BCFG FEW006TCU SCT015 OVC100 21/20 A3004 NOSIG=
202208150000 METAR MROC 150000Z VRB01KT 9999 FEW007 SCT040 OVC100 22/20 A3006 NOSIG=
202208150100 METAR MROC 150100Z 09003KT 9999 BCFG NSC 21/20 A3009 NOSIG=
202208150200 METAR MROC 150200Z 36003KT 9999 BCFG NSC 21/20 A3009 NOSIG=
202208150300 METAR MROC 150300Z 22003KT 6000 2000SW BCFG FEW003 BKN040 21/20 A3012 TEMPO 3000 BR=
202208150400 METAR MROC 150400Z VRB01KT 9999 3000SW BCFG FEW003 SCT040 BKN240 21/20 A3012 NOSIG=
202208150500 METAR MROC 150500Z 00000KT 3000 BR SCT003 BKN010 20/20 A3012 NOSIG=
202208150600 METAR MROC 150600Z 06002KT 8000 3000SW BCFG SCT004 BKN030 20/20 A3011 NOSIG=
202208150700 METAR MROC 150700Z VRB02KT 9999 3000SW BCFG FEW003 BKN050 20/19 A3008 NOSIG=
202208150800 METAR MROC 150800Z 10004KT CAVOK 19/18 A3004 NOSIG=
202208150900 METAR MROC 150900Z 07006KT CAVOK 19/18 A3004 NOSIG=
202208151000 METAR MROC 151000Z 03005KT CAVOK 19/17 A3003 NOSIG=
202208151100 METAR MROC 151100Z 11003KT 050V160 CAVOK 18/17 A3004 NOSIG=
202208151200 METAR MROC 151200Z 06003KT 020V080 CAVOK 18/16 A3005 NOSIG=
202208151300 METAR MROC 151300Z VRB02KT 9999 FEW040 SCT110 22/17 A3008 NOSIG=
202208151400 METAR MROC 151400Z 05004KT 020V130 CAVOK 23/18 A3007 NOSIG=
202208151500 METAR MROC 151500Z 01004KT 330V040 CAVOK 25/18 A3008 NOSIG=
202208151600 METAR MROC 151600Z VRB02KT 9999 FEW040 BKN120 27/18 A3008 BECMG 24007KT=
202208151700 METAR MROC 151700Z 13008KT 090V150 CAVOK 28/18 A3005 NOSIG=
202208151800 METAR MROC 151800Z VRB03KT CAVOK 29/18 A3002 NOSIG=
202208151900 METAR MROC 151900Z 25009KT 9999 VCTS VCSH FEW035CB BKN100 26/22 A3000 BECMG TSRA FEW010CB=
202208152000 METAR MROC 152000Z 22008KT 9999 -TSRA FEW040CB SCT060 BKN200 24/20 A3000 BECMG 5000=
202208152100 METAR MROC 152100Z 29007KT 260V330 9999 SCT010 BKN060 23/19 A3001 RETSRA NOSIG=
202208152200 METAR MROC 152200Z 25005KT 210V270 9999 BKN015 21/20 A3002 NOSIG=
202208152300 METAR MROC 152300Z 24003KT 9999 FEW008 BKN015 21/19 A3003 NOSIG=
202208160000 METAR MROC 160000Z VRB02KT 9999 -RA FEW010 SCT025 BKN100 21/19 A3004 NOSIG=
202208160100 METAR MROC 160100Z 22004KT 9999 FEW010 SCT020 BKN060 21/20 A3007 NOSIG=
202208160200 METAR MROC 160200Z 30003KT 9999 -DZ FEW010 BKN020 21/19 A3009 NOSIG=
202208160300 METAR MROC 160300Z 25003KT 9999 -DZ FEW010 SCT030 BKN100 21/20 A3012 NOSIG=
202208160400 METAR MROC 160400Z 26004KT 240V300 9999 -DZ BCFG BKN007 20/19 A3014 NOSIG=
202208160500 METAR MROC 160500Z 31003KT 260V330 9999 -DZ BCFG FEW005 BKN010 20/19 A3013 NOSIG=
202208160600 METAR MROC 160600Z VRB02KT 9999 BCFG FEW006 BKN010 20/19 A3010 NOSIG=
202208160700 METAR MROC 160700Z VRB02KT 9999 BCFG FEW004 SCT035 BKN130 19/19 A3008 NOSIG=
202208160800 METAR MROC 160800Z VRB02KT 9999 SCT035 BKN120 19/19 A3006 NOSIG=
202208160900 METAR MROC 160900Z 08004KT 9999 FEW035 BKN120 19/19 A3004 NOSIG=
202208161000 METAR MROC 161000Z 06005KT CAVOK 20/19 A3001 NOSIG=
202208161100 METAR MROC 161100Z 06005KT CAVOK 20/18 A3001 NOSIG=
202208161200 METAR MROC 161200Z 09004KT CAVOK 20/18 A3002 NOSIG=
202208161300 METAR MROC 161300Z 13003KT 060V180 CAVOK 22/19 A3005 NOSIG=
202208161400 METAR MROC 161400Z 20003KT 150V260 CAVOK 24/19 A3006 NOSIG=
202208161500 METAR MROC 161500Z 22006KT 190V250 9999 FEW040 BKN120 24/18 A3008 NOSIG=
202208161600 METAR MROC 161600Z 25008KT 9999 FEW040 BKN120 25/20 A3008 NOSIG=
202208161700 METAR MROC 161700Z 26008KT 220V290 9999 SCT035 BKN100 25/19 A3008 NOSIG=
202208161800 METAR MROC 161800Z 24009KT 210V270 9999 SCT030 BKN100 26/21 A3006 NOSIG=
202208161900 METAR MROC 161900Z 24010KT 210V270 9999 SCT030 BKN100 26/20 A3004 NOSIG=
202208162000 METAR MROC 162000Z 25009KT 9999 FEW015TCU BKN030 24/20 A3002 NOSIG=
202208162100 METAR MROC 162100Z 25008KT 9999 FEW015 SCT030 BKN045 24/21 A3001 NOSIG=
202208162200 METAR MROC 162200Z 25008KT 9999 BKN015 24/21 A3001 NOSIG=
202208162300 METAR MROC 162300Z 24007KT 9999 SCT010 SCT035 23/21 A3002 NOSIG=
202208170000 METAR MROC 170000Z 25008KT 8000 3000SW VCFG SCT005 BKN010 21/21 A3003 BECMG 5000 BR=
202208170100 METAR MROC 170100Z 25007KT 3000 1200SW BR OVC003 21/21 A3004 NOSIG=
202208170200 METAR MROC 170200Z 26006KT 240V320 9999 3000SW BCFG BKN005 SCT035 21/20 A3006 NOSIG=
202208170300 METAR MROC 170300Z 25003KT 230V290 9999 BCFG FEW005 BKN015 21/20 A3007 NOSIG=
202208170400 METAR MROC 170400Z 00000KT 9999 BCFG FEW005 BKN015 20/20 A3009 NOSIG=
202208170500 METAR MROC 170500Z 33002KT 9999 BCFG FEW005 BKN020 21/20 A3008 NOSIG=
202208170600 METAR MROC 170600Z 12002KT 9999 BCFG FEW010 BKN060 20/20 A3006 NOSIG=
202208170700 METAR MROC 170700Z 04004KT 9999 FEW020 BKN070 20/18 A3004 NOSIG=
202208170800 METAR MROC 170800Z VRB02KT 9999 FEW005 SCT100 20/18 A3003 NOSIG=
202208170900 METAR MROC 170900Z 21002KT 9999 2500SW BR SCT001 SCT010 19/19 A3005 TEMPO 1200 BR BKN005=
202208171000 METAR MROC 171000Z 05003KT 9999 3000SW BCFG SCT002 19/18 A3006 TEMPO VRB02KT BKN003=
202208171100 METAR MROC 171100Z 07004KT 9999 4500SW BCFG FEW001 18/18 A3006 NOSIG=
202208171200 METAR MROC 171200Z 08004KT CAVOK 18/17 A3008 NOSIG=
202208171300 METAR MROC 171300Z 08003KT 040V120 CAVOK 21/18 A3010 NOSIG=
202208171400 METAR MROC 171400Z VRB01KT 9999 FEW040 23/19 A3011 BECMG 25006KT=
202208171500 METAR MROC 171500Z VRB02KT 9999 FEW040 25/18 A3010 NOSIG=
202208171600 METAR MROC 171600Z 25007KT 210V290 9999 FEW040 25/20 A3010 NOSIG=
202208171700 METAR MROC 171700Z 25008KT 210V280 9999 SCT035 26/21 A3010 NOSIG=
202208171800 METAR MROC 171800Z 23008KT 200V260 9999 BKN030 26/21 A3008 NOSIG=
202208171900 METAR MROC 171900Z 24008KT 210V270 9999 FEW030TCU SCT030 26/21 A3005 NOSIG=
202208172000 METAR MROC 172000Z 25010KT 9999 BKN030 26/21 A3004 NOSIG=
202208172100 METAR MROC 172100Z 23008KT 9999 BKN030 26/22 A3003 TEMPO RA=
202208172200 METAR MROC 172200Z 25007KT 9999 -RA BKN025 24/22 A3002 NOSIG=
202208172300 METAR MROC 172300Z 23006KT 9999 FEW020TCU SCT025 23/21 A3004 NOSIG=
202208180000 METAR MROC 180000Z 26004KT 9999 FEW010 BKN030 23/21 A3004 NOSIG=
202208180100 METAR MROC 180100Z 17003KT 130V190 9999 FEW010 BKN140 22/21 A3005 NOSIG=
202208180200 METAR MROC 180200Z 17003KT 150V210 9999 4500SW BCFG BKN007 22/21 A3006 NOSIG=
202208180300 METAR MROC 180300Z VRB02KT 150V210 CAVOK 22/21 A3006 NOSIG=
202208180400 METAR MROC 180400Z 34003KT 300V070 CAVOK 21/20 A3006 NOSIG=
202208180500 METAR MROC 180500Z 02005KT 350V050 CAVOK 22/18 A3005 NOSIG=
202208180600 METAR MROC 180600Z 03009KT 350V060 CAVOK 23/18 A3005 NOSIG=
202208180700 METAR MROC 180700Z 03012KT 010V090 CAVOK 22/18 A3004 NOSIG=
202208180800 METAR MROC 180800Z 10012KT 070V130 9999 FEW035 22/18 A3001 NOSIG=
202208180900 METAR MROC 180900Z 10009KT 9999 FEW035 22/18 A3001 NOSIG=
202208181000 METAR MROC 181000Z 11010KT 9999 FEW035 22/18 A3002 NOSIG=
202208181100 METAR MROC 181100Z 10011KT 9999 FEW035 22/17 A3003 NOSIG=
202208181200 METAR MROC 181200Z 11013KT 9999 FEW040 22/17 A3004 NOSIG=
202208181300 METAR MROC 181300Z 10010KT 9999 FEW040 23/18 A3006 NOSIG=
202208181400 METAR MROC 181400Z 08012KT 9999 FEW040 25/17 A3007 NOSIG=
202208181500 METAR MROC 181500Z 10012KT CAVOK 27/16 A3005 NOSIG=
202208181600 METAR MROC 181600Z 10012KT CAVOK 28/16 A3005 NOSIG=
202208181700 METAR MROC 181700Z 09012KT 060V120 9999 FEW045 29/16 A3005 NOSIG=
202208181800 METAR MROC 181800Z 07019KT 9999 FEW045 SCT200 29/14 A3001 NOSIG=
202208181900 METAR MROC 181900Z 07017G27KT 9999 FEW045 SCT220 29/15 A2999 NOSIG=
202208182000 METAR MROC 182000Z 06016G26KT 030V100 9999 FEW045 BKN220 29/16 A2997 NOSIG=
202208182100 METAR MROC 182100Z 06018KT 030V090 9999 FEW045 BKN200 29/16 A2996 NOSIG=
202208182200 METAR MROC 182200Z 07012KT 040V100 9999 FEW045 BKN220 29/16 A2995 NOSIG=
202208182300 METAR MROC 182300Z 07010KT 030V100 9999 FEW040 BKN220 27/16 A2996 NOSIG=
202208190000 METAR MROC 190000Z 12006KT 080V170 9999 FEW010 25/18 A3000 NOSIG=
202208190100 METAR MROC 190100Z 12004KT 9999 FEW030 25/17 A3001 NOSIG=
202208190200 METAR MROC 190200Z 13005KT 110V170 CAVOK 23/18 A3002 NOSIG=
202208190300 METAR MROC 190300Z 11005KT CAVOK 23/18 A3005 NOSIG=
202208190400 METAR MROC 190400Z 08009KT 9999 BCFG NSC 23/17 A3006 NOSIG=
202208190500 METAR MROC 190500Z 11007KT 080V150 CAVOK 22/17 A3005 NOSIG=
202208190600 METAR MROC 190600Z 12006KT 090V150 9999 FEW040 23/18 A3003 NOSIG=
202208190700 METAR MROC 190700Z 09011KT CAVOK 23/17 A3000 NOSIG=
202208190800 METAR MROC 190800Z 10011KT CAVOK 22/18 A2998 NOSIG=
202208190900 METAR MROC 190900Z 09014KT 9999 FEW040 23/17 A2996 NOSIG=
202208191000 METAR MROC 191000Z 10013KT 070V130 9999 FEW040 22/17 A2996 NOSIG=
202208191100 METAR MROC 191100Z 09013KT 9999 FEW040 23/17 A2998 NOSIG=
202208191200 METAR MROC 191200Z 11012KT 080V140 9999 FEW035 22/17 A3001 NOSIG=
202208191300 METAR MROC 191300Z 11014KT 9999 FEW035 SCT110 24/16 A3003 NOSIG=
202208191400 METAR MROC 191400Z 10012KT 9999 FEW040 BKN100 25/16 A3006 NOSIG=
202208191500 METAR MROC 191500Z 08010KT 060V120 CAVOK 26/16 A3007 NOSIG=
202208191600 METAR MROC 191600Z 09013KT 050V150 CAVOK 27/15 A3005 NOSIG=
202208191700 METAR MROC 191700Z 08015KT 050V110 CAVOK 28/15 A3000 NOSIG=
202208191800 METAR MROC 191800Z 09010KT 060V120 CAVOK 29/16 A3000 NOSIG=
202208191900 METAR MROC 191900Z VRB07KT 9999 FEW035 29/16 A2997 TEMPO 23006KT=
202208192000 METAR MROC 192000Z 25012KT 210V280 9999 FEW025 SCT050 26/22 A2996 NOSIG=
202208192100 METAR MROC 192100Z 24011KT 9999 FEW025 BKN040 25/21 A2996 NOSIG=
202208192200 METAR MROC 192200Z COR 25010KT 220V280 9999 VCSH FEW015TCU BKN035 25/21 A2997 NOSIG=
202208192300 METAR MROC 192300Z 26007KT 9999 -RA FEW010 SCT020 BKN030 25/21 A3000 NOSIG=
202208200000 METAR MROC 200000Z COR 27005KT 250V310 9000 4000SW SCT005 BKN020 22/21 A3003 NOSIG=
202208200100 METAR MROC 200100Z 24003KT 210V270 9999 FEW005 BKN020 22/21 A3003 NOSIG=
202208200200 METAR MROC 200200Z VRB02KT 9999 4000SW BCFG FEW003 BKN015 21/21 A3005 NOSIG=
202208200300 METAR MROC 200300Z 00000KT 9999 4500SW BCFG FEW005 SCT030 BKN060 21/21 A3005 NOSIG=
202208200400 METAR MROC 200400Z VRB01KT 9999 4500SW BCFG FEW005 SCT200 21/19 A3005 NOSIG=
202208200500 METAR MROC 200500Z VRB02KT 9999 FEW035 SCT200 21/18 A3006 NOSIG=
202208200600 METAR MROC 200600Z 04004KT 300V080 9999 FEW035 SCT200 20/19 A3006 NOSIG=
202208200700 METAR MROC 200700Z 06003KT 350V110 9999 FEW040 SCT200 20/18 A3003 NOSIG=
202208200800 METAR MROC 200800Z 04003KT 360V120 CAVOK 20/17 A3002 NOSIG=
202208200900 METAR MROC 200900Z VRB04KT CAVOK 19/17 A3003 NOSIG=
202208201000 METAR MROC 201000Z 03005KT CAVOK 20/17 A3004 NOSIG=
202208201100 METAR MROC 201100Z 10007KT 030V140 CAVOK 21/17 A3005 NOSIG=
202208201200 METAR MROC 201200Z 06008KT CAVOK 22/17 A3006 NOSIG=
202208201300 METAR MROC 201300Z 02007KT 9999 FEW040 SCT100 BKN180 22/17 A3007 NOSIG=
202208201400 METAR MROC 201400Z 10012G22KT 070V140 9999 FEW045 OVC200 25/17 A3006 NOSIG=
202208201500 METAR MROC 201500Z 10014G24KT CAVOK 26/17 A3008 NOSIG=
202208201600 METAR MROC 201600Z 08007G17KT 060V120 CAVOK 28/17 A3009 NOSIG=
202208201700 METAR MROC 201700Z 10012KT 050V170 9999 FEW045 SCT060 BKN200 29/16 A3008 NOSIG=
202208201800 METAR MROC 201800Z 24016KT 200V260 9999 SCT045 BKN200 26/21 A3008 NOSIG=
202208201900 METAR MROC 201900Z 25011KT 220V280 9999 FEW025 SCT045 BKN200 26/22 A3006 NOSIG=
202208202000 METAR MROC 202000Z 24009KT 9999 FEW025 SCT035 BKN200 25/22 A3004 NOSIG=
202208202100 METAR MROC 202100Z 25009KT 9999 SCT010 BKN030 24/21 A3003 TEMPO BKN005=
202208202200 METAR MROC 202200Z 25007KT 9999 SCT009 BKN030 23/21 A3003 NOSIG=
202208202300 METAR MROC 202300Z 26006KT 9999 FEW008 SCT035 23/21 A3004 NOSIG=
202208210000 METAR MROC 210000Z 25004KT 9000 4000SW BCFG FEW006 SCT015 BKN030 22/21 A3006 NOSIG=
202208210100 METAR MROC 210100Z 26005KT 9999 FEW006 SCT020 22/21 A3007 NOSIG=
202208210200 METAR MROC 210200Z 28006KT 250V320 9999 FEW008 SCT030 22/20 A3010 NOSIG=
202208210300 METAR MROC 210300Z 28003KT 250V330 9999 FEW008 SCT035 22/21 A3011 NOSIG=
202208210400 METAR MROC 210400Z 25002KT 9999 FEW010 SCT035 21/20 A3011 NOSIG=
202208210500 METAR MROC 210500Z VRB02KT 9999 SCT010 SCT035 21/20 A3010 NOSIG=
202208210600 METAR MROC 210600Z VRB01KT 9999 FEW020 20/19 A3008 NOSIG=
202208210700 METAR MROC 210700Z 07003KT CAVOK 20/18 A3006 NOSIG=
202208210800 METAR MROC 210800Z 04005KT 010V070 CAVOK 20/17 A3004 NOSIG=
202208210900 METAR MROC 210900Z 08005KT 050V110 CAVOK 20/16 A3001 NOSIG=
202208211000 METAR MROC 211000Z 05008KT 010V120 CAVOK 22/15 A3002 NOSIG=
202208211100 METAR MROC 211100Z 01007KT CAVOK 19/16 A3002 NOSIG=
202208211200 METAR MROC 211200Z 01006KT 330V080 CAVOK 21/16 A3004 NOSIG=
202208211300 METAR MROC 211300Z 01005KT 290V040 CAVOK 22/17 A3005 NOSIG=
202208211400 METAR MROC 211400Z 29003KT CAVOK 25/17 A3006 NOSIG=
202208211500 METAR MROC 211500Z 11010G20KT 9999 FEW045 BKN250 27/18 A3006 NOSIG=
202208211600 METAR MROC 211600Z 08012G22KT 050V110 9999 FEW045 BKN250 28/16 A3007 NOSIG=
202208211700 METAR MROC 211700Z 06009G19KT 040V100 CAVOK 29/16 A3006 NOSIG=
202208211800 METAR MROC 211800Z 09009G19KT 050V140 CAVOK 30/16 A3003 NOSIG=
202208211900 METAR MROC 211900Z 08013G23KT 9999 -DZ FEW035 SCT060 BKN100 26/18 A3004 NOSIG=
202208212000 METAR MROC 212000Z 11008KT 060V170 9999 FEW035 SCT100 BKN250 27/19 A3000 NOSIG=
202208212100 METAR MROC 212100Z 25011KT 9999 BKN040 25/20 A3001 NOSIG=
202208212200 METAR MROC 212200Z 28006KT 240V300 9999 FEW025 BKN040 24/20 A3003 NOSIG=
202208212300 METAR MROC 212300Z 26004KT 220V330 9999 FEW015 BKN035 23/20 A3003 NOSIG=
202208220000 METAR MROC 220000Z 27003KT 240V310 9999 BKN040 22/20 A3005 NOSIG=
202208220100 METAR MROC 220100Z 29003KT 250V350 9999 FEW010 BKN020 22/20 A3008 NOSIG=
202208220200 METAR MROC 220200Z 28005KT 210V320 9999 FEW010 BKN030 22/20 A3009 NOSIG=
202208220300 METAR MROC 220300Z 27003KT 230V310 9999 FEW010 SCT020 21/20 A3010 NOSIG=
202208220400 METAR MROC 220400Z VRB02KT 9999 FEW010 SCT020 20/19 A3010 NOSIG=
202208220500 METAR MROC 220500Z 34003KT 300V360 9999 FEW010 SCT025 21/19 A3009 NOSIG=
202208220600 METAR MROC 220600Z COR 09003KT CAVOK 20/19 A3008 NOSIG=
202208220700 METAR MROC 220700Z 01003KT CAVOK 20/17 A3007 NOSIG=
202208220800 METAR MROC 220800Z VRB02KT 9999 FEW020 BKN060 20/18 A3006 NOSIG=
202208220900 METAR MROC 220900Z 10003KT 9999 FEW015 19/18 A3003 NOSIG=
202208221000 METAR MROC 221000Z 05004KT 9999 FEW015 19/16 A3004 NOSIG=
202208221100 METAR MROC 221100Z 07005KT 9999 FEW015 18/16 A3004 NOSIG=
202208221200 METAR MROC 221200Z 07004KT CAVOK 19/16 A3005 NOSIG=
202208221300 METAR MROC 221300Z 06007KT CAVOK 21/16 A3006 NOSIG=
202208221400 METAR MROC 221400Z 08007KT 060V120 CAVOK 23/18 A3006 NOSIG=
202208221500 METAR MROC 221500Z 10007KT 060V160 CAVOK 25/17 A3006 BECMG 24007KT=
202208221600 METAR MROC 221600Z 12005KT 080V190 9999 FEW045 BKN180 26/17 A3006 NOSIG=
202208221700 METAR MROC 221700Z VRB06KT 9999 FEW040 BKN200 27/19 A3004 NOSIG=
202208221800 METAR MROC 221800Z COR 26009KT 9999 FEW035 BKN200 26/20 A3002 NOSIG=
202208221900 METAR MROC 221900Z 24010KT 210V270 9999 FEW020TCU SCT030 26/21 A3000 NOSIG=
202208222000 METAR MROC 222000Z COR 25010KT 9999 FEW020TCU BKN030 26/22 A2998 NOSIG=
202208222100 METAR MROC 222100Z 25009KT 9999 VCTS VCSH FEW010 FEW015CB BKN030 24/21 A2998 NOSIG=
202208222200 METAR MROC 222200Z 22006KT 9999 VCTS VCSH SCT008 FEW010CB BKN030 23/21 A2999 NOSIG=
202208222300 METAR MROC 222300Z VRB03KT 7000 RA VCTS FEW008 FEW010CB BKN020 21/19 A3001 RETS NOSIG=
202208222306 SPECI MROC 222306Z 07005KT 010V130 2000 +TSRA FEW008CB BKN010 21/20 A3001 NOSIG=
202208230000 METAR MROC 230000Z 27004KT 230V320 9999 3000SW TSRA BCFG FEW008 FEW015CB BKN020 20/19 A3004 NOSIG=
202208230100 METAR MROC 230100Z VRB01KT 9999 RA FEW005 BKN030 20/19 A3006 RETSRA NOSIG=
202208230200 METAR MROC 230200Z VRB02KT 9999 FEW005 BKN020 20/19 A3009 RERA NOSIG=
202208230300 METAR MROC 230300Z VRB02KT 9999 FEW010 BKN030 20/18 A3010 NOSIG=
202208230400 METAR MROC 230400Z 26003KT 220V310 9999 FEW030 19/18 A3009 NOSIG=
202208230500 METAR MROC 230500Z 00000KT 9999 FEW030 19/19 A3010 NOSIG=
202208230600 METAR MROC 230600Z 01003KT 350V050 9999 FEW015 20/19 A3008 NOSIG=
202208230700 METAR MROC 230700Z 07003KT 040V100 9999 FEW015 BKN100 19/19 A3004 NOSIG=
202208230800 METAR MROC 230800Z 10004KT CAVOK 19/19 A3001 NOSIG=
202208230900 METAR MROC 230900Z 09004KT CAVOK 19/18 A2999 NOSIG=
202208231000 METAR MROC 231000Z 09003KT 060V120 CAVOK 19/18 A2998 NOSIG=
202208231100 METAR MROC 231100Z 08005KT CAVOK 20/18 A2998 NOSIG=
202208231200 METAR MROC 231200Z 06005KT CAVOK 20/18 A3000 NOSIG=
202208231300 METAR MROC 231300Z 03005KT 350V060 CAVOK 21/18 A3001 NOSIG=
202208231400 METAR MROC 231400Z 25007KT CAVOK 21/19 A3003 NOSIG=
202208231500 METAR MROC 231500Z 25005KT 230V310 9999 FEW020 BKN130 21/19 A3005 NOSIG=
202208231600 METAR MROC 231600Z 25005KT 200V280 9999 SCT040 23/19 A3004 NOSIG=
202208231700 METAR MROC 231700Z 26007KT 230V290 9999 SCT025 24/20 A3004 NOSIG=
202208231800 METAR MROC 231800Z 27007KT 220V300 9999 SCT020 25/20 A3001 NOSIG=
202208231900 METAR MROC 231900Z 25008KT 210V290 9999 BKN025 25/20 A2997 NOSIG=
202208232000 METAR MROC 232000Z 25007KT 9999 FEW020TCU BKN020CB 25/20 A2995 TEMPO TSRA=
202208232100 METAR MROC 232100Z 22009KT 9999 VCTS SCT010CB BKN035 22/19 A2996 TEMPO TSRA=
202208232200 METAR MROC 232200Z 24004KT 9000 4000SW -TSRA FEW009CB SCT020 BKN040 21/19 A2998 NOSIG=
202208232300 METAR MROC 232300Z 34004KT 300V360 9999 -RA VCTS SCT005 BKN035 OVC100 20/19 A3000 NOSIG=
202208240000 METAR MROC 240000Z VRB03KT 9999 -RA SCT012 OVC100 20/18 A3002 NOSIG=
202208240100 METAR MROC 240100Z 11004KT 9999 -RA SCT035 OVC080 20/19 A3002 NOSIG=
202208240200 METAR MROC 240200Z 07004KT 9999 -DZ 20/19 A3003 NOSIG=
202208240300 METAR MROC 240300Z VRB02KT 9999 BCFG NSC 20/19 A3006 NOSIG=
202208240400 METAR MROC 240400Z 12004KT 080V150 9999 2000SW BKN003 20/19 A3007 NOSIG=
202208240500 METAR MROC 240500Z VRB02KT 9999 2000SW BCFG FEW002 BKN120 19/19 A3006 NOSIG=
202208240600 METAR MROC 240600Z VRB02KT 9999 2000SW BCFG FEW001 BKN003 20/19 A3001 NOSIG=
202208240700 METAR MROC 240700Z VRB02KT 9999 3000SW BCFG FEW005 BKN020 20/19 A2998 NOSIG=
202208240800 METAR MROC 240800Z VRB02KT 9999 3000SW BCFG FEW005 BKN020 20/19 A2998 NOSIG=
202208240900 METAR MROC 240900Z VRB02KT 9999 BKN020 20/19 A2998 NOSIG=
202208241000 METAR MROC 241000Z 06003KT 9999 BKN010 20/19 A3005 NOSIG=
202208241100 METAR MROC 241100Z VRB01KT 9999 -DZ BKN010 20/19 A3006 NOSIG=
202208241200 METAR MROC 241200Z 00000KT 9999 FEW010 BKN020 20/19 A3007 NOSIG=
202208241300 METAR MROC 241300Z VRB02KT 9999 FEW020 BKN070 21/19 A3009 NOSIG=
202208241400 METAR MROC 241400Z VRB02KT 9999 FEW020 BKN120 22/19 A3010 TEMPO 25006KT=
202208241500 METAR MROC 241500Z VRB02KT 9999 FEW025 SCT130 25/19 A3010 NOSIG=
202208241600 METAR MROC 241600Z 25004KT 200V300 9999 FEW025 SCT130 25/19 A3009 NOSIG=
202208241700 METAR MROC 241700Z 26007KT 220V290 9999 SCT030 26/20 A3008 NOSIG=
202208241800 METAR MROC 241800Z 25009KT 200V280 9999 SCT030 26/20 A3007 NOSIG=
202208241900 METAR MROC 241900Z 24011KT 210V280 9999 BKN035 25/20 A3005 NOSIG=
202208242000 METAR MROC 242000Z 25009KT 220V280 9999 BKN035 25/21 A3003 NOSIG=
202208242100 METAR MROC 242100Z 26010KT 230V290 9999 SCT030 BKN230 24/20 A3000 NOSIG=
202208242200 METAR MROC 242200Z 26009KT 9999 FEW015 SCT045 BKN230 24/21 A3001 NOSIG=
202208242300 METAR MROC 242300Z 25008KT 9999 FEW010 SCT015 BKN180 22/21 A3003 NOSIG=
202208250000 METAR MROC 250000Z 25004KT 9999 BCFG SCT006 BKN015 21/20 A3006 NOSIG=
202208250100 METAR MROC 250100Z 23003KT 200V270 9999 BCFG SCT006 BKN025 21/20 A3008 NOSIG=
202208250200 METAR MROC 250200Z 26004KT 230V310 9999 BCFG BKN008 20/20 A3009 NOSIG=
202208250300 METAR MROC 250300Z 23002KT 9000 3000SW BCFG BKN005 20/20 A3011 TEMPO 5000 BR=
202208250400 METAR MROC 250400Z VRB01KT 8000 BCFG SCT005 BKN030 21/20 A3012 NOSIG=
202208250500 METAR MROC 250500Z 10003KT 9999 FEW010 20/19 A3011 NOSIG=
202208250600 METAR MROC 250600Z 08005KT CAVOK 20/19 A3009 NOSIG=
202208250700 METAR MROC 250700Z 07007KT CAVOK 19/16 A3006 NOSIG=
202208250800 METAR MROC 250800Z 00000KT CAVOK 19/16 A3005 NOSIG=
202208250900 METAR MROC 250900Z 07003KT CAVOK 18/17 A3004 NOSIG=
202208251000 METAR MROC 251000Z 04006KT CAVOK 19/16 A3004 NOSIG=
202208251100 METAR MROC 251100Z 04005KT CAVOK 19/16 A3004 NOSIG=
202208251200 METAR MROC 251200Z 12003KT 050V170 CAVOK 18/16 A3006 NOSIG=
202208251300 METAR MROC 251300Z 04005KT 360V060 CAVOK 21/16 A3009 NOSIG=
202208251400 METAR MROC 251400Z 28004KT 220V310 CAVOK 23/17 A3011 NOSIG=
202208251500 METAR MROC 251500Z 25006KT 220V280 CAVOK 24/19 A3012 NOSIG=
202208251600 METAR MROC 251600Z 25007KT 210V280 CAVOK 25/20 A3013 NOSIG=
202208251700 METAR MROC 251700Z 24007KT 210V290 9999 VCTS VCSH FEW030CB FEW030TCU BKN250 25/19 A3012 NOSIG=
202208251800 METAR MROC 251800Z COR 24006KT 220V280 9999 FEW020TCU BKN060 24/21 A3011 NOSIG=
202208251900 METAR MROC 251900Z 23005KT 190V260 9999 VCTS VCSH FEW020CB SCT060 BKN120 24/21 A3010 TEMPO -TSRA=
202208252000 METAR MROC 252000Z 23006KT 180V260 9999 FEW020 SCT060 BKN130 25/22 A3008 NOSIG=
202208252100 METAR MROC 252100Z VRB02KT 9999 -TSRA FEW015CB SCT030 BKN200 23/22 A3009 NOSIG=
202208252200 METAR MROC 252200Z VRB02KT 9999 BCFG FEW040 SCT100 BKN200 23/19 A3008 NOSIG=
202208252300 METAR MROC 252300Z 07003KT 9999 BCFG FEW040 SCT100 BKN200 23/20 A3008 NOSIG=
202208260000 METAR MROC 260000Z VRB02KT 9999 -RA FEW015 SCT080 BKN120 22/19 A3010 NOSIG=
202208260100 METAR MROC 260100Z 27003KT 9999 2000SW BCFG FEW003 SCT010 BKN080 21/21 A3012 NOSIG=
202208260200 METAR MROC 260200Z VRB02KT 9000 3000SW BCFG FEW003 SCT010 BKN035 21/20 A3014 NOSIG=
202208260300 METAR MROC 260300Z 07003KT 9999 FEW010 20/19 A3015 NOSIG=
202208260400 METAR MROC 260400Z 08005KT 9999 BCFG NSC 20/19 A3013 NOSIG=
202208260500 METAR MROC 260500Z 07007KT 9999 R07/0800N BCFG NSC 20/18 A3011 NOSIG=
202208260600 METAR MROC 260600Z 05006KT CAVOK 20/18 A3009 NOSIG=
202208260700 METAR MROC 260700Z 05006KT CAVOK 20/18 A3006 NOSIG=
202208260800 METAR MROC 260800Z 08006KT CAVOK 21/17 A3005 NOSIG=
202208260900 METAR MROC 260900Z 05008KT CAVOK 21/17 A3004 NOSIG=
202208261000 METAR MROC 261000Z 04005KT CAVOK 21/17 A3004 NOSIG=
202208261100 METAR MROC 261100Z 20004KT CAVOK 19/18 A3004 NOSIG=
202208261200 METAR MROC 261200Z 34003KT 9999 BCFG NSC 19/18 A3004 NOSIG=
202208261300 METAR MROC 261300Z 28005KT 250V330 9999 FEW010 BKN120 21/19 A3009 NOSIG=
202208261400 METAR MROC 261400Z 02005KT 340V040 9999 FEW020 BKN100 24/18 A3010 NOSIG=
202208261500 METAR MROC 261500Z 21004KT 140V280 9999 FEW040 25/20 A3009 NOSIG=
202208261600 METAR MROC 261600Z 13006KT 080V250 9999 FEW040 28/17 A3008 NOSIG=
202208261700 METAR MROC 261700Z 09006KT 020V140 9999 SCT040 29/17 A3008 NOSIG=
202208261800 METAR MROC 261800Z 23007KT 200V270 9999 BKN040 26/21 A3008 NOSIG=
202208261900 METAR MROC 261900Z 25009KT 210V290 9999 BKN035 27/21 A3004 NOSIG=
202208262000 METAR MROC 262000Z 23009KT 210V270 9999 BKN030 26/21 A3002 NOSIG=
202208262100 METAR MROC 262100Z 24012KT 9999 FEW025TCU FEW040 SCT100 BKN250 26/20 A3000 NOSIG=
202208262200 METAR MROC 262200Z 24008KT 9999 FEW010 SCT025 BKN060 24/22 A3001 NOSIG=
202208262300 METAR MROC 262300Z 25007KT 9999 3000SW -TSRA BKN005 SCT010CB 22/21 A3004 NOSIG=
202208270000 METAR MROC 270000Z VRB02KT 9999 FEW010 SCT035 BKN120 20/20 A3007 NOSIG=
202208270100 METAR MROC 270100Z 08005KT CAVOK 21/20 A3007 NOSIG=
202208270200 METAR MROC 270200Z 10003KT CAVOK 21/19 A3005 NOSIG=
202208270300 METAR MROC 270300Z 12008G18KT 090V150 CAVOK 21/18 A3006 NOSIG=
202208270400 METAR MROC 270400Z 27007KT 9999 FEW015 20/19 A3011 NOSIG=
202208270500 METAR MROC 270500Z 31003KT 230V260 9999 FEW020 20/19 A3012 NOSIG=
202208270600 METAR MROC 270600Z 05004KT 9999 FEW020 20/18 A3009 NOSIG=
202208270700 METAR MROC 270700Z 06007KT CAVOK 19/17 A3007 NOSIG=
202208270800 METAR MROC 270800Z 09007KT CAVOK 19/17 A3006 NOSIG=
202208270900 METAR MROC 270900Z 06005KT 9999 FEW020 19/16 A3003 NOSIG=
202208271000 METAR MROC 271000Z 03005KT 9999 FEW020 19/16 A3003 NOSIG=
202208271100 METAR MROC 271100Z 05005KT 9999 FEW020 20/17 A3004 NOSIG=
202208271200 METAR MROC 271200Z 06007KT CAVOK 20/17 A3005 NOSIG=
202208271300 METAR MROC 271300Z 05003KT 310V120 CAVOK 22/17 A3006 NOSIG=
202208271400 METAR MROC 271400Z 12005KT 060V200 CAVOK 25/18 A3006 NOSIG=
202208271500 METAR MROC 271500Z 25006KT 220V280 9999 SCT045 BKN200 24/19 A3009 NOSIG=
202208271600 METAR MROC 271600Z 26009KT 320V290 9999 FEW020 SCT035 BKN200 24/20 A3010 NOSIG=
202208271700 METAR MROC 271700Z 25006KT 210V290 9999 FEW020TCU SCT030 24/20 A3009 NOSIG=
202208271800 METAR MROC 271800Z 24007KT 200V270 9999 FEW020TCU SCT025 BKN200 25/20 A3005 NOSIG=
202208271900 METAR MROC 271900Z 26004KT 190V320 9999 TSRA SCT020CB SCT030 26/20 A3001 NOSIG=
202208272000 METAR MROC 272000Z 34005KT 310V010 9999 -RA VCTS FEW020CB SCT025 BKN160 23/20 A2999 NOSIG=
202208272100 METAR MROC 272100Z 17004KT 130V210 9999 VCSH FEW010TCU BKN030 25/20 A2996 NOSIG=
202208272200 METAR MROC 272200Z 10010KT 9999 FEW040 SCT100 BKN150 22/17 A2996 NOSIG=
202208272300 METAR MROC 272300Z 09006KT 060V120 9999 -RA FEW040 BKN130 22/18 A2997 NOSIG=
202208280000 METAR MROC 280000Z 03003KT 350V090 9999 FEW045 SCT100 BKN150 23/18 A2998 NOSIG=
202208280100 METAR MROC 280100Z 29003KT 220V350 9999 FEW015 BKN150 22/18 A3002 NOSIG=
202208280200 METAR MROC 280200Z 28003KT 240V330 9999 FEW010 SCT100 BKN160 21/20 A3005 TEMPO 5000 BR=
202208280300 METAR MROC 280300Z 36003KT 320V040 9999 3000SW BCFG FEW010 SCT100 BKN160 21/20 A3007 NOSIG=
202208280400 METAR MROC 280400Z 00000KT 9999 FEW010 20/19 A3008 NOSIG=
202208280500 METAR MROC 280500Z VRB02KT 9999 FEW010 20/18 A3008 NOSIG=
202208280600 METAR MROC 280600Z 02003KT 350V060 9999 FEW010 20/18 A3008 NOSIG=
202208280700 METAR MROC 280700Z VRB02KT 9999 OVC020 20/18 A3005 NOSIG=
202208280800 METAR MROC 280800Z 09004KT 9999 SCT020 BKN035 20/18 A3003 NOSIG=
202208280900 METAR MROC 280900Z 07003KT 9999 SCT020 BKN035 20/18 A3002 NOSIG=
202208281000 METAR MROC 281000Z 09005KT CAVOK 19/18 A3001 NOSIG=
202208281100 METAR MROC 281100Z 05004KT CAVOK 19/17 A3002 NOSIG=
202208281200 METAR MROC 281200Z 06003KT CAVOK 19/17 A3004 NOSIG=
202208281300 METAR MROC 281300Z 08003KT CAVOK 21/17 A3007 NOSIG=
202208281400 METAR MROC 281400Z VRB02KT 9999 FEW040 23/19 A3008 BECMG 25006KT=
202208281500 METAR MROC 281500Z 00000KT 9999 FEW040 24/18 A3008 BECMG 25006KT=
202208281600 METAR MROC 281600Z 24005KT 170V310 9999 FEW045 SCT180 26/20 A3007 NOSIG=
202208281700 METAR MROC 281700Z 26008KT 210V280 9999 SCT045 26/19 A3005 NOSIG=
202208281800 METAR MROC 281800Z 24008KT 220V280 9999 FEW030 BKN045 26/20 A3002 NOSIG=
202208281900 METAR MROC 281900Z 22012KT 9999 VCTS FEW015 BKN030 26/21 A2999 BECMG TSRA=
202208281905 SPECI MROC 281905Z 22012KT 9999 TSRA FEW015CB BKN030 24/22 A2999 NOSIG=
202208282000 METAR MROC 282000Z 22005KT 190V270 9999 TSRA SCT009CB BKN020 22/19 A3002 NOSIG=
202208282100 METAR MROC 282100Z 30004KT 240V340 9999 RA BKN015 21/19 A3000 NOSIG=
202208282200 METAR MROC 282200Z 26004KT 200V310 9999 OVC010 21/20 A3000 RERA NOSIG=
202208282300 METAR MROC 282300Z 32003KT 290V020 9999 OVC010 21/19 A3002 NOSIG=
202208282359 METAR MROC 290000Z 00000KT 9999 -RA FEW010 BKN020 21/19 A3005 NOSIG=
202208290000 METAR MROC 290000Z 00000KT 9999 -RA FEW010 BKN020 21/19 A3005 NOSIG=
202208290200 METAR MROC 290200Z 10002KT 9999 -RA FEW010 BKN045 20/19 A3007 TEMPO 5000 BR=
202208290300 METAR MROC 290300Z VRB01KT 9999 -RA FEW010 OVC045 20/19 A3009 NOSIG=
202208290400 METAR MROC 290400Z VRB01KT 9999 FEW005 BKN130 20/19 A3010 NOSIG=
202208290500 METAR MROC 290500Z 08003KT 9999 FEW005 BKN150 20/19 A3008 NOSIG=
202208290600 METAR MROC 290600Z 06007KT 9999 FEW010 19/18 A3005 NOSIG=
202208290700 METAR MROC 290700Z 07006KT CAVOK 19/17 A3002 NOSIG=
202208290800 METAR MROC 290800Z 08003KT CAVOK 18/17 A3002 NOSIG=
202208290900 METAR MROC 290900Z 06006KT CAVOK 18/17 A3000 NOSIG=
202208291000 METAR MROC 291000Z 05003KT CAVOK 19/17 A3001 NOSIG=
202208291100 METAR MROC 291100Z 06005KT CAVOK 18/17 A3001 NOSIG=
202208291200 METAR MROC 291200Z 08004KT CAVOK 18/17 A3002 NOSIG=
202208291300 METAR MROC 291300Z 07004KT CAVOK 21/17 A3006 NOSIG=
202208291400 METAR MROC 291400Z 11003KT 070V150 9999 FEW040 BKN140 23/17 A3007 NOSIG=
202208291500 METAR MROC 291500Z 30003KT 240V030 9999 FEW040 BKN160 24/19 A3008 BECMG 24007KT=
202208291600 METAR MROC 291600Z 26006KT 210V320 9999 FEW030 SCT160 25/19 A3009 NOSIG=
202208291700 METAR MROC 291700Z 28007KT 240V330 9999 SCT030 26/19 A3008 NOSIG=
202208291800 METAR MROC 291800Z 25006KT 210V290 9999 SCT045 BKN200 26/18 A3006 NOSIG=
202208291900 METAR MROC 291900Z COR 24009KT 200V270 9999 VCSH SCT030 BKN200 26/20 A3003 NOSIG=
202208292000 METAR MROC 292000Z 18006KT 9999 VCTS FEW015 BKN025 25/20 A3002 TEMPO TSRA=
202208292100 METAR MROC 292100Z 11005KT 080V150 9999 VCSH FEW030 SCT060 BKN100 22/19 A3002 NOSIG=
202208292200 METAR MROC 292200Z 24006KT 9999 VCTS FEW008CB SCT040 BKN100 22/20 A3004 TEMPO -TSRA BKN008 FEW010CB=
202208292300 METAR MROC 292300Z COR 31004KT 260V330 3000 -RA BKN005 OVC008 20/19 A3005 NOSIG=
202208300000 METAR MROC 300000Z 15002KT 9999 4500SW RA VCFG FEW005 SCT020 OVC060 20/20 A3007 NOSIG=
202208300100 METAR MROC 300100Z VRB02KT 9999 DZ SCT025 BKN060 20/20 A3008 NOSIG=
202208300200 METAR MROC 300200Z 09004KT 9999 SCT040 BKN100 20/20 A3010 NOSIG=
202208300300 METAR MROC 300300Z 06004KT CAVOK 21/20 A3011 NOSIG=
202208300400 METAR MROC 300400Z 08006KT CAVOK 21/18 A3011 NOSIG=
202208300500 METAR MROC 300500Z 07003KT 040V120 CAVOK 21/18 A3010 NOSIG=
202208300600 METAR MROC 300600Z VRB02KT CAVOK 20/18 A3008 NOSIG=
202208300700 METAR MROC 300700Z 27003KT 240V330 9999 FEW020 BKN120 20/19 A3007 BECMG 5000 BR BKN005=
202208300800 METAR MROC 300800Z 32003KT 300V360 9999 FEW005 BKN140 20/19 A3006 NOSIG=
202208300900 METAR MROC 300900Z 01001KT 9999 BKN006 20/19 A3006 NOSIG=
202208301000 METAR MROC 301000Z 12002KT 9999 FEW010 SCT015 OVC020 20/19 A3005 NOSIG=
202208301100 METAR MROC 301100Z 10003KT 9999 FEW010 BKN020 20/19 A3005 NOSIG=
202208301200 METAR MROC 301200Z 08003KT CAVOK 20/18 A3007 NOSIG=
202208301300 METAR MROC 301300Z 07005KT CAVOK 22/18 A3007 NOSIG=
202208301400 METAR MROC 301400Z VRB02KT 9999 FEW030 23/18 A3010 BECMG 24005KT=
202208301500 METAR MROC 301500Z 27005KT 250V320 9999 FEW020 SCT120 24/18 A3011 NOSIG=
202208301600 METAR MROC 301600Z 25007KT 210V300 9999 FEW020 SCT120 25/19 A3011 NOSIG=
202208301700 METAR MROC 301700Z 27005KT 220V340 9999 FEW020 BKN120 25/20 A3009 NOSIG=
202208301800 METAR MROC 301800Z 25007KT 230V310 9999 VCSH FEW020TCU FEW040 BKN120 26/20 A3007 NOSIG=
202208301900 METAR MROC 301900Z 24009KT 200V260 9999 VCSH FEW020TCU SCT035 26/21 A3004 NOSIG=
202208302000 METAR MROC 302000Z 24010KT 9999 VCTS VCSH FEW015TCU FEW035 BKN180 25/21 A3008 NOSIG=
202208302100 METAR MROC 302100Z 22009KT 9999 -TSRA VCSH FEW035CB SCT100 BKN200 23/20 A3002 TEMPO 5000 TSRA=
202208302200 METAR MROC 302200Z 01007KT 9999 -TSRA VCSH FEW025CB BKN130 21/19 A3002 NOSIG=
202208302300 METAR MROC 302300Z VRB02KT 9999 -RA FEW030 BKN100 21/20 A3004 NOSIG=
202208310000 METAR MROC 310000Z VRB02KT 9999 FEW010 SCT100 BKN150 21/20 A3004 NOSIG=
202208310100 METAR MROC 310100Z 00000KT 9999 FEW008 SCT100 BKN150 21/20 A3006 NOSIG=
202208310200 METAR MROC 310200Z 12003KT CAVOK 21/20 A3008 NOSIG=
202208310300 METAR MROC 310300Z VRB01KT CAVOK 21/19 A3011 NOSIG=
202208310400 METAR MROC 310400Z 35003KT 330V050 CAVOK 20/19 A3012 NOSIG=
202208310500 METAR MROC 310500Z 14002KT CAVOK 21/19 A3012 NOSIG=
202208310600 METAR MROC 310600Z VRB02KT CAVOK 20/19 A3009 NOSIG=
202208310700 METAR MROC 310700Z 00000KT CAVOK 19/19 A3009 NOSIG=
202208310800 METAR MROC 310800Z 03003KT CAVOK 19/18 A3005 NOSIG=
202208310900 METAR MROC 310900Z VRB03KT CAVOK 20/18 A3005 NOSIG=
202208311000 METAR MROC 311000Z VRB01KT CAVOK 18/17 A3005 NOSIG=
202208311100 METAR MROC 311100Z 11003KT CAVOK 18/17 A3005 NOSIG=
202208311200 METAR MROC 311200Z 10004KT CAVOK 18/17 A3006 NOSIG=
202208311300 METAR MROC 311300Z VRB02KT CAVOK 21/18 A3007 NOSIG=
202208311400 METAR MROC 311400Z VRB02KT CAVOK 23/18 A3008 NOSIG=
202208311500 METAR MROC 311500Z 26004KT 200V320 CAVOK 24/18 A3008 NOSIG=
202208311600 METAR MROC 311600Z 22003KT 170V290 CAVOK 25/19 A3008 NOSIG=
202208311700 METAR MROC 311700Z 24006KT 190V290 9999 FEW030 BKN200 26/20 A3005 NOSIG=
202208311800 METAR MROC 311800Z 25009KT 220V280 9999 FEW025 BKN200 26/20 A3004 NOSIG=
202208311900 METAR MROC 311900Z 24008KT 200V290 9999 VCTS FEW015CB SCT030 25/21 A3002 NOSIG=
202208312000 METAR MROC 312000Z 24009KT 9999 VCTS VCSH FEW020CB BKN035 25/21 A3000 NOSIG=
202208312100 METAR MROC 312100Z 25009KT 9999 VCTS VCSH SCT010 FEW015CB BKN030 23/22 A2999 NOSIG=
202208312200 METAR MROC 312200Z 26008KT 9999 -DZ VCTS BKN008 FEW015CB 23/21 A2999 TEMPO RA=
202208312300 METAR MROC 312300Z 30005G17KT 180V320 9999 SCT007 BKN010 22/21 A3001 NOSIG=
202209010000 METAR MROC 010000Z 03008KT 9999 FEW005 SCT008 BKN020 22/18 A3004 NOSIG=
202209010100 METAR MROC 010100Z VRB01KT 7000 -RA BCFG FEW010 BKN030 19/19 A3007 NOSIG=
202209010200 METAR MROC 010200Z 09004KT 7000 3000SW RA BCFG FEW010 BKN020 19/19 A3006 NOSIG=
202209010300 METAR MROC 010300Z 10003KT 060V140 7000 3000SW RA BCFG FEW010 BKN100 20/19 A3007 NOSIG=
202209010400 METAR MROC 010400Z VRB02KT 9999 3500SW -RA BCFG FEW005 SCT035 BKN120 20/20 A3009 NOSIG=
202209010500 METAR MROC 010500Z VRB02KT 9999 4000SW -RA BCFG FEW002 BKN020 20/20 A3009 NOSIG=
202209010600 METAR MROC 010600Z 30002KT 5000 BR BCFG SCT002 BKN010 20/19 A3008 NOSIG=
202209010700 METAR MROC 010700Z 34002KT 9999 4000SW BCFG VCFG BKN010 BKN025 20/19 A3006 NOSIG=
202209010800 METAR MROC 010800Z 14003KT 100V170 9999 4500SW BCFG FEW010 SCT020 BKN130 20/19 A3003 NOSIG=
202209010900 METAR MROC 010900Z 07005KT 9999 FEW035 BKN140 20/19 A3001 NOSIG=
202209011000 METAR MROC 011000Z 07006KT CAVOK 20/18 A3000 NOSIG=
202209011100 METAR MROC 011100Z 07004KT CAVOK 19/18 A2999 NOSIG=
202209011200 METAR MROC 011200Z COR 28003KT 230V020 9999 2000SW BCFG FEW001 BKN150 19/18 A3002 NOSIG=
202209011237 METAR MROC 011237Z 26004KT 230V350 9999 2000SW BCFG OVC005 19/19 A3005 NOSIG=
202209011300 METAR MROC 011300Z 27004KT 240V320 9999 BKN004 19/19 A3007 NOSIG=
202209011400 METAR MROC 011400Z 34003KT 300V010 9999 FEW010 21/20 A3009 NOSIG=
202209011500 METAR MROC 011500Z 12003KT 080V160 9999 FEW020 23/18 A3009 NOSIG=
202209011600 METAR MROC 011600Z VRB04KT 9999 FEW045 26/20 A3007 NOSIG=
202209011700 METAR MROC 011700Z VRB02KT 9999 FEW045 28/18 A3005 BECMG 24007KT=
202209011800 METAR MROC 011800Z 26009KT 220V280 CAVOK 28/21 A3002 NOSIG=
202209011900 METAR MROC 011900Z 24010KT 9999 FEW045 27/21 A2999 NOSIG=
202209012000 METAR MROC 012000Z 24013KT 9999 -RA VCTS BKN020CB FEW025TCU 26/22 A2997 TEMPO 5000 TSRA=
202209012100 METAR MROC 012100Z 25009KT 9999 VCTS VCSH FEW010 SCT015CB BKN030 23/21 A2998 NOSIG=
202209012200 METAR MROC 012200Z 18004KT 9999 RA VCTS SCT007 SCT010CB BKN015 22/20 A2998 NOSIG=
202209012300 METAR MROC 012300Z 24003KT 7000 +RA VCTS BKN008 FEW015CB 22/21 A2998 NOSIG=
202209020000 METAR MROC 020000Z 05003KT 340V110 7000 -TSRA BKN010 FEW015CB 21/20 A3001 NOSIG=
202209020100 METAR MROC 020100Z 10003KT 090V170 7000 3000SW +RA BCFG FEW004 BKN010 20/20 A3004 RETSRA NOSIG=
202209020200 METAR MROC 020200Z 04003KT 360V080 9999 RA SCT010 BKN040 20/20 A3006 NOSIG=
202209020300 METAR MROC 020300Z VRB02KT 9999 RA FEW010 BKN100 21/20 A3005 NOSIG=
202209020400 METAR MROC 020400Z 00000KT 9999 FEW010 SCT025 BKN120 20/20 A3005 RERA NOSIG=
202209020500 METAR MROC 020500Z VRB02KT 9999 FEW010 SCT025 20/20 A3003 NOSIG=
202209020600 METAR MROC 020600Z 08004KT CAVOK 20/20 A3001 NOSIG=
202209020700 METAR MROC 020700Z 06005KT CAVOK 20/19 A3000 NOSIG=
202209020800 METAR MROC 020800Z 00000KT 9999 BCFG FEW025 19/19 A2999 NOSIG=
202209020900 METAR MROC 020900Z 04004KT 9999 BCFG FEW025 19/18 A2999 NOSIG=
202209021000 METAR MROC 021000Z 07006KT CAVOK 19/18 A2998 NOSIG=
202209021100 METAR MROC 021100Z 09005KT CAVOK 20/18 A2998 NOSIG=
202209021200 METAR MROC 021200Z 15005KT 110V180 9999 FEW035 BKN200 21/18 A3001 NOSIG=
202209021300 METAR MROC 021300Z 04005KT 010V070 CAVOK 21/18 A3003 NOSIG=
202209021400 METAR MROC 021400Z 07004KT 350V120 CAVOK 25/19 A3005 BECMG 24007KT=
202209021500 METAR MROC 021500Z 03003KT 350V090 CAVOK 25/18 A3004 NOSIG=
202209021600 METAR MROC 021600Z 26007KT 9999 FEW045 BKN200 24/19 A3005 NOSIG=
202209021700 METAR MROC 021700Z 23007KT 9999 FEW030 BKN160 25/19 A3003 NOSIG=
202209021800 METAR MROC 021800Z 24010KT 9999 FEW030 BKN140 25/21 A3001 NOSIG=
202209021900 METAR MROC 021900Z 26009KT 9999 BKN030 25/21 A3000 TEMPO TSRA=
202209022000 METAR MROC 022000Z 25006KT 180V320 9999 TSRA BKN020CB SCT025 26/22 A2999 NOSIG=
202209022100 METAR MROC 022100Z COR VRB05KT 8000 4000NW VCTS -RA FEW015 SCT025 OVC100 23/21 A2997 RETS NOSIG=
202209022200 METAR MROC 022200Z COR 11003KT 020V170 9999 VCTS SCT020 BKN140 23/21 A2995 NOSIG=
202209022300 METAR MROC 022300Z VRB01KT 9999 BCFG VCTS FEW015 BKN040 23/21 A2997 NOSIG=
202209030000 METAR MROC 030000Z 27003KT 230V340 9999 BCFG VCTS FEW008 SCT035 OVC200 23/22 A2999 NOSIG=
202209030100 METAR MROC 030100Z COR 00000KT 8000 3000SW BCFG -DZ VCTS FEW005 BKN020 22/22 A3003 TEMPO 5000 BR=
202209030200 METAR MROC 030200Z 10003KT 020V120 9999 -RA VCTS BCFG FEW005 SCT045 BKN120 22/21 A3004 NOSIG=
202209030300 METAR MROC 030300Z 11006KT 080V140 9999 BCFG FEW020 BKN150 21/20 A3004 NOSIG=
202209030400 METAR MROC 030400Z 26003KT 220V280 9999 FEW010 BKN150 21/20 A3005 NOSIG=
202209030500 METAR MROC 030500Z VRB02KT 9999 BCFG FEW010 BKN180 21/20 A3003 NOSIG=
202209030600 METAR MROC 030600Z VRB02KT 9999 FEW010 BKN150 21/19 A3001 NOSIG=
202209030700 METAR MROC 030700Z 03004KT CAVOK 21/19 A3000 NOSIG=
202209030800 METAR MROC 030800Z VRB01KT CAVOK 20/19 A3000 NOSIG=
202209030900 METAR MROC 030900Z 07004KT 9999 FEW020 20/19 A2999 NOSIG=
202209031000 METAR MROC 031000Z 07006KT 9999 FEW020 21/18 A2998 NOSIG=
202209031100 METAR MROC 031100Z 05007KT 9999 SCT045 20/18 A2999 NOSIG=
202209031200 METAR MROC 031200Z VRB02KT 9999 SCT040 BKN090 20/18 A3000 NOSIG=
202209031300 METAR MROC 031300Z VRB01KT CAVOK 21/19 A3003 TEMPO 25006KT=
202209031400 METAR MROC 031400Z VRB02KT 9999 FEW040 SCT060 BKN140 21/19 A3006 NOSIG=
202209031500 METAR MROC 031500Z VRB02KT 9999 -RA SCT040 OVC120 21/19 A3009 NOSIG=
202209031600 METAR MROC 031600Z 28003KT 9999 SCT035 BKN120 22/20 A3008 NOSIG=
202209031700 METAR MROC 031700Z VRB02KT 9999 FEW035 SCT120 OVC200 23/20 A3006 NOSIG=
202209031800 METAR MROC 031800Z VRB02KT 9999 FEW035 OVC150 25/19 A3002 NOSIG=
202209031900 METAR MROC 031900Z 11008KT 9999 SCT035 OVC130 26/19 A2999 NOSIG=
202209032000 METAR MROC 032000Z 12008KT 080V180 9999 VCSH FEW025 SCT070 OVC130 26/19 A2996 TEMPO RA=
202209032100 METAR MROC 032100Z 12007KT 080V160 9999 VCSH FEW020 SCT040 OVC120 24/19 A2996 TEMPO 25005KT=
202209032200 METAR MROC 032200Z 12006KT 090V170 9999 FEW045 SCT080 OVC130 24/19 A2997 TEMPO 25005KT=
202209032300 METAR MROC 032300Z 12004KT 090V170 9999 BCFG NSC 24/18 A2996 RMK BKN150 NOSIG=
202209040000 METAR MROC 040000Z 08003KT 050V110 9999 BCFG NSC 23/18 A2995 NOSIG=
202209040100 METAR MROC 040100Z 24004KT 160V300 8000 3000SW PRFG BKN015 21/21 A2998 TEMPO 5000 BR=
202209040200 METAR MROC 040200Z VRB01KT CAVOK 21/20 A3001 NOSIG=
202209040300 METAR MROC 040300Z VRB02KT CAVOK 22/20 A3003 NOSIG=
202209040400 METAR MROC 040400Z 26006KT 0500 R07/1900U FG BKN002 20/20 A3004 NOSIG=
202209040500 METAR MROC 040500Z 36003KT 300V060 5000 1500SW BR SCT003 BKN025 20/20 A3004 NOSIG=
202209040600 METAR MROC 040600Z 11003KT 9999 3000SW BCFG SCT003 BKN180 20/20 A3002 NOSIG=
202209040700 METAR MROC 040700Z VRB02KT 9999 3000SW BCFG FEW010 BKN180 20/19 A3000 NOSIG=
202209040800 METAR MROC 040800Z 35003KT 9999 3000SW BCFG FEW010 20/19 A2999 NOSIG=
202209040900 METAR MROC 040900Z 08005KT 050V110 CAVOK 20/18 A2999 NOSIG=
202209041000 METAR MROC 041000Z 05009KT CAVOK 20/17 A2999 NOSIG=
202209041100 METAR MROC 041100Z 06005KT CAVOK 20/17 A3000 NOSIG=
202209041200 METAR MROC 041200Z 06009KT CAVOK 20/16 A3002 NOSIG=
202209041300 METAR MROC 041300Z COR 07008KT CAVOK 22/15 A3003 NOSIG=
202209041400 METAR MROC 041400Z 09008KT 070V130 CAVOK 25/15 A3005 NOSIG=
202209041500 METAR MROC 041500Z 11008KT 050V140 CAVOK 26/15 A3006 NOSIG=
202209041600 METAR MROC 041600Z 12008KT 070V170 CAVOK 28/15 A3004 TEMPO 25006KT=
202209041700 METAR MROC 041700Z 22007KT 160V270 CAVOK 27/20 A3003 NOSIG=
202209041800 METAR MROC 041800Z 26008KT 230V290 9999 FEW025TCU SCT035 BKN200 27/21 A3001 NOSIG=
202209041900 METAR MROC 041900Z 23008KT 200V270 9999 SCT040 BKN200 27/21 A2998 NOSIG=
202209042000 METAR MROC 042000Z 23007KT 200V260 9999 VCTS VCSH FEW020 SCT050 BKN200 25/22 A2996 NOSIG=
202209042100 METAR MROC 042100Z 32006KT 9999 FEW015 BKN030 24/21 A2996 NOSIG=
202209042200 METAR MROC 042200Z 30004KT 260V020 9999 FEW010 SCT025 BKN100 24/19 A2995 NOSIG=
202209042300 METAR MROC 042300Z 24007KT 9999 FEW010 BKN025 22/21 A2999 NOSIG=
202209050000 METAR MROC 050000Z 27003KT 180V310 9999 FEW010 SCT030 BKN200 22/20 A3002 NOSIG=
202209050100 METAR MROC 050100Z 35003KT 310V010 9999 FEW020 BKN030 22/20 A3003 NOSIG=
202209050200 METAR MROC 050200Z VRB02KT 9999 FEW020 SCT035 BKN200 22/20 A3005 NOSIG=
202209050300 METAR MROC 050300Z VRB02KT 9999 FEW020 BKN035 22/20 A3007 NOSIG=
202209050400 METAR MROC 050400Z VRB01KT 9999 FEW020 OVC035 22/20 A3008 NOSIG=
202209050500 METAR MROC 050500Z VRB01KT 9999 FEW009 BKN035 OVC060 22/20 A3007 NOSIG=
202209050600 METAR MROC 050600Z 29004KT 270V330 9999 FEW030 BKN045 22/20 A3005 NOSIG=
202209050700 METAR MROC 050700Z 26004KT 9999 SCT007 BKN030 21/20 A3004 NOSIG=
202209050800 METAR MROC 050800Z 35002KT 9999 SCT007 OVC035 21/20 A3003 NOSIG=
202209050900 METAR MROC 050900Z 11004KT CAVOK 20/20 A3001 NOSIG=
202209051000 METAR MROC 051000Z 07004KT CAVOK 21/20 A3001 NOSIG=
202209051100 METAR MROC 051100Z 34003KT 310V020 CAVOK 21/20 A3003 NOSIG=
202209051200 METAR MROC 051200Z 00000KT CAVOK 21/19 A3005 NOSIG=
202209051300 METAR MROC 051300Z VRB02KT 9999 FEW040 BKN140 22/20 A3008 NOSIG=
202209051400 METAR MROC 051400Z VRB02KT 9999 FEW040 BKN140 23/20 A3010 BECMG 25006KT=
202209051500 METAR MROC 051500Z 23005KT 9999 FEW025 BKN120 23/21 A3011 NOSIG=
202209051600 METAR MROC 051600Z 25006KT 9999 SCT020 BKN110 24/20 A3011 NOSIG=
202209051700 METAR MROC 051700Z COR 25003KT 210V280 9999 3000S -RA FEW015 SCT030 BKN100 23/21 A3012 NOSIG=
202209051800 METAR MROC 051800Z VRB02KT 9999 3000S -RA FEW010 SCT020 BKN100 23/21 A3010 NOSIG=
202209051900 METAR MROC 051900Z VRB01KT 9999 SCT030 BKN100 24/21 A3007 NOSIG=
202209052000 METAR MROC 052000Z 17004KT 130V210 9999 RA SCT030 BKN080 24/20 A3005 NOSIG=
202209052100 METAR MROC 052100Z 10005KT 9000 4000N -RA FEW010 SCT035 BKN100 21/19 A3006 NOSIG=
202209052200 METAR MROC 052200Z 17003KT 9999 VCSH FEW035 SCT060 BKN100 21/19 A3006 NOSIG=
202209052300 METAR MROC 052300Z VRB02KT 9999 FEW035 BKN060 20/19 A3008 NOSIG=
202209060000 METAR MROC 060000Z 08006KT 9999 -RA FEW010 SCT060 BKN100 20/18 A3010 NOSIG=
202209060100 METAR MROC 060100Z 08007KT CAVOK 21/18 A3009 NOSIG=
202209060200 METAR MROC 060200Z 06009KT CAVOK 21/18 A3009 NOSIG=
202209060300 METAR MROC 060300Z 07008KT CAVOK 21/17 A3009 NOSIG=
202209060400 METAR MROC 060400Z 08007KT CAVOK 21/16 A3009 NOSIG=
202209060500 METAR MROC 060500Z 30003KT 210V020 CAVOK 20/17 A3009 NOSIG=
202209060600 METAR MROC 060600Z VRB01KT CAVOK 20/17 A3009 NOSIG=
202209060700 METAR MROC 060700Z 03003KT CAVOK 19/17 A3008 NOSIG=
202209060800 METAR MROC 060800Z 10005KT CAVOK 18/17 A3007 NOSIG=
202209060900 METAR MROC 060900Z 03004KT CAVOK 18/16 A3007 NOSIG=
202209061000 METAR MROC 061000Z 08004KT 9999 FEW040 BKN180 18/16 A3008 NOSIG=
202209061100 METAR MROC 061100Z 05004KT CAVOK 18/16 A3009 NOSIG=
202209061200 METAR MROC 061200Z 06004KT CAVOK 18/16 A3011 NOSIG=
202209061300 METAR MROC 061300Z 07005KT CAVOK 21/17 A3013 NOSIG=
202209061400 METAR MROC 061400Z 10004KT 050V140 CAVOK 23/17 A3015 NOSIG=
202209061500 METAR MROC 061500Z VRB02KT CAVOK 26/18 A3013 BECMG 25007KT=
202209061600 METAR MROC 061600Z 11006KT 070V140 9999 FEW040 27/17 A3012 NOSIG=
202209061700 METAR MROC 061700Z VRB05KT 9999 FEW040 28/21 A3012 NOSIG=
202209061800 METAR MROC 061800Z 22008KT 9999 SCT040 28/20 A3010 NOSIG=
202209061900 METAR MROC 061900Z 24009KT 210V270 9999 BKN035 28/23 A3008 NOSIG=
202209062000 METAR MROC 062000Z 23009KT 9999 VCTS FEW015CB BKN035 25/22 A3007 TEMPO TSRA=
202209062100 METAR MROC 062100Z 27004KT 230V340 9999 4500SW VCTS VCSH FEW020TCU BKN025CB 23/18 A3007 NOSIG=
202209062200 METAR MROC 062200Z 24004KT 9999 OVC010 22/21 A3010 NOSIG=
202209062300 METAR MROC 062300Z 31005KT 190V360 9999 FEW040 BKN200 22/21 A3010 NOSIG=
202209062358 METAR MROC 070000Z 18003KT 9999 FEW020 SCT100 BKN200 22/20 A3010 NOSIG=
202209070000 METAR MROC 070000Z 18003KT 9999 FEW020 SCT100 BKN200 22/20 A3010 NOSIG=
202209070100 METAR MROC 070100Z 02003KT 340V050 CAVOK 22/20 A3011 NOSIG=
202209070200 METAR MROC 070200Z 32002KT CAVOK 22/20 A3011 NOSIG=
202209070300 METAR MROC 070300Z VRB02KT 9999 4500SW BCFG FEW010 20/20 A3012 TEMPO 5000 BR=
202209070400 METAR MROC 070400Z VRB02KT 9999 1500SW BCFG NSC 20/20 A3014 NOSIG=
202209070500 METAR MROC 070500Z VRB02KT CAVOK 21/19 A3014 NOSIG=
202209070600 METAR MROC 070600Z 01003KT CAVOK 20/18 A3012 NOSIG=
202209070700 METAR MROC 070700Z VRB02KT 9999 1500SW BCFG NSC 20/20 A3012 NOSIG=
202209070800 METAR MROC 070800Z 06004KT 1500 BR BKN001 20/19 A3010 NOSIG=
202209070900 METAR MROC 070900Z 01003KT 0800 FG FEW001 SCT003 19/19 A3008 NOSIG=
202209071000 METAR MROC 071000Z 04004KT 9999 BCFG NSC 18/18 A3008 NOSIG=
202209071100 METAR MROC 071100Z 19004KT 9999 0500SW BCFG NSC 18/18 A3009 NOSIG=
202209071200 METAR MROC 071200Z 35003KT 9999 BCFG NSC 19/18 A3011 NOSIG=
202209071300 METAR MROC 071300Z 10004KT CAVOK 19/18 A3012 NOSIG=
202209071400 METAR MROC 071400Z 07004KT 030V130 CAVOK 23/18 A3013 NOSIG=
202209071500 METAR MROC 071500Z 29003KT 240V330 CAVOK 26/18 A3013 NOSIG=
202209071600 METAR MROC 071600Z 24008KT 210V280 CAVOK 26/21 A3012 NOSIG=
202209071700 METAR MROC 071700Z 24008KT 190V280 9999 SCT035 26/21 A3011 NOSIG=
202209071800 METAR MROC 071800Z 25008KT 220V280 9999 VCSH FEW015TCU SCT025 BKN040 27/21 A3008 TEMPO TSRA=
202209071900 METAR MROC 071900Z 22008KT 9999 TSRA FEW010CB BKN020 25/22 A3005 NOSIG=
202209072000 METAR MROC 072000Z 23006KT 200V260 6000 -TSRA FEW015CB OVC040 23/22 A3004 NOSIG=
202209072100 METAR MROC 072100Z 29012KT 2000 +RA OVC010 20/20 A3004 NOSIG=
202209072200 METAR MROC 072200Z 36008KT 340V060 9999 -RA FEW010 SCT060 BKN100 20/19 A3004 NOSIG=
202209072300 METAR MROC 072300Z VRB01KT 9999 RA FEW015 BKN050 20/20 A3004 NOSIG=
202209072358 METAR MROC 080000Z VRB02KT 9999 -RA VCTS FEW003 SCT015CB BKN070 21/20 A3008 NOSIG=
202209080000 METAR MROC 080000Z VRB02KT 9999 -RA VCTS FEW003 SCT015CB BKN070 21/20 A3008 NOSIG=
202209080100 METAR MROC 080100Z VRB01KT 9999 -RA FEW010 BKN070 20/19 A3008 NOSIG=
202209080200 METAR MROC 080200Z 19003KT 9999 FEW008 BKN200 20/20 A3010 NOSIG=
202209080300 METAR MROC 080300Z VRB01KT 9999 FEW010 BKN170 20/20 A3013 TEMPO 5000 BR=
202209080400 METAR MROC 080400Z VRB01KT 9999 FEW002 BKN010 20/20 A3013 NOSIG=
202209080500 METAR MROC 080500Z VRB02KT 9999 FEW002 SCT005 BKN010 21/20 A3012 NOSIG=
202209080600 METAR MROC 080600Z 02001KT 9999 FEW002 BKN010 21/20 A3009 NOSIG=
202209080700 METAR MROC 080700Z 09003KT 9999 FEW002 SCT005 BKN015 20/20 A3007 NOSIG=
202209080800 METAR MROC 080800Z 07006KT CAVOK 20/19 A3004 NOSIG=
202209080900 METAR MROC 080900Z 07007KT CAVOK 20/18 A3002 NOSIG=
202209081000 METAR MROC 081000Z 08004KT CAVOK 19/18 A3001 NOSIG=
202209081100 METAR MROC 081100Z 10003KT CAVOK 19/18 A3002 NOSIG=
202209081200 METAR MROC 081200Z VRB02KT 9999 0500SW BCFG SCT002 BKN010 18/18 A3004 NOSIG=
202209081204 METAR MROC 081204Z VRB02KT 0500 R07/0300N FG SCT002 BKN010 18/18 A3004 NOSIG=
202209081300 METAR MROC 081300Z VRB02KT 9999 BCFG FEW004 20/20 A3005 NOSIG=
202209081400 METAR MROC 081400Z 27003KT 220V300 9999 BCFG FEW015 22/19 A3006 NOSIG=
202209081500 METAR MROC 081500Z 24006KT 210V290 9999 BCFG FEW025 24/20 A3007 NOSIG=
202209081700 METAR MROC 081700Z 25009KT 9999 BKN030 24/21 A3006 NOSIG=
202209081800 METAR MROC 081800Z 25010KT 9999 VCSH FEW020TCU BKN040 26/21 A3003 BECMG TSRA SCT015CB=
202209081900 METAR MROC 081900Z 24009KT 200V270 9999 -TSRA FEW015CB SCT035 BKN050 25/22 A3000 NOSIG=
202209082000 METAR MROC 082000Z 22007KT 180V260 9999 -TSRA SCT015CB BKN030 25/21 A2997 NOSIG=
202209082006 METAR MROC 082006Z 19006KT 140V240 9999 +TSRA SCT015CB BKN030 24/21 A2997 TEMPO 5000=
202209082041 METAR MROC 082041Z 03011KT 2000 0500N +TSRA SCT015CB OVC030 22/21 A2997 NOSIG=
202209082044 METAR MROC 082044Z 02012G30KT 310V050 1000 +TSRA SCT015CB OVC030 21/20 A2997 NOSIG=
202209082100 METAR MROC 082100Z COR 29005KT 220V320 3000 0500N TSRA FEW010 SCT015CB OVC070 21/21 A2996 NOSIG=
202209082200 METAR MROC 082200Z 28009KT 250V320 9999 1500SW -TSRA BKN010 FEW015CB 20/20 A2998 TEMPO 5000 BR BKN005=
202209082206 METAR MROC 082206Z 29006KT 2000 -TSRA BR BKN005 FEW015CB 20/20 A2998 NOSIG=
202209082300 METAR MROC 082300Z 35003KT 320V060 2000 -RA BR VCTS BKN010 FEW015CB 20/20 A2999 NOSIG=
202209090000 METAR MROC 090000Z VRB03KT 8000 3000SW -RA BR VCTS BKN008 FEW015CB 21/20 A3002 NOSIG=
202209090100 METAR MROC 090100Z 08005KT 9999 3000SW -RA BCFG VCTS BKN025 FEW015CB 20/18 A3002 RETSRA NOSIG=
202209090200 METAR MROC 090200Z VRB01KT 9999 -RA FEW020 BKN080 20/19 A3004 NOSIG=
202209090300 METAR MROC 090300Z VRB03KT 9999 BCFG FEW010 OVC150 20/19 A3005 NOSIG=
202209090400 METAR MROC 090400Z VRB01KT 9999 BCFG FEW005 BKN180 20/20 A3007 NOSIG=
202209090500 METAR MROC 090500Z 08003KT 9999 3000SW BCFG FEW005 BKN180 20/19 A3005 NOSIG=
202209090600 METAR MROC 090600Z 09004KT 9999 FEW015 BKN200 20/19 A3002 NOSIG=
202209090700 METAR MROC 090700Z 08005KT 9999 FEW020 BKN200 19/18 A2999 NOSIG=
202209090800 METAR MROC 090800Z 05005KT CAVOK 19/17 A2998 NOSIG=
202209090900 METAR MROC 090900Z 08006KT CAVOK 19/17 A2997 NOSIG=
202209091000 METAR MROC 091000Z 09006KT CAVOK 18/16 A2997 NOSIG=
202209091100 METAR MROC 091100Z 07006KT CAVOK 18/15 A2998 NOSIG=
202209091200 METAR MROC 091200Z VRB02KT CAVOK 18/16 A3000 RMK NOSIG=
202209091300 METAR MROC 091300Z 08005KT CAVOK 21/17 A3002 NOSIG=
202209091400 METAR MROC 091400Z VRB02KT CAVOK 25/18 A3003 BECMG 25006KT=
202209091500 METAR MROC 091500Z 26008KT 220V280 CAVOK 24/19 A3005 NOSIG=
202209091600 METAR MROC 091600Z 25008KT 220V280 CAVOK 25/20 A3005 NOSIG=
202209091700 METAR MROC 091700Z COR 25009KT 9999 VCSH FEW020TCU FEW040 25/21 A3004 NOSIG=
202209091800 METAR MROC 091800Z 25007KT 220V290 9999 VCSH FEW020TCU SCT070 25/21 A3001 TEMPO TSRA SCT015CB=
202209091900 METAR MROC 091900Z 25007KT 220V280 9999 RA VCSH FEW015TCU SCT025 25/22 A2998 RMK FEW050 NOSIG=
202209092000 METAR MROC 092000Z 25007KT 220V280 9999 RA VCSH FEW015TCU SCT025 25/22 A2998 NOSIG=
202209092006 METAR MROC 092006Z 22009KT 4000 -TSRA FEW010 SCT015CB BKN025 21/19 A2998 NOSIG=
202209092100 METAR MROC 092100Z 30007KT 250V340 8000 -RA VCFG FEW010 SCT025 BKN045 21/20 A2997 NOSIG=
202209092200 METAR MROC 092200Z 35006KT 320V020 8000 -RA VCFG FEW010 SCT060 BKN100 21/20 A2997 NOSIG=
202209092300 METAR MROC 092300Z 23003KT 210V280 8000 -RA VCFG FEW010 SCT025 BKN080 21/20 A3000 NOSIG=
202209100000 METAR MROC 100000Z 21007KT 1500 R07/P2000N RA BR SCT002 BKN005 20/19 A3003 NOSIG=
202209100100 METAR MROC 100100Z 24005KT 1500 RA BR SCT003 BKN010 19/18 A3006 NOSIG=
202209100200 METAR MROC 100200Z VRB02KT 5000 2000SW -RA BR OVC005 19/19 A3010 NOSIG=
202209100300 METAR MROC 100300Z 32003KT 8000 -RA VCFG SCT010 BKN035 20/19 A3012 NOSIG=
202209100400 METAR MROC 100400Z VRB02KT -DZ SCT010 BKN040 20/19 A3013 NOSIG=
202209100500 METAR MROC 100500Z 16003KT 9999 FEW002 BKN015 19/19 A3012 NOSIG=
202209100600 METAR MROC 100600Z VRB02KT 9999 BCFG FEW002 BKN100 20/19 A3010 NOSIG=
202209100700 METAR MROC 100700Z 07004KT CAVOK 19/19 A3008 NOSIG=
202209100800 METAR MROC 100800Z 07006KT CAVOK 19/18 A3005 NOSIG=
202209100900 METAR MROC 100900Z 06007KT CAVOK 19/18 A3003 NOSIG=
202209101000 METAR MROC 101000Z 08006KT CAVOK 19/17 A3002 NOSIG=
202209101100 METAR MROC 101100Z 08006KT CAVOK 19/17 A3003 NOSIG=
202209101200 METAR MROC 101200Z 08005KT 9999 BCFG NSC 20/17 A3006 NOSIG=
202209101300 METAR MROC 101300Z 05005KT 010V090 CAVOK 21/18 A3007 NOSIG=
202209101400 METAR MROC 101400Z 08005KT 050V120 CAVOK 23/18 A3009 NOSIG=
202209101500 METAR MROC 101500Z 07003KT 030V120 CAVOK 25/19 A3011 BECMG 25005KT=
202209101600 METAR MROC 101600Z 25005KT 030V120 9999 FEW035 SCT150 BKN200 26/19 A3012 NOSIG=
202209101700 METAR MROC 101700Z 24009KT 9999 FEW035 SCT180 BKN200 26/21 A3011 NOSIG=
202209101800 METAR MROC 101800Z 25012KT 9999 FEW020 SCT035 BKN120 24/20 A3010 NOSIG=
202209101900 METAR MROC 101900Z 26012KT 9999 -SHRA VCTS FEW010CB BKN015 22/20 A3008 RETS NOSIG=
202209102000 METAR MROC 102000Z 25007KT 9999 SCT008 BKN015 22/21 A3006 NOSIG=
202209102100 METAR MROC 102100Z 28004KT 250V310 9999 -RA FEW008 BKN020 22/20 A3004 NOSIG=
202209102200 METAR MROC 102200Z 27003KT 220V310 9999 VCTS FEW002 FEW008CB BKN010 22/21 A3005 NOSIG=
202209102300 METAR MROC 102300Z COR VRB02KT 9999 -TSRA SCT002 BKN005 FEW010CB 21/21 A3006 NOSIG=
202209110000 METAR MROC 110000Z VRB02KT 9999 -RA VCTS SCT005 FEW008CB BKN010 21/21 A3010 RETSRA NOSIG=
202209110100 METAR MROC 110100Z 02002KT 9999 RA SCT040 BKN100 20/20 A3012 NOSIG=
202209110200 METAR MROC 110200Z 01004KT 350V160 9999 FEW010 SCT100 21/20 A3011 RERA NOSIG=
202209110300 METAR MROC 110300Z 21002KT 9999 3000SW BCFG FEW002 SCT005 BKN010 20/19 A3013 NOSIG=
202209110400 METAR MROC 110400Z 08004KT 9999 3000SW BCFG FEW005 BKN100 20/19 A3013 NOSIG=
202209110500 METAR MROC 110500Z VRB02KT 9999 BCFG FEW015 BKN150 20/18 A3013 NOSIG=
202209110600 METAR MROC 110600Z 07006KT 040V100 9999 FEW020 BKN200 21/18 A3013 NOSIG=
202209110700 METAR MROC 110700Z 05007KT 9999 FEW020 SCT200 21/18 A3010 NOSIG=
202209110800 METAR MROC 110800Z 36004KT 9999 FEW025 SCT200 20/18 A3008 NOSIG=
202209110900 METAR MROC 110900Z 08005KT CAVOK 20/18 A3006 NOSIG=
202209111000 METAR MROC 111000Z 06009KT CAVOK 21/18 A3006 NOSIG=
202209111100 METAR MROC 111100Z COR 08007KT CAVOK 21/18 A3007 NOSIG=
202209111200 METAR MROC 111200Z 06008KT CAVOK 20/17 A3009 NOSIG=
202209111300 METAR MROC 111300Z 03004KT 340V080 CAVOK 22/18 A3011 NOSIG=
202209111400 METAR MROC 111400Z 10006KT 030V160 CAVOK 25/18 A3013 BECMG 25007KT=
202209111500 METAR MROC 111500Z 12008KT 070V160 CAVOK 26/18 A3014 NOSIG=
202209111600 METAR MROC 111600Z 15005KT 070V120 CAVOK 28/19 A3013 NOSIG=
202209111700 METAR MROC 111700Z 25010KT 210V280 9999 FEW020 BKN200 26/21 A3013 NOSIG=
202209111800 METAR MROC 111800Z 24009KT 220V280 9999 DZ SCT025 BKN160 26/22 A3010 NOSIG=
202209111900 METAR MROC 111900Z 32009KT 3000 TSRA BKN020CB 23/22 A3008 NOSIG=
202209112000 METAR MROC 112000Z VRB01KT 9999 4000SW SHRA VCTS BKN010CB FEW020 21/21 A3005 NOSIG=
202209112100 METAR MROC 112100Z 23006KT 190V270 9999 VCSH FEW010TCU BKN040 22/20 A3007 NOSIG=
202209112200 METAR MROC 112200Z 30005KT 280V010 9999 FEW007 BKN020 22/20 A3008 NOSIG=
202209112300 METAR MROC 112300Z 28003KT 190V330 9999 FEW002 SCT005 BKN010 21/20 A3012 NOSIG=
202209120000 METAR MROC 120000Z 28003KT 300V020 9999 FEW002 BKN100 21/20 A3012 NOSIG=
202209120100 METAR MROC 120100Z 32004KT 300V030 9999 FEW005 21/19 A3013 NOSIG=
202209120200 METAR MROC 120200Z VRB02KT 9999 FEW002 SCT020 21/20 A3014 NOSIG=
202209120300 METAR MROC 120300Z VRB02KT 9999 FEW005 20/19 A3014 NOSIG=
202209120400 METAR MROC 120400Z 03003KT CAVOK 20/19 A3016 NOSIG=
202209120500 METAR MROC 120500Z 01004KT 9999 FEW010 OVC200 20/19 A3014 NOSIG=
202209120600 METAR MROC 120600Z 07003KT 010V100 CAVOK 20/19 A3013 NOSIG=
202209120700 METAR MROC 120700Z 05005KT CAVOK 19/18 A3009 NOSIG=
202209120800 METAR MROC 120800Z 06009KT CAVOK 19/17 A3006 NOSIG=
202209120900 METAR MROC 120900Z 06009KT CAVOK 20/18 A3004 NOSIG=
202209121000 METAR MROC 121000Z 08006KT 050V110 CAVOK 21/18 A3003 NOSIG=
202209121100 METAR MROC 121100Z 14004KT 090V180 CAVOK 21/17 A3005 NOSIG=
202209121200 METAR MROC 121200Z VRB02KT CAVOK 21/18 A3006 NOSIG=
202209121300 METAR MROC 121300Z 30003KT 250V020 CAVOK 21/18 A3009 NOSIG=
202209121400 METAR MROC 121400Z VRB02KT CAVOK 23/18 A3010 BECMG 24007KT=
202209121500 METAR MROC 121500Z 35004KT 300V080 CAVOK 24/18 A3010 NOSIG=
202209121600 METAR MROC 121600Z 25006KT 210V270 9999 FEW040 BKN160 24/20 A3011 NOSIG=
202209121700 METAR MROC 121700Z 25007KT 230V290 9999 SCT040 BKN200 25/20 A3010 NOSIG=
202209121800 METAR MROC 121800Z 23008KT 200V260 9999 SCT030 BKN200 25/20 A3008 NOSIG=
202209121900 METAR MROC 121900Z 25010KT 210V290 9999 FEW020 BKN030 25/20 A3005 TEMPO TSRA=
202209122000 METAR MROC 122000Z COR 23008KT 200V260 9999 VCTS FEW015CB BKN025 24/21 A3002 NOSIG=
202209122100 METAR MROC 122100Z 27007KT 9999 VCTS OVC009CB 22/21 A3002 NOSIG=
202209122200 METAR MROC 122200Z 35006KT 310V020 9999 FEW010 BKN140 21/18 A3001 NOSIG=
202209122300 METAR MROC 122300Z VRB02KT 9999 FEW020 BKN120 22/19 A3000 NOSIG=
202209122358 METAR MROC 130000Z 12002KT 9999 FEW030 BKN140 21/19 A3002 NOSIG=
202209130000 METAR MROC 130000Z 12002KT 9999 FEW030 BKN140 21/19 A3002 NOSIG=
202209130100 METAR MROC 130100Z VRB02KT 9999 FEW025 BKN040 22/20 A3005 NOSIG=
202209130200 METAR MROC 130200Z 30002KT 9999 OVC040 21/19 A3007 NOSIG=
202209130300 METAR MROC 130300Z 20003KT 9999 4500SW BCFG FEW005 BKN020 21/20 A3009 TEMPO 5000 BR=
202209130400 METAR MROC 130400Z 24003KT 9999 3000SW BCFG FEW001 SCT004 BKN008 21/20 A3010 NOSIG=
202209130500 METAR MROC 130500Z 24002KT 9999 3000SW RA BCFG SCT005 BKN010 20/20 A3009 NOSIG=
202209130600 METAR MROC 130600Z COR 23002KT 5000 2000SW DZ BR FEW001 SCT005 BKN008 20/20 A3007 RERA NOSIG=
202209130700 METAR MROC 130700Z 00000KT 9999 2000SW DZ BCFG SCT002 BKN007 20/20 A3006 NOSIG=
202209130800 METAR MROC 130800Z VRB02KT 9999 3000SW BCFG FEW002 BKN008 20/20 A3004 REDZ NOSIG=
202209130900 METAR MROC 130900Z 00000KT 9999 FEW002 BKN008 20/20 A3003 NOSIG=
202209131000 METAR MROC 131000Z 07003KT 9999 -DZ SCT010 BKN150 20/20 A3003 NOSIG=
202209131100 METAR MROC 131100Z 07005KT CAVOK 21/20 A3003 NOSIG=
202209131200 METAR MROC 131200Z VRB02KT 9999 -RA BCFG FEW010 BKN120 21/19 A3004 NOSIG=
202209131300 METAR MROC 131300Z VRB02KT 5000 1500SW PRFG BR FEW001 BKN120 21/20 A3006 NOSIG=
202209131400 METAR MROC 131400Z 25003KT 210V290 9000 VCFG FEW008 BKN120 23/20 A3008 NOSIG=
202209131500 METAR MROC 131500Z 25005KT 210V290 9999 VCFG SCT020 BKN150 23/20 A3009 NOSIG=
202209131600 METAR MROC 131600Z 25006KT 210V280 9999 VCSH SCT030 BKN150 24/20 A3009 NOSIG=
202209131700 METAR MROC 131700Z 24009KT 210V280 9999 BKN025 25/20 A3006 NOSIG=
202209131800 METAR MROC 131800Z COR 23008KT 9999 VCTS VCSH FEW015CB BKN035 25/21 A3003 TEMPO SHRA=
202209131900 METAR MROC 131900Z COR 23008KT 200V260 9999 VCTS VCSH SCT008CB SCT060 BKN100 23/21 A3000 RERA NOSIG=
202209132000 METAR MROC 132000Z 22006KT 9999 3500SW RA VCTS BKN008CB 21/20 A3000 NOSIG=
202209132100 METAR MROC 132100Z 28012KT 0800 R07/P2000N TSRA FG OVC003CB 20/19 A3002 NOSIG=
202209132200 METAR MROC 132200Z 33006KT 5000 -RA BCFG BKN008 19/19 A3002 NOSIG=
202209132300 METAR MROC 132300Z 32003KT 190V350 7000 -RA BCFG BKN010 20/19 A3003 NOSIG=
202209140000 METAR MROC 140000Z 19003KT 7000 2000SW -RA BCFG OVC010 20/19 A3007 NOSIG=
202209140100 METAR MROC 140100Z COR 27005KT 250V330 7000 2000SW -RA BCFG SCT003 OVC010 19/19 A3008 NOSIG=
202209140200 METAR MROC 140200Z 32006KT 8000 -RA BCFG SCT006 BKN010 19/19 A3008 NOSIG=
202209140300 METAR MROC 140300Z VRB01KT 9999 FEW015 19/18 A3009 NOSIG=
202209140400 METAR MROC 140400Z 11004KT 9999 FEW030 BKN150 19/18 A3008 NOSIG=
202209140500 METAR MROC 140500Z 07006KT CAVOK 20/18 A3007 NOSIG=
202209140600 METAR MROC 140600Z 09005KT 070V140 CAVOK 20/18 A3006 NOSIG=
202209140700 METAR MROC 140700Z 08007KT CAVOK 20/17 A3003 NOSIG=
202209140800 METAR MROC 140800Z 07006KT CAVOK 20/17 A3000 NOSIG=
202209140900 METAR MROC 140900Z 10004KT CAVOK 19/17 A2999 NOSIG=
202209141000 METAR MROC 141000Z 25003KT 220V290 CAVOK 18/17 A3000 NOSIG=
202209141100 METAR MROC 141100Z 35003KT CAVOK 18/17 A3002 NOSIG=
202209141200 METAR MROC 141200Z 08003KT 010V100 9999 OVC010 18/18 A3004 NOSIG=
202209141300 METAR MROC 141300Z VRB02KT 9999 FEW008 SCT030 BKN200 19/18 A3006 NOSIG=
202209141400 METAR MROC 141400Z VRB02KT 9999 FEW015 SCT200 22/18 A3007 NOSIG=
202209141500 METAR MROC 141500Z VRB02KT 9999 FEW035 SCT250 23/18 A3007 NOSIG=
202209141600 METAR MROC 141600Z 25005KT 9999 FEW035 SCT250 24/19 A3007 NOSIG=
202209141700 METAR MROC 141700Z 24007KT 210V270 9999 SCT030 BKN130 25/18 A3005 NOSIG=
202209141800 METAR MROC 141800Z 24007KT 9999 SCT030 BKN120 25/20 A3004 NOSIG=
202209141900 METAR MROC 141900Z 24009KT 210V270 9999 VCSH SCT030 BKN120 26/20 A3001 NOSIG=
202209142000 METAR MROC 142000Z 26008KT 220V280 9999 VCSH FEW025TCU BKN040 26/20 A2999 NOSIG=
202209142100 METAR MROC 142100Z 18007KT 1500 -TSRA FEW015CB BKN020 20/20 A3000 NOSIG=
202209142200 METAR MROC 142200Z 23004KT 8000 -TSRA VCFG FEW010 FEW015CB BKN020 20/20 A3002 TEMPO BKN010=
202209142300 METAR MROC 142300Z VRB02KT 8000 3000N -RA VCFG SCT005 BKN010 20/19 A3004 NOSIG=
202209150000 METAR MROC 150000Z VRB02KT 8000 3000SW RA VCFG OVC010 20/20 A3005 NOSIG=
202209150100 METAR MROC 150100Z VRB02KT 9999 3000SW -RA BCFG SCT005 BKN010 20/20 A3007 NOSIG=
202209150200 METAR MROC 150200Z 08003KT 9999 BCFG SCT015 BKN025 20/20 A3009 NOSIG=
202209150300 METAR MROC 150300Z VRB02KT 9999 -RA BCFG SCT035 BKN120 21/20 A3011 NOSIG=
202209150400 METAR MROC 150400Z 30003KT 9999 -RA BCFG FEW005 OVC120 20/20 A3011 NOSIG=
202209150500 METAR MROC 150500Z VRB02KT 9999 BCFG FEW005 BKN100 20/20 A3011 NOSIG=
202209150600 METAR MROC 150600Z 09003KT 060V120 CAVOK 20/19 A3009 NOSIG=
202209150700 METAR MROC 150700Z 09004KT CAVOK 20/19 A3005 NOSIG=
202209150800 METAR MROC 150800Z 08004KT CAVOK 20/19 A3002 NOSIG=
202209150900 METAR MROC 150900Z 06005KT CAVOK 20/18 A3001 NOSIG=
202209151000 METAR MROC 151000Z 07004KT CAVOK 19/18 A3001 NOSIG=
202209151100 METAR MROC 151100Z VRB02KT 9999 BCFG FEW025 19/18 A3004 NOSIG=
202209151200 METAR MROC 151200Z VRB02KT 9999 BCFG FEW010 19/18 A3005 NOSIG=
202209151300 METAR MROC 151300Z 33003KT 280V040 9999 FEW005 SCT020 21/19 A3009 NOSIG=
202209151400 METAR MROC 151400Z VRB01KT 9999 FEW010 SCT035 23/19 A3009 NOSIG=
202209151500 METAR MROC 151500Z VRB02KT 9999 FEW035 24/19 A3010 NOSIG=
202209151600 METAR MROC 151600Z 25005KT 210V300 9999 FEW025 SCT120 25/20 A3010 NOSIG=
202209151700 METAR MROC 151700Z 24007KT 210V280 9999 FEW025 SCT035 25/20 A3008 NOSIG=
202209151800 METAR MROC 151800Z 24008KT 210V270 9999 VCSH FEW020TCU FEW030 SCT100 26/20 A3004 NOSIG=
202209151900 METAR MROC 151900Z 25010KT 9999 VCTS VCSH FEW015 FEW020CB SCT100 SCT100 25/20 A3001 BECMG TSRA=
202209152000 METAR MROC 152000Z 24006KT 5000 2000N TSRA SCT020CB BKN030 23/21 A3001 NOSIG=
202209152100 METAR MROC 152100Z 26003KT 200V310 8000 2000SW -TSRA VCFG FEW005 FEW015CB SCT025 BKN050 20/20 A3002 NOSIG=
202209152200 METAR MROC 152200Z 28004KT 240V330 5000 2000SW -RA BR OVC005 21/20 A3003 NOSIG=
202209152300 METAR MROC 152300Z 28005KT 260V320 3000 1200SW -RA BR SCT005 BKN010 20/20 A3005 NOSIG=
202209160000 METAR MROC 160000Z 00000KT 8000 -RA VCFG SCT005 BKN010 20/20 A3006 NOSIG=
202209160100 METAR MROC 160100Z 24003KT 9999 4000SW BCFG SCT015 BKN120 20/20 A3007 NOSIG=
202209160200 METAR MROC 160200Z 31004KT 270V340 8000 3000SW VCFG SCT005 BKN010 20/19 A3008 NOSIG=
202209160300 METAR MROC 160300Z 25010KT 9999 BKN015 20/19 A3008 NOSIG=
202209160400 METAR MROC 160400Z VRB02KT 9999 FEW025 BKN060 20/19 A3009 NOSIG=
202209160500 METAR MROC 160500Z 28004KT 230V320 9999 3000SW BCFG FEW002 BKN060 20/19 A3010 TEMPO 5000 BR BKN010=
202209160600 METAR MROC 160600Z VRB02KT 1500 BR BCFG BKN005 20/19 A3009 NOSIG=
202209160700 METAR MROC 160700Z 09003KT 3000 1000SW BR SCT005 BKN015 19/19 A3007 NOSIG=
202209160800 METAR MROC 160800Z 12003KT 8000 3000SW VCFG BCFG NSC 19/19 A3005 NOSIG=
202209160900 METAR MROC 160900Z 06005KT 9999 BKN045 19/18 A3005 NOSIG=
202209161000 METAR MROC 161000Z 07004KT CAVOK 19/18 A3005 NOSIG=
202209161100 METAR MROC 161100Z VRB01KT 9999 FEW005 BKN200 18/18 A3007 NOSIG=
202209161200 METAR MROC 161200Z 06004KT 9999 BCFG FEW002 BKN200 18/18 A3008 NOSIG=
202209161300 METAR MROC 161300Z 10003KT CAVOK 21/19 A3008 NOSIG=
202209161400 METAR MROC 161400Z 08004KT 040V110 CAVOK 24/19 A3008 TEMPO 24005KT=
202209161500 METAR MROC 161500Z 10004KT 060V140 CAVOK 26/17 A3006 NOSIG=
202209161600 METAR MROC 161600Z 13007KT 090V200 CAVOK 28/17 A3004 NOSIG=
202209161700 METAR MROC 161700Z 12004KT 060V220 9999 FEW045 SCT220 29/18 A3003 TEMPO 24005KT=
202209161800 METAR MROC 161800Z 25012KT 210V280 9999 FEW020TCU FEW030 SCT050 26/22 A3002 NOSIG=
202209161900 METAR MROC 161900Z 25014KT 9999 -TSRA FEW010 FEW015CB SCT030 24/21 A3001 NOSIG=
202209162000 METAR MROC 162000Z 27007KT 230V290 9000 VCTS FEW008 FEW012CB BKN020 22/21 A3001 NOSIG=
202209162100 METAR MROC 162100Z 23005KT 200V260 3000 1200SW TSRA BR SCT002 FEW012CB BKN020 20/20 A3003 NOSIG=
202209162200 METAR MROC 162200Z VRB02KT 7000 -RA BCFG VCTS FEW004 FEW015CB SCT030 20/20 A3003 NOSIG=
202209162300 METAR MROC 162300Z VRB02KT 5000 -RA BR FEW006 SCT015 BKN030 20/20 A3005 NOSIG=
202209170000 METAR MROC 170000Z VRB02KT 5000 -RA BR FEW002 SCT010 BKN020 20/20 A3007 NOSIG=
202209170100 METAR MROC 170100Z VRB01KT 9999 FEW005 SCT030 BKN100 20/20 A3008 NOSIG=
202209170200 METAR MROC 170200Z 23002KT 9999 FEW002 SCT020 BKN130 20/20 A3009 NOSIG=
202209170300 METAR MROC 170300Z VRB01KT 9999 FEW005 SCT120 20/20 A3010 NOSIG=
202209170400 METAR MROC 170400Z 26006KT 240V300 9999 4000SW BCFG OVC005 20/20 A3012 NOSIG=
202209170500 METAR MROC 170500Z 29003KT 9999 BCFG SCT005 BKN010 20/20 A3010 NOSIG=
202209170600 METAR MROC 170600Z VRB02KT 9999 BKN005 SCT030 20/19 A3008 NOSIG=
202209170700 METAR MROC 170700Z 00000KT 9999 FEW005 SCT015 BKN200 20/19 A3006 NOSIG=
202209170800 METAR MROC 170800Z VRB02KT 9999 SCT015 BKN200 20/19 A3004 NOSIG=
202209170900 METAR MROC 170900Z VRB02KT 9999 OVC015 20/19 A3003 NOSIG=
202209171000 METAR MROC 171000Z 06003KT 9999 BKN025 20/19 A3004 NOSIG=
202209171100 METAR MROC 171100Z 03006KT CAVOK 20/18 A3004 NOSIG=
202209171200 METAR MROC 171200Z 08003KT CAVOK 19/18 A3006 NOSIG=
202209171300 METAR MROC 171300Z 06003KT 020V090 CAVOK 21/18 A3007 NOSIG=
202209171400 METAR MROC 171400Z 14003KT 110V210 CAVOK 23/19 A3008 BECMG 24007KT=
202209171500 METAR MROC 171500Z 25006KT 210V300 9999 SCT030 23/19 A3009 NOSIG=
202209171600 METAR MROC 171600Z 24005KT 200V300 9999 SCT030 BKN200 24/20 A3009 NOSIG=
202209171700 METAR MROC 171700Z 23008KT 9999 BKN030 25/19 A3008 NOSIG=
202209171800 METAR MROC 171800Z 22007KT 190V260 9999 VCSH FEW020TCU BKN035 25/21 A3005 NOSIG=
202209171900 METAR MROC 171900Z 25010KT 230V290 9999 FEW020 BKN040 25/21 A3002 NOSIG=
202209172000 METAR MROC 172000Z 24008KT 210V270 9999 VCTS FEW010 BKN030 24/21 A2998 TEMPO TSRA=
202209172100 METAR MROC 172100Z 25007KT 9999 RA SCT010 SCT015 23/21 A2997 NOSIG=
202209172200 METAR MROC 172200Z 21009KT 9999 4500S -RA VCTS FEW007 SCT020CB BKN025 21/20 A3000 NOSIG=
202209172300 METAR MROC 172300Z 26003KT 210V290 4000 TSRA FEW010CB BKN007 20/19 A3004 NOSIG=
202209180000 METAR MROC 180000Z VRB02KT 5000 RA VCTS FEW013CB BKN040 19/19 A3006 NOSIG=
202209180100 METAR MROC 180100Z VRB01KT 9000 RA NSC 20/19 A3004 NOSIG=
202209180200 METAR MROC 180200Z 18003KT 150V210 9999 4500SW BCFG SCT001 BKN030 19/19 A3008 RERA TEMPO 5000 BR=
202209180300 METAR MROC 180300Z 03005KT 9999 FEW007 BKN030 20/19 A3010 NOSIG=
202209180400 METAR MROC 180400Z 08003KT 9999 SCT030 BKN110 20/19 A3009 NOSIG=
202209180500 METAR MROC 180500Z 07004KT 9999 FEW030 BKN110 20/19 A3007 NOSIG=
202209180600 METAR MROC 180600Z 09004KT CAVOK 20/19 A3005 NOSIG=
202209180700 METAR MROC 180700Z 08006KT CAVOK 21/19 A3004 NOSIG=
202209180800 METAR MROC 180800Z 08005KT CAVOK 21/18 A3001 NOSIG=
202209180900 METAR MROC 180900Z 06007KT CAVOK 20/18 A2999 NOSIG=
202209181000 METAR MROC 181000Z VRB02KT CAVOK 20/18 A3000 NOSIG=
202209181100 METAR MROC 181100Z 23006KT CAVOK 20/18 A3003 NOSIG=
202209181200 METAR MROC 181200Z 30005KT 9999 FEW008 BKN100 19/19 A3006 NOSIG=
202209181300 METAR MROC 181300Z 30006KT 250V010 9999 BKN010 20/19 A3009 NOSIG=
202209181400 METAR MROC 181400Z 30003KT 270V330 9999 SCT005 BKN015 20/19 A3013 NOSIG=
202209181500 METAR MROC 181500Z 02003KT 320V080 9999 SCT010 BKN020 21/19 A3012 NOSIG=
202209181600 METAR MROC 181600Z 11005KT 080V150 9999 FEW020 BKN100 23/19 A3009 NOSIG=
202209181700 METAR MROC 181700Z 11005KT 080V150 9999 NSC 24/19 A3006 NOSIG=
202209181800 METAR MROC 181800Z VRB02KT CAVOK 26/19 A3003 TEMPO 24006KT=
202209181900 METAR MROC 181900Z VRB02KT CAVOK 28/17 A3001 NOSIG=
202209182000 METAR MROC 182000Z 24010KT 210V270 9999 FEW020 BKN150 23/21 A3001 NOSIG=
202209182100 METAR MROC 182100Z 25010KT 9999 BKN020 22/20 A3001 NOSIG=
202209182200 METAR MROC 182200Z 29007KT 260V320 9999 BKN020 22/20 A3002 NOSIG=
202209182300 METAR MROC 182300Z 27005KT 240V330 9999 FEW015 BKN150 21/20 A3003 NOSIG=
202209190000 METAR MROC 190000Z 26003KT 220V320 9999 FEW015 BKN120 21/20 A3004 NOSIG=
202209190100 METAR MROC 190100Z 26004KT 9999 SCT008 BKN120 20/20 A3007 NOSIG=
202209190200 METAR MROC 190200Z VRB02KT 9999 FEW005 SCT020 BKN130 21/20 A3009 NOSIG=
202209190300 METAR MROC 190300Z 00000KT 9999 SCT008 BKN120 20/19 A3010 NOSIG=
202209190400 METAR MROC 190400Z 35002KT 9999 FEW010 20/19 A3010 NOSIG=
202209190500 METAR MROC 190500Z 07003KT 9999 FEW010 BKN160 20/19 A3008 NOSIG=
202209190600 METAR MROC 190600Z 36002KT 9999 FEW010 BKN150 20/19 A3007 NOSIG=
202209190700 METAR MROC 190700Z 11003KT 9999 FEW005 BKN130 19/19 A3005 NOSIG=
202209190800 METAR MROC 190800Z 00000KT CAVOK 19/19 A3003 NOSIG=
202209190900 METAR MROC 190900Z 08002KT CAVOK 19/18 A3002 NOSIG=
202209191000 METAR MROC 191000Z VRB02KT CAVOK 19/18 A3002 NOSIG=
202209191100 METAR MROC 191100Z VRB02KT CAVOK 19/18 A3003 NOSIG=
202209191200 METAR MROC 191200Z 02003KT CAVOK 19/17 A3006 NOSIG=
202209191300 METAR MROC 191300Z 01003KT 340V050 9999 FEW010 SCT120 BKN200 21/18 A3007 NOSIG=
202209191400 METAR MROC 191400Z VRB02KT 9999 FEW010 SCT120 24/18 A3008 BECMG 24005KT=
202209191500 METAR MROC 191500Z 04003KT 9999 FEW030 BKN150 25/19 A3009 NOSIG=
202209191600 METAR MROC 191600Z 24006KT 200V270 9999 SCT030 BKN150 25/20 A3010 NOSIG=
202209191700 METAR MROC 191700Z 25007KT 200V290 9999 SCT030 BKN150 25/20 A3008 NOSIG=
202209191800 METAR MROC 191800Z 27007KT 230V320 9999 SCT030 SCT150 26/20 A3004 NOSIG=
202209191900 METAR MROC 191900Z 25010KT 220V280 9999 BKN030 26/22 A3001 NOSIG=
202209192000 METAR MROC 192000Z 24010KT 9999 SCT015 BKN035 25/21 A2999 NOSIG=
202209192100 METAR MROC 192100Z 24008KT 210V280 9999 4500SW VCSH SCT020 BKN100 23/21 A2999 NOSIG=
202209192200 METAR MROC 192200Z 24008KT 200V260 9999 VCSH FEW010TCU BKN015 22/20 A3001 NOSIG=
202209192300 METAR MROC 192300Z 25007KT 9999 BKN010 21/20 A3002 NOSIG=
202209200000 METAR MROC 200000Z 25007KT 9999 4500SW RA BKN010 21/20 A3004 NOSIG=
202209200100 METAR MROC 200100Z 24006KT 9999 4500SW -RA BKN005 21/20 A3007 NOSIG=
202209200200 METAR MROC 200200Z 30005KT 7000 2500SW RA VCFG OVC003 20/20 A3010 NOSIG=
202209200300 METAR MROC 200300Z 02005KT 9999 3000SW RA VCFG FEW015 BKN020 19/19 A3014 NOSIG=
202209200400 METAR MROC 200400Z 14002KT 9999 -RA NSC 19/18 A3014 NOSIG=
202209200500 METAR MROC 200500Z VRB02KT 9999 FEW010 OVC130 19/18 A3013 NOSIG=
202209200600 METAR MROC 200600Z 10001KT CAVOK 19/18 A3011 NOSIG=
202209200700 METAR MROC 200700Z 05004KT CAVOK 19/18 A3008 NOSIG=
202209200800 METAR MROC 200800Z VRB01KT CAVOK 19/18 A3006 NOSIG=
202209200900 METAR MROC 200900Z 05005KT 9999 FEW020 BKN160 19/18 A3004 NOSIG=
202209201000 METAR MROC 201000Z 10004KT CAVOK 18/18 A3004 NOSIG=
202209201100 METAR MROC 201100Z 07005KT 9999 FEW015 SCT140 18/17 A3006 NOSIG=
202209201200 METAR MROC 201200Z 07003KT 9999 SCT030 OVC160 19/18 A3008 NOSIG=
202209201300 METAR MROC 201300Z 08006KT CAVOK 19/18 A3010 NOSIG=
202209201400 METAR MROC 201400Z 10004KT 080V140 CAVOK 21/19 A3011 NOSIG=
202209201500 METAR MROC 201500Z 27003KT 9999 FEW040 24/19 A3011 NOSIG=
202209201600 METAR MROC 201600Z 25006KT 220V290 9999 SCT025 25/19 A3011 NOSIG=
202209201700 METAR MROC 201700Z 26007KT 220V290 9999 BKN025 25/20 A3010 NOSIG=
202209201800 METAR MROC 201800Z 27007KT 230V300 9999 SCT030 25/20 A3007 NOSIG=
202209201900 METAR MROC 201900Z 24008KT 210V300 9999 SCT020 BKN180 25/21 A3004 NOSIG=
202209202000 METAR MROC 202000Z 24011KT 9999 SCT020 BKN160 25/20 A3002 NOSIG=
202209202100 METAR MROC 202100Z 25009KT 9999 BKN015 23/21 A3001 NOSIG=
202209202200 METAR MROC 202200Z 27009KT 220V290 9999 SCT010 BKN015 22/20 A3002 TEMPO RA=
202209202300 METAR MROC 202300Z 26007KT 8000 3000SW VCFG SCT005 BKN025 21/20 A3004 NOSIG=
202209210000 METAR MROC 210000Z 25007KT 8000 3000SW VCFG BKN005 20/20 A3006 NOSIG=
202209210100 METAR MROC 210100Z 24005KT 8000 1500SW VCFG SCT003 BKN010 20/20 A3008 NOSIG=
202209210200 METAR MROC 210200Z 26006KT 8000 2000SW VCFG SCT003 BKN010 20/20 A3011 NOSIG=
202209210300 METAR MROC 210300Z VRB02KT 8000 3000SW VCFG FEW003 SCT010 BKN035 20/20 A3012 NOSIG=
202209210400 METAR MROC 210400Z 31003KT 260V340 9999 3500SW VCFG FEW005 BKN015 20/19 A3012 NOSIG=
202209210500 METAR MROC 210500Z VRB02KT 8000 3500SW VCFG FEW005 BKN010 20/20 A3011 NOSIG=
202209210600 METAR MROC 210600Z 31004KT 8000 3500SW VCFG FEW005 SCT015 BKN080 20/20 A3009 NOSIG=
202209210700 METAR MROC 210700Z 33003KT 9999 SCT010 SCT080 20/19 A3006 NOSIG=
202209210800 METAR MROC 210800Z COR VRB02KT 9999 BCFG FEW005 BKN020 20/19 A3003 NOSIG=
202209210900 METAR MROC 210900Z 19002KT 9999 BCFG FEW005 BKN020 20/20 A3003 NOSIG=
202209211000 METAR MROC 211000Z 14002KT 9999 BCFG FEW005 BKN030 20/19 A3004 NOSIG=
202209211100 METAR MROC 211100Z VRB01KT 9999 FEW015 SCT100 19/19 A3005 NOSIG=
202209211200 METAR MROC 211200Z 04003KT 350V060 9999 4000SW BCFG FEW002 BKN130 20/18 A3006 NOSIG=
202209211300 METAR MROC 211300Z 00000KT 9999 4500S BCFG FEW001 22/19 A3008 NOSIG=
202209211400 METAR MROC 211400Z 24004KT 180V290 9999 4500S BCFG FEW003 22/20 A3010 NOSIG=
202209211500 METAR MROC 211500Z 27003KT 9999 SCT025 24/20 A3010 NOSIG=
202209211600 METAR MROC 211600Z 24005KT 210V300 9999 SCT020 25/20 A3009 NOSIG=
202209211700 METAR MROC 211700Z 25007KT 210V280 9999 SCT025 26/20 A3008 NOSIG=
202209211800 METAR MROC 211800Z 24011KT 210V280 9999 FEW030TCU 26/19 A3005 NOSIG=
202209211900 METAR MROC 211900Z 23012KT 9999 SCT030CB FEW025 26/20 A3002 NOSIG=
202209212000 METAR MROC 212000Z 23011KT 9999 VCSH BKN020CB 24/21 A3000 TEMPO 5000 SHRA=
202209212100 METAR MROC 212100Z 25010KT 9999 FEW012 SCT030 BKN100 23/20 A2999 NOSIG=
202209212200 METAR MROC 212200Z 24007KT 9999 SCT020 BKN100 22/19 A3000 NOSIG=
202209212300 METAR MROC 212300Z 26006KT 9999 SCT015 BKN100 22/20 A3002 NOSIG=
202209220000 METAR MROC 220000Z 28005KT 220V330 9999 FEW005 BKN100 21/19 A3004 NOSIG=
202209220100 METAR MROC 220100Z 26004KT 9999 FEW008 SCT020 21/19 A3006 NOSIG=
202209220200 METAR MROC 220200Z 32003KT 9999 FEW008 BKN015 21/19 A3009 NOSIG=
202209220300 METAR MROC 220300Z VRB01KT 9999 SCT010 BKN020 20/19 A3010 NOSIG=
202209220400 METAR MROC 220400Z VRB02KT 9999 3000SW BCFG SCT020 20/20 A3011 NOSIG=
202209220500 METAR MROC 220500Z VRB02KT 9999 3000SW BCFG SCT003 BKN010 20/20 A3010 NOSIG=
202209220600 METAR MROC 220600Z 00000KT 9999 3000SW BCFG SCT005 BKN010 20/20 A3009 NOSIG=
202209220700 METAR MROC 220700Z VRB02KT 9999 4000NE BCFG FEW010 SCT020 20/20 A3008 NOSIG=
202209220800 METAR MROC 220800Z VRB02KT 9999 BCFG SCT005 BKN020 20/20 A3006 NOSIG=
202209220900 METAR MROC 220900Z VRB02KT 9999 BCFG SCT005 BKN020 20/19 A3005 NOSIG=
202209221000 METAR MROC 221000Z VRB02KT 8000 3000SW BCFG SCT003 SCT030 19/19 A3005 NOSIG=
202209221100 METAR MROC 221100Z VRB02KT 9999 4000SW BCFG SCT005 20/19 A3006 NOSIG=
202209221200 METAR MROC 221200Z VRB02KT 0800 FG NSC 19/19 A3006 NOSIG=
202209221300 METAR MROC 221300Z 04005KT 9000 VCFG FEW001 21/19 A3007 NOSIG=
202209221400 METAR MROC 221400Z VRB01KT CAVOK 23/18 A3009 BECMG 26004KT=
202209221500 METAR MROC 221500Z VRB02KT 9999 FEW030 24/18 A3009 NOSIG=
202209221600 METAR MROC 221600Z 23004KT 9999 FEW035 26/19 A3008 NOSIG=
202209221700 METAR MROC 221700Z 26008KT 230V300 9999 FEW040 SCT200 26/19 A3007 NOSIG=
202209221800 METAR MROC 221800Z 23008KT 200V270 9999 FEW030 26/18 A3004 NOSIG=
202209221900 METAR MROC 221900Z 23012KT 9999 VCDZ FEW025 SCT030CB 25/20 A3001 NOSIG=
202209222000 METAR MROC 222000Z COR 24011KT 9999 BKN020CB FEW025 25/20 A2998 NOSIG=
202209222100 METAR MROC 222100Z 20009KT 160V220 9000 3000SW RA VCTS SCT015CB BKN040 21/20 A2999 TEMPO TSRA=
202209222200 METAR MROC 222200Z 22004KT 9999 -RA VCTS BKN045 22/21 A3000 NOSIG=
202209222300 METAR MROC 222300Z 28004KT 9999 -DZ SCT005 BKN040 22/21 A3001 NOSIG=
202209230000 METAR MROC 230000Z 25005KT 9999 -DZ SCT006 OVC020 21/20 A3003 NOSIG=
202209230032 METAR MROC 230032Z 09004KT 5000 +RA SCT006 OVC015 21/20 A3006 NOSIG=
202209230100 METAR MROC 230100Z VRB01KT 9000 -RA FEW020 OVC040 20/19 A3007 NOSIG=
202209230200 METAR MROC 230200Z 25003KT 220V280 9999 BKN005 20/20 A3009 NOSIG=
202209230300 METAR MROC 230300Z 11004KT 080V140 9999 FEW004 BKN100 20/20 A3007 NOSIG=
202209230400 METAR MROC 230400Z 10003KT 040V150 CAVOK 21/19 A3007 NOSIG=
202209230500 METAR MROC 230500Z 24003KT 220V280 9999 3000SW BCFG SCT002 BKN100 20/20 A3008 NOSIG=
202209230600 METAR MROC 230600Z 00000KT 3000 1200SW BR SCT002 20/20 A3007 BECMG 5000=
202209230700 METAR MROC 230700Z 07003KT 9000 VCFG FEW007 20/19 A3004 NOSIG=
202209230800 METAR MROC 230800Z 09005KT CAVOK 20/19 A3003 NOSIG=
202209230900 METAR MROC 230900Z 09004KT CAVOK 20/18 A3003 NOSIG=
202209231000 METAR MROC 231000Z 07005KT CAVOK 19/17 A3001 NOSIG=
202209231100 METAR MROC 231100Z VRB02KT 9999 FEW005 SCT130 19/17 A3003 NOSIG=
202209231126 METAR MROC 231126Z 25004KT 0500 R07/0250D FG SCT002 18/18 A3006 NOSIG=
202209231200 METAR MROC 231200Z VRB04KT 9999 3000SW BCFG FEW002 SCT130 18/18 A3008 NOSIG=
202209231300 METAR MROC 231300Z 20003KT 1500 BR SCT002 19/19 A3010 NOSIG=
202209231400 METAR MROC 231400Z VRB02KT 8000 BCFG VCFG FEW002 BKN130 21/19 A3012 NOSIG=
202209231500 METAR MROC 231500Z VRB01KT 9999 VCFG FEW010 BKN220 22/19 A3012 NOSIG=
202209231600 METAR MROC 231600Z VRB02KT CAVOK 25/19 A3011 NOSIG=
202209231700 METAR MROC 231700Z 24007KT CAVOK 25/20 A3009 NOSIG=
202209231800 METAR MROC 231800Z 23007KT 9999 FEW020 BKN150 25/20 A3006 NOSIG=
202209231900 METAR MROC 231900Z 25008KT 210V290 9999 SCT025 26/20 A3002 NOSIG=
202209232000 METAR MROC 232000Z 25009KT 9999 SCT030 26/21 A3000 NOSIG=
202209232100 METAR MROC 232100Z 24009KT 9999 -TSRA SCT025CB BKN180 24/21 A2998 NOSIG=
202209232200 METAR MROC 232200Z 25007KT 9999 +TSRA FEW007CB BKN025 22/21 A2999 TEMPO 5000=
202209232300 METAR MROC 232300Z 26003KT 210V340 9000 3000NW BCFG SCT004 OVC015 22/21 A3001 RETSRA NOSIG=
202209240000 METAR MROC 240000Z 19003KT 160V230 9000 3000SW BCFG VCTS SCT002 OVC010 21/21 A3003 RERA NOSIG=
202209240100 METAR MROC 240100Z VRB02KT 9999 BCFG OVC007 21/20 A3006 NOSIG=
202209240200 METAR MROC 240200Z 03003KT 340V080 9999 FEW010 SCT030 OVC160 22/20 A3008 NOSIG=
202209240300 METAR MROC 240300Z 03003KT 350V050 9999 FEW020 21/20 A3008 NOSIG=
202209240400 METAR MROC 240400Z VRB03KT CAVOK 21/20 A3008 NOSIG=
202209240500 METAR MROC 240500Z 07005KT CAVOK 20/19 A3007 NOSIG=
202209240600 METAR MROC 240600Z 04003KT CAVOK 20/19 A3006 NOSIG=
202209240700 METAR MROC 240700Z COR 07006KT CAVOK 20/18 A3003 NOSIG=
202209240800 METAR MROC 240800Z 04004KT 350V080 CAVOK 19/17 A3001 NOSIG=
202209240900 METAR MROC 240900Z 06006KT CAVOK 19/17 A2999 NOSIG=
202209241000 METAR MROC 241000Z VRB01KT CAVOK 18/17 A3001 NOSIG=
202209241100 METAR MROC 241100Z 05003KT CAVOK 19/16 A3002 NOSIG=
202209241200 METAR MROC 241200Z VRB02KT 9999 3000S BCFG FEW007 18/17 A3005 NOSIG=
202209241300 METAR MROC 241300Z VRB02KT 9999 2000S BCFG FEW005 SCT200 20/18 A3007 NOSIG=
202209241400 METAR MROC 241400Z 00000KT 9999 3000SW BCFG NSC 23/18 A3008 NOSIG=
202209241500 METAR MROC 241500Z 25003KT 200V320 9999 FEW045 SCT200 24/18 A3008 NOSIG=
202209241600 METAR MROC 241600Z 24008KT 9999 FEW045 SCT200 26/20 A3006 NOSIG=
202209241700 METAR MROC 241700Z 25008KT 210V280 9999 FEW040 BKN200 26/20 A3005 NOSIG=
202209241800 METAR MROC 241800Z 26011KT 9999 VCSH FEW025TCU SCT030 BKN200 26/21 A3003 TEMPO TSRA=
202209241900 METAR MROC 241900Z COR 25010KT 230V290 9999 VCTS VCSH FEW020CB BKN030 26/22 A2999 NOSIG=
202209242000 METAR MROC 242000Z 29009KT 240V340 9999 -TSRA FEW015CB BKN030 25/20 A2998 NOSIG=
202209242100 METAR MROC 242100Z 20006KT 160V230 9999 3500SW -DZ VCSH SCT015 BKN035 21/21 A2998 RETSRA NOSIG=
202209242200 METAR MROC 242200Z 22004KT 190V250 9999 FEW005 BKN050 22/20 A2998 BECMG BKN008=
202209242300 METAR MROC 242300Z VRB02KT 9999 FEW008 SCT045 BKN200 22/20 A2998 NOSIG=
202209250000 METAR MROC 250000Z VRB02KT 9999 BKN030 21/20 A3002 NOSIG=
202209250100 METAR MROC 250100Z VRB02KT 9999 -DZ FEW008 BKN030 21/20 A3004 NOSIG=
202209250200 METAR MROC 250200Z VRB02KT 9999 FEW015 BKN060 21/20 A3007 NOSIG=
202209250300 METAR MROC 250300Z VRB02KT 8000 VCFG FEW015 BKN070 21/20 A3008 NOSIG=
202209250400 METAR MROC 250400Z VRB02KT 9000 3000SW BCFG FEW006 BKN040 21/20 A3008 NOSIG=
202209250500 METAR MROC 250500Z 00000KT 9999 BCFG FEW040 OVC070 21/20 A3006 NOSIG=
202209250600 METAR MROC 250600Z 01004KT CAVOK 20/19 A3002 NOSIG=
202209250700 METAR MROC 250700Z 08003KT 040V130 CAVOK 20/19 A2999 NOSIG=
202209250800 METAR MROC 250800Z 31003KT 9999 FEW020 BKN210 19/19 A2997 NOSIG=
202209250900 METAR MROC 250900Z 01005KT 350V060 9999 FEW005 19/18 A2997 NOSIG=
202209251000 METAR MROC 251000Z 13003KT 9999 SCT010 19/18 A2995 NOSIG=
202209251100 METAR MROC 251100Z 07004KT 9999 FEW010 BKN200 19/17 A2995 NOSIG=
202209251200 METAR MROC 251200Z 32002KT 9999 FEW010 BKN200 19/18 A2997 NOSIG=
202209251300 METAR MROC 251300Z VRB02KT 9999 3000SW BCFG SCT002 20/18 A3001 NOSIG=
202209251400 METAR MROC 251400Z VRB02KT 9999 FEW015 BKN180 21/19 A3003 NOSIG=
202209251500 METAR MROC 251500Z 23005KT 160V270 9999 FEW015 BKN030 22/19 A3004 NOSIG=
202209251600 METAR MROC 251600Z 27005KT 210V330 9999 FEW015 SCT030 23/20 A3003 NOSIG=
202209251700 METAR MROC 251700Z VRB06KT 9999 SCT030 SCT200 24/19 A3000 NOSIG=
202209251800 METAR MROC 251800Z 26007KT 9999 FEW025 SCT200 25/20 A2997 NOSIG=
202209251900 METAR MROC 251900Z 24008KT 200V280 9999 SCT025 SCT200 26/20 A2993 NOSIG=
202209252000 METAR MROC 252000Z 23009KT 200V260 9999 VCTS VCSH FEW015CB SCT040 BKN200 26/21 A2991 BECMG TSRA=
202209252100 METAR MROC 252100Z 25006KT 210V310 9999 4000NE TSRA SCT020CB BKN120 24/20 A2992 TEMPO 5000=
202209252200 METAR MROC 252200Z 34007KT 290V020 8000 RA VCTS BKN015CB SCT100 21/18 A2993 RETSRA NOSIG=
202209252300 METAR MROC 252300Z VRB02KT 9999 RA BKN015 20/19 A2995 NOSIG=
202209260000 METAR MROC 260000Z VRB01KT 8000 RA BKN015 20/19 A2997 NOSIG=
202209260100 METAR MROC 260100Z VRB01KT 9999 -RA BKN015 20/19 A3001 NOSIG=
202209260200 METAR MROC 260200Z VRB01KT 9999 BKN015 SCT120 20/19 A3003 NOSIG=
202209260300 METAR MROC 260300Z COR 25003KT 9999 2000SW BCFG FEW005 OVC015 20/20 A3006 NOSIG=
202209260400 METAR MROC 260400Z 29003KT 4000 -RA BR SCT002 OVC008 20/20 A3007 NOSIG=
202209260500 METAR MROC 260500Z 27005KT 9999 DZ VCFG SCT004 OVC010 20/19 A3005 NOSIG=
202209260600 METAR MROC 260600Z 32004KT 290V030 8000 VCFG SCT004 OVC010 20/19 A3003 REDZ NOSIG=
202209260700 METAR MROC 260700Z VRB02KT 9999 VCFG BKN015 20/20 A2999 NOSIG=
202209260800 METAR MROC 260800Z 12002KT 9999 FEW020 BKN150 20/19 A2997 NOSIG=
202209260900 METAR MROC 260900Z 13002KT 9999 BCFG FEW040 BKN150 20/19 A2998 NOSIG=
202209261000 METAR MROC 261000Z 03002KT 9999 FEW035 SCT150 19/19 A2997 NOSIG=
202209261100 METAR MROC 261100Z COR 11004KT 080V140 9999 BCFG FEW030 SCT180 19/18 A2998 NOSIG=
202209261200 METAR MROC 261200Z 04004KT 9999 BCFG FEW015 SCT200 19/17 A3000 NOSIG=
202209261300 METAR MROC 261300Z 00000KT 9999 FEW005 SCT060 20/19 A3005 NOSIG=
202209261400 METAR MROC 261400Z 24003KT 210V300 9999 VCFG SCT005 BKN030 21/19 A3008 NOSIG=
202209261412 METAR MROC 261412Z VRB02KT 9999 4000SW RA BCFG SCT005 OVC030 20/19 A3009 NOSIG=
202209261425 METAR MROC 261425Z VRB02KT 5000 RA BR SCT008 BKN030 21/19 A3009 NOSIG=
202209261500 METAR MROC 261500Z VRB01KT 8000 BCFG FEW006 BKN045 21/20 A3009 RERA NOSIG=
202209261600 METAR MROC 261600Z 14003KT 110V190 9999 -RA FEW010 BKN140 22/20 A3006 NOSIG=
202209261700 METAR MROC 261700Z 22003KT 160V250 9999 -RA FEW015 BKN130 23/19 A3003 NOSIG=
202209261800 METAR MROC 261800Z 24006KT 9999 -RA FEW008 BKN130 22/21 A3003 NOSIG=
202209261900 METAR MROC 261900Z 25007KT 9999 FEW015 BKN120 23/20 A3001 NOSIG=
202209262000 METAR MROC 262000Z 25005KT 200V280 9999 FEW010 SCT030 BKN060 23/20 A2998 NOSIG=
202209262100 METAR MROC 262100Z 24006KT 9999 FEW010 BKN020 22/19 A2998 TEMPO RA=
202209262200 METAR MROC 262200Z 26006KT 9999 -RA BKN010 20/20 A2999 NOSIG=
202209262300 METAR MROC 262300Z 31003KT 280V040 9999 SCT005 BKN100 20/19 A3000 NOSIG=
202209270000 METAR MROC 270000Z 33003KT 9999 FEW005 BKN025 20/19 A3001 NOSIG=
202209270100 METAR MROC 270100Z VRB01KT 9999 4500S BCFG FEW010 21/20 A3004 NOSIG=
202209270200 METAR MROC 270200Z 23002KT 9999 4500S BCFG FEW001 BKN025 20/20 A3007 NOSIG=
202209270300 METAR MROC 270300Z 28002KT 9999 4500SW BCFG BKN007 20/20 A3008 TEMPO 5000 BR=
202209270400 METAR MROC 270400Z VRB02KT 9999 FEW008 BKN015 20/20 A3010 NOSIG=
202209270500 METAR MROC 270500Z 23003KT 1500 BR SCT002 BKN150 20/20 A3008 NOSIG=
202209270505 METAR MROC 270505Z 24003KT 0800 FG BKN002 20/20 A3008 NOSIG=
202209270600 METAR MROC 270600Z VRB02KT 1500 BR FEW002 BKN005 20/20 A3006 NOSIG=
202209270700 METAR MROC 270700Z 00000KT 9999 2000SW BCFG FEW005 SCT035 BKN150 20/20 A3004 NOSIG=
202209270800 METAR MROC 270800Z 00000KT 8000 3000SW VCFG BKN010 20/19 A3003 NOSIG=
202209270900 METAR MROC 270900Z 22003KT 1200 BR SCT003 BKN035 20/19 A3003 NOSIG=
202209271000 METAR MROC 271000Z 02002KT 2500 0500S BR BKN003 SCT005 19/19 A3003 NOSIG=
202209271100 METAR MROC 271100Z 00000KT 1200 -DZ BR OVC004 20/19 A3005 NOSIG=
202209271200 METAR MROC 271200Z 09004KT 8000 VCFG NSC 20/19 A3006 NOSIG=
202209271300 METAR MROC 271300Z 08003KT 030V110 9000 VCFG NSC 21/19 A3008 NOSIG=
202209271400 METAR MROC 271400Z 10003KT 060V160 CAVOK 24/19 A3009 NOSIG=
202209271500 METAR MROC 271500Z VRB02KT 9999 FEW035 BKN200 26/20 A3010 BECMG 25006KT=
202209271600 METAR MROC 271600Z 24005KT 160V280 9999 FEW030 BKN200 26/20 A3009 NOSIG=
202209271700 METAR MROC 271700Z 26006KT 180V290 9999 FEW025 BKN200 26/19 A3008 NOSIG=
202209271800 METAR MROC 271800Z 25009KT 210V270 9999 FEW025 BKN200 25/20 A3006 NOSIG=
202209271900 METAR MROC 271900Z COR 25011KT 9999 VCTS FEW015CB SCT025 BKN100 24/21 A3005 TEMPO TSRA=
202209272000 METAR MROC 272000Z 25011KT 9999 FEW010 BKN025 23/20 A3003 NOSIG=
202209272100 METAR MROC 272100Z 24008KT 9999 SCT010 BKN100 23/20 A3002 NOSIG=
202209272200 METAR MROC 272200Z COR 26005KT 220V290 9999 FEW010 BKN100 22/20 A3003 NOSIG=
202209272300 METAR MROC 272300Z 26006KT 240V300 9999 FEW010 BKN100 22/19 A3004 TEMPO BKN010=
202209280000 METAR MROC 280000Z 25004KT 9999 FEW010 BKN140 21/20 A3007 NOSIG=
202209280100 METAR MROC 280100Z VRB02KT 9999 SCT010 BKN150 21/20 A3010 NOSIG=
202209280200 METAR MROC 280200Z VRB02KT 9999 FEW005 BKN015 21/20 A3012 NOSIG=
202209280300 METAR MROC 280300Z 24002KT 9999 SCT010 BKN100 21/20 A3014 TEMPO 5000 BR=
202209280400 METAR MROC 280400Z VRB02KT 9999 SCT010 BKN100 21/20 A3013 NOSIG=
202209280500 METAR MROC 280500Z 11003KT CAVOK 21/20 A3009 NOSIG=
202209280600 METAR MROC 280600Z 05003KT 360V080 9999 FEW010 BKN120 21/19 A3006 NOSIG=
202209280700 METAR MROC 280700Z VRB02KT 9999 FEW010 BKN130 21/19 A3003 NOSIG=
202209280800 METAR MROC 280800Z 24003KT 1500 BR SCT002 BKN005 20/20 A3004 NOSIG=
202209280900 METAR MROC 280900Z 30002KT 9999 4000SW BCFG SCT002 BKN005 20/19 A3004 NOSIG=
202209281000 METAR MROC 281000Z 07004KT 9999 BKN006 20/19 A3003 NOSIG=
202209281100 METAR MROC 281100Z 09006KT CAVOK 20/19 A3002 NOSIG=
202209281200 METAR MROC 281200Z 11004KT 080V150 9999 FEW010 BKN120 21/18 A3004 NOSIG=
202209281300 METAR MROC 281300Z 23004KT 190V260 9000 PRFG NSC 20/20 A3008 NOSIG=
202209281400 METAR MROC 281400Z 26004KT 230V290 CAVOK 22/19 A3008 NOSIG=
202209281500 METAR MROC 281500Z 24009KT 9999 FEW020 BKN150 23/20 A3011 NOSIG=
202209281600 METAR MROC 281600Z 25006KT 220V300 9999 SCT025 BKN200 24/20 A3012 NOSIG=
202209281700 METAR MROC 281700Z 26005KT 210V320 9999 SCT040 BKN180 26/20 A3009 NOSIG=
202209281800 METAR MROC 281800Z 24008KT 190V280 9999 VCTS SCT040 BKN200 26/20 A3007 NOSIG=
202209281900 METAR MROC 281900Z 29007KT 250V310 9999 VCTS VCSH FEW015TCU BKN030 26/20 A3006 TEMPO SHRA=
202209282000 METAR MROC 282000Z 29006KT 9999 SCT025 BKN170 26/21 A3002 NOSIG=
202209282100 METAR MROC 282100Z 22006KT 9999 SCT025 SCT150 25/21 A2999 NOSIG=
202209282200 METAR MROC 282200Z 25012KT 9999 +TSRA BKN008 FEW015CB 23/21 A3001 TEMPO 5000 BR BKN005=
202209282300 METAR MROC 282300Z 34007KT 310V010 1500 -TSRA BKN005CB 20/19 A3005 NOSIG=
202209290000 METAR MROC 290000Z 17005KT 120V220 9999 4500SW -TSRA FEW005CB BKN020 20/19 A3009 NOSIG=
202209290100 METAR MROC 290100Z VRB02KT 9999 -RA FEW005 SCT030 BKN100 20/19 A3012 NOSIG=
202209290200 METAR MROC 290200Z 11002KT 9999 -DZ FEW030 BKN150 20/19 A3012 NOSIG=
202209290300 METAR MROC 290300Z 08004KT CAVOK 20/19 A3012 NOSIG=
202209290400 METAR MROC 290400Z 06003KT 020V090 CAVOK 20/19 A3012 NOSIG=
202209290500 METAR MROC 290500Z 09003KT 060V120 CAVOK 20/19 A3010 NOSIG=
202209290600 METAR MROC 290600Z 09004KT CAVOK 19/18 A3008 NOSIG=
202209290700 METAR MROC 290700Z 07004KT CAVOK 20/18 A3006 NOSIG=
202209290800 METAR MROC 290800Z 08003KT CAVOK 19/18 A3004 NOSIG=
202209290900 METAR MROC 290900Z 08003KT 050V110 CAVOK 18/17 A3003 NOSIG=
202209291000 METAR MROC 291000Z 11004KT CAVOK 18/17 A3003 NOSIG=
202209291100 METAR MROC 291100Z VRB02KT CAVOK 18/17 A3005 NOSIG=
202209291200 METAR MROC 291200Z 05005KT CAVOK 18/17 A3006 NOSIG=
202209291300 METAR MROC 291300Z VRB02KT CAVOK 21/17 A3007 NOSIG=
202209291400 METAR MROC 291400Z 30003KT 9999 FEW025 23/18 A3010 NOSIG=
202209291500 METAR MROC 291500Z 28004KT 210V350 9999 FEW035 24/18 A3010 NOSIG=
202209291600 METAR MROC 291600Z 28004KT 9999 FEW035 SCT200 25/18 A3008 NOSIG=
202209291700 METAR MROC 291700Z 26007KT 200V300 9999 FEW030 SCT200 26/19 A3006 NOSIG=
202209291800 METAR MROC 291800Z 25006KT 220V280 9999 FEW035 BKN200 26/20 A3003 NOSIG=
202209291900 METAR MROC 291900Z 25006KT 220V280 9999 FEW020TCU SCT035 BKN200 26/20 A3000 NOSIG=
202209292000 METAR MROC 292000Z 24010KT 9999 VCTS VCSH FEW015CB FEW020TCU SCT035 BKN200 25/21 A2997 NOSIG=
202209292100 METAR MROC 292100Z 23008KT 190V260 9999 -RA VCTS FEW015CB BKN020 23/21 A2997 TEMPO TSRA=
202209292200 METAR MROC 292200Z 27006KT 9999 -TSRA SCT015CB BKN100 22/21 A2998 NOSIG=
202209292300 METAR MROC 292300Z 30004KT 9999 4500N -TSRA FEW015CB BKN020 22/21 A2999 NOSIG=
202209300000 METAR MROC 300000Z VRB03KT 9999 4500SW -RA VCFG FEW008 SCT020 BKN100 21/21 A2999 NOSIG=
202209300100 METAR MROC 300100Z 25004KT 9999 2500SW BCFG FEW003 BKN008 21/21 A3001 NOSIG=
202209300200 METAR MROC 300200Z 28003KT 9999 2500SW RA VCSH FEW005 BKN010 21/21 A3005 NOSIG=
202209300300 METAR MROC 300300Z 23002KT 9999 2500SW BCFG FEW003 BKN015 21/20 A3005 NOSIG=
202209300400 METAR MROC 300400Z VRB02KT 9999 BCFG FEW006 SCT020 OVC030 21/21 A3006 NOSIG=
202209300500 METAR MROC 300500Z 01003KT 330V050 9999 FEW015 BKN030 21/20 A3003 NOSIG=
202209300600 METAR MROC 300600Z 17002KT 9999 BCFG FEW005 SCT045 20/20 A3001 NOSIG=
202209300700 METAR MROC 300700Z 30003KT 270V340 8000 1000SW PRFG BKN008 20/19 A3001 TEMPO 5000 BR=
202209300800 METAR MROC 300800Z 08002KT 5000 1000SW BR BKN005 20/19 2999 NOSIG=
202209300900 METAR MROC 300900Z 05006KT 9999 BCFG BKN025 20/19 A2999 NOSIG=
202209301000 METAR MROC 301000Z 08006KT 9999 SCT025 20/18 A2999 NOSIG=
202209301100 METAR MROC 301100Z 03003KT 350V050 9999 BKN025 19/18 A3000 NOSIG=
202209301200 METAR MROC 301200Z 09005KT 9999 FEW025 SCT070 BKN200 19/18 A3002 NOSIG=
202209301300 METAR MROC 301300Z 11003KT 080V150 CAVOK 21/19 A3003 NOSIG=
202209301400 METAR MROC 301400Z VRB02KT 9999 FEW035 OVC200 24/19 A3003 BECMG 24005KT=
202209301500 METAR MROC 301500Z 24005KT 190V350 9999 FEW030 OVC200 25/19 A3003 NOSIG=
202209301600 METAR MROC 301600Z 24005KT 220V300 9999 FEW025 OVC200 25/19 A3003 NOSIG=
202209301700 METAR MROC 301700Z 24008KT 9999 FEW025 OVC200 26/19 A3002 NOSIG=
202209301800 METAR MROC 301800Z 26008KT 9999 SCT025 BKN200 25/19 A2998 NOSIG=
202209301900 METAR MROC 301900Z 22007KT 190V260 9999 FEW020 SCT200 26/20 A2995 NOSIG=
202209302000 METAR MROC 302000Z 25008KT 210V270 9999 VCTS VCSH FEW020CB SCT025 26/21 A2992 NOSIG=
202209302100 METAR MROC 302100Z 24010KT 9999 VCTS VCSH FEW015CB BKN020 24/21 A2992 NOSIG=
202209302200 METAR MROC 302200Z 26007KT 250V310 9999 -RA FEW010 SCT020 BKN100 22/21 A2993 NOSIG=
202209302300 METAR MROC 302300Z 27003KT 240V300 9999 BKN010 22/21 A2994 NOSIG=
202210010000 METAR MROC 010000Z 27004KT 220V350 9999 -DZ FEW005 BKN010 22/21 A2997 NOSIG=
202210010100 METAR MROC 010100Z 24003KT 200V300 9999 VCSH FEW005 BKN015 22/21 A2998 NOSIG=
202210010200 METAR MROC 010200Z 24003KT 220V290 9999 FEW005 BKN010 21/21 A3000 NOSIG=
202210010300 METAR MROC 010300Z 24007KT 9999 -RA FEW005 BKN010 20/20 A3001 NOSIG=
202210010400 METAR MROC 010400Z COR 25005KT 0800 R07/1500U FG VCTS VCSH OVC002 20/20 A3003 NOSIG=
202210010500 METAR MROC 010500Z 26005KT 5000 2200SW BR OVC002 20/20 A3003 NOSIG=
202210010600 METAR MROC 010600Z 32002KT 9999 3000SW BCFG VCFG FEW003 BKN008 20/20 A3002 NOSIG=
202210010700 METAR MROC 010700Z 17003KT 8000 3000SW -RA VCFG BCFG SCT005 BKN020 20/20 A3001 NOSIG=
202210010800 METAR MROC 010800Z VRB01KT 8000 3000SW -RA BCFG VCFG FEW003 BKN008 20/19 A2999 NOSIG=
202210010900 METAR MROC 010900Z 31003KT 9000 3000SW BCFG VCFG FEW003 BKN008 20/20 A2998 NOSIG=
202210011000 METAR MROC 011000Z VRB02KT 9999 3000SW BCFG FEW005 BKN015 20/20 A3001 NOSIG=
202210011100 METAR MROC 011100Z VRB02KT 9999 3000SW VCFG FEW005 BKN015 20/19 A3002 NOSIG=
202210011200 METAR MROC 011200Z VRB01KT 9999 BCFG FEW005 BKN015 20/19 A3003 NOSIG=
202210011300 METAR MROC 011300Z VRB02KT 9999 4000SW BCFG SCT010 OVC030 21/20 A3006 NOSIG=
202210011400 METAR MROC 011400Z VRB02KT 9999 FEW015 SCT140 23/20 A3007 NOSIG=
202210011500 METAR MROC 011500Z 24005KT 190V280 9999 SCT020 BKN200 23/20 A3008 NOSIG=
202210011600 METAR MROC 011600Z 23006KT 190V260 9999 FEW020 SCT200 25/20 A3007 NOSIG=
202210011700 METAR MROC 011700Z 24010KT 200V270 9999 VCSH FEW015TCU BKN200 25/19 A3004 NOSIG=
202210011800 METAR MROC 011800Z 24009KT 210V280 9999 VCSH FEW015TCU FEW025 SCT100 24/20 A3003 NOSIG=
202210011900 METAR MROC 011900Z 24008KT 210V280 9999 4000S RA VCTS VCSH FEW015CB SCT020 BKN070 23/20 A3002 TEMPO 3000 TSRA BKN030=
202210012000 METAR MROC 012000Z 24007KT 5000 2000SW RA BR SCT004 BKN015 21/20 A3000 NOSIG=
202210012100 METAR MROC 012100Z 23008KT 200V260 4000 RA BR SCT004 BKN008 20/20 A3001 NOSIG=
202210012200 METAR MROC 012200Z 25005KT 5000 2000SW RA BR FEW005 SCT010 BKN015 20/19 A3003 NOSIG=
202210012300 METAR MROC 012300Z 32006KT 5000 2000SW RA BR FEW002 BKN005 20/19 A3005 NOSIG=
202210020000 METAR MROC 020000Z VRB02KT 9999 2000SW RA BCFG FEW005 BKN010 20/19 A3007 NOSIG=
202210020100 METAR MROC 020100Z 34003KT 9999 2000SW RA BCFG FEW005 BKN010 19/19 A3011 NOSIG=
202210020200 METAR MROC 020200Z 09003KT 9999 3000SW RA BCFG FEW005 BKN020 19/19 A3012 NOSIG=
202210020300 METAR MROC 020300Z 11005KT 9999 3000SW -RA BCFG FEW005 BKN100 19/19 A3012 NOSIG=
202210020400 METAR MROC 020400Z 07004KT 9999 -DZ BCFG NSC 20/19 A3009 NOSIG=
202210020500 METAR MROC 020500Z 11003KT CAVOK 19/19 A3009 NOSIG=
202210020600 METAR MROC 020600Z VRB02KT 9999 BCFG NSC 19/19 A3007 NOSIG=
202210020700 METAR MROC 020700Z VRB02KT CAVOK 19/19 A3007 NOSIG=
202210020800 METAR MROC 020800Z 12003KT CAVOK 19/19 A3006 NOSIG=
202210020900 METAR MROC 020900Z 07005KT CAVOK 19/19 A3005 NOSIG=
202210021000 METAR MROC 021000Z 04005KT 010V070 CAVOK 19/18 A3005 NOSIG=
202210021100 METAR MROC 021100Z 09004KT CAVOK 20/17 A3007 NOSIG=
202210021200 METAR MROC 021200Z VRB02KT 9999 FEW005 BKN120 19/18 A3008 NOSIG=
202210021300 METAR MROC 021300Z VRB01KT CAVOK 20/19 A3012 NOSIG=
202210021400 METAR MROC 021400Z VRB02KT CAVOK 20/19 A3014 BECMG 24005KT=
202210021500 METAR MROC 021500Z VRB02KT 9999 FEW010 OVC200 21/18 A3014 NOSIG=
202210021600 METAR MROC 021600Z VRB02KT 9999 FEW010 SCT120 22/18 A3013 NOSIG=
202210021700 METAR MROC 021700Z VRB02KT 9999 FEW040 BKN180 24/18 A3010 NOSIG=
202210021800 METAR MROC 021800Z VRB04KT 9999 FEW035 BKN180 25/20 A3008 NOSIG=
202210021900 METAR MROC 021900Z 23006KT 9999 FEW030 BKN180 24/20 A3006 NOSIG=
202210022000 METAR MROC 022000Z 26004KT 230V320 9999 FEW025 OVC200 24/20 A3005 NOSIG=
202210022100 METAR MROC 022100Z 25005KT 230V290 9999 FEW025 OVC180 23/20 A3003 NOSIG=
202210022200 METAR MROC 022200Z 23004KT 200V260 9999 FEW020 OVC180 23/21 A3003 NOSIG=
202210022300 METAR MROC 022300Z 25005KT 230V290 8000 4000N BCFG VCSH BKN010 22/21 A3004 TEMPO 5000 RA BR=
202210030000 METAR MROC 030000Z 23002KT 9999 SCT006 OVC020 21/21 A3007 NOSIG=
202210030100 METAR MROC 030100Z 00000KT 9999 BCFG FEW004 OVC010 21/21 A3009 NOSIG=
202210030200 METAR MROC 030200Z VRB02KT 9999 BCFG FEW006 SCT035 BKN200 21/20 A3010 NOSIG=
202210030300 METAR MROC 030300Z VRB01KT CAVOK 21/20 A3011 NOSIG=
202210030400 METAR MROC 030400Z 02003KT 350V070 9999 FEW002 21/20 A3011 NOSIG=
202210030500 METAR MROC 030500Z 07005KT 030V100 9999 FEW002 21/18 A3011 NOSIG=
202210030600 METAR MROC 030600Z 04008KT 9999 FEW005 20/18 A3010 NOSIG=
202210030700 METAR MROC 030700Z 07008KT CAVOK 20/17 A3009 NOSIG=
202210030800 METAR MROC 030800Z 08008KT CAVOK 20/17 A3007 NOSIG=
202210030900 METAR MROC 030900Z 08009KT CAVOK 21/17 A3005 NOSIG=
202210031000 METAR MROC 031000Z 07008KT CAVOK 20/17 A3005 NOSIG=
202210031100 METAR MROC 031100Z 09006KT 060V130 CAVOK 20/17 A3006 NOSIG=
202210031200 METAR MROC 031200Z 08008KT 9999 FEW005 BKN200 21/17 A3008 NOSIG=
202210031300 METAR MROC 031300Z 04008KT CAVOK 22/17 A3009 NOSIG=
202210031400 METAR MROC 031400Z 08006KT 050V130 CAVOK 26/17 A3010 TEMPO 26007KT=
202210031500 METAR MROC 031500Z 24007KT 210V270 CAVOK 25/19 A3010 NOSIG=
202210031600 METAR MROC 031600Z 24008KT 210V270 CAVOK 25/19 A3011 NOSIG=
202210031700 METAR MROC 031700Z 25007KT 220V290 9999 FEW045 26/20 A3009 NOSIG=
202210031800 METAR MROC 031800Z 23008KT 200V290 9999 BKN035 27/20 A3005 NOSIG=
202210031900 METAR MROC 031900Z 24010KT 210V270 9999 -TSRA FEW015CB BKN035 26/21 A3002 NOSIG=
202210032000 METAR MROC 032000Z 14005KT 080V220 9999 4000SE -TSRA BKN015CB 23/18 A3003 BECMG 3000 TSRA BKN010CB=
202210032100 METAR MROC 032100Z 15004KT 060V180 9999 4000SW -TSRA FEW009CB SCT040 OVC150 19/19 A3002 NOSIG=
202210032200 METAR MROC 032200Z 08003KT 010V120 9999 FEW040 SCT140 BKN220 21/20 A3001 NOSIG=
202210032300 METAR MROC 032300Z VRB01KT 9999 FEW040 SCT140 BKN230 23/20 A3003 NOSIG=
202210040000 METAR MROC 040000Z 15003KT 9999 FEW040 SCT230 21/20 A3003 NOSIG=
202210040100 METAR MROC 040100Z VRB03KT CAVOK 22/20 A3004 NOSIG=
202210040200 METAR MROC 040200Z 07004KT CAVOK 21/20 A3006 NOSIG=
202210040300 METAR MROC 040300Z 09005KT 040V130 CAVOK 22/19 A3007 NOSIG=
202210040400 METAR MROC 040400Z 06004KT 030V100 9999 FEW030 22/18 A3008 NOSIG=
202210040500 METAR MROC 040500Z VRB03KT 9999 FEW030 22/18 A3008 NOSIG=
202210040600 METAR MROC 040600Z 13004KT 9999 FEW020 21/18 A3005 NOSIG=
202210040700 METAR MROC 040700Z 11007KT CAVOK 21/18 A3004 NOSIG=
202210040800 METAR MROC 040800Z 11006KT CAVOK 20/18 A3002 NOSIG=
202210040900 METAR MROC 040900Z 11007KT 090V150 CAVOK 21/17 A3001 NOSIG=
202210041000 METAR MROC 041000Z 11008KT 080V140 CAVOK 21/17 A3002 NOSIG=
202210041100 METAR MROC 041100Z 06006KT 030V100 CAVOK 19/17 A3003 NOSIG=
202210041200 METAR MROC 041200Z 09007KT 060V130 CAVOK 22/17 A3005 NOSIG=
202210041300 METAR MROC 041300Z 08009KT CAVOK 23/18 A3006 NOSIG=
202210041400 METAR MROC 041400Z COR 01004KT 330V030 CAVOK 24/17 A3006 BECMG 25007KT=
202210041439 METAR MROC 041439Z 24005KT 210V290 CAVOK 25/19 A3007 NOSIG=
202210041500 METAR MROC 041500Z 25005KT 220V300 CAVOK 25/19 A3007 NOSIG=
202210041600 METAR MROC 041600Z 24007KT 200V270 CAVOK 26/20 A3007 NOSIG=
202210041700 METAR MROC 041700Z 25008KT 230V290 9999 FEW045 26/21 A3005 NOSIG=
202210041800 METAR MROC 041800Z 25010KT 220V280 9999 SCT035 27/21 A3003 NOSIG=
202210041900 METAR MROC 041900Z 25008KT 230V310 9999 -TSRA FEW015CB BKN035 26/21 A3000 NOSIG=
202210042000 METAR MROC 042000Z 02004KT 320V050 9999 4500SW -TSRA FEW015CB SCT030 BKN100 24/21 A2999 NOSIG=
202210042100 METAR MROC 042100Z 02004KT 320V050 9999 4500SW -TSRA FEW015CB SCT030 BKN100 24/21 A2999 NOSIG=
202210042200 METAR MROC 042200Z VRB02KT 9999 FEW015 BKN045 22/20 A3001 NOSIG=
202210042300 METAR MROC 042300Z 10003KT 060V130 9999 FEW025 SCT080 BKN120 22/21 A3001 NOSIG=
202210050000 METAR MROC 050000Z VRB02KT 9999 FEW035 SCT120 BKN200 22/20 A3002 NOSIG=
202210050100 METAR MROC 050100Z 27003KT 9999 BKN025 22/21 A3005 NOSIG=
202210050200 METAR MROC 050200Z 00000KT 9999 FEW007 BKN025 22/21 A3008 NOSIG=
202210050300 METAR MROC 050300Z 09003KT 9999 FEW040 SCT200 22/20 A3009 NOSIG=
202210050400 METAR MROC 050400Z 11002KT CAVOK 21/20 A3008 NOSIG=
202210050500 METAR MROC 050500Z 07004KT CAVOK 21/20 A3006 NOSIG=
202210050600 METAR MROC 050600Z 04004KT CAVOK 21/19 A3005 NOSIG=
202210050700 METAR MROC 050700Z 09005KT CAVOK 21/19 A3003 NOSIG=
202210050800 METAR MROC 050800Z VRB03KT CAVOK 21/18 A3001 NOSIG=
202210050900 METAR MROC 050900Z VRB01KT CAVOK 20/19 A3002 NOSIG=
202210051000 METAR MROC 051000Z 07004KT 030V100 CAVOK 20/19 A3002 NOSIG=
202210051100 METAR MROC 051100Z 01005KT CAVOK 20/18 A3002 NOSIG=
202210051200 METAR MROC 051200Z 05004KT CAVOK 20/18 A3003 NOSIG=
202210051300 METAR MROC 051300Z 13004KT 9999 FEW040 BKN200 21/19 A3006 NOSIG=
202210051400 METAR MROC 051400Z VRB02KT 9999 FEW045 BKN100 24/18 A3008 NOSIG=
202210051500 METAR MROC 051500Z VRB02KT 9999 FEW040 BKN100 24/19 A3010 NOSIG=
202210051600 METAR MROC 051600Z 29004KT 220V010 9999 FEW040 BKN100 25/20 A3008 NOSIG=
202210051700 METAR MROC 051700Z VRB02KT 9999 FEW035 SCT200 28/20 A3006 NOSIG=
202210051800 METAR MROC 051800Z 08008KT 050V110 9999 SCT035 BKN100 26/18 A3004 NOSIG=
202210051900 METAR MROC 051900Z 24011KT 200V270 9999 VCTS FEW015CB FEW035 BKN140 26/22 A3000 NOSIG=
202210052000 METAR MROC 052000Z 26011KT 9999 VCTS FEW015CB SCT035 BKN140 24/20 A2999 NOSIG=
202210052100 METAR MROC 052100Z 26007KT 240V310 3000 TSRA FEW010 SCT015CB BKN020 23/22 A3000 NOSIG=
202210052107 SPECI MROC 052107Z 28007KT 0800 R07/P2000N +TSRA FEW005 SCT010CB BKN015 22/21 A2999 NOSIG=
202210052200 METAR MROC 052200Z VRB02KT 8000 3000SW -RA VCTS VCFG FEW010 SCT020CB BKN100 21/21 A3000 NOSIG=
202210052300 METAR MROC 052300Z VRB02KT 9999 FEW015 SCT040 BKN200 21/21 A3002 NOSIG=
202210060000 METAR MROC 060000Z 03004KT 9999 FEW040 SCT200 21/20 A3003 NOSIG=
202210060100 METAR MROC 060100Z 06003KT CAVOK 21/19 A3006 NOSIG=
202210060200 METAR MROC 060200Z 07003KT 030V100 CAVOK 21/19 A3007 NOSIG=
202210060300 METAR MROC 060300Z 10004KT CAVOK 20/18 A3008 NOSIG=
202210060400 METAR MROC 060400Z 06008KT CAVOK 19/18 A3009 NOSIG=
202210060500 METAR MROC 060500Z 08003KT 040V110 CAVOK 21/18 A3007 NOSIG=
202210060600 METAR MROC 060600Z 11006KT 090V150 9999 FEW030 BKN150 21/18 A3005 NOSIG=
202210060700 METAR MROC 060700Z 06009KT 9999 FEW025 BKN150 20/18 A3003 NOSIG=
202210060800 METAR MROC 060800Z 03003KT 350V110 9999 FEW025 BKN180 20/18 A3000 NOSIG=
202210060900 METAR MROC 060900Z 04005KT 360V080 CAVOK 20/17 A3000 NOSIG=
202210061000 METAR MROC 061000Z VRB02KT CAVOK 19/17 A3000 NOSIG=
202210061100 METAR MROC 061100Z 07005KT 040V100 9999 FEW045 BKN150 19/17 A3001 NOSIG=
202210061200 METAR MROC 061200Z 03005KT CAVOK 20/17 A3003 NOSIG=
202210061300 METAR MROC 061300Z 10006KT 060V140 9999 FEW045 BKN140 22/18 A3006 NOSIG=
202210061400 METAR MROC 061400Z COR 10010KT 9999 FEW045 BKN140 25/17 A3009 NOSIG=
202210061500 METAR MROC 061500Z 09010KT 070V130 9999 FEW045 BKN200 25/17 A3010 NOSIG=
202210061600 METAR MROC 061600Z 09007KT 9999 FEW040 SCT080 BKN200 24/18 A3010 NOSIG=
202210061700 METAR MROC 061700Z 11006KT 070V130 9999 DZ FEW040 BKN130 24/18 A3008 NOSIG=
202210061800 METAR MROC 061800Z 09005KT 9999 FEW040 BKN150 24/18 A3005 NOSIG=
202210061900 METAR MROC 061900Z 18006KT 120V260 9999 FEW040 BKN130 25/21 A3002 NOSIG=
202210062000 METAR MROC 062000Z 26007KT 9999 FEW040 BKN150 24/21 A2999 NOSIG=
202210062100 METAR MROC 062100Z 25005KT 210V270 9999 FEW025 SCT150 25/20 A2996 NOSIG=
202210062200 METAR MROC 062200Z 24006KT 9999 FEW025 SCT100 24/21 A2998 TEMPO RA=
202210062300 METAR MROC 062300Z 23006KT 200V260 9999 FEW030 SCT060 23/21 A2999 NOSIG=
202210070000 METAR MROC 070000Z 26004KT 240V310 9999 FEW005 BKN090 21/21 A3002 NOSIG=
202210070100 METAR MROC 070100Z 24003KT 7000 2500SW BCFG FEW005 SCT010 BKN025 21/21 A3005 TEMPO 5000 BR=
202210070200 METAR MROC 070200Z 22003KT 200V260 7000 2500SW BCFG FEW004 SCT010 BKN030 21/21 A3008 NOSIG=
202210070300 METAR MROC 070300Z 00000KT 9999 FEW003 BKN030 21/20 A3010 NOSIG=
202210070400 METAR MROC 070400Z 07004KT 9999 FEW045 SCT150 22/19 A3010 NOSIG=
202210070500 METAR MROC 070500Z 08006KT CAVOK 21/18 A3007 NOSIG=
202210070600 METAR MROC 070600Z 02003KT 340V080 CAVOK 21/18 A3006 NOSIG=
202210070700 METAR MROC 070700Z 15005KT 070V180 CAVOK 21/18 A3003 NOSIG=
202210070800 METAR MROC 070800Z 11009KT 080V140 CAVOK 22/18 A3002 NOSIG=
202210070900 METAR MROC 070900Z 03005KT CAVOK 21/18 A3001 NOSIG=
202210071000 METAR MROC 071000Z 03004KT 360V060 CAVOK 21/17 A3002 NOSIG=
202210071100 METAR MROC 071100Z 25005KT 9999 3000SW BCFG FEW045 SCT120 19/18 A3004 NOSIG=
202210071200 METAR MROC 071200Z VRB02KT 9999 0500SW BCFG FEW045 BKN200 19/19 A3006 NOSIG=
202210071300 METAR MROC 071300Z 04004KT 350V100 CAVOK 22/19 A3006 NOSIG=
202210071400 METAR MROC 071400Z VRB04KT 9999 FEW035 SCT140 BKN200 25/18 A3005 NOSIG=
202210071500 METAR MROC 071500Z 08005KT 020V130 9999 FEW035 SCT070 BKN200 26/18 A3006 NOSIG=
202210071600 METAR MROC 071600Z 16005KT 060V190 9999 SCT040 BKN200 26/19 A3005 NOSIG=
202210071700 METAR MROC 071700Z 10007KT 080V140 9999 BKN040 26/19 A3003 NOSIG=
202210071800 METAR MROC 071800Z 08005KT 010V180 9999 -RA FEW020TCU BKN040 25/19 A3001 NOSIG=
202210071900 METAR MROC 071900Z 11003KT 050V170 9999 FEW035 OVC180 25/19 A2998 TEMPO 24007KT=
202210072000 METAR MROC 072000Z 10008KT 060V120 9999 -DZ FEW035 OVC130 24/18 A2996 NOSIG=
202210072100 METAR MROC 072100Z 10006KT 070V140 8000 -RA SCT030 OVC100 22/19 A2998 NOSIG=
202210072200 METAR MROC 072200Z 11007KT 090V150 9999 -DZ FEW030 OVC120 21/18 A2997 NOSIG=
202210072300 METAR MROC 072300Z 08005KT 040V110 9999 FEW040 OVC120 21/18 A2997 NOSIG=
202210080000 METAR MROC 080000Z 06005KT 030V100 9999 -RA FEW040 OVC100 21/18 A2999 NOSIG=
202210080100 METAR MROC 080100Z 08004KT 050V120 CAVOK 21/18 A3001 NOSIG=
202210080200 METAR MROC 080200Z 08003KT 020V110 9999 FEW045 BKN100 21/18 A3003 NOSIG=
202210080300 METAR MROC 080300Z 09007KT 050V130 9999 FEW045 BKN180 21/17 A3004 NOSIG=
202210080400 METAR MROC 080400Z 10007KT 080V140 9999 FEW020 BKN200 21/17 A3002 NOSIG=
202210080500 METAR MROC 080500Z 07010KT 040V110 9999 FEW020 SCT200 21/17 A3001 NOSIG=
202210080600 METAR MROC 080600Z 08009KT 050V120 9999 FEW010 BKN140 21/17 A2998 NOSIG=
202210080700 METAR MROC 080700Z 05009KT 9999 FEW010 SCT200 21/17 A2994 NOSIG=
202210080800 METAR MROC 080800Z 04011KT 350V090 9999 FEW010 SCT150 22/17 A2994 NOSIG=
202210080900 METAR MROC 080900Z 05008KT 9999 FEW010 SCT150 21/17 A2995 NOSIG=
202210081000 METAR MROC 081000Z 06004KT 9999 FEW030 21/17 A2994 NOSIG=
202210081100 METAR MROC 081100Z 09005KT 060V150 9999 FEW035 SCT150 21/17 A2996 NOSIG=
202210081200 METAR MROC 081200Z 08009KT 9999 FEW045 BKN130 21/17 A2998 NOSIG=
202210081300 METAR MROC 081300Z 06005KT 030V110 CAVOK 22/17 A2997 RMK SCT130 BKN200 NOSIG=
202210081400 METAR MROC 081400Z 00000KT CAVOK 23/17 A3001 TEMPO 25006KT=
202210081500 METAR MROC 081500Z 25005KT 9999 FEW040 BKN180 23/18 A3004 NOSIG=
202210081600 METAR MROC 081600Z 27003KT 200V360 9999 FEW040 SCT130 BKN180 24/19 A3003 NOSIG=
202210081700 METAR MROC 081700Z 25004KT 170V300 9999 FEW040 OVC230 24/19 A3000 NOSIG=
202210081800 METAR MROC 081800Z 24003KT 200V320 9999 FEW040 SCT140 OVC230 24/19 A2996 NOSIG=
202210081900 METAR MROC 081900Z 29004KT 240V350 9999 FEW040 OVC140 24/18 A2993 NOSIG=
202210082000 METAR MROC 082000Z 24005KT 9999 -DZ FEW025 OVC140 23/20 A2991 NOSIG=
202210082100 METAR MROC 082100Z 24005KT 9999 -DZ VCSH FEW015 SCT050 OVC130 23/21 A2989 NOSIG=
202210082200 METAR MROC 082200Z 25007KT 9999 4500SW -RA VCSH SCT015 OVC100 22/21 A2991 NOSIG=
202210082300 METAR MROC 082300Z 27007KT 8000 4000SW -DZ VCFG BKN005 21/21 A2992 TEMPO 5000 BR=
202210090000 METAR MROC 090000Z 25008KT 9999 2500SW -DZ VCFG FEW005 BKN015 21/20 A2994 NOSIG=
202210090100 METAR MROC 090100Z 28004KT 240V300 9999 2500SW VCFG BKN005 21/20 A2996 NOSIG=
202210090200 METAR MROC 090200Z VRB03KT 9999 3000NE DZ BCFG FEW005 SCT025 OVC100 20/20 A2998 NOSIG=
202210090300 METAR MROC 090300Z 30002KT 9999 2500SW -RA BCFG FEW005 SCT025 OVC080 21/20 A2999 NOSIG=
202210090400 METAR MROC 090400Z 25002KT 7000 2000SW -RA BCFG SCT005 BKN030 20/20 A2999 TEMPO 3000 BR BKN010=
202210090500 METAR MROC 090500Z 25002KT 7000 -DZ BCFG SCT005 BKN045 20/20 A2997 NOSIG=
202210090600 METAR MROC 090600Z 32003KT 290V360 7000 DZ BCFG SCT005 BKN020 20/19 A2994 NOSIG=
202210090700 METAR MROC 090700Z 31003KT 9999 3000SW -DZ BCFG FEW004 BKN020 20/19 A2992 NOSIG=
202210090800 METAR MROC 090800Z 31003KT 280V340 9999 SCT008 BKN010 20/19 A2989 NOSIG=
202210090900 METAR MROC 090900Z 29004KT 250V330 9999 -RA FEW007 SCT025 OVC045 20/19 A2988 NOSIG=
202210091000 METAR MROC 091000Z 27004KT 9999 -RA FEW007 SCT015 OVC030 20/19 A2988 NOSIG=
202210091100 METAR MROC 091100Z 24007KT 200V260 5000 -RA OVC010 19/19 A2991 NOSIG=
202210091200 METAR MROC 091200Z 27008KT 5000 -RA BR OVC008 19/19 A2993 NOSIG=
202210091300 METAR MROC 091300Z 28007KT 240V300 0500 -RA FG OVC001 19/19 A2996 NOSIG=
202210091400 METAR MROC 091400Z 29008KT 8000 3000SW -RA VCFG OVC003 19/19 A2998 NOSIG=
202210091500 METAR MROC 091500Z 32004KT 8000 3000SW -DZ VCFG OVC010 19/18 A3001 NOSIG=
202210091600 METAR MROC 091600Z 31004KT 8000 1500SW -DZ VCFG SCT010 OVC020 20/19 A3000 RERA NOSIG=
202210091700 METAR MROC 091700Z 29004KT 240V330 8000 1500SW -DZ VCFG SCT010 OVC020 20/20 A2999 NOSIG=
202210091800 METAR MROC 091800Z 29006KT 240V350 1500 -RA BR SCT005 OVC010 20/20 A2996 NOSIG=
202210091900 METAR MROC 091900Z 32006KT 300V020 1500 RA BR SCT005 OVC015 19/19 A2995 NOSIG=
202210092000 METAR MROC 092000Z 27008KT 240V300 5000 1500SW -RA BR SCT005 OVC015 20/19 A2996 NOSIG=
202210092100 METAR MROC 092100Z 26006KT 4000 1500SW -RA BR SCT005 OVC010 20/20 A2995 NOSIG=
202210092200 METAR MROC 092200Z 26005KT 5000 2000N -RA BR OVC005 20/20 A2996 NOSIG=
202210092300 METAR MROC 092300Z 29004KT 250V320 5000 2000SW -RA BR BKN005 20/19 A2996 NOSIG=
202210100000 METAR MROC 100000Z 30004KT 280V350 9999 4000SW BCFG SCT005 BKN035 20/19 A2998 NOSIG=
202210100100 METAR MROC 100100Z VRB02KT 9999 4500SW VCFG OVC008 20/19 A3002 NOSIG=
202210100200 METAR MROC 100200Z 29003KT 240V330 9999 3000SW VCFG SCT005 BKN030 20/19 A3004 NOSIG=
202210100300 METAR MROC 100300Z VRB02KT 9999 FEW004 BKN030 20/19 A3006 NOSIG=
202210100400 METAR MROC 100400Z VRB01KT 9999 FEW010 SCT020 BKN050 20/19 A3007 NOSIG=
202210100500 METAR MROC 100500Z 11002KT 9999 FEW008 BKN010 20/19 A3006 NOSIG=
202210100600 METAR MROC 100600Z VRB01KT 9999 BKN010 20/19 A3006 NOSIG=
202210100700 METAR MROC 100700Z VRB02KT 9999 FEW010 SCT020 19/19 A3003 NOSIG=
202210100800 METAR MROC 100800Z 06003KT 9999 OVC015 19/19 A3002 NOSIG=
202210100900 METAR MROC 100900Z VRB02KT 9999 SCT015 19/18 A3002 NOSIG=
202210101000 METAR MROC 101000Z 07003KT 9999 FEW015 SCT040 18/18 A3003 NOSIG=
202210101100 METAR MROC 101100Z 06004KT 9999 FEW015 OVC035 19/18 A3004 NOSIG=
202210101200 METAR MROC 101200Z 09003KT 9999 FEW015 BKN035 19/18 A3007 NOSIG=
202210101300 METAR MROC 101300Z 07004KT CAVOK 21/18 A3009 NOSIG=
202210101400 METAR MROC 101400Z 12003KT CAVOK 23/19 A3011 BECMG 24005KT=
202210101500 METAR MROC 101500Z 24005KT 9999 FEW035 SCT250 23/18 A3011 NOSIG=
202210101600 METAR MROC 101600Z 27006KT 230V310 9999 FEW035 BKN200 25/20 A3010 NOSIG=
202210101700 METAR MROC 101700Z 23008KT 9999 SCT030 BKN200 26/20 A3008 NOSIG=
202210101800 METAR MROC 101800Z 23009KT 200V270 9999 FEW020 SCT030 BKN200 26/22 A3005 NOSIG=
202210101900 METAR MROC 101900Z 26011KT 9999 VCTS FEW015CB BKN020 25/21 A3003 BECMG SHRA=
202210102000 METAR MROC 102000Z 23008KT 9999 FEW010 SCT020 BKN045 23/21 A3002 BECMG BKN015=
202210102100 METAR MROC 102100Z 24007KT 220V280 9999 VCFG SCT006 BKN025 23/21 A3001 NOSIG=
202210102200 METAR MROC 102200Z 26005KT 220V330 9999 -DZ VCFG SCT010 BKN025 22/21 A3001 NOSIG=
202210102300 METAR MROC 102300Z 26004KT 9999 FEW007 SCT020 21/21 A3002 NOSIG=
202210110000 METAR MROC 110000Z 25003KT 9000 BCFG SCT003 BKN020 21/21 A3004 NOSIG=
202210110100 METAR MROC 110100Z 24003KT 9000 4000SW BCFG SCT003 BKN015 21/21 A3006 NOSIG=
202210110200 METAR MROC 110200Z 22002KT 9999 VCFG FEW006 SCT020 BKN100 21/20 A3007 NOSIG=
202210110300 METAR MROC 110300Z VRB02KT 9999 4000SW BCFG FEW005 BKN120 21/20 A3009 NOSIG=
202210110400 METAR MROC 110400Z VRB02KT 2000 0500SW R07/0600N BR BKN003 21/20 A3009 NOSIG=
202210110500 METAR MROC 110500Z VRB02KT 1200 -DZ BR BKN003 20/20 A3009 NOSIG=
202210110600 METAR MROC 110600Z 29004KT 2000 BR BKN003 21/20 A3008 NOSIG=
202210110700 METAR MROC 110700Z 25003KT 2000 BR BKN003 20/20 A3007 NOSIG=
202210110800 METAR MROC 110800Z 25002KT 0800 -DZ FG BKN002 20/20 A3006 NOSIG=
202210110900 METAR MROC 110900Z VRB01KT 2000 BR BKN005 20/20 A3006 NOSIG=
202210111000 METAR MROC 111000Z VRB01KT 8000 3000SW VCFG BCFG SCT005 20/20 A3006 NOSIG=
202210111100 METAR MROC 111100Z 05004KT 9999 FEW030 19/19 A3007 NOSIG=
202210111200 METAR MROC 111200Z 07006KT 9999 FEW030 21/18 A3008 NOSIG=
202210111300 METAR MROC 111300Z 12007KT 080V150 CAVOK 23/18 A3010 NOSIG=
202210111400 METAR MROC 111400Z 12007KT 080V170 CAVOK 25/18 A3010 NOSIG=
202210111500 METAR MROC 111500Z 10008KT 9999 FEW040 27/17 A3013 BECMG 25006KT=
202210111600 METAR MROC 111600Z 24003KT CAVOK 27/21 A3011 NOSIG=
202210111700 METAR MROC 111700Z 28004KT 250V330 9999 FEW045 SCT200 27/21 A3008 NOSIG=
202210111800 METAR MROC 111800Z 24009KT 9999 BKN045 27/22 A3005 NOSIG=
202210111900 METAR MROC 111900Z 25010KT 220V280 9999 SCT030 26/22 A3003 NOSIG=
202210112000 METAR MROC 112000Z 25010KT 220V280 9999 BKN030 25/22 A3002 TEMPO RA=
202210112100 METAR MROC 112100Z 26011KT 9999 BKN008 23/21 A3000 NOSIG=
202210112200 METAR MROC 112200Z 25008KT 9999 BKN010 23/22 A3001 NOSIG=
202210112300 METAR MROC 112300Z COR 25006KT 220V280 7000 RA FEW003 BKN008 22/21 A3003 NOSIG=
202210120000 METAR MROC 120000Z VRB02KT 9999 FEW005 SCT020 BKN100 21/21 A3004 NOSIG=
202210120100 METAR MROC 120100Z VRB02KT 9999 FEW005 BKN010 22/21 A3007 NOSIG=
202210120200 METAR MROC 120200Z VRB02KT 9999 FEW005 BKN050 22/21 A3009 NOSIG=
202210120300 METAR MROC 120300Z VRB01KT 9999 FEW005 22/21 A3010 NOSIG=
202210120400 METAR MROC 120400Z 31003KT 280V060 9999 3000SW BCFG FEW035 21/21 A3010 NOSIG=
202210120500 METAR MROC 120500Z 09006KT CAVOK 21/19 A3008 NOSIG=
202210120600 METAR MROC 120600Z 08005KT CAVOK 21/18 A3007 NOSIG=
202210120700 METAR MROC 120700Z 08005KT CAVOK 20/18 A3006 NOSIG=
202210120800 METAR MROC 120800Z 04008KT CAVOK 21/18 A3003 NOSIG=
202210120900 METAR MROC 120900Z 03004KT 360V060 CAVOK 19/17 A3002 NOSIG=
202210121000 METAR MROC 121000Z 06007KT 020V100 CAVOK 21/17 A3002 NOSIG=
202210121100 METAR MROC 121100Z 08011KT 050V110 CAVOK 21/17 A3003 NOSIG=
202210121200 METAR MROC 121200Z 07003KT 9999 FEW040 BKN200 21/17 A3006 NOSIG=
202210121300 METAR MROC 121300Z 08007KT CAVOK 23/18 A3008 NOSIG=
202210121400 METAR MROC 121400Z 09007KT 060V120 9999 FEW045 BKN160 25/19 A3009 BECMG 25006KT=
202210121500 METAR MROC 121500Z 11009KT 080V150 CAVOK 26/19 A3008 NOSIG=
202210121600 METAR MROC 121600Z 12011KT 080V170 9999 FEW045 28/19 A3008 NOSIG=
202210121700 METAR MROC 121700Z 10006KT 040V140 9999 SHRA FEW020TCU FEW025 28/18 A3007 NOSIG=
202210121800 METAR MROC 121800Z 25010KT 9999 VCTS VCSH FEW020CB SCT035 26/22 A3004 NOSIG=
202210121900 METAR MROC 121900Z COR 26008KT 4000 +TSRA OVC020CB 23/21 A3005 NOSIG=
202210122000 METAR MROC 122000Z 27005KT 250V330 9999 -RA FEW004 BKN020 21/20 A3004 NOSIG=
202210122100 METAR MROC 122100Z 12003KT 080V160 9999 -RA FEW005 BKN040 22/21 A3001 NOSIG=
202210122200 METAR MROC 122200Z COR 12003KT 090V160 9999 -DZ NSC 22/21 A3001 NOSIG=
202210122300 METAR MROC 122300Z COR 08004KT 9999 -DZ NSC 22/20 A3002 NOSIG=
202210130000 METAR MROC 130000Z 07004KT CAVOK 22/20 A3003 NOSIG=
202210130100 METAR MROC 130100Z VRB02KT 9999 5000SW BCFG FEW005 BKN140 21/20 A3006 NOSIG=
202210130200 METAR MROC 130200Z 28003KT 210V320 9999 5000SW BCFG FEW005 BKN025 21/21 A3011 NOSIG=
202210130300 METAR MROC 130300Z VRB02KT 9999 4000SW BCFG OVC004 21/21 A3011 TEMPO 5000 BR=
202210130400 METAR MROC 130400Z VRB01KT 9999 3000SW BCFG BKN010 21/20 A3011 NOSIG=
202210130500 METAR MROC 130500Z VRB01KT 9999 3000SW BCFG SCT003 BKN008 21/20 A3011 NOSIG=
202210130600 METAR MROC 130600Z 34002KT 9999 3000SW BCFG FEW005 BKN010 21/20 A3010 NOSIG=
202210130700 METAR MROC 130700Z 09003KT 9999 3000SW BCFG FEW005 BKN140 20/20 A3006 NOSIG=
202210130800 METAR MROC 130800Z 10005KT 9999 FEW010 SCT160 20/19 A3002 NOSIG=
202210130900 METAR MROC 130900Z 08004KT CAVOK 20/18 A2999 NOSIG=
202210131000 METAR MROC 131000Z 00000KT 9999 FEW002 19/18 A3003 NOSIG=
202210131100 METAR MROC 131100Z 09003KT 9999 SCT005 SCT120 19/18 A3005 NOSIG=
202210131200 METAR MROC 131200Z 12003KT 9999 FEW010 BKN120 19/19 A3007 NOSIG=
202210131300 METAR MROC 131300Z 08003KT 010V130 9999 BKN030 21/19 A3008 NOSIG=
202210131400 METAR MROC 131400Z 06005KT 030V100 9999 FEW030 BKN150 22/19 A3008 NOSIG=
202210131500 METAR MROC 131500Z 14003KT 090V180 9999 FEW035 BKN130 24/19 A3009 TEMPO 25006KT=
202210131600 METAR MROC 131600Z 25005KT 9999 SCT035 BKN140 24/21 A3010 NOSIG=
202210131700 METAR MROC 131700Z 18003KT 110V220 9999 SCT035 BKN150 26/19 A3007 NOSIG=
202210131800 METAR MROC 131800Z 24007KT 9999 FEW030 OVC150 25/20 A3004 NOSIG=
202210131900 METAR MROC 131900Z 24006KT 9999 FEW025 OVC150 25/20 A3000 NOSIG=
202210132000 METAR MROC 132000Z 23008KT 200V260 9999 BKN030 25/21 A2997 NOSIG=
202210132100 METAR MROC 132100Z 24009KT 9999 BKN025 25/22 A2996 NOSIG=
202210132200 METAR MROC 132200Z 25009KT 9999 VCTS FEW015 SCT020 BKN040 24/21 A2997 TEMPO -TSRA=
202210132300 METAR MROC 132300Z 23005KT 9999 -TS FEW015CB SCT035 BKN140 22/21 A3000 NOSIG=
202210140000 METAR MROC 140000Z 26006KT 9999 FEW006 BKN020 21/21 A3002 RETS NOSIG=
202210140100 METAR MROC 140100Z 28003KT 240V300 9999 4000SW BCFG FEW006 BKN015 21/20 A3004 NOSIG=
202210140200 METAR MROC 140200Z 26005KT 9999 OVC008 21/20 A3007 NOSIG=
202210140300 METAR MROC 140300Z 31003KT 280V340 9999 BKN010 21/20 A3008 NOSIG=
202210140400 METAR MROC 140400Z COR VRB02KT 9999 FEW010 SCT025 BKN140 21/19 A3008 NOSIG=
202210140500 METAR MROC 140500Z VRB02KT 9999 FEW015 BKN150 21/19 A3008 NOSIG=
202210140600 METAR MROC 140600Z 14002KT 9999 SCT015 BKN150 20/20 A3007 NOSIG=
202210140700 METAR MROC 140700Z VRB01KT 9999 SCT030 BKN140 20/20 A3004 NOSIG=
202210140800 METAR MROC 140800Z 12002KT 9999 FEW025 20/19 A3002 NOSIG=
202210140900 METAR MROC 140900Z 02002KT CAVOK 20/19 A3002 NOSIG=
202210141000 METAR MROC 141000Z 04002KT CAVOK 19/18 A3000 NOSIG=
202210141100 METAR MROC 141100Z 05005KT CAVOK 19/18 A3001 NOSIG=
202210141200 METAR MROC 141200Z 07004KT CAVOK 19/17 A3003 NOSIG=
202210141300 METAR MROC 141300Z VRB02KT CAVOK 22/19 A3004 TEMPO 24006KT=
202210141400 METAR MROC 141400Z VRB01KT 9999 FEW040 24/19 A3005 NOSIG=
202210141500 METAR MROC 141500Z 26003KT 9999 FEW040 25/20 A3006 NOSIG=
202210141600 METAR MROC 141600Z 27009KT 230V290 9999 FEW040 26/20 A3007 NOSIG=
202210141700 METAR MROC 141700Z 24009KT 9999 VCTS BKN040 26/21 A3005 NOSIG=
202210141800 METAR MROC 141800Z 27009KT 230V300 9999 VCTS VCSH FEW015CB BKN030 26/20 A3002 NOSIG=
202210141900 METAR MROC 141900Z 28005KT 220V360 9999 VCTS VCSH FEW015CB BKN035 25/19 A2999 NOSIG=
202210141926 METAR MROC 141926Z 30006KT 230V330 9999 RA VCTS FEW015CB BKN035 22/20 A2998 NOSIG=
202210142000 METAR MROC 142000Z 27005KT 240V300 8000 3000N -TSRA FEW010CB BKN025 21/20 A2999 NOSIG=
202210142100 METAR MROC 142100Z 22005KT 5000 1500SW -RA BR VCTS FEW005 SCT010CB BKN015 21/20 A2999 NOSIG=
202210142200 METAR MROC 142200Z 28006KT 8000 3000SW -TSRA VCFG FEW005 SCT010CB BKN015 21/20 A2999 NOSIG=
202210142300 METAR MROC 142300Z 33004KT 290V060 8000 3000SW -RA VCFG SCT007 BKN015 20/20 A3001 RETSRA NOSIG=
202210150000 METAR MROC 150000Z 36003KT 9999 -RA FEW015 OVC100 20/19 A3003 NOSIG=
202210150100 METAR MROC 150100Z VRB02KT 9999 FEW035 OVC100 20/20 A3005 NOSIG=
202210150200 METAR MROC 150200Z 07003KT 020V110 CAVOK 21/20 A3006 NOSIG=
202210150300 METAR MROC 150300Z 05004KT 360V060 CAVOK 21/20 A3005 NOSIG=
202210150400 METAR MROC 150400Z 24004KT 9999 BCFG NSC 20/19 A3008 NOSIG=
202210150500 METAR MROC 150500Z 26003KT 210V320 3000 BR OVC005 20/20 A3009 NOSIG=
202210150600 METAR MROC 150600Z 03003KT 350V050 6000 BCFG BKN004 19/19 A3006 NOSIG=
202210150700 METAR MROC 150700Z 07004KT 9999 FEW010 19/19 A3004 NOSIG=
202210150800 METAR MROC 150800Z 06006KT CAVOK 19/17 A3001 NOSIG=
202210150900 METAR MROC 150900Z 07005KT CAVOK 18/17 A3002 NOSIG=
202210151000 METAR MROC 151000Z 08004KT CAVOK 18/17 A3002 NOSIG=
202210151100 METAR MROC 151100Z 07006KT CAVOK 17/16 A3003 NOSIG=
202210151200 METAR MROC 151200Z 07006KT CAVOK 18/16 A3005 NOSIG=
202210151300 METAR MROC 151300Z 09003KT 070V130 CAVOK 21/18 A3007 NOSIG=
202210151400 METAR MROC 151400Z 10003KT 050V140 CAVOK 24/18 A3008 BECMG 25006KT=
202210151500 METAR MROC 151500Z 29003KT 030V350 CAVOK 25/18 A3008 NOSIG=
202210151600 METAR MROC 151600Z 24006KT CAVOK 26/20 A3008 NOSIG=
202210151700 METAR MROC 151700Z 24008KT 210V270 9999 SCT035 26/20 A3005 NOSIG=
202210151800 METAR MROC 151800Z 24008KT 190V270 9999 BKN030 26/20 A3003 NOSIG=
202210151900 METAR MROC 151900Z 23009KT 200V280 9999 VCSH BKN025TCU 26/22 A2999 NOSIG=
202210152000 METAR MROC 152000Z 26008KT 220V290 9999 3000N -TSRA FEW010CB BKN025 26/21 A2998 NOSIG=
202210152100 METAR MROC 152100Z 36003KT 3000 1200SW -TSRA FEW005 FEW015CB SCT025 BKN035 20/20 A2997 NOSIG=
202210152200 METAR MROC 152200Z 00000KT 9999 3000SW FEW010 SCT035 BKN200 20/20 A3000 NOSIG=
202210152300 METAR MROC 152300Z 35003KT 9999 BCFG SCT010 BKN020 21/19 A3002 NOSIG=
202210160000 METAR MROC 160000Z VRB02KT 9999 -RA BCFG FEW010 OVC030 21/20 A3004 NOSIG=
202210160100 METAR MROC 160100Z VRB02KT 9999 -RA BCFG FEW010 OVC030 20/20 A3006 NOSIG=
202210160200 METAR MROC 160200Z VRB02KT 9999 BCFG FEW030 OVC045 21/20 A3009 NOSIG=
202210160300 METAR MROC 160300Z VRB02KT CAVOK 20/20 A3009 NOSIG=
202210160400 METAR MROC 160400Z VRB02KT 9999 3000SW FEW005 20/20 A3007 NOSIG=
202210160500 METAR MROC 160500Z 26003KT 0700 FG FEW001 BKN005 20/20 A3007 NOSIG=
202210160600 METAR MROC 160600Z 27003KT 4000 BR FEW002 BKN010 20/20 A3007 NOSIG=
202210160700 METAR MROC 160700Z 02003KT 9999 3000SW BCFG FEW002 BKN010 20/20 A3004 NOSIG=
202210160800 METAR MROC 160800Z 14002KT 9999 3000SW BCFG FEW005 SCT060 20/19 A3002 NOSIG=
202210160900 METAR MROC 160900Z 06003KT 9999 3000SW BCFG FEW010 SCT100 19/19 A3002 NOSIG=
202210161000 METAR MROC 161000Z VRB02KT 9999 FEW015 19/19 A3002 NOSIG=
202210161100 METAR MROC 161100Z 12002KT 9999 FEW015 19/19 A3004 NOSIG=
202210161200 METAR MROC 161200Z COR VRB02KT 9999 4000NE BCFG FEW002 SCT100 19/18 A3006 NOSIG=
202210161300 METAR MROC 161300Z 03004KT 350V070 9999 BCFG FEW010 SCT140 21/19 A3008 NOSIG=
202210161400 METAR MROC 161400Z 27003KT 240V330 9999 SCT020 22/19 A3008 NOSIG=
202210161500 METAR MROC 161500Z 26005KT 9999 SCT020 23/20 A3008 NOSIG=
202210161600 METAR MROC 161600Z 26005KT 220V290 9999 SCT020 24/20 A3008 NOSIG=
202210161700 METAR MROC 161700Z 25005KT 160V300 9999 SCT020 BKN120 26/20 A3006 NOSIG=
202210161800 METAR MROC 161800Z COR 25006KT 210V290 9999 BKN025 27/21 A3002 NOSIG=
202210161900 METAR MROC 161900Z 23009KT 210V270 9999 RA FEW015TCU BKN020 25/21 A3000 NOSIG=
202210162000 METAR MROC 162000Z 24009KT 9999 -TSRA FEW010CB BKN015 22/21 A3000 NOSIG=
202210162100 METAR MROC 162100Z 25010KT 230V290 0200 R07/0700N -RA FG OVC002 21/20 A2999 NOSIG=
202210162200 METAR MROC 162200Z 25007KT 2000 TSRA BR BKN006CB 20/20 A2999 NOSIG=
202210162300 METAR MROC 162300Z 26004KT 2000 TSRA OVC020CB 20/20 A3002 NOSIG=
202210170000 METAR MROC 170000Z VRB01KT 9999 BKN004 20/20 A3004 NOSIG=
202210170100 METAR MROC 170100Z 00000KT 9999 4500SW OVC005 20/20 A3006 NOSIG=
202210170200 METAR MROC 170200Z 21002KT 1500 BR OVC002 20/20 A3008 NOSIG=
202210170300 METAR MROC 170300Z VRB01KT 6000 2500SW BCFG OVC003 20/20 A3008 NOSIG=
202210170400 METAR MROC 170400Z VRB02KT 1500 BR OVC003 20/20 A3009 NOSIG=
202210170500 METAR MROC 170500Z VRB02KT 1500 BR OVC003 20/20 A3007 NOSIG=
202210170600 METAR MROC 170600Z VRB02KT 1500 BR FEW003 SCT008 BKN015 20/20 A3006 NOSIG=
202210170700 METAR MROC 170700Z VRB02KT 5000 1500SW BR SCT003 BKN008 20/20 A3004 NOSIG=
202210170800 METAR MROC 170800Z 09003KT 9999 FEW010 20/19 A3001 NOSIG=
202210170900 METAR MROC 170900Z 07005KT 9999 FEW010 19/18 A3000 NOSIG=
202210171000 METAR MROC 171000Z 09004KT CAVOK 19/18 A2998 NOSIG=
202210171100 METAR MROC 171100Z 04007KT CAVOK 19/17 A3002 NOSIG=
202210171200 METAR MROC 171200Z 07004KT CAVOK 20/17 A3004 NOSIG=
202210171300 METAR MROC 171300Z 03003KT 350V080 CAVOK 20/18 A3007 NOSIG=
202210171400 METAR MROC 171400Z 03006KT 9999 FEW002 SCT140 22/18 A3008 NOSIG=
202210171500 METAR MROC 171500Z 08005KT 350V150 9999 FEW040 BKN140 24/18 A3008 NOSIG=
202210171600 METAR MROC 171600Z 11008KT 070V140 CAVOK 24/18 A3008 NOSIG=
202210171700 METAR MROC 171700Z 12007KT 070V170 CAVOK 25/18 A3005 NOSIG=
202210171800 METAR MROC 171800Z 14006KT 080V190 9999 SCT040 BKN150 27/18 A3002 BECMG 25007KT=
202210171900 METAR MROC 171900Z 25010KT 220V280 9999 SCT035 BKN045 26/22 A2999 NOSIG=
202210172000 METAR MROC 172000Z 25008KT 9999 FEW020 SCT035 BKN045 24/20 A2997 NOSIG=
202210172100 METAR MROC 172100Z 22009KT 9999 BKN020TCU 23/21 A2997 TEMPO TSRA=
202210172200 METAR MROC 172200Z 24008KT 9999 -RA FEW025 BKN040 21/20 A2998 RESHRA NOSIG=
202210172300 METAR MROC 172300Z 30008KT 9999 FEW020 BKN030 21/20 A3002 TEMPO 5000 BR BKN010=
202210180000 METAR MROC 180000Z 30005KT 270V010 9999 OVC012 20/19 A3005 NOSIG=
202210180100 METAR MROC 180100Z 32003KT 9999 OVC010 20/19 A3008 NOSIG=
202210180200 METAR MROC 180200Z 18003KT 9999 SCT010 20/19 A3009 NOSIG=
202210180300 METAR MROC 180300Z 10003KT CAVOK 19/19 A3009 NOSIG=
202210180400 METAR MROC 180400Z 07005KT 9999 FEW010 19/19 A3008 NOSIG=
202210180500 METAR MROC 180500Z 07006KT 9999 FEW010 19/18 A3006 NOSIG=
202210180600 METAR MROC 180600Z 07004KT CAVOK 19/17 A3006 NOSIG=
202210180700 METAR MROC 180700Z 07005KT 9999 BKN030 18/17 A3003 NOSIG=
202210180800 METAR MROC 180800Z 06007KT 9999 SCT030 20/18 A3002 NOSIG=
202210180900 METAR MROC 180900Z 03006KT 9999 FEW030 19/17 A3000 NOSIG=
202210181000 METAR MROC 181000Z 07006KT 040V100 CAVOK 19/17 A3000 NOSIG=
202210181100 METAR MROC 181100Z 03006KT CAVOK 19/17 A3002 NOSIG=
202210181200 METAR MROC 181200Z 08006KT 9999 FEW045 BKN200 20/17 A3005 NOSIG=
202210181300 METAR MROC 181300Z 06007KT CAVOK 22/18 A3007 NOSIG=
202210181400 METAR MROC 181400Z 17004KT 070V230 CAVOK 24/19 A3007 BECMG 25007KT=
202210181500 METAR MROC 181500Z VRB05KT CAVOK 26/18 A3007 NOSIG=
202210181600 METAR MROC 181600Z 25009KT 9999 FEW045 BKN250 25/19 A3007 NOSIG=
202210181700 METAR MROC 181700Z 24009KT 210V270 9999 FEW020 BKN040 25/21 A3007 NOSIG=
202210181800 METAR MROC 181800Z 25010KT 220V280 9999 BKN030 24/20 A3004 NOSIG=
202210181900 METAR MROC 181900Z 25009KT 220V280 9999 BKN025 25/20 A3002 NOSIG=
202210182000 METAR MROC 182000Z 26009KT 220V290 9999 BKN020 25/20 A3000 NOSIG=
202210182100 METAR MROC 182100Z 24007KT 220V280 9999 -RA FEW008 BKN020 24/21 A2998 NOSIG=
202210182200 METAR MROC 182200Z 24008KT 9000 VCTS VCSH FEW010CB BKN020 23/21 A2999 NOSIG=
202210182300 METAR MROC 182300Z 22006KT 5000 RA BR SCT005 BKN020 22/21 A3001 TEMPO BKN010=
202210190000 METAR MROC 190000Z 23008KT 2000 0800N -RA BR BKN002 21/21 A3003 NOSIG=
202210190100 METAR MROC 190100Z COR 25006KT 9000 2000SW -DZ VCFG SCT005 BKN015 21/21 A3007 RERA NOSIG=
202210190200 METAR MROC 190200Z VRB02KT 9999 FEW005 BKN030 21/20 A3010 NOSIG=
202210190300 METAR MROC 190300Z 10002KT 9999 FEW010 BKN035 21/20 A3012 NOSIG=
202210190400 METAR MROC 190400Z VRB01KT 9999 SCT003 20/20 A3013 NOSIG=
202210190500 METAR MROC 190500Z 36003KT 9999 3000SW BCFG SCT003 20/20 A3011 NOSIG=
202210190600 METAR MROC 190600Z 08004KT 9999 3000SW BCFG FEW003 19/19 A3008 NOSIG=
202210190700 METAR MROC 190700Z 10005KT CAVOK 18/17 A3005 NOSIG=
202210190800 METAR MROC 190800Z 05005KT 360V070 CAVOK 18/16 A3004 NOSIG=
202210190900 METAR MROC 190900Z 05006KT 030V100 CAVOK 18/16 A3003 NOSIG=
202210191000 METAR MROC 191000Z 10003KT 070V130 CAVOK 17/15 A3004 NOSIG=
202210191100 METAR MROC 191100Z 08006KT CAVOK 17/14 A3003 NOSIG=
202210191200 METAR MROC 191200Z 07007KT CAVOK 19/15 A3005 NOSIG=
202210191300 METAR MROC 191300Z 10006KT CAVOK 21/17 A3008 NOSIG=
202210191400 METAR MROC 191400Z 10004KT 070V160 CAVOK 24/17 A3010 NOSIG=
202210191500 METAR MROC 191500Z 10009KT 060V140 CAVOK 26/17 A3010 NOSIG=
202210191600 METAR MROC 191600Z 25005KT 190V290 CAVOK 26/19 A3009 NOSIG=
202210191700 METAR MROC 191700Z 25009KT 220V290 CAVOK 26/20 A3008 NOSIG=
202210191800 METAR MROC 191800Z 24008KT 190V270 9999 SCT035 BKN250 26/21 A3005 NOSIG=
202210191900 METAR MROC 191900Z 25009KT 210V270 9999 FEW020 SCT030 BKN200 25/21 A3003 NOSIG=
202210192000 METAR MROC 192000Z 26011KT 9999 VCSH SCT015TCU BKN025 25/21 A3001 NOSIG=
202210192100 METAR MROC 192100Z 19006KT 160V220 9999 2000SW -TSRA FEW010CB BKN030 22/22 A3002 NOSIG=
202210192200 METAR MROC 192200Z 24007KT 1200 R07/P2000N BR VCTS BKN003 22/21 A3003 BECMG 0500 FG BKN001=
202210192300 METAR MROC 192300Z 25003KT 230V290 9999 VCFG FEW005 SCT035 BKN100 21/20 A3005 NOSIG=
202210200000 METAR MROC 200000Z VRB03KT 9999 VCFG FEW010 SCT035 21/21 A3006 NOSIG=
202210200100 METAR MROC 200100Z VRB01KT 9999 VCFG FEW010 SCT035 21/21 A3009 NOSIG=
202210200200 METAR MROC 200200Z 07002KT 9999 FEW015 BKN035 21/20 A3010 NOSIG=
202210200300 METAR MROC 200300Z 10003KT 9999 BKN035 20/20 A3012 NOSIG=
202210200400 METAR MROC 200400Z 05003KT CAVOK 20/19 A3012 NOSIG=
202210200500 METAR MROC 200500Z 02003KT CAVOK 20/18 A3010 NOSIG=
202210200600 METAR MROC 200600Z VRB02KT CAVOK 19/18 A3009 NOSIG=
202210200700 METAR MROC 200700Z 07004KT CAVOK 20/18 A3006 NOSIG=
202210200800 METAR MROC 200800Z 05004KT CAVOK 20/18 A3003 NOSIG=
202210200900 METAR MROC 200900Z VRB02KT CAVOK 20/18 A3003 NOSIG=
202210201000 METAR MROC 201000Z 04006KT CAVOK 20/17 A3003 NOSIG=
202210201100 METAR MROC 201100Z 07005KT CAVOK 20/17 A3003 NOSIG=
202210201200 METAR MROC 201200Z 07004KT 030V120 CAVOK 20/17 A3004 NOSIG=
202210201300 METAR MROC 201300Z 03003KT 340V090 9999 FEW045 SCT200 23/18 A3006 NOSIG=
202210201400 METAR MROC 201400Z 29003KT 9999 FEW045 SCT200 25/19 A3008 NOSIG=
202210201500 METAR MROC 201500Z 10009KT 050V130 9999 FEW035 SCT060 BKN200 26/18 A3010 NOSIG=
202210201600 METAR MROC 201600Z 26008KT 9999 FEW035 SCT060 BKN200 25/20 A3010 NOSIG=
202210201700 METAR MROC 201700Z 24006KT 220V280 9999 SCT025 SCT050 25/20 A3008 NOSIG=
202210201800 METAR MROC 201800Z 25008KT 220V300 9999 FEW025 SCT050 BKN200 26/21 A3004 NOSIG=
202210201900 METAR MROC 201900Z 25007KT 210V270 9999 FEW025 SCT050 BKN200 25/21 A3001 NOSIG=
202210202000 METAR MROC 202000Z 25006KT 210V270 9999 FEW020 SCT035 BKN200 26/21 A2998 NOSIG=
202210202100 METAR MROC 202100Z 26009KT 9999 SCT010 BKN020 25/21 A2997 NOSIG=
202210202107 METAR MROC 202107Z 24007KT 210V290 8000 RA BKN010 24/21 A2998 NOSIG=
202210202144 METAR MROC 202144Z 25007KT 9999 -TSRA FEW005 FEW008CB BKN010 23/22 A2998 NOSIG=
202210202200 METAR MROC 202200Z 25005KT 210V290 9999 TSRA BKN005 SCT010CB 22/22 A2999 NOSIG=
202210202230 METAR MROC 202230Z 23005KT 9999 SHRA BKN010 FEW008TCU 22/21 A2999 RETSRA NOSIG=
202210202300 METAR MROC 202300Z 31004KT 250V360 9999 -RA FEW005 BKN010 22/21 A3000 RESHRA NOSIG=
202210210000 METAR MROC 210000Z 30004KT 270V350 9999 BKN007 21/21 A3002 NOSIG=
202210210100 METAR MROC 210100Z 31004KT 280V340 9999 BKN008 21/21 A3005 NOSIG=
202210210200 METAR MROC 210200Z 31003KT 9999 BKN006 21/21 A3008 NOSIG=
202210210300 METAR MROC 210300Z 33002KT 9999 BKN010 21/20 A3010 NOSIG=
202210210400 METAR MROC 210400Z VRB02KT 9999 BKN010 21/20 A3011 NOSIG=
202210210500 METAR MROC 210500Z 30001KT 9999 FEW005 BKN015 21/20 A3009 NOSIG=
202210210600 METAR MROC 210600Z VRB01KT 9999 BKN010 21/20 A3007 NOSIG=
202210210700 METAR MROC 210700Z VRB02KT 8000 1500S BCFG FEW001 OVC002 21/20 A3005 NOSIG=
202210210800 METAR MROC 210800Z 00000KT 9999 FEW010 20/20 A3003 NOSIG=
202210210900 METAR MROC 210900Z 05005KT CAVOK 20/19 A3002 NOSIG=
202210211000 METAR MROC 211000Z 06003KT 9999 FEW010 19/17 A3002 NOSIG=
202210211100 METAR MROC 211100Z 25003KT 9999 3500SW BCFG FEW003 SCT030 18/18 A3004 NOSIG=
202210211200 METAR MROC 211200Z 02005KT 2000 BR FEW003 BKN010 18/18 A3006 NOSIG=
202210211300 METAR MROC 211300Z VRB02KT 9999 4500SW BCFG FEW005 21/19 A3009 NOSIG=
202210211400 METAR MROC 211400Z 12003KT 090V150 9999 FEW030 22/19 A3010 NOSIG=
202210211500 METAR MROC 211500Z 28003KT 220V010 9999 FEW020 SCT200 24/19 A3010 NOSIG=
202210211600 METAR MROC 211600Z 28005KT 210V340 9999 FEW030 BKN200 25/20 A3009 NOSIG=
202210211700 METAR MROC 211700Z 25009KT 220V290 9999 FEW030 BKN250 25/20 A3006 NOSIG=
202210211800 METAR MROC 211800Z 24008KT 200V260 9999 FEW035 26/20 A3003 NOSIG=
202210211900 METAR MROC 211900Z 25008KT 9999 VCTS FEW020CB SCT035 25/21 A3000 TEMPO TSRA BKN020=
202210212000 METAR MROC 212000Z 25011KT 9999 VCSH FEW020TCU BKN030 25/21 A2997 NOSIG=
202210212032 METAR MROC 212032Z 29011KT 9999 TSRA VCSH FEW010CB BKN020 23/20 A2998 NOSIG=
202210212047 METAR MROC 212047Z 30007KT 270V340 5000 TSRA SCT010CB BKN015 22/19 A2998 NOSIG=
202210212100 METAR MROC 212100Z 35005KT 310V030 6000 TSRA SCT010CB BKN015 22/19 A2998 NOSIG=
202210212122 METAR MROC 212122Z 31003KT 7000 -RA BKN010 21/20 A2998 RETSRA NOSIG=
202210212200 METAR MROC 212200Z VRB02KT 9999 3000SW BCFG SCT010 BKN040 21/20 A2999 NOSIG=
202210212300 METAR MROC 212300Z 08003KT 8000 RA BCFG FEW005 SCT040 BKN100 21/20 A3001 NOSIG=
202210220000 METAR MROC 220000Z 12003KT 9999 3000SW BCFG FEW010 BKN100 21/20 A3002 NOSIG=
202210220100 METAR MROC 220100Z VRB03KT 9999 DZ FEW010 BKN120 21/20 A3004 NOSIG=
202210220200 METAR MROC 220200Z VRB03G13KT 7000 2000SW -RA BCFG FEW005 BKN010 21/20 A3008 NOSIG=
202210220300 METAR MROC 220300Z 16002KT 3000 BR FEW001 OVC005 21/20 A3009 NOSIG=
202210220400 METAR MROC 220400Z 10005KT 9999 SCT035 21/19 A3009 NOSIG=
202210220500 METAR MROC 220500Z 04003KT 9999 FEW035 21/20 A3009 NOSIG=
202210220600 METAR MROC 220600Z 05005KT CAVOK 21/19 A3007 NOSIG=
202210220700 METAR MROC 220700Z 22003KT 9999 1500SW BCFG NSC 20/20 A3004 NOSIG=
202210220800 METAR MROC 220800Z VRB02KT 0800 R07/P2000N FG BKN003 20/19 A3002 NOSIG=
202210220900 METAR MROC 220900Z 02003KT 9999 3000SW BCFG FEW035 19/19 A3002 NOSIG=
202210221000 METAR MROC 221000Z 04004KT CAVOK 18/17 A3001 NOSIG=
202210221100 METAR MROC 221100Z 05007KT CAVOK 19/17 A3002 NOSIG=
202210221200 METAR MROC 221200Z 07006KT CAVOK 19/17 A3003 NOSIG=
202210221300 METAR MROC 221300Z 08004KT 050V120 CAVOK 22/18 A3004 NOSIG=
202210221400 METAR MROC 221400Z 11007KT 070V140 CAVOK 25/18 A3006 NOSIG=
202210221500 METAR MROC 221500Z 11011KT 080V140 CAVOK 26/18 A3008 NOSIG=
202210221600 METAR MROC 221600Z VRB05KT 9999 SCT040 27/17 A3007 BECMG 25006KT=
202210221700 METAR MROC 221700Z 26005KT 230V300 9999 SCT045 25/21 A3006 NOSIG=
202210221800 METAR MROC 221800Z 25008KT 220V280 CAVOK 26/22 A3002 NOSIG=
202210221900 METAR MROC 221900Z 26010KT 9999 FEW025 26/22 A2999 NOSIG=
202210222000 METAR MROC 222000Z 24010KT 220V280 9999 FEW020CB BKN020 26/22 A2997 TEMPO TSRA=
202210222032 METAR MROC 222032Z 25008KT 230V300 3000 TSRA SCT015CB OVC020 23/22 A2997 NOSIG=
202210222100 METAR MROC 222100Z 24006KT 6000 -RA VCTS FEW006 BKN015 23/22 A2996 RETS NOSIG=
202210222200 METAR MROC 222200Z VRB02KT 9999 TSRA SCT005CB BKN010 22/21 A2998 NOSIG=
202210222300 METAR MROC 222300Z VRB02KT 9999 VCFG -RA BKN015 22/20 A3000 RETS NOSIG=
202210230000 METAR MROC 230000Z VRB02KT 9999 VCFG FEW008 BKN045 22/20 A3001 NOSIG=
202210230100 METAR MROC 230100Z 26003KT 8000 3000SW BCFG FEW003 SCT010 BKN040 21/21 A3004 NOSIG=
202210230200 METAR MROC 230200Z 29002KT 9999 3000SW BCFG FEW008 SCT040 21/21 A3007 NOSIG=
202210230300 METAR MROC 230300Z VRB02KT 9999 3000SW BCFG FEW005 SCT045 21/21 A3007 NOSIG=
202210230400 METAR MROC 230400Z 28003KT 9999 3000SW BCFG FEW002 SCT010 21/20 A3009 NOSIG=
202210230500 METAR MROC 230500Z VRB01KT 3000 BR SCT005 20/20 A3007 NOSIG=
202210230600 METAR MROC 230600Z 05005KT 9999 3000SW BCFG FEW010 19/19 A3005 NOSIG=
202210230700 METAR MROC 230700Z 06006KT CAVOK 19/18 A3002 NOSIG=
202210230800 METAR MROC 230800Z 08004KT 9999 FEW005 20/17 A2999 NOSIG=
202210230900 METAR MROC 230900Z 05005KT 030V090 CAVOK 20/17 A2999 NOSIG=
202210231000 METAR MROC 231000Z 04004KT 350V080 9999 FEW040 19/17 A3000 NOSIG=
202210231100 METAR MROC 231100Z 05007KT 020V090 9999 FEW040 19/17 A3002 NOSIG=
202210231200 METAR MROC 231200Z 07006KT 030V110 9999 FEW040 20/17 A3003 NOSIG=
202210231300 METAR MROC 231300Z 10008KT 060V120 9999 FEW040 23/18 A3006 NOSIG=
202210231400 METAR MROC 231400Z 11011KT 080V140 9999 FEW040 24/18 A3007 NOSIG=
202210231500 METAR MROC 231500Z 11013KT 9999 FEW040 SCT100 26/18 A3008 NOSIG=
202210231600 METAR MROC 231600Z 09010KT 060V140 9999 FEW045 BKN080 26/18 A3008 NOSIG=
202210231700 METAR MROC 231700Z 10010KT 060V130 9999 BKN040 27/18 A3005 NOSIG=
202210231800 METAR MROC 231800Z 10007KT 060V160 9999 BKN040 27/18 A3002 NOSIG=
202210231900 METAR MROC 231900Z COR 12006KT 060V200 9999 BKN040 27/18 A2999 TEMPO 24006KT=
202210232000 METAR MROC 232000Z 20006KT 150V260 9999 SCT045 BKN150 26/21 A2996 NOSIG=
202210232100 METAR MROC 232100Z 24010KT 9999 RA SCT005 BKN010 22/20 A2999 NOSIG=
202210232200 METAR MROC 232200Z 27004KT 240V360 9999 -RA VCTS FEW003 BKN020 21/21 A2999 RETS NOSIG=
202210232300 METAR MROC 232300Z 00000KT 9999 FEW003 SCT040 OVC140 21/20 A3001 NOSIG=
202210240000 METAR MROC 240000Z 24003KT 9999 3500SW BCFG FEW003 SCT040 BKN140 21/20 A3003 NOSIG=
202210240100 METAR MROC 240100Z VRB02KT 9999 3000SW BCFG SCT002 BKN010 21/20 A3006 NOSIG=
202210240200 METAR MROC 240200Z VRB02KT 9999 3500SW BCFG FEW005 SCT040 BKN240 21/20 A3008 NOSIG=
202210240300 METAR MROC 240300Z 00000KT 9999 3500SW BCFG FEW006 BKN200 20/20 A3011 NOSIG=
202210240400 METAR MROC 240400Z VRB01KT 6000 BCFG SCT002 BKN015 20/20 A3012 NOSIG=
202210240500 METAR MROC 240500Z 05004KT 9999 VCFG FEW010 SCT030 20/19 A3011 NOSIG=
202210240600 METAR MROC 240600Z 07004KT 9999 FEW030 BKN200 19/18 A3008 NOSIG=
202210240700 METAR MROC 240700Z 05005KT 9999 FEW030 BKN200 19/18 A3006 NOSIG=
202210240800 METAR MROC 240800Z 04005KT CAVOK 20/18 A3005 NOSIG=
202210240900 METAR MROC 240900Z 05003KT CAVOK 19/17 A3004 NOSIG=
202210241000 METAR MROC 241000Z 05003KT CAVOK 18/17 A3004 NOSIG=
202210241100 METAR MROC 241100Z 03008KT CAVOK 18/17 A3006 NOSIG=
202210241200 METAR MROC 241200Z 08004KT CAVOK 20/17 A3009 NOSIG=
202210241300 METAR MROC 241300Z 07005KT CAVOK 21/17 A3009 NOSIG=
202210241400 METAR MROC 241400Z 10003KT 040V180 9999 FEW005 BKN180 23/18 A3011 BECMG 24006KT=
202210241500 METAR MROC 241500Z 11004KT 360V160 CAVOK 26/18 A3010 NOSIG=
202210241600 METAR MROC 241600Z 25007KT CAVOK 26/20 A3009 NOSIG=
202210241700 METAR MROC 241700Z 24009KT 9999 FEW025 BKN180 25/20 A3009 NOSIG=
202210241800 METAR MROC 241800Z 25011KT 9999 FEW020 SCT040 BKN150 23/21 A3007 NOSIG=
202210241900 METAR MROC 241900Z 26007KT 9999 FEW020 SCT035 BKN130 23/21 A3005 NOSIG=
202210242000 METAR MROC 242000Z 24005KT 9999 SCT020 BKN120 23/20 A3003 NOSIG=
202210242100 METAR MROC 242100Z 25005KT 9999 SCT010 BKN030 23/21 A3003 NOSIG=
202210242200 METAR MROC 242200Z 25011KT 210V280 9999 BKN015 23/21 A3002 NOSIG=
202210242300 METAR MROC 242300Z 25003KT 220V280 9999 SCT015 BKN200 22/20 A3004 NOSIG=
202210250000 METAR MROC 250000Z 00000KT 9999 FEW005 SCT015 21/21 A3006 NOSIG=
202210250100 METAR MROC 250100Z 26003KT 230V310 9999 BCFG BKN005 21/21 A3009 NOSIG=
202210250200 METAR MROC 250200Z 00000KT 9999 BCFG BKN005 21/20 A3011 NOSIG=
202210250300 METAR MROC 250300Z VRB02KT 9999 BCFG OVC005 21/20 A3013 NOSIG=
202210250400 METAR MROC 250400Z VRB02KT 9999 BCFG FEW025 21/20 A3011 NOSIG=
202210250500 METAR MROC 250500Z 25003KT 220V280 0300 R07/1100U FG VV/// 20/20 A3011 NOSIG=
202210250600 METAR MROC 250600Z 27003KT 230V310 2000 0900SW R07/1300U BR OVC001 20/20 A3009 NOSIG=
202210250700 METAR MROC 250700Z VRB02KT 9999 4500SW BCFG SCT003 BKN008 20/20 A3008 NOSIG=
202210250800 METAR MROC 250800Z 07002KT CAVOK 19/19 A3005 NOSIG=
202210250900 METAR MROC 250900Z 07005KT CAVOK 19/17 A3005 NOSIG=
202210251000 METAR MROC 251000Z 03005KT CAVOK 18/17 A3004 NOSIG=
202210251100 METAR MROC 251100Z 05002KT CAVOK 19/16 A3005 NOSIG=
202210251200 METAR MROC 251200Z 11003KT 080V140 9999 BCFG NSC 20/17 A3007 NOSIG=
202210251300 METAR MROC 251300Z VRB02KT 9999 FEW045 21/17 A3009 NOSIG=
202210251400 METAR MROC 251400Z VRB01KT 9999 FEW045 BKN200 25/18 A3010 BECMG 25004KT=
202210251500 METAR MROC 251500Z 11008KT 090V150 9999 FEW045 BKN200 26/18 A3010 NOSIG=
202210251600 METAR MROC 251600Z 12007KT 080V180 9999 FEW045 BKN200 28/17 A3009 NOSIG=
202210251700 METAR MROC 251700Z 25009KT 9999 FEW045 26/21 A3008 NOSIG=
202210251800 METAR MROC 251800Z 24010KT 220V280 9999 FEW040 26/21 A3005 NOSIG=
202210251900 METAR MROC 251900Z 24010KT 210V270 9999 SCT035 26/22 A3003 NOSIG=
202210252000 METAR MROC 252000Z 25011KT 9999 FEW020 BKN030 25/22 A3002 NOSIG=
202210252100 METAR MROC 252100Z 25008KT 8000 2000SW -DZ VCFG SCT010 BKN025 22/22 A3000 BECMG BKN010=
202210252200 METAR MROC 252200Z 25007KT 8000 3000SW VCFG FEW005 SCT010 BKN025 23/21 A3001 NOSIG=
202210252300 METAR MROC 252300Z 24006KT 210V270 5000 2000SW BR BKN005 22/21 A3002 NOSIG=
202210260000 METAR MROC 260000Z 23004KT 8000 3000SW VCFG SCT005 BKN010 21/21 A3004 NOSIG=
202210260100 METAR MROC 260100Z 00000KT 5000 2000SW -RA BR BKN005 21/21 A3008 RETS NOSIG=
202210260200 METAR MROC 260200Z 00000KT 5000 1500SW BR SCT005 BKN010 21/21 A3009 NOSIG=
202210260300 METAR MROC 260300Z 29003KT 9999 1500SW BCFG SCT005 BKN020 21/21 A3010 NOSIG=
202210260400 METAR MROC 260400Z VRB02KT 3500 1500SW BR SCT002 BKN015 21/21 A3009 NOSIG=
202210260500 METAR MROC 260500Z 31003KT 270V010 8000 2000SW BCFG SCT002 BKN005 21/21 A3008 NOSIG=
202210260600 METAR MROC 260600Z VRB03KT 9999 3000SW SCT005 21/20 A3007 NOSIG=
202210260700 METAR MROC 260700Z 02004KT 9999 4500SW FEW005 20/20 A3005 NOSIG=
202210260800 METAR MROC 260800Z 03005KT 9999 4000SW FEW005 20/19 A3003 NOSIG=
202210260900 METAR MROC 260900Z 36003KT 330V040 9999 4500SW FEW010 19/18 A3001 NOSIG=
202210261000 METAR MROC 261000Z 07004KT 040V100 CAVOK 19/18 A3000 NOSIG=
202210261100 METAR MROC 261100Z 02003KT 9999 FEW005 19/18 A3000 NOSIG=
202210261200 METAR MROC 261200Z 07007KT 030V100 9999 FEW045 SCT200 21/17 A3002 NOSIG=
202210261300 METAR MROC 261300Z 04006KT 360V090 CAVOK 23/18 A3004 NOSIG=
202210261400 METAR MROC 261400Z 08006KT 040V130 CAVOK 25/18 A3006 NOSIG=
202210261500 METAR MROC 261500Z 11011KT 080V140 CAVOK 26/18 A3006 NOSIG=
202210261600 METAR MROC 261600Z 10009KT 050V120 CAVOK 28/17 A3006 NOSIG=
202210261700 METAR MROC 261700Z 11011G21KT 070V140 CAVOK 28/17 A3004 NOSIG=
202210261800 METAR MROC 261800Z 11009KT 9999 FEW045 BKN200 29/17 A3001 NOSIG=
202210261900 METAR MROC 261900Z 09007KT 060V120 9999 FEW045 SCT200 30/15 A2998 NOSIG=
202210262000 METAR MROC 262000Z 24009KT 9999 FEW045 27/22 A2996 NOSIG=
202210262100 METAR MROC 262100Z 25009KT 9999 BKN035 26/22 A2996 NOSIG=
202210262200 METAR MROC 262200Z 23008KT 9999 BKN035 25/22 A2996 NOSIG=
202210262300 METAR MROC 262300Z 23007KT 180V250 9999 FEW010 BKN025 23/21 A2997 NOSIG=
202210270000 METAR MROC 270000Z 29003KT 250V330 9999 FEW010 BKN040 23/22 A2999 NOSIG=
202210270100 METAR MROC 270100Z 36002KT 9999 FEW010 23/21 A3001 NOSIG=
202210270200 METAR MROC 270200Z 07007KT 9999 FEW010 23/18 A3004 NOSIG=
202210270300 METAR MROC 270300Z 08006KT 050V120 CAVOK 22/18 A3005 NOSIG=
202210270400 METAR MROC 270400Z 05006KT 010V100 CAVOK 22/17 A3006 NOSIG=
202210270500 METAR MROC 270500Z 06005KT 010V140 CAVOK 21/17 A3005 NOSIG=
202210270600 METAR MROC 270600Z 07006KT 030V090 CAVOK 20/17 A3003 NOSIG=
202210270700 METAR MROC 270700Z 07006KT CAVOK 20/16 A3000 NOSIG=
202210270800 METAR MROC 270800Z 06005KT 030V110 CAVOK 20/16 A2999 NOSIG=
202210270900 METAR MROC 270900Z 10010KT 070V130 CAVOK 21/16 A2998 NOSIG=
202210271000 METAR MROC 271000Z 10005KT 050V140 CAVOK 20/16 A2999 NOSIG=
202210271100 METAR MROC 271100Z 06008KT CAVOK 19/15 A3001 NOSIG=
202210271200 METAR MROC 271200Z 06007KT 020V090 CAVOK 21/16 A3003 NOSIG=
202210271300 METAR MROC 271300Z 09007KT 050V120 CAVOK 22/17 A3004 NOSIG=
202210271400 METAR MROC 271400Z 11009KT 070V130 CAVOK 24/17 A3004 NOSIG=
202210271500 METAR MROC 271500Z 11011KT 070V140 CAVOK 26/16 A3006 NOSIG=
202210271600 METAR MROC 271600Z 11010KT 080V150 CAVOK 27/15 A3005 NOSIG=
202210271700 METAR MROC 271700Z 12007KT 080V160 CAVOK 28/17 A3002 NOSIG=
202210271800 METAR MROC 271800Z 12009KT 090V180 CAVOK 29/16 A3000 NOSIG=
202210271900 METAR MROC 271900Z 24009KT 210V270 9999 FEW045 BKN180 26/21 A2998 NOSIG=
202210272000 METAR MROC 272000Z 25010KT 9999 SCT045 BKN130 25/22 A2998 NOSIG=
202210272100 METAR MROC 272100Z 25009KT 220V280 9999 FEW020CB FEW045 25/22 A2997 NOSIG=
202210272200 METAR MROC 272200Z 26009KT 9999 SCT020 24/21 A2998 NOSIG=
202210272300 METAR MROC 272300Z 23006KT 9999 FEW025 BKN030TCU 23/20 A3000 NOSIG=
202210280000 METAR MROC 280000Z 26004KT 220V280 9999 BKN010 22/21 A3002 NOSIG=
202210280100 METAR MROC 280100Z 27003KT 9999 BKN010 22/21 A3005 NOSIG=
202210280200 METAR MROC 280200Z 20001KT 9999 BKN030 22/21 A3008 NOSIG=
202210280300 METAR MROC 280300Z 35003KT 310V050 9999 SCT030 22/20 A3009 NOSIG=
202210280400 METAR MROC 280400Z 09004KT 9999 FEW010 SCT040 21/18 A3009 NOSIG=
202210280500 METAR MROC 280500Z 05005KT 020V080 9999 SCT040 22/17 A3008 NOSIG=
202210280600 METAR MROC 280600Z 06006KT 9999 SCT040 21/16 A3006 NOSIG=
202210280700 METAR MROC 280700Z 07006KT 040V100 9999 FEW040 BKN100 21/16 A3004 NOSIG=
202210280800 METAR MROC 280800Z 04004KT 010V080 9999 FEW040 BKN100 21/16 A3002 NOSIG=
202210280900 METAR MROC 280900Z VRB02KT 9999 FEW040 BKN100 22/16 A3003 NOSIG=
202210281000 METAR MROC 281000Z 07003KT 030V120 9999 FEW040 BKN100 22/16 A3004 NOSIG=
202210281100 METAR MROC 281100Z 28003KT 220V310 9999 FEW040 BKN100 21/17 A3006 NOSIG=
202210281200 METAR MROC 281200Z 06006KT 9999 FEW040 BKN100 21/17 A3007 NOSIG=
202210281300 METAR MROC 281300Z 07004KT 030V090 CAVOK 23/17 A3008 NOSIG=
202210281400 METAR MROC 281400Z 10008KT 070V170 CAVOK 25/17 A3010 NOSIG=
202210281500 METAR MROC 281500Z 11011KT 9999 FEW045 BKN140 26/17 A3011 NOSIG=
202210281600 METAR MROC 281600Z 10010KT 070V140 CAVOK 27/17 A3010 NOSIG=
202210281700 METAR MROC 281700Z 11008KT 080V150 9999 FEW045 BKN130 27/17 A3008 NOSIG=
202210281800 METAR MROC 281800Z VRB06KT 9999 SCT045 BKN130 26/20 A3006 BECMG 25008KT=
202210281900 METAR MROC 281900Z 23009KT 210V270 9999 VCSH FEW020TCU SCT035 OVC130 25/21 A3004 NOSIG=
202210282000 METAR MROC 282000Z 24008KT 9999 SCT035 OVC130 24/21 A3002 NOSIG=
202210282100 METAR MROC 282100Z 25008KT 9999 VCSH FEW020TCU BKN070 OVC120 23/21 A3002 NOSIG=
202210282200 METAR MROC 282200Z 25008KT 9999 RA BKN015 22/20 A3003 NOSIG=
202210282300 METAR MROC 282300Z 26006KT 240V300 5000 2000N RA BR SCT005 BKN010 21/20 A3005 NOSIG=
202210290000 METAR MROC 290000Z 27006KT 250V310 9999 -RA OVC010 21/20 A3007 NOSIG=
202210290011 METAR MROC 290011Z 26006KT 220V300 9999 RA OVC010 21/20 A3007 NOSIG=
202210290100 METAR MROC 290100Z COR VRB02KT 9999 FEW005 SCT015 BKN030 21/20 A3009 RERA NOSIG=
202210290200 METAR MROC 290200Z VRB03KT 9999 SCT015 BKN070 20/20 A3011 NOSIG=
202210290300 METAR MROC 290300Z 04004KT 9999 BKN035 21/20 A3011 NOSIG=
202210290400 METAR MROC 290400Z 03002KT 9999 BKN035 21/19 A3011 NOSIG=
202210290500 METAR MROC 290500Z 06004KT 030V090 9999 BKN045 21/19 A3010 NOSIG=
202210290600 METAR MROC 290600Z 30002KT 9999 FEW035 SCT100 20/19 A3008 NOSIG=
202210290700 METAR MROC 290700Z 08004KT CAVOK 21/17 A3007 NOSIG=
202210290800 METAR MROC 290800Z 09006KT CAVOK 20/17 A3005 NOSIG=
202210290900 METAR MROC 290900Z 08005KT CAVOK 19/16 A3005 NOSIG=
202210291000 METAR MROC 291000Z 05007KT CAVOK 19/16 A3007 NOSIG=
202210291100 METAR MROC 291100Z 05007KT CAVOK 19/16 A3008 NOSIG=
202210291200 METAR MROC 291200Z 04008KT CAVOK 20/16 A3009 NOSIG=
202210291300 METAR MROC 291300Z 06008KT 030V100 CAVOK 22/17 A3011 NOSIG=
202210291400 METAR MROC 291400Z 10009KT 060V140 CAVOK 24/17 A3011 NOSIG=
202210291500 METAR MROC 291500Z 11011KT 070V150 9999 FEW040 26/17 A3011 NOSIG=
202210291600 METAR MROC 291600Z 12009KT 090V150 9999 FEW045 27/17 A3010 NOSIG=
202210291700 METAR MROC 291700Z 26012KT 9999 SCT045 26/20 A3009 NOSIG=
202210291800 METAR MROC 291800Z 22009KT 200V260 9999 FEW030 SCT045 BKN150 26/20 A3007 NOSIG=
202210291900 METAR MROC 291900Z 24007KT 210V270 9999 FEW025 SCT045 BKN200 26/21 A3004 NOSIG=
202210292000 METAR MROC 292000Z 24012KT 9999 FEW025 SCT040 BKN200 25/22 A3001 NOSIG=
202210292100 METAR MROC 292100Z 23009KT 200V260 9999 VCSH FEW020 SCT035 BKN120 24/21 A3001 NOSIG=
202210292200 METAR MROC 292200Z 23006KT 180V250 9999 FEW020 BKN035 23/20 A3002 NOSIG=
202210292300 METAR MROC 292300Z VRB01KT 9999 FEW015 BKN035 22/20 A3003 NOSIG=
202210300000 METAR MROC 300000Z 33003KT 290V070 9999 FEW015 BKN030 22/20 A3004 NOSIG=
202210300100 METAR MROC 300100Z VRB02KT 9999 FEW005 BKN030 22/21 A3007 NOSIG=
202210300200 METAR MROC 300200Z 31005KT 270V360 9999 FEW005 SCT040 22/17 A3008 NOSIG=
202210300300 METAR MROC 300300Z 11004KT 070V150 9999 FEW040 22/17 A3010 NOSIG=
202210300400 METAR MROC 300400Z 06007KT 030V100 9999 FEW045 SCT080 21/18 A3010 NOSIG=
202210300500 METAR MROC 300500Z 07004KT CAVOK 21/17 A3008 NOSIG=
202210300600 METAR MROC 300600Z 08005KT CAVOK 20/17 A3005 NOSIG=
202210300700 METAR MROC 300700Z 06003KT 330V110 CAVOK 20/16 A3003 NOSIG=
202210300800 METAR MROC 300800Z 09004KT CAVOK 18/16 A3001 NOSIG=
202210300900 METAR MROC 300900Z VRB02KT CAVOK 18/16 A3000 NOSIG=
202210301000 METAR MROC 301000Z 07004KT 030V100 CAVOK 17/15 A3001 NOSIG=
202210301100 METAR MROC 301100Z 05006KT CAVOK 18/15 A3002 NOSIG=
202210301200 METAR MROC 301200Z 02005KT CAVOK 18/14 A3004 NOSIG=
202210301300 METAR MROC 301300Z 02004KT CAVOK 21/16 A3005 NOSIG=
202210301400 METAR MROC 301400Z 27003KT CAVOK 23/16 A3006 NOSIG=
202210301500 METAR MROC 301500Z 26004KT 240V320 CAVOK 22/17 A3007 NOSIG=
202210301600 METAR MROC 301600Z 24005KT 210V270 CAVOK 24/17 A3007 NOSIG=
202210301700 METAR MROC 301700Z 23007KT 200V290 CAVOK 24/18 A3004 NOSIG=
202210301800 METAR MROC 301800Z 25009KT 220V300 CAVOK 25/19 A3000 NOSIG=
202210301900 METAR MROC 301900Z 25010KT 220V290 9999 FEW040 BKN200 25/19 A2998 NOSIG=
202210302000 METAR MROC 302000Z 24010KT 200V270 9999 FEW040 BKN200 26/20 A2995 NOSIG=
202210302100 METAR MROC 302100Z 25011KT 9999 BKN035 24/20 A2995 NOSIG=
202210302200 METAR MROC 302200Z 25010KT 9999 BKN015 22/20 A2997 NOSIG=
202210302300 METAR MROC 302300Z 24006KT 9999 BKN020 21/20 A2998 NOSIG=
202210310000 METAR MROC 310000Z 26004KT 240V300 9999 FEW002 BKN008 21/20 A3000 NOSIG=
202210310100 METAR MROC 310100Z 26003KT 9999 FEW002 BKN008 20/20 A3002 NOSIG=
202210310200 METAR MROC 310200Z 22004KT 190V260 9999 FEW001 BKN008 20/20 A3005 NOSIG=
202210310300 METAR MROC 310300Z VRB02KT 9999 FEW005 SCT100 20/19 A3006 NOSIG=
202210310400 METAR MROC 310400Z 32002KT 9999 SCT005 BKN100 20/19 A3006 NOSIG=
202210310500 METAR MROC 310500Z 29004KT 9999 4000SW SCT005 SCT120 20/19 A3006 NOSIG=
202210310600 METAR MROC 310600Z 00000KT 3000 BR FEW001 BKN002 19/19 A3003 NOSIG=
202210310700 METAR MROC 310700Z 10002KT 8000 3000SW VCFG BKN003 19/19 A3001 NOSIG=
202210310800 METAR MROC 310800Z 03003KT 9999 4000SW FEW003 19/18 A2999 NOSIG=
202210310900 METAR MROC 310900Z 07003KT 9999 FEW003 18/16 A2998 NOSIG=
202210311000 METAR MROC 311000Z 08004KT CAVOK 17/16 A2999 NOSIG=
202210311100 METAR MROC 311100Z 09005KT CAVOK 17/15 A3000 NOSIG=
202210311200 METAR MROC 311200Z 06006KT CAVOK 17/15 A3002 NOSIG=
202210311300 METAR MROC 311300Z 05005KT 010V070 9999 FEW010 BKN200 20/16 A3005 NOSIG=
202210311400 METAR MROC 311400Z 03003KT 350V070 9999 FEW045 BKN200 23/16 A3006 BECMG 24007KT=
202210311500 METAR MROC 311500Z VRB03KT 9999 FEW045 BKN200 25/16 A3005 NOSIG=
202210311600 METAR MROC 311600Z VRB03KT 9999 FEW045 BKN200 27/14 A3004 NOSIG=
202210311700 METAR MROC 311700Z 24008KT 220V280 9999 FEW040 SCT200 26/17 A3001 NOSIG=
202210311800 METAR MROC 311800Z 24009KT 210V270 9999 SCT040 25/19 A2999 NOSIG=
202210311900 METAR MROC 311900Z 24010KT 200V280 9999 BKN040 26/20 A2996 NOSIG=
202210312000 METAR MROC 312000Z 24010KT 200V270 9999 SCT040 25/20 A2994 NOSIG=
202210312100 METAR MROC 312100Z 24011KT 9999 SCT030TCU 25/20 A2994 NOSIG=
202210312200 METAR MROC 312200Z 25009KT 9999 BKN025TCU 23/20 A2995 NOSIG=
202210312300 METAR MROC 312300Z 25007KT 9999 BKN010 21/20 A2992 NOSIG=
202211010000 METAR MROC 010000Z 25004KT 220V290 9999 OVC012 21/20 A2995 NOSIG=
202211010100 METAR MROC 010100Z 27005KT 200V300 9999 FEW008 BKN025 21/20 A2997 NOSIG=
202211010200 METAR MROC 010200Z VRB02KT 9999 SCT007 21/20 A3001 NOSIG=
202211010300 METAR MROC 010300Z VRB02KT 9999 BKN015 21/20 A3002 NOSIG=
202211010400 METAR MROC 010400Z 00000KT 9999 BCFG SCT010 BKN040 20/20 A3003 NOSIG=
202211010500 METAR MROC 010500Z VRB02KT 8000 3000SW -DZ VCFG SCT010 BKN040 21/20 A3003 NOSIG=
202211010600 METAR MROC 010600Z 25003KT 9999 3000SW BCFG SCT005 BKN010 20/20 A3000 NOSIG=
202211010700 METAR MROC 010700Z 00000KT 9999 SCT005 BKN020 20/20 A2998 NOSIG=
202211010800 METAR MROC 010800Z 00000KT 5000 1500SW BR SCT005 BKN015 20/20 A2998 NOSIG=
202211010900 METAR MROC 010900Z 01003KT 9999 FEW015 20/19 A2997 NOSIG=
202211011000 METAR MROC 011000Z 04004KT CAVOK 19/18 A2998 NOSIG=
202211011100 METAR MROC 011100Z 05004KT 020V090 9999 FEW035 SCT250 18/17 A2999 NOSIG=
202211011200 METAR MROC 011200Z 04005KT 9999 FEW040 SCT250 19/17 A3001 NOSIG=
202211011300 METAR MROC 011300Z 08004KT CAVOK 21/17 A3002 NOSIG=
202211011400 METAR MROC 011400Z 22005KT 200V260 CAVOK 23/18 A3003 NOSIG=
202211011500 METAR MROC 011500Z 24006KT 200V260 9999 FEW045 24/19 A3003 NOSIG=
202211011600 METAR MROC 011600Z 25006KT 210V290 9999 FEW045 25/20 A3002 NOSIG=
202211011700 METAR MROC 011700Z 24006KT 190V300 9999 FEW045 26/20 A3001 NOSIG=
202211011800 METAR MROC 011800Z 25007KT 200V290 9999 SCT030 26/20 A2998 NOSIG=
202211011900 METAR MROC 011900Z 24008KT 190V270 9999 FEW030TCU 26/20 A2995 NOSIG=
202211012000 METAR MROC 012000Z 22011KT 200V260 9999 VCSH FEW025 SCT030CB 25/21 A2992 NOSIG=
202211012100 METAR MROC 012100Z 23009KT 200V260 9999 SHRA VCTS FEW010CB SCT025 BKN045 24/21 A2992 NOSIG=
202211012102 METAR MROC 012102Z 24008KT 200V260 9999 -TSRA FEW010CB BKN020 OVC045 24/21 A2993 NOSIG=
202211012200 METAR MROC 012200Z VRB02KT 8000 R07/P2000N -RA BCFG SCT010 OVC020 21/20 A2995 RETS NOSIG=
202211012300 METAR MROC 012300Z 24005KT 4000 R07/P2000N BR SCT003 OVC015 22/21 A2997 NOSIG=
202211020000 METAR MROC 020000Z COR 26005KT 8000 3000SW BCFG BKN008 21/20 A3000 NOSIG=
202211020100 METAR MROC 020100Z 28003KT 250V330 6000 2000SW RA BCFG OVC005 21/20 A3003 NOSIG=
202211020200 METAR MROC 020200Z VRB01KT 6000 2000SW BCFG OVC005 21/20 A3004 RERA NOSIG=
202211020300 METAR MROC 020300Z VRB02KT 6000 BCFG BKN010 21/20 A3005 NOSIG=
202211020400 METAR MROC 020400Z 08005KT 030V110 9999 FEW005 SCT100 21/19 A3004 NOSIG=
202211020500 METAR MROC 020500Z 09005KT 9999 FEW010 SCT100 21/18 A3003 NOSIG=
202211020600 METAR MROC 020600Z 06005KT CAVOK 21/18 A3001 NOSIG=
202211020700 METAR MROC 020700Z 05004KT 360V080 9999 FEW002 SCT130 20/18 A2999 NOSIG=
202211020800 METAR MROC 020800Z 03006KT 9999 FEW005 SCT130 20/18 A2998 NOSIG=
202211020900 METAR MROC 020900Z VRB01KT 9999 BCFG FEW001 20/17 A2999 NOSIG=
202211021000 METAR MROC 021000Z 23003KT 200V260 5000 2000SW BR SCT001 19/18 A3000 NOSIG=
202211021100 METAR MROC 021100Z 01003KT 9999 BCFG FEW001 18/18 A3002 NOSIG=
202211021200 METAR MROC 021200Z 02003KT 320V050 9999 FEW010 18/17 A3004 NOSIG=
202211021300 METAR MROC 021300Z VRB02KT 9999 3000SW FEW002 20/19 A3006 TEMPO 25006KT=
202211021400 METAR MROC 021400Z 24003KT 200V280 9999 FEW020 22/20 A3007 NOSIG=
202211021500 METAR MROC 021500Z 24004KT 210V280 CAVOK 24/19 A3008 NOSIG=
202211021600 METAR MROC 021600Z 26006KT 200V310 CAVOK 25/20 A3006 NOSIG=
202211021700 METAR MROC 021700Z 25007KT 220V290 9999 FEW025 26/20 A3003 NOSIG=
202211021800 METAR MROC 021800Z 24009KT 9999 FEW040 26/21 A3000 NOSIG=
202211021900 METAR MROC 021900Z 25008KT 210V280 9999 SCT040 26/20 A2997 NOSIG=
202211022000 METAR MROC 022000Z 24011KT 210V270 9999 FEW020 BKN035 25/21 A2996 NOSIG=
202211022100 METAR MROC 022100Z 23010KT 9999 SCT030 25/21 A2996 NOSIG=
202211022200 METAR MROC 022200Z 25009KT 9999 SCT015 BKN030 23/21 A2998 NOSIG=
202211022300 METAR MROC 022300Z 25006KT 6000 BCFG SCT006 OVC015 22/21 A3000 NOSIG=
202211030000 METAR MROC 030000Z 26005KT 8000 BCFG FEW003 OVC010 21/21 A3002 NOSIG=
202211030100 METAR MROC 030100Z 25003KT 220V280 8000 BCFG BKN008 21/21 A3003 NOSIG=
202211030200 METAR MROC 030200Z VRB02KT 8000 BCFG OVC008 21/21 A3005 NOSIG=
202211030300 METAR MROC 030300Z 24003KT 0500 R07/1100U FG OVC003 21/21 A3006 NOSIG=
202211030400 METAR MROC 030400Z VRB02KT 3000 BR OVC004 21/21 A3005 NOSIG=
202211030500 METAR MROC 030500Z VRB02KT 3000 BR BKN005 21/20 A3005 NOSIG=
202211030600 METAR MROC 030600Z COR 04003KT 010V080 8000 3000SW BCFG FEW004 SCT020 21/19 A3003 NOSIG=
202211030700 METAR MROC 030700Z VRB04KT CAVOK 20/18 A3000 NOSIG=
202211030800 METAR MROC 030800Z 07004KT CAVOK 19/16 A2998 NOSIG=
202211030900 METAR MROC 030900Z 07006KT CAVOK 20/16 A2998 NOSIG=
202211031000 METAR MROC 031000Z VRB02KT CAVOK 18/16 A2999 NOSIG=
202211031100 METAR MROC 031100Z 05005KT CAVOK 18/15 A2999 NOSIG=
202211031200 METAR MROC 031200Z 04005KT 020V080 CAVOK 18/15 A3001 NOSIG=
202211031300 METAR MROC 031300Z 04005KT CAVOK 20/16 A3003 NOSIG=
202211031400 METAR MROC 031400Z VRB02KT CAVOK 24/15 A3004 TEMPO 25006KT=
202211031500 METAR MROC 031500Z VRB01KT CAVOK 26/15 A3004 NOSIG=
202211031600 METAR MROC 031600Z 23007KT 170V260 CAVOK 25/19 A3004 NOSIG=
202211031700 METAR MROC 031700Z 19005KT 100V240 CAVOK 26/18 A3003 NOSIG=
202211031800 METAR MROC 031800Z 23003KT 190V260 9999 BKN045 OVC130 24/20 A3000 NOSIG=
202211031900 METAR MROC 031900Z COR 27005KT 220V320 9999 FEW030 SCT050 OVC200 24/20 A2999 NOSIG=
202211032000 METAR MROC 032000Z 25004KT 190V350 9999 FEW035 SCT050 OVC200 24/21 A2997 NOSIG=
202211032100 METAR MROC 032100Z 24004KT 210V280 9999 FEW045 SCT150 BKN200 24/21 A2997 NOSIG=
202211032200 METAR MROC 032200Z 26007KT 9999 FEW035 SCT150 BKN200 23/21 A2997 NOSIG=
202211032300 METAR MROC 032300Z 28004KT 260V320 5000 2000SW -RA BR SCT010 BKN100 22/21 A3000 NOSIG=
202211040000 METAR MROC 040000Z 25003KT 1500 -RA BR SCT005 BKN010 22/21 A3000 NOSIG=
202211040100 METAR MROC 040100Z 24004KT 1500 -RA BR SCT003 BKN008 21/21 A2999 NOSIG=
202211040200 METAR MROC 040200Z VRB02KT 1200 BR SCT003 BKN008 21/21 A3002 NOSIG=
202211040300 METAR MROC 040300Z 27003KT 1200 BR FEW001 BKN003 21/21 A3004 NOSIG=
202211040331 METAR MROC 040331Z 23003KT 6000 BCFG SCT002 BKN015 21/21 A3004 NOSIG=
202211040400 METAR MROC 040400Z VRB02KT 6000 BCFG SCT005 BKN015 21/21 A3004 NOSIG=
202211040500 METAR MROC 040500Z 11002KT 9999 VCFG FEW008 SCT020 21/20 A3002 NOSIG=
202211040600 METAR MROC 040600Z 04002KT CAVOK 21/20 A3002 NOSIG=
202211040700 METAR MROC 040700Z VRB01KT 9999 BCFG FEW007 SCT100 21/20 A2999 NOSIG=
202211040800 METAR MROC 040800Z VRB02KT 8000 1500SW R07/0700D BCFG NSC 20/20 A2997 NOSIG=
202211040900 METAR MROC 040900Z 00000KT 9999 BCFG NSC A2996 NOSIG=
202211041000 METAR MROC 041000Z 10004KT 9999 BCFG NSC 19/19 A2996 NOSIG=
202211041100 METAR MROC 041100Z 04002KT 9999 BCFG NSC 19/18 A2997 NOSIG=
202211041200 METAR MROC 041200Z 09004KT 9999 VCFG NSC 18/17 A2999 NOSIG=
202211041300 METAR MROC 041300Z 09003KT 070V170 9999 FEW005 BKN100 20/18 A3001 NOSIG=
202211041400 METAR MROC 041400Z 09003KT 060V120 9999 FEW035 BKN080 22/18 A3004 NOSIG=
202211041500 METAR MROC 041500Z VRB02KT 9999 FEW035 BKN100 24/18 A3005 NOSIG=
202211041600 METAR MROC 041600Z 21007KT 9999 FEW035 BKN080 25/19 A3003 NOSIG=
202211041700 METAR MROC 041700Z 24009KT 200V260 9999 FEW035 BKN100 25/20 A3001 NOSIG=
202211041800 METAR MROC 041800Z 24007KT 200V270 9999 SCT030 BKN100 25/19 A2998 NOSIG=
202211041900 METAR MROC 041900Z 26008KT 9999 BKN030 24/20 A2995 NOSIG=
202211042000 METAR MROC 042000Z 26007KT 9999 DZ BKN025 23/21 A2993 NOSIG=
202211042100 METAR MROC 042100Z 24009KT 9999 FEW008 SCT015 BKN035 22/21 A2993 REDZ NOSIG=
202211042200 METAR MROC 042200Z 25008KT 8000 3000SW RA VCTS FEW005 SCT010CB BKN035 22/20 A2994 NOSIG=
202211042300 METAR MROC 042300Z 31006KT 3000 1200SW -RA BR SCT005 BKN035 20/20 A2997 NOSIG=
202211050000 METAR MROC 050000Z 31003KT 270V040 8000 3000SW -RA VCFG SCT010 BKN035 20/20 A2999 NOSIG=
202211050100 METAR MROC 050100Z VRB02KT 9999 -RA BCFG SCT015 BKN035 20/20 A3002 NOSIG=
202211050200 METAR MROC 050200Z VRB02KT 9999 SCT015 BKN035 20/20 A3003 NOSIG=
202211050300 METAR MROC 050300Z VRB02KT 9999 SCT015 BKN035 20/19 A3005 NOSIG=
202211050400 METAR MROC 050400Z 31003KT 270V330 9999 -DZ SCT010 BKN020 20/20 A3006 NOSIG=
202211050500 METAR MROC 050500Z 32004KT 290V020 9999 3000SW DZ SCT005 OVC020 20/19 A3005 NOSIG=
202211050600 METAR MROC 050600Z 30004KT 250V360 9999 BKN015 OVC030 20/19 A3003 NOSIG=
202211050700 METAR MROC 050700Z 30004KT 9999 SCT003 OVC010 20/19 A3000 NOSIG=
202211050800 METAR MROC 050800Z 30004KT 9999 SCT008 OVC030 20/19 A2998 NOSIG=
202211050900 METAR MROC 050900Z 31004KT 9999 FEW005 SCT015 BKN030 19/19 A2998 NOSIG=
202211051000 METAR MROC 051000Z 28005KT 9999 -DZ FEW005 BKN015 OVC040 20/19 A2997 NOSIG=
202211051100 METAR MROC 051100Z COR 33003KT 9000 4000SW DZ FEW005 BKN015 19/19 A3000 NOSIG=
202211051200 METAR MROC 051200Z VRB01KT 2000 BR DZ SCT005 BKN015 19/19 A3002 NOSIG=
202211051300 METAR MROC 051300Z VRB02KT 9999 FEW005 SCT015 BKN040 20/19 A3003 REDZ NOSIG=
202211051400 METAR MROC 051400Z 32004KT 270V360 9999 FEW005 BKN025 21/19 A3003 NOSIG=
202211051500 METAR MROC 051500Z 27005KT 9999 FEW010 BKN020 21/20 A3004 NOSIG=
202211051600 METAR MROC 051600Z 27007KT 9999 FEW010 BKN025 22/20 A3004 NOSIG=
202211051700 METAR MROC 051700Z 27007KT 240V320 9999 -DZ FEW015 BKN030 23/20 A3002 NOSIG=
202211051800 METAR MROC 051800Z 27009KT 9999 DZ FEW010 BKN020 23/20 A2999 NOSIG=
202211051900 METAR MROC 051900Z 26007KT 240V310 9999 BKN020 23/20 A2996 NOSIG=
202211052000 METAR MROC 052000Z 27008KT 9999 3000SW +DZ BCFG FEW005 BKN010 21/20 A2994 RERA NOSIG=
202211052100 METAR MROC 052100Z 28004KT 3000 -RA BCFG FEW003 OVC010 20/20 A2993 NOSIG=
202211052200 METAR MROC 052200Z 23008KT 9999 3000SW BCFG FEW003 SCT015 OVC100 20/19 A2993 NOSIG=
202211052300 METAR MROC 052300Z 22004KT 6000 BCFG -DZ FEW003 BKN015 20/19 A2995 NOSIG=
202211060000 METAR MROC 060000Z 27004KT 240V350 3000 -RA BR SCT003 BKN008 19/19 A2998 NOSIG=
202211060100 METAR MROC 060100Z 28005KT 3000 RA BR SCT002 BKN008 19/19 A3000 NOSIG=
202211060200 METAR MROC 060200Z VRB04KT 3000 BCFG FEW004 BKN015 19/19 A3003 RERA NOSIG=
202211060300 METAR MROC 060300Z 27003KT 9999 R07/P2000N VCFG FEW006 BKN015 20/19 A3004 NOSIG=
202211060400 METAR MROC 060400Z 33003KT 5000 2000SW -RA BR SCT005 BKN015 20/19 A3005 NOSIG=
202211060500 METAR MROC 060500Z 33003KT 290V360 8000 3000SW -RA VCFG FEW005 SCT010 BKN020 19/19 A3004 NOSIG=
202211060600 METAR MROC 060600Z 32003KT 8000 3000SW -DZ VCFG FEW010 SCT020 BKN030 20/19 A3002 NOSIG=
202211060700 METAR MROC 060700Z 33003KT 3000 1200SW -DZ BR FEW005 SCT010 BKN020 19/19 A3000 NOSIG=
202211060800 METAR MROC 060800Z 01003KT 9999 -RA BCFG FEW010 BKN030 19/19 A2996 NOSIG=
202211060900 METAR MROC 060900Z 22003KT 9999 -RA BCFG FEW030 OVC100 19/19 A2995 NOSIG=
202211061000 METAR MROC 061000Z VRB02KT 0800 -DZ FG VV002 19/19 A2996 NOSIG=
202211061100 METAR MROC 061100Z 01002KT 9000 -RA VCFG SCT005 BKN035 19/19 A2996 NOSIG=
202211061200 METAR MROC 061200Z 00000KT 8000 -RA VCFG FEW010 BKN045 19/19 A2999 NOSIG=
202211061300 METAR MROC 061300Z 00000KT 9999 4500S BCFG FEW001 OVC030 20/19 A3002 NOSIG=
202211061400 METAR MROC 061400Z 30004KT 250V300 9999 SCT004 BKN090 20/19 A3003 NOSIG=
202211061500 METAR MROC 061500Z 32003KT 270V070 9999 FEW005 BKN030 20/20 A3005 NOSIG=
202211061600 METAR MROC 061600Z VRB04KT 9999 4500S BCFG BKN007 21/20 A3006 NOSIG=
202211061700 METAR MROC 061700Z 26007KT 240V300 9999 4500S BCFG SCT005 BKN040 20/20 A3003 NOSIG=
202211061800 METAR MROC 061800Z 25006KT 220V290 9999 BKN008 21/20 A3001 NOSIG=
202211061900 METAR MROC 061900Z 29004KT 260V320 9999 BKN010 21/20 A2997 NOSIG=
202211062000 METAR MROC 062000Z 26006KT 210V300 9999 DZ BKN010 22/20 A2995 NOSIG=
202211062100 METAR MROC 062100Z 27007KT 3000 -DZ BR BKN004 20/20 A2994 NOSIG=
202211062200 METAR MROC 062200Z 27006KT 240V300 2000 -RA BR OVC006 20/20 A2995 NOSIG=
202211062300 METAR MROC 062300Z 28003KT 9999 4000S BCFG FEW004 BKN030 20/20 A2997 NOSIG=
202211070000 METAR MROC 070000Z 33003KT 290V030 9999 3000SW BCFG SCT006 BKN020 20/20 A2998 TEMPO BKN015=
202211070100 METAR MROC 070100Z VRB03KT 5000 R07/P2000N DZ BCFG BKN006 20/20 A3000 NOSIG=
202211070200 METAR MROC 070200Z 32003KT 9999 -DZ BKN008 20/20 A3003 NOSIG=
202211070300 METAR MROC 070300Z VRB02KT 9999 OVC006 20/20 A3004 NOSIG=
202211070400 METAR MROC 070400Z VRB02KT 7000 2000SW DZ BCFG FEW002 BKN007 20/20 A3004 NOSIG=
202211070500 METAR MROC 070500Z VRB02KT 9999 2000SW BCFG FEW002 BKN010 20/20 A3002 REDZ NOSIG=
202211070600 METAR MROC 070600Z 00000KT 7000 2000SW +DZ BCFG FEW002 BKN008 20/19 A3001 NOSIG=
202211070700 METAR MROC 070700Z 31002KT 5000 2000SW +DZ BR FEW002 BKN008 20/19 A2999 NOSIG=
202211070800 METAR MROC 070800Z VRB01KT 7000 2000SW RA BCFG FEW002 BKN010 20/19 A2998 NOSIG=
202211070900 METAR MROC 070900Z 06003KT 9999 2000SW -RA FEW002 BKN010 20/19 A2996 NOSIG=
202211071000 METAR MROC 071000Z 25003KT 7000 1000SW BCFG SCT004 BKN010 20/19 A2997 NOSIG=
202211071100 METAR MROC 071100Z 00000KT 7000 2000SW RA SCT002 BKN010 20/19 A3000 NOSIG=
202211071200 METAR MROC 071200Z VRB02KT 7000 3000SW BCFG FEW002 BKN010 20/19 A3002 NOSIG=
202211071300 METAR MROC 071300Z 10003KT 080V140 9999 VCSH VCFG FEW005 SCT015 OVC100 20/20 A3004 NOSIG=
202211071400 METAR MROC 071400Z 06003KT 020V080 7000 2000NW BCFG VCSH FEW001 SCT010 OVC025 21/20 A3006 NOSIG=
202211071500 METAR MROC 071500Z VRB02KT 8000 R07/P2000N -RA BCFG FEW003 BKN015 22/20 A3007 NOSIG=
202211071600 METAR MROC 071600Z 25005KT 200V280 6000 -RA BCFG SCT008 BKN015 21/20 A3007 NOSIG=
202211071700 METAR MROC 071700Z 25007KT 6000 -DZ BCFG SCT006 BKN010 21/20 A3005 NOSIG=
202211071800 METAR MROC 071800Z 31004KT 280V340 6000 -RA BCFG SCT003 BKN010 21/20 A3003 NOSIG=
202211071900 METAR MROC 071900Z 33005KT 3000 RA BR SCT003 BKN010 20/20 A3001 NOSIG=
202211072000 METAR MROC 072000Z 34002KT 4000 -RA BR SCT005 BKN010 20/20 A2999 NOSIG=
202211072100 METAR MROC 072100Z VRB01KT 3000 DZ BR SCT005 BKN015 20/20 A2998 NOSIG=
202211072200 METAR MROC 072200Z VRB02KT 9999 BCFG FEW003 BKN060 20/20 A2998 NOSIG=
202211072300 METAR MROC 072300Z VRB01KT 9999 BCFG FEW008 SCT070 BKN180 20/20 A2999 NOSIG=
202211080000 METAR MROC 080000Z 00000KT 9999 FEW005 BKN025 20/20 A3002 NOSIG=
202211080100 METAR MROC 080100Z VRB01KT 9999 4000SW -DZ VCFG FEW005 BKN025 20/20 A3004 NOSIG=
202211080200 METAR MROC 080200Z 00000KT 9999 4000SW -DZ VCFG SCT005 BKN030 20/20 A3007 TEMPO BKN008=
202211080300 METAR MROC 080300Z 00000KT 9999 3500SW -DZ VCFG SCT005 BKN030 20/19 A3008 NOSIG=
202211080400 METAR MROC 080400Z 07004KT 040V110 9999 -RA BKN020 19/19 A3007 NOSIG=
202211080500 METAR MROC 080500Z VRB02KT 9999 SCT009 BKN100 20/19 A3007 NOSIG=
202211080600 METAR MROC 080600Z VRB02KT 9999 VCFG BKN030 20/19 A3005 NOSIG=
202211080700 METAR MROC 080700Z 10003KT 9999 FEW030 SCT100 20/19 A3001 NOSIG=
202211080800 METAR MROC 080800Z 07005KT CAVOK 19/18 A2991 NOSIG=
202211080900 METAR MROC 080900Z 23003KT CAVOK 19/18 A2999 NOSIG=
202211081000 METAR MROC 081000Z 06003KT CAVOK 19/19 A2999 NOSIG=
202211081100 METAR MROC 081100Z COR 11003KT 9999 FEW002 BKN030 19/18 A3000 NOSIG=
202211081200 METAR MROC 081200Z 03003KT 350V060 9999 -RA FEW005 BKN035 19/18 A3003 NOSIG=
202211081300 METAR MROC 081300Z VRB02KT 9999 FEW010 SCT035 20/19 A3005 BECMG 22005KT=
202211081400 METAR MROC 081400Z VRB02KT 9999 FEW010 SCT035 BKN100 21/19 A3007 NOSIG=
202211081500 METAR MROC 081500Z 00000KT 9999 FEW010 SCT035 BKN100 23/20 A3008 NOSIG=
202211081600 METAR MROC 081600Z 21005KT 160V270 9999 SCT035 BKN100 25/20 A3007 NOSIG=
202211081700 METAR MROC 081700Z 19006KT 150V260 9999 FEW035 BKN100 25/20 A3005 NOSIG=
202211081800 METAR MROC 081800Z 24006KT 9999 FEW020 SCT035 BKN100 25/21 A3002 NOSIG=
202211081900 METAR MROC 081900Z 23009KT 9999 VCSH FEW020TCU SCT030 BKN100 24/21 A2998 NOSIG=
202211082000 METAR MROC 082000Z 23008KT 8000 VCFG SCT010 BKN030 22/21 A2997 NOSIG=
202211082100 METAR MROC 082100Z 23005KT 9999 VCSH BKN035 22/20 A2998 NOSIG=
202211082200 METAR MROC 082200Z 29005KT 200V340 9999 -DZ VCFG FEW015 OVC035 22/20 A2999 NOSIG=
202211082300 METAR MROC 082300Z 34005KT 310V030 9999 4500SW -DZ VCFG FEW008 SCT020 OVC035 21/20 A3001 NOSIG=
202211090000 METAR MROC 090000Z VRB02KT 9999 -DZ VCFG FEW010 BKN035 20/19 A3002 NOSIG=
202211090100 METAR MROC 090100Z VRB02KT 9999 FEW015 BKN035 20/19 A3005 NOSIG=
202211090200 METAR MROC 090200Z 08003KT 050V140 9999 BKN045 21/19 A3007 NOSIG=
202211090300 METAR MROC 090300Z 03003KT 340V060 9999 BKN045 21/18 A3006 NOSIG=
202211090400 METAR MROC 090400Z 14002KT 9999 BKN045 20/19 A3008 NOSIG=
202211090500 METAR MROC 090500Z 00000KT 9999 BKN045 19/18 A3007 NOSIG=
202211090600 METAR MROC 090600Z 09003KT 9999 FEW006 BKN045 19/18 A3005 NOSIG=
202211090700 METAR MROC 090700Z 08004KT 9999 BKN045 19/18 A3003 NOSIG=
202211090800 METAR MROC 090800Z 08004KT 9999 BKN045 19/18 A3001 NOSIG=
202211090900 METAR MROC 090900Z 07004KT 040V110 9999 BKN045 18/17 A3000 NOSIG=
202211091000 METAR MROC 091000Z 09004KT 9999 FEW045 BKN120 18/17 A3000 NOSIG=
202211091100 METAR MROC 091100Z 06006KT 9999 FEW040 18/17 A3000 NOSIG=
202211091200 METAR MROC 091200Z 06003KT 020V090 CAVOK 19/17 A3002 NOSIG=
202211091300 METAR MROC 091300Z 00000KT CAVOK 21/18 A3004 NOSIG=
202211091400 METAR MROC 091400Z 27003KT 220V310 9999 FEW035 SCT120 BKN200 22/19 A3006 NOSIG=
202211091500 METAR MROC 091500Z 24006KT 200V280 9999 FEW025 SCT200 23/19 A3006 NOSIG=
202211091600 METAR MROC 091600Z 24006KT 190V280 9999 SCT030 23/19 A3007 NOSIG=
202211091700 METAR MROC 091700Z 25008KT 210V280 9999 SCT030 BKN200 24/20 A3004 NOSIG=
202211091800 METAR MROC 091800Z 25010KT 9999 SCT030 BKN200 24/21 A3002 NOSIG=
202211091900 METAR MROC 091900Z 27008KT 230V310 9999 SCT025 BKN150 25/20 A3000 NOSIG=
202211092000 METAR MROC 092000Z 25010KT 220V280 9999 FEW025 SCT150 BKN200 25/21 A2997 NOSIG=
202211092100 METAR MROC 092100Z 24012KT 9999 -TS FEW010CB BKN020 23/21 A2996 NOSIG=
202211092200 METAR MROC 092200Z 26007KT 230V300 9999 RA VCTS BKN008 FEW010CB 21/20 A2999 RETS NOSIG=
202211092300 METAR MROC 092300Z 24004KT 9999 RA FEW005 BKN008 20/20 A2998 NOSIG=
202211100000 METAR MROC 100000Z VRB02KT 9999 FEW005 SCT010 BKN020 20/19 A2999 RERA NOSIG=
202211100100 METAR MROC 100100Z 25004KT 9999 3000SW FEW002 BKN008 20/20 A3003 NOSIG=
202211100200 METAR MROC 100200Z 27003KT 240V310 9999 3000SW FEW002 BKN010 20/20 A3005 NOSIG=
202211100300 METAR MROC 100300Z 21001KT 9999 2000SW BCFG FEW002 BKN007 20/20 A3006 NOSIG=
202211100400 METAR MROC 100400Z 00000KT 9000 2500SW VCFG SCT005 BKN015 20/19 A3007 NOSIG=
202211100500 METAR MROC 100500Z 11002KT 9999 2000SW BCFG SCT005 BKN020 20/20 A3006 NOSIG=
202211100600 METAR MROC 100600Z VRB02KT 9999 2500SW BCFG SCT020 19/19 A3003 NOSIG=
202211100700 METAR MROC 100700Z VRB02KT 9999 3500SW BCFG FEW005 SCT020 20/19 A3001 NOSIG=
202211100800 METAR MROC 100800Z 10004KT 9999 FEW010 18/17 A2999 NOSIG=
202211100900 METAR MROC 100900Z 04003KT 9999 FEW020 18/17 A2998 NOSIG=
202211101000 METAR MROC 101000Z 07004KT 9999 FEW020 17/17 A2999 NOSIG=
202211101100 METAR MROC 101100Z 08004KT CAVOK 17/16 A2999 NOSIG=
202211101200 METAR MROC 101200Z 11003KT CAVOK 18/16 A3002 NOSIG=
202211101300 METAR MROC 101300Z 06003KT 010V080 CAVOK 20/17 A3003 NOSIG=
202211101400 METAR MROC 101400Z VRB03KT CAVOK 22/18 A3004 NOSIG=
202211101500 METAR MROC 101500Z 23002KT CAVOK 24/18 A3005 NOSIG=
202211101600 METAR MROC 101600Z 25007KT 200V290 9999 FEW040 24/20 A3004 NOSIG=
202211101700 METAR MROC 101700Z 25008KT 220V320 9999 FEW030 26/20 A3003 NOSIG=
202211101800 METAR MROC 101800Z 24009KT 220V280 9999 FEW030 25/20 A3000 NOSIG=
202211101900 METAR MROC 101900Z 25009KT 220V280 9999 BKN030 26/21 A2998 NOSIG=
202211102000 METAR MROC 102000Z 24010KT 210V280 9999 SCT025 26/20 A2995 NOSIG=
202211102100 METAR MROC 102100Z COR 25011KT 9999 VCSH FEW010TCU SCT015 BKN020 23/21 A2994 NOSIG=
202211102200 METAR MROC 102200Z 23005KT 200V260 9999 -RA FEW010 BKN030 23/20 A2995 NOSIG=
202211102300 METAR MROC 102300Z 24007KT 9999 FEW010 SCT030 BKN100 22/19 A2997 NOSIG=
202211110000 METAR MROC 110000Z 27006KT 9999 FEW005 SCT010 BKN020 21/20 A2999 NOSIG=
202211110100 METAR MROC 110100Z 23004KT 190V260 9999 2000SW RA BCFG FEW002 BKN010 21/20 A3002 NOSIG=
202211110200 METAR MROC 110200Z COR 20004KT 7000 2000SW RA BCFG VCTS FEW002 BKN008 FEW010CB 20/20 A3003 NOSIG=
202211110300 METAR MROC 110300Z 28004KT 250V310 9999 FEW004 BKN010 20/20 A3004 RERA NOSIG=
202211110400 METAR MROC 110400Z 28003KT 9999 BCFG OVC005 20/20 A3005 NOSIG=
202211110500 METAR MROC 110500Z 25003KT 210V270 8000 VCFG OVC005 20/19 A3004 NOSIG=
202211110600 METAR MROC 110600Z 28003KT 230V320 9999 BCFG OVC005 20/20 A3002 NOSIG=
202211110700 METAR MROC 110700Z VRB02KT 9999 BCFG SCT005 BKN010 20/19 A3000 NOSIG=
202211110800 METAR MROC 110800Z VRB02KT 8000 VCFG FEW005 SCT010 BKN020 20/19 A2998 NOSIG=
202211110900 METAR MROC 110900Z 00000KT 9999 BCFG FEW010 SCT020 BKN080 20/19 A2998 NOSIG=
202211111000 METAR MROC 111000Z 03002KT 9999 BCFG FEW020 SCT080 20/19 A2998 NOSIG=
202211111100 METAR MROC 111100Z 25002KT 9999 BCFG FEW020 BKN080 20/19 A3000 NOSIG=
202211111200 METAR MROC 111200Z 17003KT 8000 VCFG FEW010 SCT030 BKN080 20/19 A3002 NOSIG=
202211111300 METAR MROC 111300Z 03004KT 360V070 9999 VCFG FEW025 SCT100 21/20 A3003 NOSIG=
202211111400 METAR MROC 111400Z 18004KT 140V230 9999 FEW030 SCT045 BKN200 22/20 A3005 NOSIG=
202211111500 METAR MROC 111500Z VRB02KT 9999 FEW040 SCT080 BKN200 24/19 A3006 NOSIG=
202211111600 METAR MROC 111600Z 23008KT 200V260 9999 SCT030 OVC100 24/20 A3006 NOSIG=
202211111700 METAR MROC 111700Z 25008KT 220V280 9999 BKN040 23/20 A3004 NOSIG=
202211111800 METAR MROC 111800Z 25010KT 9999 -RA FEW015 BKN030 23/19 A3002 NOSIG=
202211111900 METAR MROC 111900Z 24006KT 8000 RA FEW010 BKN030 23/20 A3000 NOSIG=
202211112000 METAR MROC 112000Z 25007KT 9999 FEW025 BKN040 23/20 A2998 RERA NOSIG=
202211112100 METAR MROC 112100Z 24006KT 210V280 9999 FEW010 BKN045 23/20 A2997 NOSIG=
202211112200 METAR MROC 112200Z 27005KT 9999 FEW020 SCT160 22/20 A2998 NOSIG=
202211112300 METAR MROC 112300Z 25006KT 9999 4500SW BCFG SCT005 21/20 A2999 NOSIG=
202211120000 METAR MROC 120000Z 24004KT 9999 BKN006 20/20 A3001 TEMPO 5000 BR=
202211120100 METAR MROC 120100Z 23003KT 210V290 0400 R07/P2000N FG BKN001 20/20 A3004 NOSIG=
202211120200 METAR MROC 120200Z 23004KT 0100 R07/0700D FG OVC001 20/20 A3006 NOSIG=
202211120300 METAR MROC 120300Z 22004KT 0300 R07/1000N FG BKN001 20/20 A3007 TEMPO 1500 BR=
202211120400 METAR MROC 120400Z VRB01KT 1000 BR FEW001 BKN002 20/20 A3007 NOSIG=
202211120500 METAR MROC 120500Z VRB02KT 2500 BR SCT002 BKN004 20/20 A3007 NOSIG=
202211120600 METAR MROC 120600Z 00000KT 5000 2000SW BR FEW002 BKN005 20/20 A3005 NOSIG=
202211120700 METAR MROC 120700Z 09001KT 9999 3000SW BCFG FEW002 BKN008 20/20 A3002 NOSIG=
202211120800 METAR MROC 120800Z 03003KT 9999 3000SW BCFG FEW003 BKN008 20/19 A3000 NOSIG=
202211120900 METAR MROC 120900Z 07002KT CAVOK 20/19 A2999 NOSIG=
202211121000 METAR MROC 121000Z 04002KT 9999 BCFG FEW001 19/17 A2999 NOSIG=
202211121100 METAR MROC 121100Z 00000KT 9999 2000SW BCFG SCT001 18/18 A3001 NOSIG=
202211121200 METAR MROC 121200Z VRB02KT 9999 3000SW BCFG FEW005 SCT010 BKN120 19/18 A3003 NOSIG=
202211121300 METAR MROC 121300Z VRB02KT 9999 FEW002 21/19 A3005 NOSIG=
202211121400 METAR MROC 121400Z 01003KT 300V040 9999 FEW045 23/18 A3006 TEMPO 25006KT=
202211121500 METAR MROC 121500Z VRB02KT 9999 FEW045 25/19 A3006 NOSIG=
202211121600 METAR MROC 121600Z VRB04KT 9999 SCT045 26/20 A3005 NOSIG=
202211121700 METAR MROC 121700Z 23009KT 9999 BKN040 24/20 A3003 NOSIG=
202211121800 METAR MROC 121800Z 25010KT 9999 FEW015 BKN035 25/22 A3000 NOSIG=
202211121900 METAR MROC 121900Z 24011KT 9999 -RA BKN020 24/21 A2999 NOSIG=
202211122000 METAR MROC 122000Z 25008KT 9000 3000N RA BKN020 23/21 A2997 NOSIG=
202211122100 METAR MROC 122100Z 25007KT 9999 VCSH BKN030 23/22 A2996 RERA NOSIG=
202211122200 METAR MROC 122200Z 24006KT 9999 R07/P2000N VCSH FEW020 BKN035 23/21 A2996 NOSIG=
202211122300 METAR MROC 122300Z 24006KT 6000 BCFG BKN020 21/21 A2998 TEMPO 3000 BR=
202211130000 METAR MROC 130000Z 24004KT 210V280 0300 R07/P0900D FG OVC008 21/21 A2999 NOSIG=
202211130100 METAR MROC 130100Z COR 27003KT 240V330 0800 R07/P2000N FG OVC005 21/21 A3003 TEMPO 1500 BR=
202211130200 METAR MROC 130200Z VRB02KT 2000 BR OVC005 21/21 A3005 NOSIG=
202211130300 METAR MROC 130300Z VRB01KT 9999 3000SW BCFG FEW008 SCT025 BKN060 21/21 A3005 NOSIG=
202211130400 METAR MROC 130400Z 24003KT 200V270 8000 3000SW BCFG SCT008 SCT090 21/20 A3005 TEMPO 5000 BR=
202211130500 METAR MROC 130500Z VRB02KT 9999 3000SW VCFG FEW008 21/20 A3005 NOSIG=
202211130600 METAR MROC 130600Z 11005KT 070V150 9999 4000SW R07/P2000N VCFG FEW008 20/19 A3002 NOSIG=
202211130700 METAR MROC 130700Z 04007KT CAVOK R07/P2000N 21/18 A2999 NOSIG=
202211130800 METAR MROC 130800Z 02006KT 9999 FEW001 20/17 A2997 NOSIG=
202211130900 METAR MROC 130900Z 08008KT CAVOK 21/17 A2996 NOSIG=
202211131000 METAR MROC 131000Z 06003KT 360V110 CAVOK 19/17 A2996 NOSIG=
202211131100 METAR MROC 131100Z 06006KT 030V090 CAVOK 21/17 A2998 NOSIG=
202211131200 METAR MROC 131200Z 08007KT 9999 FEW001 21/17 A2999 NOSIG=
202211131300 METAR MROC 131300Z 03006KT 360V070 CAVOK 23/17 A3001 NOSIG=
202211131400 METAR MROC 131400Z 12006KT 050V200 9999 FEW045 25/17 A3002 NOSIG=
202211131500 METAR MROC 131500Z 10009KT 050V140 9999 FEW045 26/18 A3002 NOSIG=
202211131600 METAR MROC 131600Z 12008KT 070V180 9999 FEW045 27/18 A3001 NOSIG=
202211131700 METAR MROC 131700Z 07011KT 030V110 9999 SCT040 29/18 A2998 NOSIG=
202211131800 METAR MROC 131800Z 10010KT 050V130 9999 BKN040 28/18 A2995 NOSIG=
202211131900 METAR MROC 131900Z 12012KT 080V150 9999 RA FEW015TCU BKN030 26/18 A2993 NOSIG=
202211132000 METAR MROC 132000Z 10012KT 070V130 9999 FEW020 SCT070 OVC150 23/18 A2990 NOSIG=
202211132100 METAR MROC 132100Z 12012KT 090V150 9999 -RA FEW035 SCT080 BKN120 22/18 A2991 NOSIG=
202211132200 METAR MROC 132200Z 08008KT 040V120 9999 FEW035 SCT080 BKN120 23/18 A2991 NOSIG=
202211132300 METAR MROC 132300Z 12007KT 090V150 9999 -RA FEW035 SCT080 BKN150 22/18 A2992 NOSIG=
202211140000 METAR MROC 140000Z 05010KT 9999 -RA FEW025 OVC120 22/18 A2995 NOSIG=
202211140100 METAR MROC 140100Z 34003KT 9999 FEW010 BKN120 21/18 A2998 NOSIG=
202211140200 METAR MROC 140200Z 14003KT 9999 FEW010 20/19 A2999 NOSIG=
202211140300 METAR MROC 140300Z 06003KT 9999 FEW030 20/19 A3000 NOSIG=
202211140400 METAR MROC 140400Z VRB02KT 9999 FEW035 20/18 A3000 NOSIG=
202211140500 METAR MROC 140500Z 05003KT 320V110 9999 FEW040 SCT080 20/17 A2998 NOSIG=
202211140600 METAR MROC 140600Z 10010KT CAVOK 21/17 A2997 NOSIG=
202211140700 METAR MROC 140700Z 09008KT CAVOK 21/17 A2995 NOSIG=
202211140800 METAR MROC 140800Z 11009KT CAVOK 21/17 A2994 NOSIG=
202211140900 METAR MROC 140900Z 11008KT CAVOK 20/17 A2993 NOSIG=
202211141000 METAR MROC 141000Z 11008KT 080V140 CAVOK 20/17 A2993 NOSIG=
202211141100 METAR MROC 141100Z 07007KT 050V110 CAVOK 20/17 A2994 NOSIG=
202211141200 METAR MROC 141200Z 07004KT 020V110 CAVOK 20/16 A2998 NOSIG=
202211141300 METAR MROC 141300Z 06003KT 040V100 9999 FEW045 BKN100 22/17 A3000 NOSIG=
202211141400 METAR MROC 141400Z 11007KT 080V150 9999 FEW045 BKN120 23/17 A3001 NOSIG=
202211141500 METAR MROC 141500Z 10006KT 060V130 9999 FEW045 BKN120 25/17 A3001 NOSIG=
202211141600 METAR MROC 141600Z 11007KT 080V160 9999 FEW045 BKN100 25/17 A3001 NOSIG=
202211141700 METAR MROC 141700Z 13007KT 090V200 9999 SCT040 BKN120 26/18 A2999 NOSIG=
202211141800 METAR MROC 141800Z 12009KT 090V150 9999 RA FEW030 BKN100 24/19 A2996 NOSIG=
202211141900 METAR MROC 141900Z 11005KT 080V150 9999 -RA FEW030 BKN100 23/19 A2995 NOSIG=
202211142000 METAR MROC 142000Z 12003KT 050V170 9999 -RA FEW030 BKN100 25/20 A2992 NOSIG=
202211142100 METAR MROC 142100Z VRB02KT 9999 FEW035 SCT060 BKN200 24/20 A2990 NOSIG=
202211142200 METAR MROC 142200Z 25005KT 9999 FEW010 SCT035 BKN200 23/22 A2991 NOSIG=
202211142300 METAR MROC 142300Z 24003KT 9999 FEW010 BKN030 22/21 A2992 NOSIG=
202211150000 METAR MROC 150000Z VRB02KT 9999 FEW005 BKN030 21/21 A2993 NOSIG=
202211150100 METAR MROC 150100Z VRB02KT 9999 BCFG FEW030 22/21 A2997 NOSIG=
202211150200 METAR MROC 150200Z VRB02KT 9999 FEW030 21/21 A2999 NOSIG=
202211150300 METAR MROC 150300Z 11010KT 9999 FEW030 21/18 A3000 NOSIG=
202211150400 METAR MROC 150400Z 10007KT 9999 FEW030 22/18 A2999 NOSIG=
202211150500 METAR MROC 150500Z 32003KT 300V360 9999 FEW040 21/18 A2999 NOSIG=
202211150600 METAR MROC 150600Z 09003KT 050V130 9999 FEW030 21/18 A2997 NOSIG=
202211150700 METAR MROC 150700Z 01004KT 9999 FEW035 20/18 A2998 NOSIG=
202211150800 METAR MROC 150800Z COR 03004KT 360V060 CAVOK 20/17 A2994 NOSIG=
202211150900 METAR MROC 150900Z 03005KT CAVOK 20/17 A2994 NOSIG=
202211151000 METAR MROC 151000Z VRB02KT 9999 FEW025 SCT150 20/17 A2995 NOSIG=
202211151100 METAR MROC 151100Z 11005KT 080V140 CAVOK 20/17 A2996 NOSIG=
202211151200 METAR MROC 151200Z VRB02KT 9999 FEW045 BKN120 20/17 A2999 NOSIG=
202211151300 METAR MROC 151300Z 08004KT 350V160 9999 FEW045 BKN120 22/18 A3003 NOSIG=
202211151400 METAR MROC 151400Z 28004KT 240V310 9999 FEW045 BKN120 23/18 A3005 NOSIG=
202211151500 METAR MROC 151500Z VRB02KT 9999 FEW045 BKN120 24/19 A3005 NOSIG=
202211151600 METAR MROC 151600Z 11007KT 080V160 9999 FEW045 BKN120 26/18 A3004 NOSIG=
202211151700 METAR MROC 151700Z 09007KT 050V140 9999 FEW045 BKN120 27/18 A3002 NOSIG=
202211151800 METAR MROC 151800Z 09006KT 060V140 9999 SCT035 BKN100 26/18 A3001 NOSIG=
202211151900 METAR MROC 151900Z 24008KT 9999 SCT040 BKN120 24/21 A2998 NOSIG=
202211152000 METAR MROC 152000Z 26008KT 9999 FEW010 SCT035 BKN120 24/22 A2996 NOSIG=
202211152100 METAR MROC 152100Z 25006KT 210V270 9999 BKN010 23/21 A2996 TEMPO 5000 BR=
202211152200 METAR MROC 152200Z 25003KT 220V290 9999 BKN010 22/21 A2997 NOSIG=
202211152300 METAR MROC 152300Z 26004KT 230V310 9999 4500SW BCFG BKN010 21/21 A2998 NOSIG=
202211160000 METAR MROC 160000Z 25003KT 220V290 9999 4500SW BCFG SCT020 21/21 A2999 NOSIG=
202211160100 METAR MROC 160100Z 27003KT 220V340 9999 FEW020 21/21 A3002 NOSIG=
202211160200 METAR MROC 160200Z 24002KT 9999 SCT030 21/20 A3006 NOSIG=
202211160300 METAR MROC 160300Z VRB03KT 9999 FEW020 21/20 A3006 NOSIG=
202211160400 METAR MROC 160400Z 05003KT 010V080 9999 SCT035 21/20 A3005 NOSIG=
202211160500 METAR MROC 160500Z VRB02KT CAVOK 21/19 A3004 NOSIG=
202211160600 METAR MROC 160600Z 31003KT CAVOK 20/19 A3001 NOSIG=
202211160700 METAR MROC 160700Z 13006KT 090V190 CAVOK 21/18 A2999 NOSIG=
202211160800 METAR MROC 160800Z 12009KT 070V170 CAVOK 21/18 A2998 NOSIG=
202211160900 METAR MROC 160900Z 08005KT 9999 FEW035 20/18 A2998 NOSIG=
202211161000 METAR MROC 161000Z 06005KT 020V100 9999 FEW035 20/17 A2999 NOSIG=
202211161100 METAR MROC 161100Z 09007KT 070V130 9999 FEW035 21/17 A2999 NOSIG=
202211161200 METAR MROC 161200Z 11006G16KT 9999 FEW035 SCT120 BKN200 21/17 A3001 NOSIG=
202211161300 METAR MROC 161300Z 09007KT 060V130 9999 FEW045 BKN140 22/17 A3003 NOSIG=
202211161400 METAR MROC 161400Z VRB05KT 9999 FEW040 BKN140 23/17 A3007 NOSIG=
202211161500 METAR MROC 161500Z 09012KT 060V120 9999 FEW045 SCT140 BKN200 25/17 A3007 NOSIG=
202211161600 METAR MROC 161600Z 07014KT 9999 FEW045 SCT130 BKN200 26/16 A3004 NOSIG=
202211161700 METAR MROC 161700Z 09013KT 9999 FEW045 BKN200 27/18 A3003 NOSIG=
202211161800 METAR MROC 161800Z 09010KT 060V120 9999 FEW045 BKN200 27/17 A3001 NOSIG=
202211161900 METAR MROC 161900Z 09013KT 9999 FEW045 BKN180 27/16 A2997 NOSIG=
202211162000 METAR MROC 162000Z 07010KT 9999 SCT045 BKN200 28/17 A2995 NOSIG=
202211162100 METAR MROC 162100Z 08012KT 9999 SCT040 BKN200 27/17 A2995 NOSIG=
202211162200 METAR MROC 162200Z 07013KT 9999 SCT040 BKN200 26/17 A2996 NOSIG=
202211162300 METAR MROC 162300Z 08008KT 050V110 9999 SCT040 SCT200 24/17 A2998 NOSIG=
202211170000 METAR MROC 170000Z 09009KT 9999 SCT030 24/17 A2999 NOSIG=
202211170100 METAR MROC 170100Z 12008KT 9999 SCT020 23/18 A3002 NOSIG=
202211170200 METAR MROC 170200Z 11008KT 080V140 9999 FEW020 23/18 A3004 NOSIG=
202211170300 METAR MROC 170300Z 12005KT 090V180 9999 FEW020 22/18 A3004 NOSIG=
202211170400 METAR MROC 170400Z 13003KT 070V180 9999 FEW030 22/17 A3005 NOSIG=
202211170500 METAR MROC 170500Z 13005KT 100V160 9999 FEW010 21/17 A3002 NOSIG=
202211170600 METAR MROC 170600Z 12007KT 070V140 9999 FEW010 21/17 A3000 NOSIG=
202211170700 METAR MROC 170700Z 11009KT 9999 FEW020 21/17 A2999 NOSIG=
202211170800 METAR MROC 170800Z 11009KT 9999 FEW010 22/17 A2997 NOSIG=
202211170900 METAR MROC 170900Z 11006KT 080V140 9999 FEW010 21/17 A2996 NOSIG=
202211171000 METAR MROC 171000Z 11008KT 9999 FEW020 21/17 A2997 NOSIG=
202211171100 METAR MROC 171100Z 10009KT 070V140 9999 FEW020 BKN120 22/18 A2998 NOSIG=
202211171200 METAR MROC 171200Z 12008KT 080V160 9999 FEW045 BKN120 22/17 A3000 NOSIG=
202211171300 METAR MROC 171300Z 08007KT 040V100 9999 FEW040 SCT120 BKN200 23/18 A3003 NOSIG=
202211171400 METAR MROC 171400Z 12011KT 090V150 9999 FEW040 BKN080 24/18 A3004 NOSIG=
202211171500 METAR MROC 171500Z VRB02KT 9999 FEW040 BKN100 25/18 A3004 NOSIG=
202211171547 METAR MROC 171547Z 10012KT 070V130 9999 FEW045 BKN120 27/16 A3002 NOSIG=
202211171600 METAR MROC 171600Z 09012KT 060V120 9999 FEW045 BKN120 27/16 A3002 NOSIG=
202211171700 METAR MROC 171700Z 10012KT 070V130 9999 FEW040 SCT100 28/17 A2999 NOSIG=
202211171800 METAR MROC 171800Z 08011KT 050V130 9999 SCT040 28/16 A2996 NOSIG=
202211171900 METAR MROC 171900Z 11012KT 070V160 9999 BKN040 28/17 A2992 NOSIG=
202211172000 METAR MROC 172000Z 10010KT 9999 BKN040 27/18 A2990 NOSIG=
202211172100 METAR MROC 172100Z COR 14010KT 100V180 9999 VCSH BKN035 26/18 A2989 NOSIG=
202211172200 METAR MROC 172200Z 09009KT 9999 -RA BKN035 23/19 A2991 NOSIG=
202211172300 METAR MROC 172300Z 10003KT 040V180 9999 BKN035 24/18 A2993 NOSIG=
202211180000 METAR MROC 180000Z VRB03KT 9999 SCT035 23/17 A2996 NOSIG=
202211180100 METAR MROC 180100Z 09006KT 040V130 9999 SCT035 22/17 A2999 NOSIG=
202211180200 METAR MROC 180200Z 10007KT 070V130 9999 FEW040 22/18 A3002 NOSIG=
202211180300 METAR MROC 180300Z 12007KT 9999 FEW030 22/17 A3002 NOSIG=
202211180400 METAR MROC 180400Z 12007KT 090V150 9999 FEW035 22/17 A3003 NOSIG=
202211180500 METAR MROC 180500Z 09006KT 060V120 9999 FEW035 21/17 A3001 NOSIG=
202211180600 METAR MROC 180600Z VRB02KT 9999 FEW035 21/17 A3000 NOSIG=
202211180700 METAR MROC 180700Z 07004KT 030V110 9999 FEW035 21/17 A2997 NOSIG=
202211180800 METAR MROC 180800Z 05007KT CAVOK 20/17 A2995 NOSIG=
202211180900 METAR MROC 180900Z 03005KT CAVOK 20/17 A2994 NOSIG=
202211181000 METAR MROC 181000Z 04006KT 010V080 CAVOK 20/16 A2995 NOSIG=
202211181100 METAR MROC 181100Z 07007KT CAVOK 20/16 A2996 NOSIG=
202211181200 METAR MROC 181200Z 05009KT 020V090 CAVOK 21/16 A2998 NOSIG=
202211181300 METAR MROC 181300Z 08007KT CAVOK 22/17 A2999 NOSIG=
202211181400 METAR MROC 181400Z 24003KT 170V310 CAVOK 24/17 A2999 NOSIG=
202211181500 METAR MROC 181500Z 13011KT 100V160 CAVOK 27/18 A3000 NOSIG=
202211181600 METAR MROC 181600Z 13010KT 070V210 9999 FEW045 SCT140 28/17 A2999 NOSIG=
202211181700 METAR MROC 181700Z 23007KT 190V290 9999 FEW045 SCT140 27/19 A2996 NOSIG=
202211181800 METAR MROC 181800Z 25009KT 9999 SCT040 BKN140 26/20 A2994 NOSIG=
202211181900 METAR MROC 181900Z 27008KT 240V300 9999 SCT040 27/21 A2991 NOSIG=
202211182000 METAR MROC 182000Z 25008KT 9999 SCT040 26/21 A2988 NOSIG=
202211182100 METAR MROC 182100Z 22008KT 180V250 9999 SCT040 26/22 A2987 NOSIG=
202211182200 METAR MROC 182200Z 21007KT 130V230 9999 FEW030 SCT045 25/21 A2989 NOSIG=
202211182300 METAR MROC 182300Z 26007KT 9999 4500N SCT010 BKN020 22/21 A2991 NOSIG=
202211190000 METAR MROC 190000Z 27004KT 240V330 9000 3000SW BKN008 21/21 A2992 NOSIG=
202211190100 METAR MROC 190100Z 25003KT 1500 0600SW BR BKN003 21/21 A2994 NOSIG=
202211190200 METAR MROC 190200Z 25003KT 8000 3500SW VCFG FEW005 BKN010 21/21 A2998 NOSIG=
202211190300 METAR MROC 190300Z VRB02KT 9999 3500SW FEW002 SCT035 21/21 A3000 NOSIG=
202211190400 METAR MROC 190400Z 24003KT 220V280 2000 BR OVC004 21/20 A2999 NOSIG=
202211190407 SPECI MROC 190407Z VRB02KT 0800 R07/P2000N MIFG VV002 21/21 A2999 NOSIG=
202211190500 METAR MROC 190500Z 26003KT 240V310 0500 R07/P2000N FG VV/// 21/20 A2998 NOSIG=
202211190600 METAR MROC 190600Z 26003KT 0300 R07/1700U FG -DZ VV/// 21/20 A2997 NOSIG=
202211190700 METAR MROC 190700Z 32001KT 2000 BR BKN008 21/20 A2996 NOSIG=
202211190800 METAR MROC 190800Z 02003KT 8000 2000SW BCFG FEW010 BKN050 20/20 A2994 NOSIG=
202211190900 METAR MROC 190900Z 05006KT 9999 3000SW BCFG FEW010 BKN060 21/18 A2993 NOSIG=
202211191000 METAR MROC 191000Z 12003KT 090V150 9999 BCFG FEW010 BKN060 20/18 A2992 NOSIG=
202211191100 METAR MROC 191100Z 12004KT 9999 BCFG FEW010 BKN060 20/17 A2995 NOSIG=
202211191200 METAR MROC 191200Z 08004KT 050V110 9999 BCFG FEW010 SCT060 BKN200 21/17 A2997 NOSIG=
202211191300 METAR MROC 191300Z 08004KT 9999 FEW010 BKN200 22/18 A2999 NOSIG=
202211191400 METAR MROC 191400Z 12004KT 080V160 9999 FEW010 BKN200 24/18 A3001 NOSIG=
202211191500 METAR MROC 191500Z 14007KT 080V230 9999 FEW045 OVC200 25/19 A3002 BECMG 24005KT=
202211191600 METAR MROC 191600Z 26007KT 240V310 9999 FEW040 SCT080 BKN200 25/20 A3001 NOSIG=
202211191700 METAR MROC 191700Z 24008KT 9999 FEW035 SCT080 BKN200 26/21 A3000 NOSIG=
202211191800 METAR MROC 191800Z 23005KT 140V290 9999 FEW035 SCT080 BKN200 27/20 A2995 NOSIG=
202211191900 METAR MROC 191900Z 25009KT 9999 FEW025 BKN045 24/21 A2994 BECMG RA=
202211192000 METAR MROC 192000Z 23006KT 200V260 8000 -RA VCTS FEW010CB SCT025 BKN045 23/21 A2991 NOSIG=
202211192100 METAR MROC 192100Z COR 19004KT 9999 FEW005 BKN035 23/20 A2990 NOSIG=
202211192200 METAR MROC 192200Z VRB02KT 9999 FEW035 BKN140 23/20 A2990 NOSIG=
202211192300 METAR MROC 192300Z 11004KT 090V140 9999 FEW005 BKN150 22/19 A2990 NOSIG=
202211200000 METAR MROC 200000Z 07003KT 9999 FEW040 SCT140 22/18 A2993 NOSIG=
202211200100 METAR MROC 200100Z 22003KT 180V290 9999 FEW005 SCT180 21/20 A2995 NOSIG=
202211200200 METAR MROC 200200Z 06003KT 9999 FEW005 SCT130 21/19 A2998 NOSIG=
202211200300 METAR MROC 200300Z 10004KT 9999 FEW020 SCT130 21/18 A2999 NOSIG=
202211200400 METAR MROC 200400Z 06006KT 9999 -RA FEW005 BKN035 21/18 A2998 NOSIG=
202211200500 METAR MROC 200500Z 03005KT 9999 RA FEW010 BKN020 21/19 A2997 NOSIG=
202211200600 METAR MROC 200600Z 16004KT 9999 3000SW -RA BCFG FEW005 BKN010 20/19 A2996 NOSIG=
202211200700 METAR MROC 200700Z 36003KT 330V050 9999 -DZ FEW005 BKN025 20/19 A2993 NOSIG=
202211200800 METAR MROC 200800Z 09004KT 9999 FEW010 BKN150 20/18 A2991 NOSIG=
202211200900 METAR MROC 200900Z 03005KT CAVOK 20/19 A2991 NOSIG=
202211201000 METAR MROC 201000Z 08007KT CAVOK 21/18 A2992 NOSIG=
202211201100 METAR MROC 201100Z 04007KT CAVOK 21/18 A2992 NOSIG=
202211201200 METAR MROC 201200Z 12004KT 080V160 9999 FEW040 SCT180 21/18 A2993 NOSIG=
202211201300 METAR MROC 201300Z 03005KT 010V070 CAVOK 22/19 A2996 NOSIG=
202211201400 METAR MROC 201400Z 07006KT CAVOK 23/18 A2997 NOSIG=
202211201500 METAR MROC 201500Z 04003KT 350V100 9999 FEW045 SCT160 25/18 A2999 BECMG 25006KT=
202211201600 METAR MROC 201600Z VRB02KT 9999 FEW040 SCT200 27/18 A2999 NOSIG=
202211201700 METAR MROC 201700Z 24007KT 9999 FEW045 BKN150 26/20 A2997 NOSIG=
202211201800 METAR MROC 201800Z 24006KT 210V280 9999 SCT040 BKN120 26/21 A2994 NOSIG=
202211201900 METAR MROC 201900Z 24007KT 210V270 9999 BKN030 25/21 A2991 NOSIG=
202211202000 METAR MROC 202000Z 23008KT 9999 FEW020TCU BKN030 24/21 A2989 NOSIG=
202211202100 METAR MROC 202100Z 25006KT 9999 DZ BKN010 23/21 A2989 TEMPO 5000 BR=
202211202200 METAR MROC 202200Z 27003KT 230V330 9999 -RA BKN008 22/21 A2990 NOSIG=
202211202300 METAR MROC 202300Z 19004KT 120V210 9999 -DZ FEW002 BKN008 22/21 A2991 NOSIG=
202211210000 METAR MROC 210000Z 24003KT 9999 3000SW BCFG FEW002 BKN010 22/21 A2994 NOSIG=
202211210100 METAR MROC 210100Z 00000KT 9999 -DZ FEW002 SCT010 BKN100 21/21 A2996 NOSIG=
202211210200 METAR MROC 210200Z 07006KT 9999 FEW002 SCT010 21/20 A2997 RERA NOSIG=
202211210300 METAR MROC 210300Z 08006KT 9999 FEW005 SCT060 21/19 A2998 NOSIG=
202211210400 METAR MROC 210400Z 08003KT 060V120 CAVOK 21/19 A2998 NOSIG=
202211210500 METAR MROC 210500Z 07006KT 030V110 9999 FEW035 22/18 A2997 NOSIG=
202211210600 METAR MROC 210600Z 05004KT 9999 FEW035 21/18 A2996 NOSIG=
202211210700 METAR MROC 210700Z 07005KT 9999 FEW035 20/18 A2994 NOSIG=
202211210800 METAR MROC 210800Z 04006KT 9999 FEW035 21/19 A2993 NOSIG=
202211210900 METAR MROC 210900Z 05004KT 360V090 9999 FEW035 20/18 A2993 NOSIG=
202211211000 METAR MROC 211000Z 07003KT 050V110 CAVOK 20/17 A2993 NOSIG=
202211211100 METAR MROC 211100Z 05005KT 9999 FEW035 19/17 A2995 NOSIG=
202211211200 METAR MROC 211200Z 09006KT 050V110 9999 FEW040 20/17 A2996 NOSIG=
202211211300 METAR MROC 211300Z 12006KT 090V170 9999 FEW040 22/18 A2999 NOSIG=
202211211400 METAR MROC 211400Z 10008KT 080V140 9999 FEW040 SCT200 24/19 A3001 NOSIG=
202211211500 METAR MROC 211500Z COR 13006KT 070V180 9999 FEW040 SCT070 25/19 A3002 NOSIG=
202211211600 METAR MROC 211600Z 11010KT 080V150 9999 FEW040 SCT080 26/19 A3001 NOSIG=
202211211700 METAR MROC 211700Z 12007KT 050V160 9999 FEW040 SCT070 BKN200 26/19 A2998 NOSIG=
202211211800 METAR MROC 211800Z COR 20006KT 170V240 9999 FEW045 BKN070 28/20 A2995 NOSIG=
202211211900 METAR MROC 211900Z 25010KT 9999 VCTS FEW015CB BKN030 25/22 A2993 NOSIG=
202211211915 METAR MROC 211915Z 23010KT 9999 -TSRA FEW010CB BKN030 24/21 A2993 NOSIG=
202211212000 METAR MROC 212000Z 33003KT 260V040 6000 1300SW TSRA FEW010CB BKN020 21/20 A2992 NOSIG=
202211212100 METAR MROC 212100Z 34004KT 320V030 9999 4500SW -RA BCFG FEW005 SCT025 BKN100 21/20 A2992 RETS NOSIG=
202211212200 METAR MROC 212200Z 25004KT 9999 -RA BKN030 22/21 A2993 NOSIG=
202211212300 METAR MROC 212300Z 11002KT 9999 FEW025 BKN100 22/21 A2994 NOSIG=
202211220000 METAR MROC 220000Z 12005KT 090V170 CAVOK 22/18 A2995 NOSIG=
202211220100 METAR MROC 220100Z 15003KT CAVOK 22/18 A2997 NOSIG=
202211220200 METAR MROC 220200Z COR 26004KT 9999 3000S BCFG BKN010 21/21 A3002 NOSIG=
202211220300 METAR MROC 220300Z 19002KT 3000 BR BKN003 21/21 A3003 NOSIG=
202211220313 METAR MROC 220313Z VRB01KT 9999 3000SW BCFG SCT003 21/21 A3003 NOSIG=
202211220400 METAR MROC 220400Z 35003KT 9999 4500SW BCFG FEW005 21/20 A3004 NOSIG=
202211220500 METAR MROC 220500Z 08003KT 9999 4000SW BCFG SCT010 21/19 A3004 NOSIG=
202211220600 METAR MROC 220600Z 08002KT 9999 4500SW BCFG FEW010 20/18 A3001 NOSIG=
202211220700 METAR MROC 220700Z 04005KT 9999 FEW005 21/18 A2998 NOSIG=
202211220800 METAR MROC 220800Z 06003KT 9999 FEW005 21/17 A2997 NOSIG=
202211220900 METAR MROC 220900Z 09005KT 9999 FEW005 SCT110 21/17 A2997 NOSIG=
202211221000 METAR MROC 221000Z 08007KT 9999 FEW005 SCT110 21/17 A2995 NOSIG=
202211221100 METAR MROC 221100Z 10009KT 9999 FEW010 21/17 A2997 NOSIG=
202211221200 METAR MROC 221200Z 07006KT 9999 FEW045 SCT100 20/17 A2999 NOSIG=
202211221300 METAR MROC 221300Z 09011KT 9999 FEW045 SCT080 BKN230 22/18 A3002 NOSIG=
202211221400 METAR MROC 221400Z 12011KT 9999 FEW045 SCT120 OVC200 22/17 A3006 NOSIG=
202211221500 METAR MROC 221500Z 11009KT CAVOK 22/17 A3006 NOSIG=
202211221600 METAR MROC 221600Z 11008KT 080V140 CAVOK 22/18 A3004 NOSIG=
202211221700 METAR MROC 221700Z 05004KT 350V090 CAVOK 23/18 A3002 NOSIG=
202211221800 METAR MROC 221800Z 08005KT 9999 FEW030 SCT080 OVC130 22/17 A2999 NOSIG=
202211221900 METAR MROC 221900Z VRB07KT 9999 FEW025 BKN150 25/18 A2995 BECMG 24007KT=
202211222000 METAR MROC 222000Z 10011KT 070V130 9999 FEW030 BKN130 25/18 A2994 NOSIG=
202211222100 METAR MROC 222100Z 14007KT 100V180 9999 FEW045 SCT130 25/17 A2994 NOSIG=
202211222200 METAR MROC 222200Z 26007KT 220V280 9999 VCSH FEW010TCU SCT030 BKN060 21/20 A2995 NOSIG=
202211222300 METAR MROC 222300Z 31004KT 280V360 9999 FEW045 BKN050 21/20 A2997 NOSIG=
202211230000 METAR MROC 230000Z VRB01KT CAVOK 21/19 A2999 NOSIG=
202211230100 METAR MROC 230100Z 05003KT 360V120 CAVOK 21/19 A3000 NOSIG=
202211230200 METAR MROC 230200Z 09004KT CAVOK 21/17 A3001 NOSIG=
202211230300 METAR MROC 230300Z 05006KT 010V080 CAVOK 21/16 A3002 NOSIG=
202211230400 METAR MROC 230400Z 07005KT CAVOK 21/16 A3002 NOSIG=
202211230500 METAR MROC 230500Z 10008KT 070V130 CAVOK 21/16 A3002 NOSIG=
202211230600 METAR MROC 230600Z 04004KT 330V090 CAVOK 19/15 A3001 NOSIG=
202211230700 METAR MROC 230700Z 04003KT CAVOK 18/15 A2999 NOSIG=
202211230800 METAR MROC 230800Z 07004KT 050V110 CAVOK 18/15 A2997 NOSIG=
202211230900 METAR MROC 230900Z 06009KT CAVOK 18/15 A2994 NOSIG=
202211231000 METAR MROC 231000Z 07009KT CAVOK 19/14 A2994 NOSIG=
202211231100 METAR MROC 231100Z 04008KT CAVOK 18/14 A2994 NOSIG=
202211231200 METAR MROC 231200Z 09006KT CAVOK 19/14 A2999 NOSIG=
202211231300 METAR MROC 231300Z 06004KT 360V110 CAVOK 21/14 A3001 NOSIG=
202211231400 METAR MROC 231400Z 11007KT 080V150 CAVOK 24/14 A3002 NOSIG=
202211231500 METAR MROC 231500Z 14007KT 090V180 CAVOK 26/15 A3003 NOSIG=
202211231600 METAR MROC 231600Z 26009KT CAVOK 25/18 A3002 NOSIG=
202211231700 METAR MROC 231700Z 25008KT CAVOK 25/19 A3000 NOSIG=
202211231800 METAR MROC 231800Z 24008KT 210V330 CAVOK 25/20 A2997 NOSIG=
202211231900 METAR MROC 231900Z 23008KT 210V280 9999 FEW020 BKN060 25/20 A2994 NOSIG=
202211232000 METAR MROC 232000Z 25008KT 9999 SCT025 BKN060 25/20 A2992 NOSIG=
202211232100 METAR MROC 232100Z 24010KT 9999 FEW020 SCT035 BKN200 24/20 A2991 NOSIG=
202211232200 METAR MROC 232200Z 25010KT 9999 BKN010 22/20 A2993 NOSIG=
202211232300 METAR MROC 232300Z 26011KT 3000 -RA BR SCT003 BKN010 21/20 A2995 NOSIG=
202211240000 METAR MROC 240000Z 28003KT 240V350 5000 1500SW BR SCT003 BKN010 20/20 A2998 NOSIG=
202211240100 METAR MROC 240100Z VRB02KT 9999 FEW010 BKN045 21/20 A3000 NOSIG=
202211240200 METAR MROC 240200Z 00000KT 9999 -DZ FEW010 OVC045 21/20 A3002 NOSIG=
202211240300 METAR MROC 240300Z 00000KT 9999 FEW010 BKN045 20/20 A3004 NOSIG=
202211240400 METAR MROC 240400Z VRB02KT 9999 FEW010 BKN050 20/20 A3003 NOSIG=
202211240500 METAR MROC 240500Z 00000KT 8000 2000SW SCT003 BKN010 20/20 A3001 TEMPO 5000 BR=
202211240600 METAR MROC 240600Z 00000KT 6000 2000SW BCFG SCT001 BKN020 20/19 A3000 NOSIG=
202211240700 METAR MROC 240700Z 00000KT 8000 3000SW BCFG NSC 20/19 A2999 NOSIG=
202211240800 METAR MROC 240800Z 09003KT 9999 2000SW BCFG NSC 19/18 A2996 NOSIG=
202211240900 METAR MROC 240900Z 06004KT CAVOK 18/18 A2995 NOSIG=
202211241000 METAR MROC 241000Z 09003KT 050V110 CAVOK 18/18 A2995 NOSIG=
202211241100 METAR MROC 241100Z 00000KT CAVOK 18/18 A2996 NOSIG=
202211241200 METAR MROC 241200Z 06003KT 9999 2000SW R07/0700U BCFG FEW008 19/18 A2998 NOSIG=
202211241300 METAR MROC 241300Z 01004KT 9999 FEW003 SCT100 20/18 A2999 NOSIG=
202211241400 METAR MROC 241400Z VRB02KT 9999 FEW045 BKN100 23/19 A3001 NOSIG=
202211241500 METAR MROC 241500Z 22005KT 200V260 9999 FEW045 BKN100 23/20 A3002 NOSIG=
202211241600 METAR MROC 241600Z 24006KT 200V260 9999 BKN040 24/20 A3001 NOSIG=
202211241700 METAR MROC 241700Z 24007KT 9999 FEW030 BKN040 24/20 A2999 NOSIG=
202211241800 METAR MROC 241800Z 26007KT 220V310 9999 BKN040 25/21 A2997 NOSIG=
202211241900 METAR MROC 241900Z 25009KT 220V290 9999 BKN030 24/21 A2994 NOSIG=
202211242000 METAR MROC 242000Z 25009KT 220V280 9999 BKN030 25/21 A2992 NOSIG=
202211242100 METAR MROC 242100Z 24010KT 9999 FEW010 BKN025 23/21 A2992 NOSIG=
202211242200 METAR MROC 242200Z 25007KT 9999 4000N SCT005 BKN010 22/21 A2993 NOSIG=
202211242300 METAR MROC 242300Z 27004KT 230V290 8000 3000SW VCFG OVC005 21/20 A2994 NOSIG=
202211250000 METAR MROC 250000Z 29003KT 5000 1000SW BR OVC003 21/20 A2995 NOSIG=
202211250100 METAR MROC 250100Z 25003KT 8000 1500SW VCFG OVC005 21/20 A2998 NOSIG=
202211250200 METAR MROC 250200Z 25003KT 220V280 3000 1000SW BR OVC003 21/20 A3000 NOSIG=
202211250300 METAR MROC 250300Z 27004KT 250V310 5000 1500SW BR SCT002 BKN005 21/20 A3002 NOSIG=
202211250400 METAR MROC 250400Z 02003KT 350V050 5000 1500SW BR FEW003 BKN008 20/20 A3001 BECMG BKN010=
202211250429 METAR MROC 250429Z 04005KT 9999 BCFG SCT002 20/20 A3000 NOSIG=
202211250500 METAR MROC 250500Z 10003KT 9999 BCFG FEW002 20/19 A2999 NOSIG=
202211250600 METAR MROC 250600Z VRB02KT 9999 FEW020 20/19 A2998 NOSIG=
202211250700 METAR MROC 250700Z VRB02KT 9999 FEW020 20/18 A2996 NOSIG=
202211250800 METAR MROC 250800Z 09003KT 9999 FEW025 20/17 A2995 NOSIG=
202211250900 METAR MROC 250900Z VRB02KT 9999 FEW035 19/17 A2994 NOSIG=
202211251000 METAR MROC 251000Z VRB02KT CAVOK 19/17 A2995 NOSIG=
202211251100 METAR MROC 251100Z 14004KT 100V170 CAVOK 20/16 A2997 NOSIG=
202211251200 METAR MROC 251200Z 02004KT 300V070 CAVOK 19/16 A2999 NOSIG=
202211251300 METAR MROC 251300Z 04005KT 350V070 9999 FEW045 BKN100 20/17 A3001 NOSIG=
202211251400 METAR MROC 251400Z 12004KT 060V160 9999 FEW045 BKN100 23/18 A3003 NOSIG=
202211251500 METAR MROC 251500Z 10007KT 080V140 9999 FEW040 SCT100 25/17 A3003 NOSIG=
202211251600 METAR MROC 251600Z 21006KT 140V250 9999 FEW045 26/18 A3002 NOSIG=
202211251700 METAR MROC 251700Z 24007KT 180V280 9999 SCT040 26/19 A3000 NOSIG=
202211251800 METAR MROC 251800Z 24010KT 9999 BKN040 25/21 A2998 NOSIG=
202211251900 METAR MROC 251900Z 25010KT 220V280 9999 FEW020TCU SCT040 26/21 A2995 NOSIG=
202211252000 METAR MROC 252000Z 24010KT 210V270 9999 FEW015TCU BKN025 25/21 A2992 NOSIG=
202211252100 METAR MROC 252100Z 22007KT 6000 TSRA FEW020CB BKN100 22/20 A2992 NOSIG=
202211252200 METAR MROC 252200Z 25006KT 9999 OVC010 21/21 A2993 RETSRA NOSIG=
202211252300 METAR MROC 252300Z 26005KT 240V300 9999 4500SW BCFG FEW005 BKN020 21/20 A2994 NOSIG=
202211260000 METAR MROC 260000Z 23006KT 5000 BR OVC005 20/20 A2997 NOSIG=
202211260100 METAR MROC 260100Z 25004KT 5000 2000SW BCFG BKN004 20/20 A3000 NOSIG=
202211260200 METAR MROC 260200Z 25003KT 230V290 2000 BR OVC002 20/20 A3002 NOSIG=
202211260300 METAR MROC 260300Z VRB01KT 9999 OVC003 20/20 A3004 NOSIG=
202211260400 METAR MROC 260400Z VRB02KT 9999 3000SW BCFG OVC005 20/20 A3003 NOSIG=
202211260500 METAR MROC 260500Z VRB02KT 8000 3000SW VCFG OVC005 20/20 A3003 NOSIG=
202211260600 METAR MROC 260600Z VRB02KT 9999 4000SW BCFG FEW005 BKN010 20/20 A3002 NOSIG=
202211260700 METAR MROC 260700Z 00000KT 5000 2000SW BR FEW005 SCT010 BKN020 20/20 A3000 NOSIG=
202211260800 METAR MROC 260800Z 00000KT 9999 4000SW BCFG FEW005 SCT010 20/20 A2998 NOSIG=
202211260900 METAR MROC 260900Z 27003KT 210V300 0500 FG VV002 20/19 A2999 NOSIG=
202211261000 METAR MROC 261000Z 00000KT 1500 BR BKN005 20/19 A2999 BECMG 3000=
202211261100 METAR MROC 261100Z 06003KT 9999 4000SW BCFG FEW015 SCT025 19/19 A3001 NOSIG=
202211261200 METAR MROC 261200Z 08005KT 040V110 9999 4000SW BCFG FEW025 OVC200 19/17 A3002 NOSIG=
202211261300 METAR MROC 261300Z VRB02KT 9999 VCFG NSC 21/18 A3005 NOSIG=
202211261400 METAR MROC 261400Z 28004KT 260V320 9999 VCFG FEW010 BKN180 21/19 A3007 NOSIG=
202211261500 METAR MROC 261500Z 26006KT 230V290 9999 BCFG SCT007 BKN180 21/20 A3009 NOSIG=
202211261600 METAR MROC 261600Z 25006KT 210V290 9999 BCFG SCT010 BKN025 22/19 A3009 NOSIG=
202211261700 METAR MROC 261700Z 23003KT 190V320 9999 VCFG FEW025 SCT130 23/19 A3005 NOSIG=
202211261800 METAR MROC 261800Z 23008KT 9999 FEW015 BKN035 22/20 A3003 NOSIG=
202211261900 METAR MROC 261900Z 24009KT 9999 VCFG FEW010 SCT025 BKN100 22/20 A3000 NOSIG=
202211262000 METAR MROC 262000Z 25007KT 9999 BCFG SCT007 OVC025 21/20 A2998 NOSIG=
202211262100 METAR MROC 262100Z VRB02KT 9999 -RA FEW012 BKN030 21/20 A2996 NOSIG=
202211262200 METAR MROC 262200Z 28003KT 240V350 9999 FEW009 OVC040 21/20 A2997 NOSIG=
202211262300 METAR MROC 262300Z 28003KT 250V330 9999 FEW007 OVC045 21/20 A2998 NOSIG=
202211262327 METAR MROC 262327Z 26003KT 210V020 9999 2000SW RA BCFG FEW005 BKN010 21/20 A2999 NOSIG=
202211270000 METAR MROC 270000Z 27004KT 9999 OVC015 21/20 A3001 NOSIG=
202211270100 METAR MROC 270100Z VRB03KT 8000 VCFG BKN010 21/20 A3004 NOSIG=
202211270200 METAR MROC 270200Z COR VRB01KT 8000 3000SW -RA BCFG SCT002 BKN015 20/20 A3006 TEMPO 5000 BR=
202211270300 METAR MROC 270300Z COR 09003KT 9999 -RA VCTS NSC 20/20 A3007 NOSIG=
202211270400 METAR MROC 270400Z VRB02KT 9999 4000SW BCFG FEW002 BKN010 21/20 A3002 NOSIG=
202211270500 METAR MROC 270500Z VRB02KT 9999 FEW002 BKN010 20/20 A3003 NOSIG=
202211270600 METAR MROC 270600Z 19003KT 140V230 5000 1000SW BR SCT003 BKN008 20/20 A3001 NOSIG=
202211270700 METAR MROC 270700Z VRB01KT 3500 1000SW BR SCT001 BKN005 20/19 A3001 NOSIG=
202211270800 METAR MROC 270800Z VRB01KT 3500 BR OVC005 20/19 A3001 NOSIG=
202211270900 METAR MROC 270900Z 12002KT 9999 2000SW BCFG SCT010 19/19 A3000 NOSIG=
202211271000 METAR MROC 271000Z VRB02KT 9999 3000SW BCFG SCT010 19/19 A3001 NOSIG=
202211271100 METAR MROC 271100Z 06005KT 9999 FEW005 19/18 A3001 NOSIG=
202211271200 METAR MROC 271200Z 09004KT 9999 FEW005 18/17 A3003 NOSIG=
202211271300 METAR MROC 271300Z VRB02KT 9999 FEW008 20/18 A3004 NOSIG=
202211271400 METAR MROC 271400Z VRB01KT 9999 FEW020 23/20 A3006 NOSIG=
202211271500 METAR MROC 271500Z 23007KT 200V260 9999 FEW025 23/20 A3007 NOSIG=
202211271600 METAR MROC 271600Z 26007KT 230V300 9999 FEW010 SCT035 23/20 A3007 NOSIG=
202211271700 METAR MROC 271700Z 23008KT 190V260 9999 FEW002 SCT035 25/20 A3005 NOSIG=
202211271800 METAR MROC 271800Z COR 25008KT 220V280 9999 VCSH FEW015TCU BKN035 24/20 A3002 NOSIG=
202211271900 METAR MROC 271900Z 24007KT 9999 VCTS FEW010CB SCT030 BKN045 25/21 A2999 TEMPO TSRA=
202211271946 METAR MROC 271946Z 32007KT 9999 RA VCTS FEW010CB BKN045 23/20 A2997 NOSIG=
202211272000 METAR MROC 272000Z 33007KT 8000 +RA VCTS FEW010CB BKN030 22/20 A2997 NOSIG=
202211272100 METAR MROC 272100Z VRB02KT 9999 VCSH FEW015 BKN045 23/21 A2995 NOSIG=
202211272200 METAR MROC 272200Z 24007KT 220V280 3000 0800E BR BKN003 21/21 A2995 NOSIG=
202211272300 METAR MROC 272300Z 22005KT 8000 1500SW VCTS VCFG FEW005CB BKN008 21/20 A2997 NOSIG=
202211280000 METAR MROC 280000Z 23007KT 8000 3500SW RA VCFG BKN005 20/19 A3000 NOSIG=
202211280100 METAR MROC 280100Z VRB02KT 8000 3000SW -RA VCTS VCFG FEW003CB OVC005 20/20 A3003 NOSIG=
202211280200 METAR MROC 280200Z 02001KT 9999 -DZ FEW002 SCT040 BKN080 20/20 A3005 NOSIG=
202211280300 METAR MROC 280300Z 00000KT 9999 FEW005 SCT100 20/20 A3006 NOSIG=
202211280400 METAR MROC 280400Z VRB02KT 9999 FEW005 SCT020 20/19 A3006 NOSIG=
202211280500 METAR MROC 280500Z 14003KT 9999 FEW030 20/19 A3004 NOSIG=
202211280600 METAR MROC 280600Z 01004KT CAVOK 19/18 A3001 NOSIG=
202211280700 METAR MROC 280700Z 24005KT 1200 R07/0400D BR OVC002 19/19 A3001 TEMPO 0500 FG=
202211280800 METAR MROC 280800Z 01005KT 2000 BR SCT002 BKN010 19/18 A2999 TEMPO 08007KT BCFG=
202211280900 METAR MROC 280900Z 09004KT 9999 FEW005 SCT150 18/18 A2996 NOSIG=
202211281000 METAR MROC 281000Z 05006KT CAVOK 19/17 A2995 NOSIG=
202211281100 METAR MROC 281100Z 01003KT 9999 FEW040 SCT130 18/17 A2996 NOSIG=
202211281200 METAR MROC 281200Z 12003KT 050V180 9999 FEW005 SCT110 18/17 A2998 NOSIG=
202211281300 METAR MROC 281300Z VRB02KT 9999 FEW035 SCT120 BKN250 19/18 A3000 NOSIG=
202211281400 METAR MROC 281400Z VRB02KT 9999 FEW035 SCT120 BKN250 22/18 A3002 NOSIG=
202211281500 METAR MROC 281500Z 06004KT 9999 FEW035 BKN120 25/19 A3002 NOSIG=
202211281600 METAR MROC 281600Z 11010KT 070V160 9999 FEW035 SCT060 27/19 A3001 NOSIG=
202211281700 METAR MROC 281700Z 08011KT 050V120 9999 FEW035 SCT060 27/17 A2999 NOSIG=
202211281800 METAR MROC 281800Z 11012KT 070V140 9999 VCSH FEW030 BKN060 25/19 A2997 NOSIG=
202211281900 METAR MROC 281900Z 11008KT 070V160 9999 -RA FEW020 SCT035 BKN100 23/19 A2996 NOSIG=
202211282000 METAR MROC 282000Z 11007KT 9999 FEW035 SCT060 BKN100 22/20 A2992 NOSIG=
202211282100 METAR MROC 282100Z COR 12005KT 070V170 9999 -RA FEW025 SCT040 BKN180 24/19 A2993 NOSIG=
202211282200 METAR MROC 282200Z 11004KT 9999 -RA FEW030 BKN080 21/19 A2992 NOSIG=
202211282300 METAR MROC 282300Z 09006KT 9999 BCFG FEW035 BKN120 22/19 A2994 NOSIG=
202211290000 METAR MROC 290000Z 10004KT 9999 FEW035 BKN130 22/18 A2995 NOSIG=
202211290100 METAR MROC 290100Z 11005KT 9999 FEW035 SCT120 BKN180 21/18 A2997 NOSIG=
202211290200 METAR MROC 290200Z 11006KT 9999 FEW040 BKN180 21/18 A3000 NOSIG=
202211290300 METAR MROC 290300Z 10004KT 070V160 9999 FEW030 BKN150 21/18 A3001 NOSIG=
202211290400 METAR MROC 290400Z 11006KT 090V150 9999 FEW040 SCT100 21/18 A3001 NOSIG=
202211290500 METAR MROC 290500Z 12005KT 9999 FEW045 SCT160 21/17 A3001 NOSIG=
202211290600 METAR MROC 290600Z 10007KT CAVOK 21/17 A2999 NOSIG=
202211290700 METAR MROC 290700Z 12005KT 090V160 CAVOK 21/17 A2996 NOSIG=
202211290800 METAR MROC 290800Z 12006KT 090V150 CAVOK 21/17 A2995 NOSIG=
202211290900 METAR MROC 290900Z 11006KT 090V150 CAVOK 20/16 A2994 NOSIG=
202211291000 METAR MROC 291000Z 10004KT 040V210 CAVOK 20/16 A2995 NOSIG=
202211291100 METAR MROC 291100Z 12008KT 090V160 CAVOK 21/16 A2996 NOSIG=
202211291200 METAR MROC 291200Z 12008KT 090V150 9999 FEW040 BKN150 21/16 A2998 NOSIG=
202211291300 METAR MROC 291300Z 12008KT 090V150 9999 FEW035 BKN120 22/17 A2999 NOSIG=
202211291400 METAR MROC 291400Z 12010KT 090V160 9999 FEW035 BKN120 22/17 A3001 NOSIG=
202211291500 METAR MROC 291500Z 12012KT 080V170 9999 FEW035 SCT120 25/18 A3000 NOSIG=
202211291600 METAR MROC 291600Z 08013KT 9999 FEW035 BKN120 25/15 A3001 NOSIG=
202211291700 METAR MROC 291700Z 09010KT 060V120 9999 FEW035 BKN120 26/15 A2999 NOSIG=
202211291800 METAR MROC 291800Z 09011KT 9999 FEW035 BKN120 26/16 A2995 NOSIG=
202211291900 METAR MROC 291900Z 05015KT 9999 FEW035 SCT120 28/17 A2992 NOSIG=
202211292000 METAR MROC 292000Z 07009G19KT 040V100 9999 SCT035 SCT120 27/16 A2989 NOSIG=
202211292100 METAR MROC 292100Z 09010KT 050V120 9999 FEW040 BKN100 27/17 A2988 NOSIG=
202211292200 METAR MROC 292200Z 01006KT 9999 FEW010 BKN070 24/17 A2989 NOSIG=
202211292300 METAR MROC 292300Z 13007KT 100V170 9999 FEW010 SCT060 BKN130 23/16 A2990 NOSIG=
202211300000 METAR MROC 300000Z 11008KT 080V140 9999 FEW010 BKN120 22/16 A2993 NOSIG=
202211300100 METAR MROC 300100Z 12007KT 090V160 9999 FEW010 BKN120 22/16 A2995 NOSIG=
202211300200 METAR MROC 300200Z 07005KT 010V120 9999 FEW010 SCT130 21/16 A2998 NOSIG=
202211300300 METAR MROC 300300Z VRB02KT 9999 FEW010 BKN120 21/18 A3000 NOSIG=
202211300400 METAR MROC 300400Z 09006KT 060V130 9999 FEW020 SCT120 21/16 A3000 NOSIG=
202211300500 METAR MROC 300500Z 09005KT 050V130 CAVOK 21/16 A2999 NOSIG=
202211300600 METAR MROC 300600Z 05005KT 020V080 CAVOK 21/17 A2997 NOSIG=
202211300700 METAR MROC 300700Z 05006KT CAVOK 21/16 A2994 NOSIG=
202211300800 METAR MROC 300800Z 24003KT 9999 FEW002 BKN100 19/18 A2993 NOSIG=
202211300900 METAR MROC 300900Z 26002KT 9999 FEW002 BKN100 19/18 A2991 NOSIG=
202211301000 METAR MROC 301000Z VRB02KT 9999 3000SW FEW002 BKN120 19/19 A2993 NOSIG=
202211301100 METAR MROC 301100Z VRB02KT 9999 3000SW VCFG FEW002 SCT130 19/18 A2994 NOSIG=
202211301200 METAR MROC 301200Z COR 00000KT 9999 FEW002 BKN130 19/18 A2997 NOSIG=
202211301300 METAR MROC 301300Z VRB02KT CAVOK 21/17 A2998 NOSIG=
202211301400 METAR MROC 301400Z VRB01KT CAVOK 23/18 A3000 NOSIG=
202211301500 METAR MROC 301500Z 12007KT 070V170 CAVOK 25/17 A3001 NOSIG=
202211301600 METAR MROC 301600Z VRB05KT 9999 SCT040 26/18 A3000 NOSIG=
202211301700 METAR MROC 301700Z VRB07KT 9999 BKN035 24/19 A2997 NOSIG=
202211301800 METAR MROC 301800Z 25009KT 9999 BKN035 25/20 A2994 NOSIG=
202211301900 METAR MROC 301900Z 24009KT 200V270 9999 VCTS FEW020CB BKN035 24/20 A2992 TEMPO RA=
202211302000 METAR MROC 302000Z 24008KT 9999 BKN030 23/20 A2990 NOSIG=
202211302100 METAR MROC 302100Z 25008KT 9999 -TSRA FEW008CB BKN010 22/21 A2990 NOSIG=
202211302200 METAR MROC 302200Z 04005KT 350V100 3000 TSRA BKN008CB 21/19 A2991 NOSIG=
202211302300 METAR MROC 302300Z 15003KT 120V180 9999 RA FEW002 BKN020 20/20 A2992 RETSRA NOSIG=
202212010000 METAR MROC 010000Z 27003KT 230V350 9999 3000SW RA BCFG FEW002 BKN010 20/19 A2994 NOSIG=
202212010100 METAR MROC 010100Z VRB02KT 9999 3000SW RA BCFG FEW002 BKN010 20/19 A2998 NOSIG=
202212010200 METAR MROC 010200Z 08005KT 9999 3000SW -RA BCFG FEW005 BKN010 20/18 A3000 NOSIG=
202212010300 METAR MROC 010300Z 11003KT 050V140 9999 3000SW -RA BCFG FEW005 SCT010 BKN100 20/19 A3001 NOSIG=
202212010400 METAR MROC 010400Z 08012KT 040V100 9999 FEW035 BKN100 20/18 A2999 NOSIG=
202212010500 METAR MROC 010500Z 11014KT 9999 FEW035 BKN100 21/18 A2998 NOSIG=
202212010600 METAR MROC 010600Z 06007KT 020V130 9999 FEW035 BKN100 21/18 A2996 NOSIG=
202212010700 METAR MROC 010700Z 10007G17KT 050V140 9999 FEW035 SCT100 20/17 A2993 NOSIG=
202212010800 METAR MROC 010800Z 10012KT 9999 FEW035 20/17 A2991 NOSIG=
202212010900 METAR MROC 010900Z 10011KT 9999 FEW035 21/17 A2990 NOSIG=
202212011000 METAR MROC 011000Z 10010KT 9999 FEW030 20/17 A2991 NOSIG=
202212011100 METAR MROC 011100Z 09009KT 050V130 9999 FEW030 SCT120 20/17 A2994 NOSIG=
202212011200 METAR MROC 011200Z 10009KT 050V150 9999 FEW030 BKN120 21/17 A2996 NOSIG=
202212011300 METAR MROC 011300Z 09010G20KT 050V120 9999 FEW045 SCT130 21/17 A2999 NOSIG=
202212011400 METAR MROC 011400Z 11013G24KT 9999 FEW040 23/18 A3000 NOSIG=
202212011500 METAR MROC 011500Z 11016G26KT 9999 FEW040 24/18 A3001 NOSIG=
202212011600 METAR MROC 011600Z 09016G26KT 060V130 9999 FEW040 26/16 A3002 NOSIG=
202212011700 METAR MROC 011700Z 09017G29KT CAVOK 26/15 A2999 NOSIG=
202212011800 METAR MROC 011800Z 08017G27KT 050V110 9999 FEW040 27/16 A2997 NOSIG=
202212011900 METAR MROC 011900Z 08015KT 050V130 9999 FEW040 27/15 A2995 NOSIG=
202212012000 METAR MROC 012000Z 08015G25KT CAVOK 27/16 A2993 NOSIG=
202212012100 METAR MROC 012100Z 07017KT 9999 FEW045 27/16 A2991 NOSIG=
202212012200 METAR MROC 012200Z 09013KT 060V120 9999 SCT040 26/16 A2992 NOSIG=
202212012300 METAR MROC 012300Z 08012KT 9999 BKN045 24/16 A2995 NOSIG=
202212020000 METAR MROC 020000Z 09006KT 9999 FEW045 SCT170 23/16 A2997 NOSIG=
202212020100 METAR MROC 020100Z 10009KT 9999 FEW040 22/16 A2999 NOSIG=
202212020200 METAR MROC 020200Z 09010KT CAVOK 22/17 A3002 NOSIG=
202212020300 METAR MROC 020300Z 10011KT CAVOK 22/15 A3003 NOSIG=
202212020400 METAR MROC 020400Z 10009KT CAVOK 21/15 A3002 NOSIG=
202212020500 METAR MROC 020500Z 10009KT CAVOK 21/13 A3001 NOSIG=
202212020600 METAR MROC 020600Z 11009KT CAVOK 20/14 A2999 NOSIG=
202212020700 METAR MROC 020700Z COR 08008KT CAVOK 20/15 A2997 NOSIG=
202212020800 METAR MROC 020800Z 09008KT CAVOK 20/14 A2995 NOSIG=
202212020900 METAR MROC 020900Z 11009KT 080V150 CAVOK 20/14 A2993 NOSIG=
202212021000 METAR MROC 021000Z 11007KT CAVOK 20/15 A2996 NOSIG=
202212021100 METAR MROC 021100Z 10009KT 080V140 9999 SCT045 21/15 A2997 NOSIG=
202212021200 METAR MROC 021200Z 10012KT 9999 FEW040 20/15 A2999 NOSIG=
202212021300 METAR MROC 021300Z 12011KT 090V150 CAVOK 22/15 A3000 NOSIG=
202212021400 METAR MROC 021400Z 10011KT 090V150 CAVOK 23/15 A3001 NOSIG=
202212021500 METAR MROC 021500Z 08015KT CAVOK 25/14 A3003 NOSIG=
202212021600 METAR MROC 021600Z 08018KT 9999 FEW045 26/14 A3002 NOSIG=
202212021700 METAR MROC 021700Z 08017KT 9999 FEW045 26/15 A3000 NOSIG=
202212021800 METAR MROC 021800Z 07018KT 9999 FEW045 26/14 A2997 NOSIG=
202212021900 METAR MROC 021900Z 09011KT 060V120 9999 VCSH FEW020TCU BKN060 25/16 A2995 NOSIG=
202212022000 METAR MROC 022000Z 08012KT 9999 FEW040 SCT070 25/16 A2993 NOSIG=
202212022100 METAR MROC 022100Z 10014KT 9999 FEW045 25/12 A2993 NOSIG=
202212022200 METAR MROC 022200Z 08011KT 9999 FEW045 SCT150 25/13 A2993 NOSIG=
202212022300 METAR MROC 022300Z 08010KT 040V110 9999 FEW045 SCT150 24/14 A2995 NOSIG=
202212030000 METAR MROC 030000Z 07007KT 9999 FEW045 22/15 A2998 NOSIG=
202212030100 METAR MROC 030100Z 06009KT 030V090 9999 FEW045 SCT130 23/15 A2999 NOSIG=
202212030200 METAR MROC 030200Z 11011KT 080V140 9999 SCT045 BKN070 21/17 A3002 NOSIG=
202212030300 METAR MROC 030300Z 10012KT 9999 FEW045 SCT130 22/16 A3004 NOSIG=
202212030400 METAR MROC 030400Z 09005KT 050V140 9999 FEW045 BKN100 21/16 A3003 NOSIG=
202212030500 METAR MROC 030500Z 10009KT 9999 FEW025 BKN100 21/17 A3002 NOSIG=
202212030600 METAR MROC 030600Z 10009KT 9999 FEW040 BKN100 21/17 A3001 NOSIG=
202212030700 METAR MROC 030700Z 10009KT 9999 FEW045 SCT100 21/17 A2999 NOSIG=
202212030800 METAR MROC 030800Z 09008KT CAVOK 20/16 A2997 NOSIG=
202212030900 METAR MROC 030900Z 10007KT CAVOK 21/16 A2996 NOSIG=
202212031000 METAR MROC 031000Z 09007KT 050V120 CAVOK 21/16 A2998 NOSIG=
202212031100 METAR MROC 031100Z 11007KT 080V150 CAVOK 21/16 A2999 NOSIG=
202212031200 METAR MROC 031200Z 10009KT 9999 FEW035 21/16 A3001 NOSIG=
202212031300 METAR MROC 031300Z 11010KT 9999 SCT035 21/16 A3005 NOSIG=
202212031400 METAR MROC 031400Z 11011KT 070V130 9999 FEW030 SCT070 23/16 A3006 NOSIG=
202212031500 METAR MROC 031500Z 12009KT 080V160 9999 FEW035 SCT070 23/17 A3007 NOSIG=
202212031600 METAR MROC 031600Z 10010KT 060V150 9999 VCSH SCT040 BKN060 23/16 A3007 NOSIG=
202212031700 METAR MROC 031700Z 08010KT 050V110 9999 SCT040 25/15 A3004 NOSIG=
202212031800 METAR MROC 031800Z 07015KT 050V110 9999 SCT040 25/15 A3000 NOSIG=
202212031900 METAR MROC 031900Z 06017KT 030V090 9999 FEW045 26/14 A2997 NOSIG=
202212032000 METAR MROC 032000Z 06018KT 9999 BKN045 25/16 A2996 NOSIG=
202212032100 METAR MROC 032100Z 07013G23KT 9999 SCT035 25/14 A2994 NOSIG=
202212032200 METAR MROC 032200Z 07010G20KT 9999 SCT035 25/14 A2995 NOSIG=
202212032300 METAR MROC 032300Z 09012KT 070V140 9999 FEW035 SCT060 22/16 A2997 NOSIG=
202212040000 METAR MROC 040000Z 10013KT 090V150 9999 FEW035 21/16 A2999 NOSIG=
202212040100 METAR MROC 040100Z 11009KT CAVOK 20/16 A3002 NOSIG=
202212040200 METAR MROC 040200Z 11008KT CAVOK 20/14 A3004 NOSIG=
202212040300 METAR MROC 040300Z 12007KT 080V140 CAVOK 20/14 A3005 NOSIG=
202212040400 METAR MROC 040400Z 11009KT CAVOK 20/15 A3005 NOSIG=
202212040500 METAR MROC 040500Z 10008KT CAVOK 20/13 A3004 NOSIG=
202212040600 METAR MROC 040600Z 10007KT CAVOK 20/14 A3002 NOSIG=
202212040700 METAR MROC 040700Z COR 10010KT CAVOK 19/14 A3000 NOSIG=
202212040800 METAR MROC 040800Z 10010KT CAVOK 19/13 A2997 NOSIG=
202212040900 METAR MROC 040900Z 11012KT CAVOK 19/14 A3003 NOSIG=
202212041000 METAR MROC 041000Z 10014KT CAVOK 20/13 A3002 NOSIG=
202212041100 METAR MROC 041100Z 10010KT CAVOK 19/14 A3003 NOSIG=
202212041200 METAR MROC 041200Z 10014KT 080V140 CAVOK 20/14 A3004 NOSIG=
202212041300 METAR MROC 041300Z 11012KT 9999 FEW045 BKN130 20/15 A3006 NOSIG=
202212041400 METAR MROC 041400Z 10011KT 9999 FEW045 BKN100 23/16 A3008 NOSIG=
202212041500 METAR MROC 041500Z 10013KT 9999 FEW045 SCT100 24/16 A3009 NOSIG=
202212041600 METAR MROC 041600Z 09012G22KT 9999 FEW045 26/16 A3007 NOSIG=
202212041700 METAR MROC 041700Z 07012G22KT 9999 FEW045 26/15 A3005 NOSIG=
202212041800 METAR MROC 041800Z 09010G20KT 040V110 9999 SCT045 26/16 A3002 NOSIG=
202212041900 METAR MROC 041900Z 11015G27KT 080V160 9999 BKN035 25/15 A2998 NOSIG=
202212042000 METAR MROC 042000Z 11008G18KT 060V140 9999 BKN030 25/15 A2998 NOSIG=
202212042100 METAR MROC 042100Z 10010G20KT 070V130 9999 SCT030 26/15 A2997 NOSIG=
202212042200 METAR MROC 042200Z 11010G20KT 9999 FEW035 SCT060 25/14 A2997 NOSIG=
202212042300 METAR MROC 042300Z 08013KT 9999 FEW035 SCT250 24/15 A2999 NOSIG=
202212050000 METAR MROC 050000Z 11014KT 9999 FEW035 22/15 A3001 NOSIG=
202212050100 METAR MROC 050100Z 10012KT 9999 FEW035 21/15 A3002 NOSIG=
202212050200 METAR MROC 050200Z 11006G16KT 070V140 CAVOK 20/16 A3005 NOSIG=
202212050300 METAR MROC NIL=
202212050400 METAR MROC 050400Z 12011KT 080V150 CAVOK 20/16 A3005 NOSIG=
202212050500 METAR MROC 050500Z 13009KT 100V160 CAVOK 20/15 A3003 NOSIG=
202212050600 METAR MROC 050600Z VRB04KT 9999 FEW020 20/15 A3003 NOSIG=
202212050700 METAR MROC 050700Z 04005KT 360V120 9999 FEW020 19/15 A3000 NOSIG=
202212050800 METAR MROC 050800Z 10007KT 030V150 9999 FEW025 20/15 A2999 NOSIG=
202212050900 METAR MROC 050900Z 09006KT 040V120 9999 FEW025 19/15 A2996 NOSIG=
202212051000 METAR MROC 051000Z 11011KT 080V140 9999 FEW030 20/15 A2997 NOSIG=
202212051100 METAR MROC 051100Z 10008KT 080V150 9999 FEW035 19/15 A2998 NOSIG=
202212051200 METAR MROC 051200Z 11012KT 9999 FEW040 20/15 A3000 NOSIG=
202212051300 METAR MROC 051300Z 12009KT 090V150 CAVOK 21/15 A3003 NOSIG=
202212051400 METAR MROC 051400Z 11012KT 070V150 9999 FEW045 SCT200 23/15 A3006 NOSIG=
202212051500 METAR MROC 051500Z 11013KT 360V130 9999 FEW045 SCT200 24/14 A3004 NOSIG=
202212051600 METAR MROC 051600Z 10010G20KT 070V140 9999 FEW045 26/14 A3003 NOSIG=
202212051700 METAR MROC 051700Z 09011G21KT 060V130 9999 FEW045 26/14 A3001 NOSIG=
202212051800 METAR MROC 051800Z 09011G21KT 060V140 9999 SCT045 27/14 A3000 NOSIG=
202212051900 METAR MROC 051900Z 09009G19KT 040V130 9999 FEW045 27/14 A2997 NOSIG=
202212052000 METAR MROC 052000Z 09011G21KT 050V110 9999 FEW040 27/13 A2995 NOSIG=
202212052100 METAR MROC 052100Z 07012KT 040V100 CAVOK 27/12 A2994 NOSIG=
202212052200 METAR MROC 052200Z 11005KT 070V180 9999 FEW030 27/12 A2996 NOSIG=
202212052300 METAR MROC 052300Z 23007KT 9999 FEW030 22/20 A2998 NOSIG=
202212060000 METAR MROC 060000Z 21004KT CAVOK 21/20 A3000 NOSIG=
202212060100 METAR MROC 060100Z VRB01KT CAVOK 20/16 A3003 NOSIG=
202212060200 METAR MROC 060200Z 11005KT CAVOK 19/15 A3005 NOSIG=
202212060300 METAR MROC 060300Z VRB02KT CAVOK 18/15 A3006 NOSIG=
202212060400 METAR MROC 060400Z VRB02KT CAVOK 19/15 A3005 NOSIG=
202212060500 METAR MROC 060500Z 02005KT 340V080 CAVOK 19/13 A3004 NOSIG=
202212060600 METAR MROC 060600Z 02006KT CAVOK 19/14 A3004 NOSIG=
202212060700 METAR MROC 060700Z 07005KT CAVOK 18/14 A3002 NOSIG=
202212060800 METAR MROC 060800Z 04009KT CAVOK 18/14 A3000 NOSIG=
202212060900 METAR MROC 060900Z 01010KT 040V100 CAVOK 18/14 A3000 NOSIG=
202212061000 METAR MROC 061000Z 08005KT 040V100 CAVOK 18/14 A3001 NOSIG=
202212061100 METAR MROC 061100Z 10007KT 070V140 CAVOK 19/14 A3001 NOSIG=
202212061200 METAR MROC 061200Z 11013KT 070V150 CAVOK 19/13 A3003 NOSIG=
202212061300 METAR MROC 061300Z 11010KT 080V150 CAVOK 21/14 A3006 NOSIG=
202212061400 METAR MROC 061400Z 11013KT 080V140 CAVOK 23/14 A3008 NOSIG=
202212061500 METAR MROC 061500Z 12012KT 090V150 CAVOK 24/15 A3009 NOSIG=
202212061600 METAR MROC 061600Z 09014KT 060V130 CAVOK 26/14 A3009 NOSIG=
202212061700 METAR MROC 061700Z 08011KT 050V110 CAVOK 26/14 A3007 NOSIG=
202212061800 METAR MROC 061800Z 10008KT 050V150 9999 FEW045 27/15 A3004 NOSIG=
202212061900 METAR MROC 061900Z 13009KT 060V180 9999 SCT045 27/15 A3001 NOSIG=
202212062000 METAR MROC 062000Z 10010KT 060V170 9999 FEW040 SCT070 27/15 A3000 NOSIG=
202212062100 METAR MROC 062100Z 10009KT CAVOK 26/16 A2998 NOSIG=
202212062200 METAR MROC 062200Z 11010KT 080V150 9999 FEW035 25/16 A2999 NOSIG=
202212062300 METAR MROC 062300Z 09009KT 9999 FEW040 24/15 A3001 NOSIG=
202212070000 METAR MROC 070000Z 11010KT 090V150 9999 FEW045 22/16 A3003 NOSIG=
202212070100 METAR MROC 070100Z 10010KT 070V140 CAVOK 21/16 A3005 NOSIG=
202212070200 METAR MROC 070200Z 09011KT CAVOK 21/15 A3007 NOSIG=
202212070300 METAR MROC 070300Z 10012KT CAVOK 21/15 A3008 NOSIG=
202212070400 METAR MROC 070400Z 09009KT 050V110 CAVOK 21/16 A3008 NOSIG=
202212070500 METAR MROC 070500Z 10011G21KT 080V140 9999 FEW010 21/16 A3007 NOSIG=
202212070600 METAR MROC 070600Z 10011G21KT 070V140 9999 FEW010 20/15 A3006 NOSIG=
202212070700 METAR MROC 070700Z 08005G16KT 360V160 9999 FEW010 20/15 A3006 NOSIG=
202212070800 METAR MROC 070800Z 09009KT CAVOK 20/15 A3005 NOSIG=
202212070900 METAR MROC 070900Z 08006KT 030V130 9999 FEW040 20/15 A3004 NOSIG=
202212071000 METAR MROC 071000Z 10008KT 070V130 9999 FEW040 20/14 A3004 NOSIG=
202212071100 METAR MROC 071100Z 08007KT 9999 FEW040 19/15 A3007 NOSIG=
202212071200 METAR MROC 071200Z 10009G20KT 070V140 9999 FEW040 20/15 A3009 NOSIG=
202212071300 METAR MROC 071300Z 10006KT 040V140 9999 FEW040 SCT070 21/15 A3012 NOSIG=
202212071400 METAR MROC 071400Z 11011KT 080V140 9999 SCT040 BKN130 22/16 A3013 NOSIG=
202212071500 METAR MROC 071500Z 10016G26KT 9999 FEW040 SCT130 24/16 A3014 NOSIG=
202212071600 METAR MROC 071600Z 07015G25KT 9999 FEW040 SCT130 26/15 A3013 NOSIG=
202212071700 METAR MROC 071700Z 10011KT 9999 FEW045 25/15 A3011 NOSIG=
202212071800 METAR MROC 071800Z 08014KT 9999 SCT045 27/14 A3008 NOSIG=
202212071900 METAR MROC 071900Z 07017KT 9999 BKN040 26/15 A3008 NOSIG=
202212072000 METAR MROC 072000Z 09011KT 060V130 9999 SCT045 25/15 A3004 NOSIG=
202212072100 METAR MROC 072100Z 10012KT 060V120 9999 FEW040 SCT070 25/15 A3003 NOSIG=
202212072200 METAR MROC 072200Z 09012KT 9999 FEW045 25/13 A3004 NOSIG=
202212072300 METAR MROC 072300Z 07015KT 9999 FEW040 24/13 A3006 NOSIG=
202212080000 METAR MROC 080000Z 08009KT 9999 FEW030 22/14 A3007 NOSIG=
202212080100 METAR MROC 080100Z 09006KT 9999 FEW025 SCT070 22/15 A3009 NOSIG=
202212080200 METAR MROC 080200Z 09006KT 9999 FEW025 21/16 A3010 NOSIG=
202212080300 METAR MROC 080300Z 09008KT 060V120 9999 FEW020 21/16 A3011 NOSIG=
202212080400 METAR MROC 080400Z 09008KT 060V120 CAVOK 21/15 A3010 NOSIG=
202212080500 METAR MROC 080500Z 11010KT 9999 FEW035 21/16 A3009 NOSIG=
202212080600 METAR MROC 080600Z 10011KT 9999 FEW040 SCT100 20/16 A3007 NOSIG=
202212080700 METAR MROC 080700Z 10009KT 9999 FEW040 BKN100 20/16 A3005 NOSIG=
202212080800 METAR MROC 080800Z 12007KT CAVOK 19/14 A3002 NOSIG=
202212080900 METAR MROC 080900Z 10011G21KT CAVOK 21/13 A3002 NOSIG=
202212081000 METAR MROC 081000Z 10009KT 060V120 CAVOK 19/14 A3002 NOSIG=
202212081100 METAR MROC 081100Z 11010KT CAVOK 20/14 A3003 NOSIG=
202212081200 METAR MROC 081200Z 11010KT 070V140 CAVOK 20/14 A3004 NOSIG=
202212081300 METAR MROC 081300Z 11011KT 9999 FEW035 21/16 A3006 NOSIG=
202212081400 METAR MROC 081400Z 09011G21KT 070V130 9999 FEW035 24/15 A3008 NOSIG=
202212081500 METAR MROC 081500Z 09014G24KT 9999 FEW040 24/14 A3009 NOSIG=
202212081600 METAR MROC 081600Z 08014G24KT 060V120 9999 FEW040 25/14 A3008 NOSIG=
202212081700 METAR MROC 081700Z 07013G23KT 050V110 9999 BKN045 25/15 A3007 NOSIG=
202212081800 METAR MROC 081800Z 09010G20KT 050V120 9999 FEW045 SCT060 26/15 A3004 NOSIG=
202212081900 METAR MROC 081900Z 09014G24KT CAVOK 28/15 A2999 NOSIG=
202212082000 METAR MROC 082000Z 11013G23KT 9999 FEW035 SCT060 26/14 A2999 NOSIG=
202212082100 METAR MROC 082100Z 09012G22KT 050V120 9999 FEW040 26/13 A2997 NOSIG=
202212082200 METAR MROC 082200Z 08013KT 040V110 9999 FEW025 24/13 A2998 NOSIG=
202212082300 METAR MROC 082300Z 08010KT 9999 FEW030 SCT220 23/14 A2998 NOSIG=
202212090000 METAR MROC 090000Z 07013KT 9999 FEW030 23/13 A3000 NOSIG=
202212090100 METAR MROC 090100Z 08011KT 9999 FEW030 22/14 A3002 NOSIG=
202212090200 METAR MROC 090200Z 05008KT 010V090 9999 FEW035 21/14 A3005 NOSIG=
202212090300 METAR MROC 090300Z 05004KT 360V120 9999 FEW040 20/14 A3006 NOSIG=
202212090400 METAR MROC 090400Z VRB03KT 9999 FEW040 20/14 A3006 NOSIG=
202212090500 METAR MROC 090500Z 03003KT 360V070 9999 FEW040 19/15 A3005 NOSIG=
202212090600 METAR MROC 090600Z 04006KT 010V070 9999 FEW040 19/15 A3004 NOSIG=
202212090700 METAR MROC 090700Z 10007KT 060V130 9999 FEW040 19/15 A3002 NOSIG=
202212090800 METAR MROC 090800Z 07005KT CAVOK 19/15 A2999 NOSIG=
202212090900 METAR MROC 090900Z 11010KT 080V150 CAVOK 19/14 A2999 NOSIG=
202212091000 METAR MROC 091000Z 06008KT 020V080 CAVOK 19/14 A3000 NOSIG=
202212091100 METAR MROC 091100Z 11010KT 070V130 CAVOK 19/14 A3000 NOSIG=
202212091200 METAR MROC 091200Z 11011KT 080V140 CAVOK 19/14 A3002 NOSIG=
202212091300 METAR MROC 091300Z 11008G18KT 070V140 9999 FEW035 SCT250 20/15 A3003 NOSIG=
202212091400 METAR MROC 091400Z 11012G22KT 040V150 CAVOK 23/14 A3004 NOSIG=
202212091500 METAR MROC 091500Z 11012G22KT 090V150 CAVOK 24/15 A3004 NOSIG=
202212091600 METAR MROC 091600Z 09013G23KT 060V120 9999 FEW040 26/15 A3005 NOSIG=
202212091700 METAR MROC 091700Z 08010G20KT 050V130 9999 FEW040 27/16 A3003 NOSIG=
202212091800 METAR MROC 091800Z 09009G19KT 060V150 9999 FEW035 SCT060 26/16 A3001 NOSIG=
202212091900 METAR MROC 091900Z 10012G22KT 070V140 9999 SCT035 BKN060 25/16 A2999 NOSIG=
202212092000 METAR MROC 092000Z 09012G24KT 070V130 9999 SCT030 BKN050 25/15 A2997 NOSIG=
202212092100 METAR MROC 092100Z 08012G22KT 050V110 9999 FEW045 BKN100 25/15 A2997 NOSIG=
202212092200 METAR MROC 092200Z 11010G20KT 080V150 9999 BKN045 23/16 A2996 NOSIG=
202212092300 METAR MROC 092300Z 10009KT 070V130 9999 BKN040 22/15 A2998 NOSIG=
202212100000 METAR MROC 100000Z 10008KT 070V130 9999 FEW010 BKN045 22/14 A3000 NOSIG=
202212100100 METAR MROC 100100Z 11009KT 080V160 9999 FEW010 21/15 A3002 NOSIG=
202212100200 METAR MROC 100200Z 11007KT 080V140 CAVOK 20/15 A3004 NOSIG=
202212100300 METAR MROC 100300Z 09008KT 050V120 CAVOK 21/14 A3005 NOSIG=
202212100400 METAR MROC 100400Z 07006KT 020V140 CAVOK 20/14 A3006 NOSIG=
202212100500 METAR MROC 100500Z 03006KT 360V060 CAVOK 19/14 A3004 NOSIG=
202212100600 METAR MROC 100600Z 07004KT 030V110 CAVOK 20/13 A3004 NOSIG=
202212100700 METAR MROC 100700Z 04003KT 360V060 CAVOK 19/14 A3002 NOSIG=
202212100800 METAR MROC 100800Z 10005KT 060V130 CAVOK 20/14 A3000 NOSIG=
202212100900 METAR MROC 100900Z 10008KT 060V130 CAVOK 20/14 A2999 NOSIG=
202212101000 METAR MROC 101000Z 08009KT 050V110 CAVOK 20/14 A3001 NOSIG=
202212101100 METAR MROC 101100Z 10008KT 060V150 CAVOK 20/15 A3001 NOSIG=
202212101200 METAR MROC 101200Z 10010KT 070V140 9999 FEW045 20/15 A3003 NOSIG=
202212101300 METAR MROC 101300Z 11011G21KT 360V140 CAVOK 21/15 A3005 NOSIG=
202212101400 METAR MROC 101400Z 10014KT 070V140 CAVOK 23/15 A3007 NOSIG=
202212101500 METAR MROC 101500Z 10013G23KT 070V130 CAVOK 23/16 A3008 NOSIG=
202212101600 METAR MROC 101600Z 10015G25KT 070V130 9999 FEW030 26/16 A3008 NOSIG=
202212101700 METAR MROC 101700Z 08013KT 9999 FEW040 26/15 A3007 NOSIG=
202212101800 METAR MROC 101800Z 11010KT 070V140 9999 FEW045 27/16 A3004 NOSIG=
202212101900 METAR MROC 101900Z 10010KT 060V130 9999 BKN045 27/16 A3002 NOSIG=
202212102000 METAR MROC 102000Z 10014KT 9999 BKN040 25/17 A2999 NOSIG=
202212102100 METAR MROC 102100Z 10012KT 070V130 9999 BKN040 25/16 A2999 NOSIG=
202212102200 METAR MROC 102200Z 09012G22KT 9999 BKN040 24/16 A3000 NOSIG=
202212102300 METAR MROC 102300Z 11009G20KT 090V150 9999 SCT040 23/14 A3001 NOSIG=
202212110000 METAR MROC 110000Z 11009KT 9999 SCT040 22/14 A3003 NOSIG=
202212110100 METAR MROC 110100Z 11010KT 080V150 9999 FEW045 21/14 A3005 NOSIG=
202212110200 METAR MROC 110200Z 11009G19KT 080V150 CAVOK 21/14 A3007 NOSIG=
202212110300 METAR MROC 110300Z 11009G21KT 070V140 CAVOK 21/14 A3008 NOSIG=
202212110400 METAR MROC 110400Z 05008KT 360V110 CAVOK 21/14 A3008 NOSIG=
202212110500 METAR MROC 110500Z 11010G20KT 080V140 CAVOK 21/14 A3007 NOSIG=
202212110600 METAR MROC 110600Z 11010G20KT CAVOK 20/14 A3005 NOSIG=
202212110700 METAR MROC 110700Z 06013KT 030V110 CAVOK 20/14 A3004 NOSIG=
202212110800 METAR MROC 110800Z 01008KT 340V040 CAVOK 19/14 A3004 NOSIG=
202212110900 METAR MROC 110900Z 08005KT 040V100 CAVOK 19/14 A3004 NOSIG=
202212111000 METAR MROC 111000Z 06006KT CAVOK 19/14 A3005 NOSIG=
202212111100 METAR MROC 111100Z 07006KT CAVOK 18/14 A3005 NOSIG=
202212111200 METAR MROC 111200Z 07011KT 040V130 CAVOK 18/14 A3007 NOSIG=
202212111300 METAR MROC 111300Z 07007KT CAVOK 21/14 A3009 NOSIG=
202212111400 METAR MROC 111400Z 10008KT 070V140 CAVOK 23/15 A3009 NOSIG=
202212111500 METAR MROC 111500Z 12009KT 080V160 CAVOK 25/14 A3009 NOSIG=
202212111600 METAR MROC 111600Z 12011G21KT 080V160 CAVOK 26/14 A3008 NOSIG=
202212111700 METAR MROC 111700Z 14009KT 070V190 CAVOK 27/15 A3006 NOSIG=
202212111800 METAR MROC 111800Z 12006KT 070V190 CAVOK 28/15 A3003 NOSIG=
202212111900 METAR MROC 111900Z VRB05KT 9999 FEW030 27/18 A3002 BECMG 24005KT=
202212112000 METAR MROC 112000Z 20006KT 100V260 9999 FEW030 27/17 A3000 NOSIG=
202212112100 METAR MROC 112100Z 17004KT 110V200 9999 FEW040 SCT070 27/16 A3000 NOSIG=
202212112200 METAR MROC 112200Z 24010KT 9999 FEW040 BKN060 23/20 A3000 NOSIG=
202212112300 METAR MROC 112300Z 22007KT 9999 FEW007 SCT030 22/20 A3001 NOSIG=
202212120000 METAR MROC 120000Z 14004KT 090V170 9999 FEW030 SCT070 21/16 A3003 NOSIG=
202212120100 METAR MROC 120100Z 09006KT 9999 FEW025 BKN060 21/16 A3005 NOSIG=
202212120200 METAR MROC 120200Z 09009KT 9999 FEW040 21/13 A3008 NOSIG=
202212120300 METAR MROC 120300Z 10008KT 9999 FEW045 20/15 A3009 NOSIG=
202212120400 METAR MROC 120400Z 10008KT 060V130 CAVOK 20/14 A3010 NOSIG=
202212120500 METAR MROC 120500Z 07007KT CAVOK 19/14 A3009 NOSIG=
202212120600 METAR MROC 120600Z 07007KT CAVOK 19/14 A3007 NOSIG=
202212120700 METAR MROC 120700Z 08007KT CAVOK 19/14 A3004 NOSIG=
202212120800 METAR MROC 120800Z 07009KT CAVOK 20/12 A3003 NOSIG=
202212120900 METAR MROC 120900Z 09006KT CAVOK 19/12 A3002 NOSIG=
202212121000 METAR MROC 121000Z 08006KT CAVOK 18/13 A3003 NOSIG=
202212121100 METAR MROC 121100Z 07012KT CAVOK 19/12 A3003 NOSIG=
202212121200 METAR MROC 121200Z 05008KT 020V080 CAVOK 19/12 A3005 NOSIG=
202212121300 METAR MROC 121300Z 07008KT CAVOK 21/13 A3006 NOSIG=
202212121400 METAR MROC 121400Z 10009KT 070V140 CAVOK 23/14 A3008 NOSIG=
202212121500 METAR MROC 121500Z 10012KT CAVOK 24/14 A3008 NOSIG=
202212121600 METAR MROC 121600Z 10010KT 070V130 CAVOK 26/15 A3007 NOSIG=
202212121700 METAR MROC 121700Z 11007KT 070V170 CAVOK 27/15 A3006 RMK NOSIG=
202212121800 METAR MROC 121800Z 12007KT 080V180 CAVOK 26/15 A3003 NOSIG=
202212121900 METAR MROC 121900Z 26006KT 220V300 9999 BKN045 25/18 A3001 NOSIG=
202212122000 METAR MROC 122000Z 23007KT 190V270 9999 SCT040 26/18 A2999 NOSIG=
202212122100 METAR MROC 122100Z 24008KT 9999 BKN040 25/19 A2998 NOSIG=
202212122200 METAR MROC 122200Z 22008KT 9999 FEW020 BKN035 23/20 A2999 NOSIG=
202212122300 METAR MROC 122300Z 24007KT 9999 FEW030 BKN060 22/20 A3000 NOSIG=
202212130000 METAR MROC 130000Z VRB01KT 9999 FEW007 SCT025 BKN050 21/20 A3002 NOSIG=
202212130100 METAR MROC 130100Z VRB02KT 9999 FEW010 SCT040 20/20 A3003 NOSIG=
202212130200 METAR MROC 130200Z 10005KT 9999 FEW040 SCT060 20/17 A3005 NOSIG=
202212130300 METAR MROC 130300Z 10007KT 060V130 9999 FEW040 20/16 A3006 NOSIG=
202212130400 METAR MROC 130400Z 08007KT 050V120 9999 FEW035 20/16 A3005 NOSIG=
202212130500 METAR MROC 130500Z 09008KT 9999 FEW035 20/15 A3003 NOSIG=
202212130600 METAR MROC 130600Z 07005KT 030V090 CAVOK 20/14 A3002 NOSIG=
202212130700 METAR MROC 130700Z 06006KT CAVOK 19/14 A3000 NOSIG=
202212130800 METAR MROC 130800Z 07007KT CAVOK 19/14 A2999 NOSIG=
202212130900 METAR MROC 130900Z 06008KT CAVOK 18/13 A2999 NOSIG=
202212131000 METAR MROC 131000Z 06008KT CAVOK 19/14 A3000 NOSIG=
202212131100 METAR MROC 131100Z 04007KT CAVOK 17/13 A3001 NOSIG=
202212131200 METAR MROC 131200Z VRB05KT CAVOK 18/14 A3002 NOSIG=
202212131300 METAR MROC 131300Z 07007KT CAVOK 21/15 A3004 NOSIG=
202212131400 METAR MROC 131400Z 09012KT 060V130 9999 FEW045 22/15 A3006 NOSIG=
202212131500 METAR MROC 131500Z 10014KT 070V130 9999 FEW045 24/16 A3007 NOSIG=
202212131600 METAR MROC 131600Z 10014KT 070V130 CAVOK 25/15 A3005 NOSIG=
202212131700 METAR MROC 131700Z 09012KT 060V120 9999 FEW040 26/15 A3005 NOSIG=
202212131800 METAR MROC 131800Z 10009KT 080V150 9999 FEW045 27/15 A3001 NOSIG=
202212131900 METAR MROC 131900Z 12008KT 070V170 9999 FEW045 SCT250 28/15 A2998 NOSIG=
202212132000 METAR MROC 132000Z 10010KT 070V130 CAVOK 27/15 A2997 NOSIG=
202212132100 METAR MROC 132100Z 13011KT 070V190 CAVOK 27/16 A2996 NOSIG=
202212132200 METAR MROC 132200Z 13008KT 090V190 9999 FEW040 BKN200 25/16 A2996 NOSIG=
202212132300 METAR MROC 132300Z 16005KT 100V190 9999 FEW040 OVC200 24/15 A2997 NOSIG=
202212140000 METAR MROC 140000Z 11007KT 070V140 9999 FEW040 SCT200 22/16 A2999 NOSIG=
202212140100 METAR MROC 140100Z 15009KT 120V180 9999 FEW040 21/16 A3001 NOSIG=
202212140200 METAR MROC 140200Z 10004KT 9999 FEW040 20/16 A3003 NOSIG=
202212140300 METAR MROC 140300Z 06007KT 020V130 9999 FEW040 20/16 A3005 NOSIG=
202212140400 METAR MROC 140400Z 04003KT 9999 FEW040 20/15 A3005 NOSIG=
202212140500 METAR MROC 140500Z 09005KT 9999 FEW045 19/15 A3004 NOSIG=
202212140600 METAR MROC 140600Z 04004KT CAVOK 18/14 A3003 NOSIG=
202212140700 METAR MROC 140700Z 07005KT 9999 FEW040 18/13 A3001 NOSIG=
202212140800 METAR MROC 140800Z 08006KT 9999 FEW040 19/13 A3000 NOSIG=
202212140900 METAR MROC 140900Z 06006KT 9999 FEW040 18/12 A2999 NOSIG=
202212141000 METAR MROC 141000Z 07007KT 050V110 CAVOK 18/13 A3000 NOSIG=
202212141100 METAR MROC 141100Z 09008KT CAVOK 19/13 A3001 NOSIG=
202212141200 METAR MROC 141200Z 08009KT CAVOK 19/13 A3001 NOSIG=
202212141300 METAR MROC 141300Z VRB02KT 9999 FEW010 SCT200 20/12 A3004 NOSIG=
202212141400 METAR MROC 141400Z COR 11005KT 060V160 CAVOK 22/13 A3007 RMK SCT200 NOSIG=
202212141500 METAR MROC 141500Z 13005KT 090V170 CAVOK 23/13 A3008 NOSIG=
202212141600 METAR MROC 141600Z 13005KT 100V190 9999 FEW045 SCT150 24/14 A3008 NOSIG=
202212141700 METAR MROC 141700Z COR VRB04KT 9999 FEW045 SCT200 25/15 A3005 NOSIG=
202212141800 METAR MROC 141800Z VRB04KT 9999 FEW045 27/15 A3001 NOSIG=
202212141900 METAR MROC 141900Z 24008KT 9999 FEW045 SCT220 27/18 A2998 NOSIG=
202212142000 METAR MROC 142000Z 23009KT 200V260 9999 FEW040 BKN220 26/18 A2996 NOSIG=
202212142100 METAR MROC 142100Z 24011KT 9999 FEW030 BKN200 25/19 A2996 NOSIG=
202212142200 METAR MROC 142200Z 23007KT 9999 SCT030 BKN200 23/20 A2997 NOSIG=
202212142300 METAR MROC 142300Z 24006KT 200V280 9999 FEW025 SCT035 22/20 A2998 NOSIG=
202212150000 METAR MROC 150000Z 26004KT 230V310 9999 FEW010 SCT025 21/20 A3000 NOSIG=
202212150100 METAR MROC 150100Z 25003KT 220V280 9999 BKN010 20/19 A3003 NOSIG=
202212150200 METAR MROC 150200Z VRB02KT 9999 FEW010 SCT025 20/19 A3005 NOSIG=
202212150300 METAR MROC 150300Z VRB02KT 9999 FEW010 BKN045 20/19 A3006 NOSIG=
202212150400 METAR MROC 150400Z 05003KT 9999 FEW012 SCT045 20/18 A3005 NOSIG=
202212150500 METAR MROC 150500Z 07006KT 9999 FEW012 20/17 A3005 NOSIG=
202212150600 METAR MROC 150600Z 09006KT 9999 FEW020 21/16 A3004 NOSIG=
202212150700 METAR MROC 150700Z 10006KT 070V140 9999 FEW020 20/16 A3002 NOSIG=
202212150800 METAR MROC 150800Z 04007KT 9999 FEW035 20/16 A3000 NOSIG=
202212150900 METAR MROC 150900Z 06005KT 9999 FEW035 19/16 A2999 NOSIG=
202212151000 METAR MROC 151000Z 04008KT 9999 FEW030 19/15 A3000 NOSIG=
202212151100 METAR MROC 151100Z 09007KT 9999 FEW030 20/16 A3002 NOSIG=
202212151200 METAR MROC 151200Z 06009KT 9999 FEW035 18/15 A3004 NOSIG=
202212151300 METAR MROC 151300Z 09008G18KT 060V140 CAVOK 21/16 A3005 NOSIG=
202212151400 METAR MROC 151400Z 11011G21KT 070V150 CAVOK 23/16 A3006 NOSIG=
202212151500 METAR MROC 151500Z 12012G22KT 090V150 CAVOK 25/16 A3006 NOSIG=
202212151600 METAR MROC 151600Z 10014G26KT 070V130 9999 FEW045 26/16 A3007 NOSIG=
202212151700 METAR MROC 151700Z 10013KT 060V130 9999 FEW045 27/16 A3005 NOSIG=
202212151800 METAR MROC 151800Z 09011KT 060V150 9999 FEW040 28/17 A3002 NOSIG=
202212151900 METAR MROC 151900Z 10011G21KT 070V130 9999 FEW040 28/17 A2999 NOSIG=
202212152000 METAR MROC 152000Z 10010G20KT 050V150 9999 FEW040 SCT100 28/17 A2997 NOSIG=
202212152100 METAR MROC 152100Z 12009KT 090V160 9999 SCT035 27/17 A2995 NOSIG=
202212152200 METAR MROC 152200Z 10011KT 9999 FEW030 SCT060 26/18 A2994 NOSIG=
202212152300 METAR MROC 152300Z 10009KT 9999 FEW020 BKN045 25/17 A2997 NOSIG=
202212160000 METAR MROC 160000Z 08005KT 020V120 9999 FEW025 SCT060 24/17 A2998 NOSIG=
202212160100 METAR MROC 160100Z 13004KT 050V210 9999 FEW020 BKN140 23/17 A2998 NOSIG=
202212160200 METAR MROC 160200Z 07006KT 030V120 9999 FEW025 SCT130 22/17 A3002 NOSIG=
202212160300 METAR MROC 160300Z 07008KT 020V110 9999 FEW030 SCT130 23/18 A3002 NOSIG=
202212160400 METAR MROC 160400Z 10012G24KT 070V150 9999 FEW030 22/17 A3001 NOSIG=
202212160500 METAR MROC 160500Z 10009G19KT 070V130 9999 FEW030 22/17 A3002 NOSIG=
202212160600 METAR MROC 160600Z 11010G20KT 9999 FEW030 22/17 A2999 NOSIG=
202212160700 METAR MROC 160700Z 11013G23KT 9999 FEW030 BKN150 23/16 A2997 NOSIG=
202212160800 METAR MROC 160800Z 11010G20KT 9999 FEW030 22/17 A2995 NOSIG=
202212160900 METAR MROC 160900Z 11010G20KT 080V150 9999 FEW030 22/17 A2995 NOSIG=
202212161000 METAR MROC 161000Z 10010KT 070V130 9999 FEW030 22/17 A2996 NOSIG=
202212161100 METAR MROC 161100Z 08007KT 050V120 9999 FEW030 22/17 A2998 NOSIG=
202212161200 METAR MROC 161200Z 07010KT 010V140 9999 FEW030 SCT150 22/17 A3000 NOSIG=
202212161300 METAR MROC 161300Z 03006KT 340V100 9999 FEW035 SCT070 BKN140 23/17 A3001 NOSIG=
202212161400 METAR MROC 161400Z 10016G26KT 070V130 9999 FEW040 BKN140 25/17 A3002 NOSIG=
202212161500 METAR MROC 161500Z 10012KT 070V150 9999 FEW035 BKN140 24/17 A3003 NOSIG=
202212161600 METAR MROC 161600Z 10013KT 070V140 9999 FEW040 SCT070 BKN140 26/17 A3004 NOSIG=
202212161700 METAR MROC 161700Z 09012KT 060V130 9999 FEW040 SCT100 BKN140 25/16 A3003 NOSIG=
202212161800 METAR MROC 161800Z 10010KT 070V170 9999 FEW040 SCT100 BKN140 26/16 A3000 NOSIG=
202212161900 METAR MROC 161900Z 10014G24KT 070V130 9999 FEW040 SCT080 BKN140 26/16 A2996 NOSIG=
202212162000 METAR MROC 162000Z 10013KT 9999 FEW040 BKN080 25/17 A2989 NOSIG=
202212162100 METAR MROC 162100Z 08014KT 9999 FEW030 BKN100 26/15 A2988 NOSIG=
202212162200 METAR MROC 162200Z 09014KT 9999 FEW035 SCT110 25/17 A2988 NOSIG=
202212162300 METAR MROC 162300Z 11008KT 070V140 9999 FEW035 SCT110 24/17 A2991 NOSIG=
202212170000 METAR MROC 170000Z 11007KT 080V140 9999 FEW030 BKN120 23/17 A2992 NOSIG=
202212170100 METAR MROC 170100Z 11008KT 9999 FEW035 SCT120 23/18 A2995 NOSIG=
202212170200 METAR MROC 170200Z 10009KT 9999 FEW040 23/17 A2996 NOSIG=
202212170300 METAR MROC 170300Z 11010KT 080V140 9999 FEW035 23/17 A2996 NOSIG=
202212170400 METAR MROC 170400Z 11009KT 9999 FEW030 23/17 A2997 NOSIG=
202212170500 METAR MROC 170500Z 06005KT 9999 FEW030 21/16 A2996 NOSIG=
202212170600 METAR MROC 170600Z 11009KT 9999 FEW035 21/17 A2993 NOSIG=
202212170700 METAR MROC 170700Z 12010KT 080V150 9999 FEW040 22/17 A2990 NOSIG=
202212170800 METAR MROC 170800Z 11009KT 080V140 9999 FEW040 21/17 A2988 NOSIG=
202212170900 METAR MROC 170900Z 05006KT 020V100 CAVOK 21/16 A2987 NOSIG=
202212171000 METAR MROC 171000Z 02004KT 330V070 CAVOK 20/16 A2988 NOSIG=
202212171100 METAR MROC 171100Z 02005KT 360V070 CAVOK 20/16 A2989 NOSIG=
202212171200 METAR MROC 171200Z 03004KT 330V060 CAVOK 20/16 A2991 NOSIG=
202212171300 METAR MROC 171300Z 05008KT CAVOK 22/16 A2993 NOSIG=
202212171400 METAR MROC 171400Z 02006KT 350V070 9999 FEW040 BKN140 23/17 A2995 NOSIG=
202212171500 METAR MROC 171500Z 10012KT 070V130 9999 FEW040 SCT140 25/18 A2996 NOSIG=
202212171600 METAR MROC 171600Z 10013G25KT 080V140 9999 FEW035 SCT140 27/17 A2995 NOSIG=
202212171700 METAR MROC 171700Z 10017KT 9999 FEW035 BKN140 27/15 A2993 NOSIG=
202212171800 METAR MROC 171800Z 10012G22KT 070V130 9999 FEW040 BKN140 27/17 A2991 NOSIG=
202212171900 METAR MROC 171900Z 10012KT 070V130 9999 SCT040 BKN120 28/16 A2989 NOSIG=
202212172000 METAR MROC 172000Z 10008KT 070V170 9999 FEW040 SCT060 BKN130 28/17 A2986 NOSIG=
202212172100 METAR MROC 172100Z 08009KT 050V110 9999 BKN040 27/16 A2987 NOSIG=
202212172200 METAR MROC 172200Z 11009KT 090V160 9999 FEW040 SCT100 27/16 A2985 NOSIG=
202212172300 METAR MROC 172300Z 09013KT 9999 BKN040 25/16 A2990 NOSIG=
202212180000 METAR MROC 180000Z 09007KT 040V130 9999 FEW030 SCT120 24/16 A2994 NOSIG=
202212180100 METAR MROC 180100Z 11011KT 080V140 9999 FEW030 22/16 A2995 NOSIG=
202212180200 METAR MROC 180200Z 11007KT 080V140 CAVOK 22/16 A2999 NOSIG=
202212180300 METAR MROC 180300Z 10010KT 070V130 CAVOK 22/16 A2999 NOSIG=
202212180400 METAR MROC 180400Z 06007KT 350V090 CAVOK 21/16 A3000 NOSIG=
202212180500 METAR MROC 180500Z 07009KT CAVOK 21/16 A3000 NOSIG=
202212180600 METAR MROC 180600Z 03004KT 9999 FEW045 SCT200 20/16 A2997 NOSIG=
202212180700 METAR MROC 180700Z 05003KT 010V130 CAVOK 21/16 A2996 NOSIG=
202212180800 METAR MROC 180800Z 06007KT 030V090 CAVOK 20/16 A2994 NOSIG=
202212180900 METAR MROC 180900Z 05004KT 360V090 CAVOK 20/16 A2994 NOSIG=
202212181000 METAR MROC 181000Z 07008KT 9999 FEW045 SCT100 21/16 A2996 NOSIG=
202212181100 METAR MROC 181100Z 10007G17KT 080V150 9999 FEW045 SCT140 21/16 A2995 NOSIG=
202212181200 METAR MROC 181200Z 10010KT 070V130 9999 SCT040 BKN140 21/16 A2996 NOSIG=
202212181300 METAR MROC 181300Z 11011G21KT 9999 SCT030 BKN250 22/16 A2998 NOSIG=
202212181400 METAR MROC 181400Z 11010G20KT 360V150 9999 FEW030 SCT060 BKN250 22/16 A3000 NOSIG=
202212181500 METAR MROC 181500Z 08018G28KT 9999 FEW030 SCT060 BKN250 24/15 A3001 NOSIG=
202212181600 METAR MROC 181600Z 09019G29KT 9999 FEW030 SCT060 BKN250 24/14 A3000 NOSIG=
202212181700 METAR MROC 181700Z 09021G31KT 060V120 9999 FEW035 SCT080 BKN250 25/14 A2998 NOSIG=
202212181800 METAR MROC 181800Z 10018G30KT 070V130 9999 FEW035 BKN250 25/14 A2997 NOSIG=
202212181900 METAR MROC 181900Z 09018G28KT 9999 FEW040 BKN200 26/13 A2993 NOSIG=
202212182000 METAR MROC 182000Z 09017G27KT CAVOK 25/14 A2991 NOSIG=
202212182100 METAR MROC 182100Z 09016G26KT 9999 FEW040 BKN200 24/14 A2991 NOSIG=
202212182200 METAR MROC 182200Z 08015KT 9999 FEW040 BKN200 24/14 A2991 NOSIG=
202212182300 METAR MROC 182300Z 09014G24KT 060V120 9999 FEW040 SCT200 22/13 A2994 NOSIG=
202212190000 METAR MROC 190000Z 10014KT 070V130 9999 FEW040 SCT070 21/15 A2996 NOSIG=
202212190100 METAR MROC 190100Z 10014KT 9999 FEW030 20/14 A2999 NOSIG=
202212190200 METAR MROC 190200Z 10012KT 9999 FEW045 20/13 A3002 NOSIG=
202212190300 METAR MROC 190300Z 10013KT CAVOK 21/13 A3003 NOSIG=
202212190400 METAR MROC 190400Z 11011KT CAVOK 21/13 A3003 NOSIG=
202212190500 METAR MROC 190500Z 11012KT CAVOK 20/14 A3002 NOSIG=
202212190600 METAR MROC 190600Z 11012KT 080V150 CAVOK 20/13 A3000 NOSIG=
202212190700 METAR MROC 190700Z 11011KT 080V150 CAVOK 20/13 A2998 NOSIG=
202212190800 METAR MROC 190800Z 09008KT 060V130 CAVOK 20/14 A2996 NOSIG=
202212190900 METAR MROC 190900Z 11012KT CAVOK 20/14 A2996 NOSIG=
202212191000 METAR MROC 191000Z 11013KT CAVOK 20/14 A2996 NOSIG=
202212191100 METAR MROC 191100Z 11012KT CAVOK 20/13 A2997 NOSIG=
202212191200 METAR MROC 191200Z 09018KT 9999 FEW045 SCT180 21/15 A2999 NOSIG=
202212191300 METAR MROC 191300Z 11015G25KT 9999 FEW045 BKN250 20/15 A3001 NOSIG=
202212191400 METAR MROC 191400Z 11014G24KT 9999 FEW045 BKN250 23/15 A3004 NOSIG=
202212191500 METAR MROC 191500Z 10013G23KT 9999 FEW040 BKN200 23/16 A3005 NOSIG=
202212191600 METAR MROC 191600Z 11015G25KT 9999 FEW040 BKN200 25/14 A3005 NOSIG=
202212191700 METAR MROC 191700Z 10017G28KT 9999 FEW045 BKN200 26/13 A3002 NOSIG=
202212191800 METAR MROC 191800Z 09012G22KT 070V130 9999 FEW045 BKN200 25/14 A3001 NOSIG=
202212191900 METAR MROC 191900Z 09015G25KT 060V120 9999 FEW045 BKN200 26/14 A2998 NOSIG=
202212192000 METAR MROC 192000Z 09012G22KT 060V120 9999 FEW040 BKN200 26/13 A2996 NOSIG=
202212192100 METAR MROC 192100Z COR 08015KT 9999 SCT040 26/13 A2995 NOSIG=
202212192200 METAR MROC 192200Z 11010G20KT 080V150 9999 FEW040 BKN200 25/13 A2994 NOSIG=
202212192300 METAR MROC 192300Z 12010G20KT 070V150 9999 FEW045 BKN200 23/14 A2995 NOSIG=
202212200000 METAR MROC 200000Z 10009G20KT 9999 FEW045 SCT200 22/13 A2997 NOSIG=
202212200100 METAR MROC 200100Z COR 10009KT 070V130 CAVOK 21/12 A2999 NOSIG=
202212200200 METAR MROC 200200Z 11009G19KT CAVOK 21/12 A3001 NOSIG=
202212200300 METAR MROC 200300Z 10012G22KT CAVOK 21/12 A3001 NOSIG=
202212200400 METAR MROC 200400Z 11014KT CAVOK 20/13 A3001 NOSIG=
202212200500 METAR MROC 200500Z 11012KT CAVOK 20/13 A3001 NOSIG=
202212200600 METAR MROC 200600Z 11013KT CAVOK 20/13 A3000 NOSIG=
202212200700 METAR MROC 200700Z 11009KT 080V140 CAVOK 19/12 A2998 NOSIG=
202212200800 METAR MROC 200800Z 09010KT CAVOK 20/12 A2997 NOSIG=
202212200900 METAR MROC 200900Z 11012KT CAVOK 20/11 A2996 NOSIG=
202212201000 METAR MROC 201000Z 10009KT 070V130 CAVOK 19/11 A2998 NOSIG=
202212201100 METAR MROC 201100Z 08007KT CAVOK 18/10 A2999 NOSIG=
202212201200 METAR MROC 201200Z 03006KT CAVOK 17/10 A3001 NOSIG=
202212201300 METAR MROC 201300Z 10009KT 080V140 CAVOK 20/10 A3003 NOSIG=
202212201400 METAR MROC 201400Z 12010KT CAVOK 24/11 A3006 NOSIG=
202212201500 METAR MROC 201500Z 13010G20KT 090V210 CAVOK 26/13 A3006 NOSIG=
202212201600 METAR MROC 201600Z 11010KT 080V160 CAVOK 27/13 A3006 NOSIG=
202212201700 METAR MROC 201700Z 13006KT 080V190 CAVOK 28/13 A3004 NOSIG=
202212201800 METAR MROC 201800Z 25008KT 210V300 9999 FEW045 27/18 A3002 NOSIG=
202212201900 METAR MROC 201900Z 25008KT 220V290 9999 FEW035 SCT070 27/19 A2999 NOSIG=
202212202000 METAR MROC 202000Z 21008KT 150V250 9999 FEW035 27/18 A2996 NOSIG=
202212202100 METAR MROC 202100Z 07006KT 110V210 9999 FEW045 27/15 A2996 NOSIG=
202212202200 METAR MROC 202200Z 16004KT 100V200 9999 FEW045 26/16 A2996 NOSIG=
202212202300 METAR MROC 202300Z 11010KT 9999 FEW045 25/16 A2997 NOSIG=
202212210000 METAR MROC 210000Z 11008KT 080V150 9999 FEW045 23/16 A2999 NOSIG=
202212210100 METAR MROC 210100Z 11013KT CAVOK 22/17 A3001 NOSIG=
202212210200 METAR MROC 210200Z 11010KT 080V140 CAVOK 22/17 A3004 NOSIG=
202212210300 METAR MROC 210300Z 10007KT 050V150 CAVOK 21/17 A3005 NOSIG=
202212210400 METAR MROC 210400Z 05003KT 340V120 CAVOK 21/17 A3005 NOSIG=
202212210500 METAR MROC 210500Z 07010KT 020V110 CAVOK 21/17 A3004 NOSIG=
202212210600 METAR MROC 210600Z 09013KT 070V130 CAVOK 22/15 A3002 NOSIG=
202212210700 METAR MROC 210700Z 11011KT 070V150 CAVOK 21/16 A2999 NOSIG=
202212210800 METAR MROC 210800Z 11010G20KT 080V150 CAVOK 21/16 A2997 NOSIG=
202212210900 METAR MROC 210900Z 11012G22KT CAVOK 21/15 A2996 NOSIG=
202212211000 METAR MROC 211000Z 11013KT CAVOK 21/16 A2998 NOSIG=
202212211100 METAR MROC 211100Z 11012KT 9999 FEW035 21/16 A2998 NOSIG=
202212211200 METAR MROC 211200Z 11010G20KT 9999 FEW040 21/16 A3000 NOSIG=
202212211300 METAR MROC 211300Z 11012KT CAVOK 22/16 A3003 NOSIG=
202212211400 METAR MROC 211400Z 11010KT 070V130 9999 FEW045 24/16 A3005 NOSIG=
202212211500 METAR MROC 211500Z 09011KT 9999 FEW040 25/17 A3005 NOSIG=
202212211600 METAR MROC 211600Z 09015KT 070V130 9999 FEW040 26/16 A3003 NOSIG=
202212211700 METAR MROC 211700Z 09016G26KT 9999 FEW035 SCT100 26/16 A3001 NOSIG=
202212211800 METAR MROC 211800Z 09020KT 9999 FEW030 SCT100 25/16 A2999 NOSIG=
202212211900 METAR MROC 211900Z 10015G25KT 9999 FEW030 SCT060 25/15 A2997 NOSIG=
202212212000 METAR MROC 212000Z 10016G26KT 9999 FEW040 SCT110 26/14 A2994 NOSIG=
202212212100 METAR MROC 212100Z 09014KT 9999 FEW040 SCT070 26/13 A2993 NOSIG=
202212212200 METAR MROC 212200Z 09012KT 060V130 9999 FEW045 SCT070 25/15 A2994 NOSIG=
202212212300 METAR MROC 212300Z 10013KT 9999 FEW040 SCT080 24/14 A2995 NOSIG=
202212220000 METAR MROC 220000Z 12012KT 090V160 9999 FEW040 22/16 A2997 NOSIG=
202212220100 METAR MROC 220100Z 11013KT CAVOK 21/16 A2999 NOSIG=
202212220200 METAR MROC 220200Z 11011KT 080V150 CAVOK 21/15 A3001 NOSIG=
202212220300 METAR MROC 220300Z 11014KT 090V150 CAVOK 21/15 A3001 NOSIG=
202212220400 METAR MROC 220400Z 11014G24KT 080V140 CAVOK 21/15 A3001 NOSIG=
202212220500 METAR MROC 220500Z 11015G25KT CAVOK 21/14 A3000 NOSIG=
202212220600 METAR MROC 220600Z 11014G24KT 080V140 CAVOK 21/14 A2998 NOSIG=
202212220700 METAR MROC 220700Z 11015KT CAVOK 20/14 A2995 NOSIG=
202212220800 METAR MROC 220800Z 11010G20KT 080V150 CAVOK 20/14 A2994 NOSIG=
202212220900 METAR MROC 220900Z 10009KT 070V130 CAVOK 20/14 A2994 NOSIG=
202212221000 METAR MROC 221000Z 10009KT 070V130 CAVOK 20/14 A2995 NOSIG=
202212221100 METAR MROC 221100Z 08007KT 020V140 CAVOK 20/13 A2996 NOSIG=
202212221200 METAR MROC 221200Z 09008G19KT 050V120 CAVOK 20/14 A2998 NOSIG=
202212221300 METAR MROC 221300Z 12009KT 070V150 CAVOK 21/14 A3000 NOSIG=
202212221400 METAR MROC 221400Z 12009KT 080V170 CAVOK 23/15 A3002 NOSIG=
202212221500 METAR MROC 221500Z 12013KT 090V150 9999 FEW045 25/17 A3002 NOSIG=
202212221600 METAR MROC 221600Z 11013KT 090V150 9999 FEW045 26/16 A3003 NOSIG=
202212221700 METAR MROC 221700Z 10011KT 9999 FEW040 26/16 A3001 NOSIG=
202212221800 METAR MROC 221800Z 09010KT 060V120 9999 FEW035 27/17 A2997 NOSIG=
202212221900 METAR MROC 221900Z 12008KT 070V170 9999 FEW040 28/16 A2994 NOSIG=
202212222000 METAR MROC 222000Z 10012KT 070V130 9999 SCT040 27/16 A2992 NOSIG=
202212222100 METAR MROC 222100Z 11008KT 070V150 9999 FEW040 SCT060 BKN080 26/18 A2992 NOSIG=
202212222200 METAR MROC 222200Z 09008KT 050V130 9999 FEW040 SCT050 BKN080 25/17 A2992 NOSIG=
202212222300 METAR MROC 222300Z 10010KT 050V120 9999 FEW030 BKN060 24/17 A2995 NOSIG=
202212230000 METAR MROC 230000Z 12010KT 080V140 9999 FEW025 SCT040 BKN060 22/17 A2997 NOSIG=
202212230100 METAR MROC 230100Z 09012KT 9999 FEW040 SCT060 22/17 A2999 NOSIG=
202212230200 METAR MROC 230200Z 10012KT 070V130 9999 FEW040 22/17 A3001 NOSIG=
202212230300 METAR MROC 230300Z 11013KT 9999 FEW040 22/17 A3001 NOSIG=
202212230400 METAR MROC 230400Z 05007KT 350V100 9999 FEW040 22/17 A3002 NOSIG=
202212230500 METAR MROC 230500Z 07005KT 030V100 9999 FEW040 SCT150 21/17 A3001 NOSIG=
202212230600 METAR MROC 230600Z 11012KT 9999 FEW040 22/17 A2998 NOSIG=
202212230700 METAR MROC 230700Z 10012KT 070V130 9999 FEW045 21/17 A2997 NOSIG=
202212230800 METAR MROC 230800Z 10006KT 020V160 9999 SCT045 22/17 A2996 NOSIG=
202212230900 METAR MROC 230900Z 10009KT 070V140 9999 FEW030 21/17 A2996 NOSIG=
202212231000 METAR MROC 231000Z 08009KT 050V120 9999 FEW030 22/17 A2996 NOSIG=
202212231100 METAR MROC 231100Z 05004KT 330V100 9999 FEW030 21/17 A2998 NOSIG=
202212231200 METAR MROC 231200Z 08009KT 050V110 9999 FEW030 SCT060 22/17 A2999 NOSIG=
202212231300 METAR MROC 231300Z 07008KT 9999 FEW030 22/18 A3000 NOSIG=
202212231400 METAR MROC 231400Z 10014G25KT 070V130 9999 FEW025 BKN140 24/17 A3002 NOSIG=
202212231500 METAR MROC 231500Z 10012KT 070V150 9999 SCT025 BKN140 24/17 A3003 NOSIG=
202212231600 METAR MROC 231600Z 11012KT 080V140 9999 FEW025 BKN140 25/17 A3004 NOSIG=
202212231700 METAR MROC 231700Z 09017G28KT 050V120 9999 FEW035 BKN130 26/17 A3001 NOSIG=
202212231800 METAR MROC 231800Z 09017KT 9999 FEW035 BKN140 26/16 A2999 NOSIG=
202212231900 METAR MROC 231900Z 09016G26KT 060V120 9999 FEW040 SCT140 26/15 A2995 NOSIG=
202212232000 METAR MROC 232000Z 09013KT 070V140 9999 FEW040 28/15 A2992 NOSIG=
202212232100 METAR MROC 232100Z 10014G24KT 070V140 9999 FEW035 27/14 A2991 NOSIG=
202212232200 METAR MROC 232200Z 08010G20KT 9999 FEW035 26/13 A2992 NOSIG=
202212232300 METAR MROC 232300Z 08010G20KT 9999 FEW030 25/15 A2993 NOSIG=
202212240000 METAR MROC 240000Z 09007G17KT 060V130 9999 FEW030 24/15 A2995 NOSIG=
202212240100 METAR MROC 240100Z 11011KT 050V140 9999 FEW030 22/17 A2998 NOSIG=
202212240200 METAR MROC 240200Z 10012KT 070V130 9999 FEW030 22/15 A3000 NOSIG=
202212240300 METAR MROC 240300Z 08012KT 9999 FEW030 22/15 A3003 NOSIG=
202212240400 METAR MROC 240400Z 09008KT 070V130 9999 FEW035 22/15 A3002 NOSIG=
202212240500 METAR MROC 240500Z 11011KT 9999 FEW040 22/15 A3001 NOSIG=
202212240600 METAR MROC 240600Z 11012KT 9999 FEW040 21/15 A2999 NOSIG=
202212240700 METAR MROC 240700Z 10011KT 070V130 CAVOK 21/15 A2997 NOSIG=
202212240800 METAR MROC 240800Z 10013KT CAVOK 21/15 A2995 NOSIG=
202212240900 METAR MROC 240900Z 11014KT CAVOK 20/15 A2994 NOSIG=
202212241000 METAR MROC 241000Z 11013KT CAVOK 21/15 A2995 NOSIG=
202212241100 METAR MROC 241100Z 11012KT CAVOK 21/15 A2995 NOSIG=
202212241200 METAR MROC 241200Z 11015KT 9999 FEW045 21/16 A2997 NOSIG=
202212241300 METAR MROC 241300Z 11014G24KT 9999 FEW045 22/16 A3001 NOSIG=
202212241400 METAR MROC 241400Z 08017G27KT 9999 FEW045 23/14 A3003 NOSIG=
202212241500 METAR MROC 241500Z 10016G27KT 9999 FEW045 25/14 A3003 NOSIG=
202212241600 METAR MROC 241600Z 08017G28KT 9999 FEW045 26/14 A3003 NOSIG=
202212241700 METAR MROC 241700Z 08019KT 9999 FEW045 26/14 A3001 NOSIG=
202212241800 METAR MROC 241800Z 07019G29KT 9999 FEW045 26/14 A2999 NOSIG=
202212241900 METAR MROC 241900Z 07019G31KT 9999 SCT040 27/14 A2997 NOSIG=
202212242000 METAR MROC 242000Z 08019G31KT 9999 FEW040 27/13 A2994 NOSIG=
202212242100 METAR MROC 242100Z 08014G24KT 9999 FEW040 26/14 A2993 NOSIG=
202212242200 METAR MROC 242200Z 08016G26KT 9999 FEW040 25/13 A2994 NOSIG=
202212242300 METAR MROC 242300Z 07019G32KT 9999 FEW040 24/13 A2994 NOSIG=
202212250000 METAR MROC 250000Z 07012G22KT 9999 FEW040 23/13 A2996 NOSIG=
202212250100 METAR MROC 250100Z 08011G21KT CAVOK 22/13 A2998 NOSIG=
202212250200 METAR MROC 250200Z 08010G20KT CAVOK 22/14 A3001 NOSIG=
202212250300 METAR MROC 250300Z 08011G21KT CAVOK 21/14 A3002 NOSIG=
202212250400 METAR MROC 250400Z 10010KT CAVOK 21/14 A3002 NOSIG=
202212250500 METAR MROC 250500Z 11012KT CAVOK 20/15 A3000 NOSIG=
202212250600 METAR MROC 250600Z 08008KT 040V130 CAVOK 20/16 A2999 NOSIG=
202212250700 METAR MROC 250700Z 10010KT 9999 FEW040 20/16 A2996 NOSIG=
202212250800 METAR MROC 250800Z 10008KT 040V160 9999 FEW040 20/16 A2993 NOSIG=
202212250900 METAR MROC 250900Z 09007KT 050V130 9999 FEW040 20/16 A2992 NOSIG=
202212251000 METAR MROC 251000Z 12012G22KT 090V150 9999 FEW040 20/16 A2992 NOSIG=
202212251100 METAR MROC 251100Z 11013KT 9999 FEW030 20/16 A2994 NOSIG=
202212251200 METAR MROC 251200Z 06009KT 030V120 9999 FEW025 SCT200 20/16 A2995 NOSIG=
202212251300 METAR MROC 251300Z 10018G28KT 9999 FEW040 SCT200 22/15 A2997 NOSIG=
202212251400 METAR MROC 251400Z 09019KT 9999 FEW040 23/15 A3001 NOSIG=
202212251500 METAR MROC 251500Z 07020G30KT 9999 FEW040 25/12 A3001 NOSIG=
202212251600 METAR MROC 251600Z COR 07019G30KT 9999 FEW045 25/12 A3001 NOSIG=
202212251700 METAR MROC 251700Z 07019KT 9999 FEW045 26/11 A3000 NOSIG=
202212251800 METAR MROC 251800Z 07018G28KT 9999 FEW045 27/11 A2998 NOSIG=
202212251900 METAR MROC 251900Z 08014G24KT 9999 FEW045 27/11 A2995 NOSIG=
202212252000 METAR MROC 252000Z 08014G24KT 9999 FEW045 28/12 A2993 NOSIG=
202212252100 METAR MROC 252100Z 08015KT 9999 FEW045 27/12 A2993 NOSIG=
202212252200 METAR MROC 252200Z 08011KT 050V110 9999 FEW045 26/13 A2993 NOSIG=
202212252300 METAR MROC 252300Z 08008KT 9999 FEW040 SCT250 24/11 A2996 NOSIG=
202212260000 METAR MROC 260000Z 11005KT 9999 FEW040 22/13 A2997 NOSIG=
202212260100 METAR MROC 260100Z 11006KT 9999 FEW040 20/12 A3000 NOSIG=
202212260200 METAR MROC 260200Z 11008KT 090V150 9999 FEW040 21/12 A3002 NOSIG=
202212260300 METAR MROC 260300Z 11010KT CAVOK 21/11 A3003 NOSIG=
202212260400 METAR MROC 260400Z 10009KT 070V130 CAVOK 20/13 A3003 NOSIG=
202212260500 METAR MROC 260500Z 11012KT CAVOK 20/13 A3002 NOSIG=
202212260600 METAR MROC 260600Z 09006G16KT 060V130 CAVOK 20/13 A3001 NOSIG=
202212260700 METAR MROC 260700Z 09013KT 030V130 CAVOK 19/14 A2999 NOSIG=
202212260800 METAR MROC 260800Z 11010G20KT CAVOK 19/14 A2997 NOSIG=
202212260900 METAR MROC 260900Z 12010G20KT CAVOK 19/14 A2997 NOSIG=
202212261000 METAR MROC 261000Z 08007KT 030V120 CAVOK 19/14 A2997 NOSIG=
202212261100 METAR MROC 261100Z 03006KT 360V070 CAVOK 19/14 A2999 NOSIG=
202212261200 METAR MROC 261200Z 08009KT 040V120 9999 FEW045 19/15 A3000 NOSIG=
202212261300 METAR MROC 261300Z 09009KT 030V130 CAVOK 20/14 A3002 NOSIG=
202212261400 METAR MROC 261400Z 11010KT 080V140 CAVOK 23/15 A3003 NOSIG=
202212261500 METAR MROC 261500Z 12015KT CAVOK 24/15 A3002 RMK VEL MAX VTO 24KT FEW060 NOSIG=
202212261600 METAR MROC 261600Z 09016KT 9999 FEW045 25/15 A3002 NOSIG=
202212261700 METAR MROC 261700Z 09016G27KT 9999 FEW040 25/16 A3000 NOSIG=
202212261800 METAR MROC 261800Z 09018KT 9999 SCT035 26/16 A2998 NOSIG=
202212261900 METAR MROC 261900Z 10012KT 070V130 9999 SCT040 27/15 A2996 NOSIG=
202212262000 METAR MROC 262000Z 09011KT 060V120 9999 FEW040 27/15 A2993 NOSIG=
202212262100 METAR MROC 262100Z 08014KT 9999 FEW045 SCT090 26/14 A2992 NOSIG=
202212262200 METAR MROC 262200Z 09008KT 060V120 9999 FEW040 SCT080 25/14 A2993 NOSIG=
202212262300 METAR MROC 262300Z 11008KT 080V150 9999 FEW025 24/15 A2994 NOSIG=
202212270000 METAR MROC 270000Z 11007KT 9999 FEW030 22/15 A2997 NOSIG=
202212270100 METAR MROC 270100Z 11007KT 080V140 9999 FEW030 21/16 A3000 NOSIG=
202212270200 METAR MROC 270200Z 11009KT 9999 FEW040 21/16 A3004 NOSIG=
202212270300 METAR MROC 270300Z 09008KT 9999 FEW040 21/15 A3005 NOSIG=
202212270400 METAR MROC 270400Z 09010KT CAVOK 21/14 A3005 NOSIG=
202212270500 METAR MROC 270500Z 11012G22KT CAVOK 20/14 A3004 NOSIG=
202212270600 METAR MROC 270600Z 09014KT CAVOK 20/14 A3003 NOSIG=
202212270700 METAR MROC 270700Z 06009KT CAVOK 20/14 A3002 NOSIG=
202212270800 METAR MROC 270800Z 09010KT 060V130 CAVOK 20/14 A3000 NOSIG=
202212270900 METAR MROC 270900Z 06009KT 030V110 CAVOK 19/14 A3000 NOSIG=
202212271000 METAR MROC 271000Z 09008KT 040V130 CAVOK 19/14 A3001 NOSIG=
202212271100 METAR MROC 271100Z 05007KT 020V080 CAVOK 19/13 A3003 NOSIG=
202212271200 METAR MROC 271200Z 06009KT 020V080 CAVOK 19/14 A3004 NOSIG=
202212271300 METAR MROC 271300Z 07007KT CAVOK 20/14 A3006 NOSIG=
202212271400 METAR MROC 271400Z 11012KT 080V150 CAVOK 23/15 A3007 NOSIG=
202212271500 METAR MROC 271500Z 11013KT CAVOK 25/15 A3007 NOSIG=
202212271600 METAR MROC 271600Z 10011KT 070V140 CAVOK 26/14 A3006 NOSIG=
202212271700 METAR MROC 271700Z 11010KT 070V160 CAVOK 27/15 A3005 NOSIG=
202212271800 METAR MROC 271800Z 09012KT 060V130 9999 FEW045 27/15 A3001 NOSIG=
202212271900 METAR MROC 271900Z 09011KT 060V140 9999 FEW045 SCT250 27/15 A2999 NOSIG=
202212272000 METAR MROC 272000Z 09010KT 050V130 9999 FEW045 SCT250 28/14 A2997 NOSIG=
202212272100 METAR MROC 272100Z 10008KT 060V140 9999 FEW045 SCT250 28/15 A2995 NOSIG=
202212272200 METAR MROC 272200Z 08009KT 050V130 9999 FEW045 27/14 A2996 NOSIG=
202212272300 METAR MROC 272300Z 08007KT 040V100 9999 FEW045 26/14 A2998 NOSIG=
202212280000 METAR MROC 280000Z 28005KT 240V040 9999 FEW035 SCT070 23/20 A3000 NOSIG=
202212280100 METAR MROC 280100Z 10007KT 080V150 9999 FEW030 SCT050 22/15 A3003 NOSIG=
202212280200 METAR MROC 280200Z 10007KT 060V130 9999 FEW035 21/16 A3005 NOSIG=
202212280300 METAR MROC 280300Z 13008KT 100V160 9999 FEW040 21/15 A3006 NOSIG=
202212280400 METAR MROC 280400Z 11009KT 080V140 CAVOK 21/15 A3006 NOSIG=
202212280500 METAR MROC 280500Z 12009KT 090V150 CAVOK 20/15 A3006 NOSIG=
202212280600 METAR MROC 280600Z 11009KT 080V140 CAVOK 20/15 A3004 NOSIG=
202212280700 METAR MROC 280700Z 01004KT CAVOK 20/14 A3003 NOSIG=
202212280800 METAR MROC 280800Z 06004KT 030V100 CAVOK 19/14 A3002 NOSIG=
202212280900 METAR MROC 280900Z 07006KT CAVOK 19/14 A3000 NOSIG=
202212281000 METAR MROC 281000Z 06007KT 030V100 CAVOK 19/13 A3001 NOSIG=
202212281100 METAR MROC 281100Z 06006KT 010V100 CAVOK 19/13 A3002 NOSIG=
202212281200 METAR MROC 281200Z 06007KT CAVOK 19/13 A3004 NOSIG=
202212281300 METAR MROC 281300Z 07008KT 020V160 CAVOK 21/13 A3007 NOSIG=
202212281400 METAR MROC 281400Z 12012KT 080V150 CAVOK 23/14 A3008 NOSIG=
202212281500 METAR MROC 281500Z 12010G20KT 090V150 CAVOK 24/14 A3009 NOSIG=
202212281600 METAR MROC 281600Z 13010G20KT 100V170 CAVOK 26/14 A3008 NOSIG=
202212281700 METAR MROC 281700Z 12012KT 080V170 CAVOK 27/14 A3006 NOSIG=
202212281800 METAR MROC 281800Z 10007G17KT 060V150 CAVOK 27/14 A3004 NOSIG=
202212281900 METAR MROC 281900Z 12011KT 060V170 CAVOK 28/13 A3002 NOSIG=
202212282000 METAR MROC 282000Z 20004KT 110V270 9999 FEW045 SCT200 27/18 A2999 NOSIG=
202212282100 METAR MROC 282100Z 25010KT 210V280 9999 FEW045 SCT200 26/19 A2999 NOSIG=
202212282200 METAR MROC 282200Z 23008KT 200V260 9999 FEW040 SCT200 25/19 A2999 NOSIG=
202212282300 METAR MROC 282300Z COR 24008KT 9999 SCT035 22/20 A3001 NOSIG=
202212290000 METAR MROC 290000Z 25006KT 9999 FEW015 BKN030 21/20 A3003 NOSIG=
202212290100 METAR MROC 290100Z 24004KT 9999 -RA FEW010 BKN020 21/20 A3006 NOSIG=
202212290200 METAR MROC 290200Z VRB02KT 9999 FEW010 SCT035 21/20 A3008 RERA NOSIG=
202212290300 METAR MROC 290300Z 27003KT 220V330 9999 FEW045 21/19 A3009 NOSIG=
202212290400 METAR MROC 290400Z 08003KT 040V100 9999 R07/0900N FEW035 SCT060 21/16 A3009 NOSIG=
202212290500 METAR MROC 290500Z 08008KT 9999 FEW040 SCT060 21/16 A3007 NOSIG=
202212290600 METAR MROC 290600Z VRB04KT 9999 FEW040 SCT060 20/16 A3006 NOSIG=
202212290700 METAR MROC 290700Z 05008KT 9999 FEW045 20/16 A3004 NOSIG=
202212290800 METAR MROC 290800Z 06006KT 010V100 9999 FEW045 20/16 A3001 NOSIG=
202212290900 METAR MROC 290900Z 06006KT 360V110 CAVOK 20/16 A3000 NOSIG=
202212291000 METAR MROC 291000Z 04005KT 010V090 CAVOK 20/16 A3001 NOSIG=
202212291100 METAR MROC 291100Z 11011KT CAVOK 20/16 A3001 NOSIG=
202212291200 METAR MROC 291200Z 11011KT 9999 FEW040 20/16 A3003 RMK VEL MAX VTO 19KT NOSIG=
202212291300 METAR MROC 291300Z 11011G21KT 9999 FEW045 SCT200 22/15 A3004 NOSIG=
202212291400 METAR MROC 291400Z 12011G24KT 090V150 9999 FEW045 SCT200 24/15 A3005 NOSIG=
202212291500 METAR MROC 291500Z 12013G23KT 090V150 CAVOK 25/15 A3006 NOSIG=
202212291600 METAR MROC 291600Z 12010G20KT 090V150 CAVOK 27/15 A3006 NOSIG=
202212291700 METAR MROC 291700Z 11010G20KT 080V140 CAVOK 27/15 A3004 NOSIG=
202212291800 METAR MROC 291800Z 11010G20KT 070V150 9999 FEW045 28/16 A3002 NOSIG=
202212291900 METAR MROC 291900Z 12008G18KT 090V180 9999 FEW045 29/16 A2998 NOSIG=
202212292000 METAR MROC 292000Z 11005G15KT 070V170 9999 FEW040 SCT060 28/16 A2996 NOSIG=
202212292100 METAR MROC 292100Z 13007KT 080V170 9999 BKN040 27/17 A2994 NOSIG=
202212292200 METAR MROC 292200Z 11013KT 080V140 9999 SCT045 27/16 A2994 NOSIG=
202212292300 METAR MROC 292300Z 11011KT 090V160 9999 SCT040 24/17 A2995 NOSIG=
202212300000 METAR MROC 300000Z 10003KT 040V180 9999 BKN040 23/17 A2998 NOSIG=
202212300100 METAR MROC 300100Z 10003KT 060V140 9999 FEW010 BKN040 23/18 A3000 NOSIG=
202212300200 METAR MROC 300200Z VRB03KT 9999 FEW010 SCT045 22/20 A3003 NOSIG=
202212300300 METAR MROC 300300Z 04003KT 350V100 9999 4000SW BCFG FEW010 21/20 A3004 NOSIG=
202212300400 METAR MROC 300400Z 07005KT 040V120 9999 FEW020 21/17 A3005 NOSIG=
202212300500 METAR MROC 300500Z 08004KT 030V150 9999 FEW020 20/18 A3004 NOSIG=
202212300600 METAR MROC 300600Z VRB02KT 9999 FEW015 20/18 A3003 NOSIG=
202212300700 METAR MROC 300700Z 09006KT 040V150 9999 FEW015 21/16 A3000 NOSIG=
202212300800 METAR MROC 300800Z 05007KT 360V070 9999 FEW030 21/17 A2999 NOSIG=
202212300900 METAR MROC 300900Z 05004KT 010V110 9999 FEW030 21/16 A2999 NOSIG=
202212301000 METAR MROC 301000Z 05005KT 020V090 9999 FEW030 20/16 A3000 NOSIG=
202212301100 METAR MROC 301100Z 07006KT 040V140 9999 FEW035 21/17 A3001 NOSIG=
202212301200 METAR MROC 301200Z 08007KT 050V130 9999 FEW040 21/16 A3003 NOSIG=
202212301300 METAR MROC 301300Z 09005KT 040V130 CAVOK 21/17 A3004 NOSIG=
202212301400 METAR MROC 301400Z 10009KT 080V150 CAVOK 22/17 A3006 NOSIG=
202212301500 METAR MROC 301500Z 11011KT 080V140 9999 FEW045 SCT130 23/17 A3006 NOSIG=
202212301600 METAR MROC 301600Z 12010G21KT 090V160 CAVOK 25/17 A3005 NOSIG=
202212301700 METAR MROC 301700Z 12013G23KT 090V150 9999 FEW045 27/17 A3003 NOSIG=
202212301800 METAR MROC 301800Z 11012KT 090V150 9999 FEW045 27/18 A3000 NOSIG=
202212301900 METAR MROC 301900Z 10011KT 070V130 9999 SCT045 26/17 A2997 NOSIG=
202212302000 METAR MROC 302000Z 11009KT 080V160 9999 BKN040 26/17 A2995 NOSIG=
202212302100 METAR MROC 302100Z 11006KT 050V210 9999 BKN030 26/17 A2995 NOSIG=
202212302200 METAR MROC 302200Z 10007KT 070V130 9999 BKN040 25/17 A2995 NOSIG=
202212302300 METAR MROC 302300Z 13006KT 070V170 9999 FEW040 SCT080 25/17 A2995 NOSIG=
202212310000 METAR MROC 310000Z 11007KT 080V140 9999 SCT040 22/17 A2998 NOSIG=
202212310100 METAR MROC 310100Z 12003KT 080V150 9999 FEW010 22/17 A3001 NOSIG=
202212310200 METAR MROC 310200Z 08006KT 050V110 9999 FEW010 22/17 A3004 NOSIG=
202212310300 METAR MROC 310300Z 09006KT 9999 FEW010 21/17 A3006 NOSIG=
202212310400 METAR MROC 310400Z 07010KT CAVOK 21/14 A3006 NOSIG=
202212310500 METAR MROC 310500Z 07006KT CAVOK 20/13 A3005 NOSIG=
202212310600 METAR MROC 310600Z 09006KT 060V120 CAVOK 19/14 A3004 NOSIG=
202212310700 METAR MROC 310700Z 09009KT 060V120 CAVOK 19/15 A3003 NOSIG=
202212310800 METAR MROC 310800Z 05009KT CAVOK 19/15 A3002 NOSIG=
202212310900 METAR MROC 310900Z 07010KT CAVOK 18/15 A3001 NOSIG=
202212311000 METAR MROC 311000Z 07007KT CAVOK 18/14 A3001 NOSIG=
202212311100 METAR MROC 311100Z 08009KT 040V110 CAVOK 19/15 A3002 NOSIG=
202212311200 METAR MROC 311200Z 07008KT 040V100 CAVOK 19/15 A3004 NOSIG=
202212311300 METAR MROC 311300Z 02009KT CAVOK 20/12 A3006 NOSIG=
202212311400 METAR MROC 311400Z 11011KT 090V150 CAVOK 24/13 A3006 NOSIG=
202212311500 METAR MROC 311500Z 11014KT CAVOK 26/12 A3007 NOSIG=
202212311600 METAR MROC 311600Z 12010G21KT 070V150 CAVOK 28/14 A3006 NOSIG=
202212311700 METAR MROC 311700Z 09013KT 060V120 CAVOK 29/13 A3004 NOSIG=
202212311800 METAR MROC 311800Z 10008KT 040V140 CAVOK 29/14 A3003 NOSIG=
202212311900 METAR MROC 311900Z 10008KT 070V160 CAVOK 29/14 A3000 NOSIG=
202212312000 METAR MROC 312000Z 26012KT 220V290 CAVOK 26/19 A2998 NOSIG=
202212312100 METAR MROC 312100Z 24010KT 9999 FEW035 SCT050 26/19 A2998 NOSIG=
202212312200 METAR MROC 312200Z 25010KT 9999 FEW030 SCT060 25/20 A3000 NOSIG=
202212312300 METAR MROC 312300Z 24008KT 220V280 9999 FEW025 SCT060 23/20 A3002 NOSIG=
