202101010000 METAR MRLM 010000Z 08007KT CAVOK 27/23 A2987=
202101010100 METAR MRLM NIL=
202101010200 METAR MRLM NIL=
202101010300 METAR MRLM NIL=
202101010400 METAR MRLM NIL=
202101010500 METAR MRLM NIL=
202101010600 METAR MRLM NIL=
202101010700 METAR MRLM NIL=
202101010800 METAR MRLM NIL=
202101010900 METAR MRLM NIL=
202101011000 METAR MRLM NIL=
202101011100 METAR MRLM NIL=
202101011200 METAR MRLM 011200Z 25002KT 8000 FEW015 BKN090 22/21 A2992=
202101011300 METAR MRLM 011300Z 31002KT 8000 FEW015 BKN090 23/22 A2994=
202101011400 METAR MRLM 011400Z 24004KT 9000 FEW015 BKN090 24/23 A2996=
202101011500 METAR MRLM 011500Z 20005KT 9999 -DZ VCSH FEW015TCU BKN090 24/23 A2998=
202101011600 METAR MRLM 011600Z 18005KT 9999 FEW015 BKN090 25/24 A2997=
202101011700 METAR MRLM 011700Z 21007KT CAVOK 28/23 A2994=
202101011800 METAR MRLM 011800Z 19004KT 9999 FEW025 29/22 A2991=
202101011900 METAR MRLM 011900Z 10007KT 9999 FEW025 30/23 A2988=
202101012000 METAR MRLM 012000Z 10009KT CAVOK 30/23 A2986=
202101012100 METAR MRLM 012100Z 07010KT CAVOK 30/23 A2985=
202101012200 METAR MRLM 012200Z 08010KT 9999 FEW020 BKN120 29/23 A2987=
202101012300 METAR MRLM 012300Z 08011KT 9999 VCSH FEW020TCU SCT120 BKN220 28/23 A2988=
202101020000 METAR MRLM 020000Z 10007KT 9999 FEW015 BKN100 28/24 A2989=
202101020100 METAR MRLM NIL=
202101020200 METAR MRLM NIL=
202101020300 METAR MRLM NIL=
202101020400 METAR MRLM NIL=
202101020500 METAR MRLM NIL=
202101020600 METAR MRLM NIL=
202101020700 METAR MRLM NIL=
202101020800 METAR MRLM NIL=
202101020900 METAR MRLM NIL=
202101021000 METAR MRLM NIL=
202101021100 METAR MRLM NIL=
202101021200 METAR MRLM 021200Z 25004KT 8000 VCSH FEW015TCU BKN090 23/22 A2992=
202101021300 METAR MRLM 021300Z 21005KT 9000 FEW015TCU BKN090 23/22 A2994=
202101021400 METAR MRLM 021400Z 24003KT 9999 FEW015TCU BKN090 25/23 A2995=
202101021500 METAR MRLM 021500Z 24003KT 9999 FEW020 SCT100 27/23 A2995=
202101021600 METAR MRLM 021600Z 19002KT 9999 FEW020 SCT100 29/24 A2995=
202101021700 METAR MRLM 021700Z 08006KT 9999 FEW020 BKN100 28/24 A2993=
202101021800 METAR MRLM 021800Z 07005KT 9999 FEW020 BKN120 28/24 A2990=
202101021900 METAR MRLM 021900Z 03006KT 9999 FEW020 SCT120 29/23 A2987=
202101022000 METAR MRLM 022000Z 02007KT CAVOK 29/23 A2986=
202101022100 METAR MRLM 022100Z 01007KT CAVOK 29/23 A2985=
202101022200 METAR MRLM 022200Z 03013KT CAVOK 27/24 A2987=
202101022300 METAR MRLM 022300Z 01008KT CAVOK 27/22 A2987=
202101030000 METAR MRLM 030000Z 26004KT CAVOK 25/22 A2988=
202101030100 METAR MRLM NIL=
202101030200 METAR MRLM NIL=
202101030300 METAR MRLM NIL=
202101030400 METAR MRLM NIL=
202101030500 METAR MRLM NIL=
202101030600 METAR MRLM NIL=
202101030700 METAR MRLM NIL=
202101030800 METAR MRLM NIL=
202101030900 METAR MRLM NIL=
202101031000 METAR MRLM NIL=
202101031100 METAR MRLM NIL=
202101031200 METAR MRLM 031200Z 00000KT 9999 3000N +DZ SCT010 BKN200 22/21 A2991=
202101031300 METAR MRLM 031300Z 00000KT 9999 3000N +DZ SCT010 BKN200 22/21 A2991=
202101031400 METAR MRLM 031400Z 00000KT 9999 DZ SCT015 BKN110 23/22 A2996=
202101031500 METAR MRLM 031500Z 24003KT 8000 3000SE DZ FEW015 BKN110 23/23 A2996=
202101031600 METAR MRLM 031600Z 16004KT 3000 RA SCT015 BKN100 25/23 A2996=
202101031700 METAR MRLM 031700Z 21005KT 9999 FEW015 BKN110 25/23 A2993 RERA=
202101031800 METAR MRLM 031800Z 19006KT 9999 FEW020 BKN130 26/23 A2990=
202101031900 METAR MRLM 031900Z 21005KT CAVOK 29/23 A2987=
202101032000 METAR MRLM 032000Z 09005KT 9999 FEW030 29/24 A2985=
202101032100 METAR MRLM 032100Z 04005KT CAVOK 29/24 A2983=
202101032200 METAR MRLM 032200Z 04005KT CAVOK 28/23 A2983=
202101032300 METAR MRLM 032300Z 07006KT CAVOK 28/24 A2984=
202101040000 METAR MRLM 040000Z 23004KT CAVOK 27/23 A2987=
202101040100 METAR MRLM NIL=
202101040200 METAR MRLM NIL=
202101040300 METAR MRLM NIL=
202101040400 METAR MRLM NIL=
202101040500 METAR MRLM NIL=
202101040600 METAR MRLM NIL=
202101040700 METAR MRLM NIL=
202101040800 METAR MRLM NIL=
202101040900 METAR MRLM NIL=
202101041000 METAR MRLM NIL=
202101041100 METAR MRLM NIL=
202101041200 METAR MRLM 041200Z 14005KT 6000 DZ BKN015 23/22 A2990=
202101041300 METAR MRLM 041300Z 22004KT 9999 BKN020 24/22 A2992 REDZ=
202101041400 METAR MRLM 041400Z 25004KT 9999 SCT020 BKN120 25/23 A2994=
202101041500 METAR MRLM 041500Z 26004KT 9999 4000N RA SCT015 BKN120 28/23 A2994=
202101041600 METAR MRLM 041600Z 00000KT 9999 SCT015 25/23 A2995 RERA=
202101041700 METAR MRLM 041700Z 26003KT 9999 FEW020 SCT130 27/24 A2993=
202101041800 METAR MRLM 041800Z 00000KT 9999 SCT020 28/24 A2990=
202101041900 METAR MRLM 041900Z 16004KT 9999 FEW025 SCT130 28/24 A2987=
202101042000 METAR MRLM 042000Z 06003KT 9999 FEW025 28/23 A2985=
202101042100 METAR MRLM 042100Z 05004KT CAVOK 28/23 A2984=
202101042200 METAR MRLM 042200Z 00000KT 9999 SCT025 28/23 A2985=
202101042300 METAR MRLM 042300Z 16004KT 9999 BKN020 26/23 A2987=
202101050000 METAR MRLM 050000Z 22003KT 9999 FEW015 SCT100 25/23 A2990=
202101050100 METAR MRLM NIL=
202101050200 METAR MRLM NIL=
202101050300 METAR MRLM NIL=
202101050400 METAR MRLM NIL=
202101050500 METAR MRLM NIL=
202101050600 METAR MRLM NIL=
202101050700 METAR MRLM NIL=
202101050800 METAR MRLM NIL=
202101050900 METAR MRLM NIL=
202101051000 METAR MRLM NIL=
202101051100 METAR MRLM NIL=
202101051200 METAR MRLM 051200Z 23003KT CAVOK 21/19 A2991=
202101051300 METAR MRLM 051300Z 23003KT CAVOK 22/20 A2992=
202101051400 METAR MRLM 051400Z 27003KT CAVOK 24/21 A2995=
202101051500 METAR MRLM 051500Z 29004KT CAVOK 25/21 A2994=
202101051600 METAR MRLM 051600Z 27005KT CAVOK 26/20 A2994=
202101051700 METAR MRLM 051700Z 26003KT CAVOK 28/22 A2991=
202101051800 METAR MRLM 051800Z 02006KT CAVOK 28/22 A2987=
202101051900 METAR MRLM 051900Z 36008KT CAVOK 28/22 A2984=
202101052000 METAR MRLM 052000Z 36008KT 9999 FEW025 SCT120 28/22 A2983=
202101052100 METAR MRLM 052100Z 01011KT 9999 FEW025 SCT120 28/23 A2983=
202101052200 METAR MRLM 052200Z 03006KT CAVOK 27/22 A2984=
202101052300 METAR MRLM 052300Z 03004KT CAVOK 27/22 A2985=
202101060000 METAR MRLM 060000Z 23003KT CAVOK 25/23 A2987=
202101060100 METAR MRLM NIL=
202101060200 METAR MRLM NIL=
202101060300 METAR MRLM NIL=
202101060400 METAR MRLM NIL=
202101060500 METAR MRLM NIL=
202101060600 METAR MRLM NIL=
202101060700 METAR MRLM NIL=
202101060800 METAR MRLM NIL=
202101060900 METAR MRLM NIL=
202101061000 METAR MRLM NIL=
202101061100 METAR MRLM NIL=
202101061200 METAR MRLM 061200Z 22005KT CAVOK 20/19 A2993=
202101061300 METAR MRLM 061300Z 21005KT CAVOK 21/20 A2994=
202101061400 METAR MRLM 061400Z 22005KT CAVOK 23/21 A2995=
202101061500 METAR MRLM 061500Z 23004KT CAVOK 24/22 A2996=
202101061600 METAR MRLM 061600Z 08002KT 9999 FEW020 BKN200 26/21 A2996=
202101061700 METAR MRLM 061700Z 05003KT 9999 FEW020 BKN200 27/22 A2993=
202101061800 METAR MRLM 061800Z 05006KT 9999 FEW025 SCT220 27/22 A2991=
202101061900 METAR MRLM 061900Z 04005KT 9999 FEW025 SCT220 28/22 A2987=
202101062000 METAR MRLM 062000Z 05006KT 9999 FEW025 SCT220 28/23 A2985=
202101062100 METAR MRLM 062100Z 05005KT 9999 FEW025 SCT220 27/22 A2984=
202101062200 METAR MRLM 062200Z 06005KT CAVOK 27/22 A2985=
202101062300 METAR MRLM 062300Z 07004KT 9999 FEW020 SCT220 27/22 A2987=
202101070000 METAR MRLM 070000Z 21004KT CAVOK 24/22 A2988=
202101070100 METAR MRLM NIL=
202101070200 METAR MRLM NIL=
202101070300 METAR MRLM NIL=
202101070400 METAR MRLM NIL=
202101070500 METAR MRLM NIL=
202101070600 METAR MRLM NIL=
202101070700 METAR MRLM NIL=
202101070800 METAR MRLM NIL=
202101070900 METAR MRLM NIL=
202101071000 METAR MRLM NIL=
202101071100 METAR MRLM NIL=
202101071200 METAR MRLM 071200Z 24005KT CAVOK 19/18 A2994=
202101071300 METAR MRLM 071300Z 23005KT CAVOK 20/19 A2997=
202101071400 METAR MRLM 071400Z 23005KT CAVOK 24/20 A2999=
202101071500 METAR MRLM 071500Z 00000KT CAVOK 27/22 A2998=
202101071600 METAR MRLM 071600Z 06003KT 9999 FEW030 BKN240 28/22 A2998=
202101071700 METAR MRLM 071700Z 05005KT CAVOK 27/22 A2995=
202101071800 METAR MRLM 071800Z 03006KT CAVOK 28/22 A2993=
202101071900 METAR MRLM 071900Z 02005KT CAVOK 27/22 A2989=
202101072000 METAR MRLM 072000Z 02007KT CAVOK 28/22 A2987=
202101072100 METAR MRLM 072100Z 01007KT CAVOK 28/22 A2987=
202101072200 METAR MRLM 072200Z 02006KT CAVOK 28/22 A2987=
202101072300 METAR MRLM 072300Z 35006KT 9999 FEW030 SCT240 28/22 A2989=
202101080000 METAR MRLM 080000Z 33005KT 9999 FEW020 BKN240 26/22 A2992=
202101080100 METAR MRLM NIL=
202101080200 METAR MRLM NIL=
202101080300 METAR MRLM NIL=
202101080400 METAR MRLM NIL=
202101080500 METAR MRLM NIL=
202101080600 METAR MRLM NIL=
202101080700 METAR MRLM NIL=
202101080800 METAR MRLM NIL=
202101080900 METAR MRLM NIL=
202101081000 METAR MRLM NIL=
202101081100 METAR MRLM NIL=
202101081200 METAR MRLM 081200Z 23006KT 9999 FEW020 BKN120 21/20 A2994=
202101081300 METAR MRLM 081300Z 22005KT CAVOK 22/21 A2996=
202101081400 METAR MRLM 081400Z 23005KT CAVOK 25/21 A2999=
202101081500 METAR MRLM 081500Z 21004KT CAVOK 27/21 A2999=
202101081600 METAR MRLM 081600Z 07004KT 9999 FEW030 28/22 A2998=
202101081700 METAR MRLM 081700Z 06004KT CAVOK 29/22 A2997=
202101081800 METAR MRLM 081800Z 05005KT CAVOK 29/23 A2994=
202101081900 METAR MRLM 081900Z 05006KT 9999 FEW025 SCT130 28/23 A2989=
202101082000 METAR MRLM 082000Z 04005KT CAVOK 28/23 A2987=
202101082100 METAR MRLM 082100Z 04004KT CAVOK 28/23 A2987=
202101082200 METAR MRLM 082200Z 02004KT CAVOK 28/23 A2988=
202101082300 METAR MRLM 082300Z 00000KT 9999 FEW020 BKN130 27/23 A2989=
202101090000 METAR MRLM 090000Z 00000KT 9999 FEW020 BKN120 27/23 A2991=
202101090100 METAR MRLM NIL=
202101090200 METAR MRLM NIL=
202101090300 METAR MRLM NIL=
202101090400 METAR MRLM NIL=
202101090500 METAR MRLM NIL=
202101090600 METAR MRLM NIL=
202101090700 METAR MRLM NIL=
202101090800 METAR MRLM NIL=
202101090900 METAR MRLM NIL=
202101091000 METAR MRLM NIL=
202101091100 METAR MRLM NIL=
202101091200 METAR MRLM 091200Z 27002KT 9999 FEW015 SCT200 20/20 A2993=
202101091300 METAR MRLM 091300Z 25003KT 9999 FEW015 SCT200 22/21 A2995=
202101091400 METAR MRLM 091400Z 22005KT 9999 FEW020 25/22 A2998=
202101091500 METAR MRLM 091500Z 25003KT 9999 FEW020 28/23 A2998=
202101091600 METAR MRLM 091600Z 03005KT 9999 FEW020 28/23 A2997=
202101091700 METAR MRLM 091700Z 03007KT 9999 FEW030 29/23 A2996=
202101091800 METAR MRLM 091800Z 03006KT CAVOK 29/23 A2992=
202101091900 METAR MRLM 091900Z 36010KT CAVOK 29/23 A2990=
202101092000 METAR MRLM 092000Z 02007KT 9999 FEW025 BKN120 28/24 A2988=
202101092100 METAR MRLM 092100Z 04014KT 9999 FEW020 OVC120 26/23 A2987=
202101092200 METAR MRLM 092200Z 02007KT 9999 FEW020 BKN120 27/23 A2987=
202101092300 METAR MRLM 092300Z 02004KT 9999 FEW020 BKN100 27/22 A2989=
202101100000 METAR MRLM 100000Z 03009KT 9999 FEW015 BKN100 26/22 A2990=
202101100100 METAR MRLM NIL=
202101100200 METAR MRLM NIL=
202101100300 METAR MRLM NIL=
202101100400 METAR MRLM NIL=
202101100500 METAR MRLM NIL=
202101100600 METAR MRLM NIL=
202101100700 METAR MRLM NIL=
202101100800 METAR MRLM NIL=
202101100900 METAR MRLM NIL=
202101101000 METAR MRLM NIL=
202101101100 METAR MRLM NIL=
202101101200 METAR MRLM 101200Z 27005KT 8000 -DZ SCT015 OVC090 22/22 A2991=
202101101300 METAR MRLM 101300Z 28004KT 7000 -DZ FEW015 OVC080 22/22 A2993=
202101101400 METAR MRLM 101400Z 24003KT 6000 DZ FEW015 OVC080 23/22 A2996=
202101101500 METAR MRLM 101500Z 28005KT 8000 -DZ FEW015 OVC080 23/22 A2997=
202101101600 METAR MRLM 101600Z 31005KT 9999 -DZ FEW015 BKN090 24/23 A2996=
202101101700 METAR MRLM 101700Z 29006KT 9999 SCT015 OVC090 25/23 A2996 REDZ=
202101101800 METAR MRLM 101800Z 28005KT 9999 FEW020 BKN100 26/23 A2994=
202101101900 METAR MRLM 101900Z 35006KT 9999 FEW020 BKN100 26/23 A2991=
202101102000 METAR MRLM 102000Z 36005KT 9999 FEW020 OVC100 25/22 A2989=
202101102100 METAR MRLM 102100Z 36005KT 9999 FEW020 BKN100 26/22 A2988=
202101102200 METAR MRLM 102200Z 28004KT 9999 FEW020 BKN100 26/22 A2987=
202101102300 METAR MRLM 102300Z 25002KT 9999 FEW020 BKN100 25/22 A2989=
202101110000 METAR MRLM 110000Z 16002KT 9999 FEW015 SCT100 BKN200 24/23 A2990=
202101110100 METAR MRLM NIL=
202101110200 METAR MRLM NIL=
202101110300 METAR MRLM NIL=
202101110400 METAR MRLM NIL=
202101110500 METAR MRLM NIL=
202101110600 METAR MRLM NIL=
202101110700 METAR MRLM NIL=
202101110800 METAR MRLM NIL=
202101110900 METAR MRLM NIL=
202101111000 METAR MRLM NIL=
202101111100 METAR MRLM NIL=
202101111200 METAR MRLM 111200Z 23004KT 9999 FEW015 BKN090 22/22 A2991=
202101111300 METAR MRLM 111300Z 26004KT CAVOK 23/22 A2991=
202101111400 METAR MRLM 111400Z 28004KT CAVOK 26/23 A2993=
202101111500 METAR MRLM 111500Z 28003KT 9999 FEW020 BKN120 28/23 A2995=
202101111600 METAR MRLM 111600Z 36005KT 9999 FEW020 BKN120 28/23 A2995=
202101111700 METAR MRLM 111700Z 01011KT 2000 RA BKN015 24/23 A2997=
202101111800 METAR MRLM 111800Z 20005KT 6000 DZ SCT015 BKN100 24/22 2993=
202101111900 METAR MRLM 111900Z 24004KT 6000 DZ SCT015 BKN100 24/23 2991=
202101112000 METAR MRLM 112000Z 22004KT 9999 DZ SCT020 BKN100 25/24 2990=
202101112100 METAR MRLM 112100Z 26004KT 9999 DZ FEW020 BKN110 26/24 2985=
202101112200 METAR MRLM 112200Z 00000KT 9999 FEW015 BKN120 26/22 2986 REDZ=
202101112300 METAR MRLM 112300Z 00000KT 9999 FEW015 SCT130 26/25 A2988=
202101120000 METAR MRLM 120000Z 32004KT 9999 4000N DZ FEW015 BKN110 25/24 2989=
202101120100 METAR MRLM NIL=
202101120200 METAR MRLM NIL=
202101120300 METAR MRLM NIL=
202101120400 METAR MRLM NIL=
202101120500 METAR MRLM NIL=
202101120600 METAR MRLM NIL=
202101120700 METAR MRLM NIL=
202101120800 METAR MRLM NIL=
202101120900 METAR MRLM NIL=
202101121000 METAR MRLM NIL=
202101121100 METAR MRLM NIL=
202101121200 METAR MRLM 121200Z 31003KT 2000 TS +DZ FEW010CB BKN015 24/24 2991=
202101121300 METAR MRLM 121300Z 22004KT 3000 RA VCTS SCT015 OVC080 23/23 2992=
202101121400 METAR MRLM 121400Z 22004KT 1000 TS RA FEW010CB OVC015 23/23 2994=
202101121500 METAR MRLM 121500Z 27004KT 4000 RA VCTS BKN015 23/23 2995=
202101121600 METAR MRLM 121600Z 27004KT 3000 -RA BKN010 23/23 2996=
202101121700 METAR MRLM 121700Z 23006KT 3000 RA BKN010 24/23 2995=
202101121800 METAR MRLM 121800Z 24005KT 7000 DZ FEW015 OVC100 24/23 2993 RERA=
202101121900 METAR MRLM 121900Z 25003KT 7000 3000N DZ SCT015 OVC110 25/24 2988=
202101122000 METAR MRLM 122000Z 16003KT 7000 3000N RA SCT010 OVC100 25/24 2986=
202101122100 METAR MRLM 122100Z 23004KT 8000 3000N DZ SCT010 OVC100 25/24 2985 RERA=
202101122200 METAR MRLM 122200Z 24004KT 9999 SCT015 BKN110 26/24 2985 REDZ=
202101122300 METAR MRLM 122300Z 00000KT 9999 VCSH SCT007 BKN110 26/24 2986=
202101130000 METAR MRLM 130000Z 00000KT 9999 BKN010 26/24 2988=
202101130100 METAR MRLM NIL=
202101130200 METAR MRLM NIL=
202101130300 METAR MRLM NIL=
202101130400 METAR MRLM NIL=
202101130500 METAR MRLM NIL=
202101130600 METAR MRLM NIL=
202101130700 METAR MRLM NIL=
202101130800 METAR MRLM NIL=
202101130900 METAR MRLM NIL=
202101131000 METAR MRLM NIL=
202101131100 METAR MRLM NIL=
202101131200 METAR MRLM 131200Z 23005KT 5000 -DZ VCSH FEW015TCU BKN090 23/22 A2990=
202101131300 METAR MRLM 131300Z 30003KT 5000 +DZ VCSH FEW015TCU OVC090 23/22 A2993=
202101131400 METAR MRLM 131400Z 22006KT 8000 FEW015 BKN090 23/22 A2995 REDZ=
202101131500 METAR MRLM 131500Z 23005KT 9000 FEW020 BKN100 25/23 A2995=
202101131600 METAR MRLM 131600Z 23005KT 9999 FEW020 SCT100 28/23 A2994=
202101131700 METAR MRLM 131700Z 09003KT 9999 FEW020TCU SCT200 28/24 A2992=
202101131800 METAR MRLM 131800Z 03005KT 9999 FEW020 SCT220 29/23 A2990=
202101131900 METAR MRLM 131900Z 02005KT 9000 VCSH FEW020TCU BKN120 29/23 A2996=
202101132000 METAR MRLM 132000Z 03013KT 9000 VCSH FEW020TCU BKN100 26/23 A2984=
202101132100 METAR MRLM 132100Z 01010KT 9999 FEW020 BKN100 28/22 A2982=
202101132200 METAR MRLM 132200Z 36008KT 9999 FEW020 BKN100 27/23 A2983=
202101132300 METAR MRLM 132300Z 30002KT CAVOK 26/22 A2984=
202101140000 METAR MRLM 140000Z 24004KT CAVOK 25/23 A2984=
202101140100 METAR MRLM NIL=
202101140200 METAR MRLM NIL=
202101140300 METAR MRLM NIL=
202101140400 METAR MRLM NIL=
202101140500 METAR MRLM NIL=
202101140600 METAR MRLM NIL=
202101140700 METAR MRLM NIL=
202101140800 METAR MRLM NIL=
202101140900 METAR MRLM NIL=
202101141000 METAR MRLM NIL=
202101141100 METAR MRLM NIL=
202101141200 METAR MRLM 141200Z 24002KT 8000 VCSH FEW015TCU BKN090 23/21 A2988=
202101141300 METAR MRLM 141300Z 23002KT 9999 VCSH FEW015TCU BKN090 23/22 A2990=
202101141400 METAR MRLM 141400Z 24003KT 9999 FEW015 BKN090 25/22 A2991=
202101141500 METAR MRLM 141500Z 30003KT 9999 FEW020 BKN100 28/23 A2991=
202101141600 METAR MRLM 141600Z 32007KT 9999 FEW020 BKN100 28/22 A2991=
202101141700 METAR MRLM 141700Z 32006KT 9999 FEW020 BKN100 28/23 A2990=
202101141800 METAR MRLM 141800Z 36006KT 9999 FEW025 BKN120 28/24 A2987=
202101141900 METAR MRLM 141900Z 01007KT CAVOK 28/24 A2984=
202101142000 METAR MRLM 142000Z 02006KT 9999 FEW025 SCT120 28/23 A2982=
202101142100 METAR MRLM 142100Z 36009KT 9999 FEW020 SCT120 28/24 A2981=
202101142200 METAR MRLM 142200Z 36007KT 9999 FEW020 SCT120 28/24 A2982=
202101142300 METAR MRLM 142300Z 34008KT 9999 FEW020 SCT220 27/23 A2983=
202101150000 METAR MRLM 150000Z 33007KT 9999 FEW015 SCT200 26/23 A2985=
202101150100 METAR MRLM NIL=
202101150200 METAR MRLM NIL=
202101150300 METAR MRLM NIL=
202101150400 METAR MRLM NIL=
202101150500 METAR MRLM NIL=
202101150600 METAR MRLM NIL=
202101150700 METAR MRLM NIL=
202101150800 METAR MRLM NIL=
202101150900 METAR MRLM NIL=
202101151000 METAR MRLM NIL=
202101151100 METAR MRLM NIL=
202101151200 METAR MRLM 151200Z 00000KT 9999 BKN010 23/22 2988=
202101151300 METAR MRLM 151300Z 22003KT 9999 DZ SCT015 BKN100 23/22 2992=
202101151400 METAR MRLM 151400Z 24008KT CAVOK 23/22 2992 REDZ=
202101151500 METAR MRLM 151500Z 23005KT CAVOK 25/22 2993=
202101151600 METAR MRLM 151600Z 21005KT CAVOK 27/22 2992=
202101151700 METAR MRLM 151700Z 34003KT CAVOK 28/23 2989=
202101151800 METAR MRLM 151800Z 03004KT CAVOK 28/23 2988=
202101151900 METAR MRLM 151900Z 03009KT CAVOK 29/22 2984=
202101152000 METAR MRLM 152000Z 01008KT CAVOK 29/22 2982=
202101152100 METAR MRLM 152100Z 03010KT CAVOK 29/22 2982=
202101152200 METAR MRLM 152200Z 03007KT CAVOK 28/22 2982=
202101152300 METAR MRLM 152300Z 00000KT CAVOK 28/22 2983=
202101160000 METAR MRLM 160000Z 00000KT CAVOK 26/22 2985=
202101160100 METAR MRLM NIL=
202101160200 METAR MRLM NIL=
202101160300 METAR MRLM NIL=
202101160400 METAR MRLM NIL=
202101160500 METAR MRLM NIL=
202101160600 METAR MRLM NIL=
202101160700 METAR MRLM NIL=
202101160800 METAR MRLM NIL=
202101160900 METAR MRLM NIL=
202101161000 METAR MRLM NIL=
202101161100 METAR MRLM NIL=
202101161200 METAR MRLM 161200Z 25004KT 9999 FEW010 BKN130 22/21 2991=
202101161300 METAR MRLM 161300Z 24004KT CAVOK 24/22 2993=
202101161400 METAR MRLM 161400Z 25003KT 9999 BKN015 25/23 2995=
202101161500 METAR MRLM 161500Z 00000KT 9999 SCT020 BKN100 26/23 A2997=
202101161600 METAR MRLM 161600Z 00000KT 9999 FEW020 BKN240 29/22 A2996=
202101161700 METAR MRLM 161700Z 02006KT 9999 FEW020 SCT240 29/23 A2995=
202101161800 METAR MRLM 161800Z 02006KT 9999 FEW020 SCT140 29/23 A2994=
202101161900 METAR MRLM 161900Z 02006KT CAVOK 29/23 A2990=
202101162000 METAR MRLM 162000Z 02006KT 9999 FEW020 SCT240 29/22 A2988=
202101162100 METAR MRLM 162100Z 03005KT 9999 FEW010TCU FEW020 SCT240 29/23 A2986=
202101162200 METAR MRLM 162200Z 03005KT 9999 FEW020 SCT240 29/23 A2987=
202101162300 METAR MRLM 162300Z 00000KT CAVOK 28/22 A2988=
202101170000 METAR MRLM 170000Z 00000KT CAVOK 27/21 A2990=
202101170100 METAR MRLM NIL=
202101170200 METAR MRLM NIL=
202101170300 METAR MRLM NIL=
202101170400 METAR MRLM NIL=
202101170500 METAR MRLM NIL=
202101170600 METAR MRLM NIL=
202101170700 METAR MRLM NIL=
202101170800 METAR MRLM NIL=
202101170900 METAR MRLM NIL=
202101171000 METAR MRLM NIL=
202101171100 METAR MRLM NIL=
202101171200 METAR MRLM 171200Z 23004KT CAVOK 20/19 A2988=
202101171300 METAR MRLM 171300Z 22005KT CAVOK 22/20 A2990=
202101171400 METAR MRLM 171400Z 23004KT CAVOK 26/21 A2992=
202101171500 METAR MRLM 171500Z 07003KT 9999 FEW030 28/22 A2992=
202101171600 METAR MRLM 171600Z 06004KT 9999 FEW030 28/23 A2993=
202101171700 METAR MRLM 171700Z 04006KT 9999 FEW030 28/23 A2992=
202101171800 METAR MRLM 171800Z 05005KT 9999 FEW030 28/23 A2989=
202101171900 METAR MRLM 171900Z 05005KT 9999 FEW030 28/23 A2986=
202101172000 METAR MRLM 172000Z 04006KT 9999 FEW030 28/23 A2983=
202101172100 METAR MRLM 172100Z 05006KT CAVOK 28/22 A2982=
202101172200 METAR MRLM 172200Z 04005KT CAVOK 28/22 A2982=
202101172300 METAR MRLM 172300Z 03003KT CAVOK 27/22 A2984=
202101180000 METAR MRLM 180000Z 00000KT CAVOK 25/22 A2985=
202101180100 METAR MRLM NIL=
202101180200 METAR MRLM NIL=
202101180300 METAR MRLM NIL=
202101180400 METAR MRLM NIL=
202101180500 METAR MRLM NIL=
202101180600 METAR MRLM NIL=
202101180700 METAR MRLM NIL=
202101180800 METAR MRLM NIL=
202101180900 METAR MRLM NIL=
202101181000 METAR MRLM NIL=
202101181100 METAR MRLM NIL=
202101181200 METAR MRLM 181200Z 24005KT CAVOK 20/19 A2991=
202101181300 METAR MRLM 181300Z 24005KT CAVOK 21/20 A2993=
202101181400 METAR MRLM 181400Z 23004KT CAVOK 24/21 A2996=
202101181500 METAR MRLM 181500Z 25003KT 9999 FEW020 SCT120 28/21 A2996=
202101181600 METAR MRLM 181600Z 01009KT 9999 FEW020 BKN120 28/22 A2997=
202101181700 METAR MRLM 181700Z 02007KT 9999 FEW020 OVC120 26/22 A2996=
202101181800 METAR MRLM 181800Z 00000KT 9999 FEW020 OVC100 27/22 A2993=
202101181900 METAR MRLM 181900Z 13007KT 9999 FEW020 BKN100 27/21 A2989=
202101182000 METAR MRLM 182000Z 20004KT 9999 FEW020 BKN100 27/22 A2987=
202101182100 METAR MRLM 182100Z 22003KT CAVOK 27/22 A2986=
202101182200 METAR MRLM 182200Z 08002KT 9999 FEW025 SCT120 28/22 A2986=
202101182300 METAR MRLM 182300Z 15006KT 9999 FEW025 SCT120 26/22 A2988=
202101190000 METAR MRLM 190000Z 17003KT 9999 FEW020 25/21 A2989=
202101190100 METAR MRLM NIL=
202101190200 METAR MRLM NIL=
202101190300 METAR MRLM NIL=
202101190400 METAR MRLM NIL=
202101190500 METAR MRLM NIL=
202101190600 METAR MRLM NIL=
202101190700 METAR MRLM NIL=
202101190800 METAR MRLM NIL=
202101190900 METAR MRLM NIL=
202101191000 METAR MRLM NIL=
202101191100 METAR MRLM NIL=
202101191200 METAR MRLM 191200Z 33004KT 9999 SCT015 BKN090 22/19 A2991=
202101191300 METAR MRLM 191300Z 23003KT 9999 FEW015 BKN110 22/20 A2992=
202101191400 METAR MRLM 191400Z 32005KT 9999 FEW015 BKN110 23/20 A2997=
202101191500 METAR MRLM 191500Z 20003KT CAVOK 26/21 A2996=
202101191600 METAR MRLM 191600Z 10005KT CAVOK 28/20 A2995=
202101191700 METAR MRLM 191700Z 09005KT CAVOK 28/21 A2992=
202101191800 METAR MRLM 191800Z 07007KT CAVOK 28/21 A2991=
202101191900 METAR MRLM 191900Z 05010KT 9999 FEW020 BKN120 28/22 A2989=
202101192000 METAR MRLM 192000Z 02006KT CAVOK 28/22 A2987=
202101192100 METAR MRLM 192100Z 09006KT CAVOK 28/23 A2987=
202101192200 METAR MRLM 192200Z 13008KT 9999 FEW025 BKN120 28/21 A2988=
202101192300 METAR MRLM 192300Z 21003KT 9999 BKN020 26/20 A2989=
202101200000 METAR MRLM 200000Z 22004KT 9999 DZ BKN015 25/21 A2990=
202101200100 METAR MRLM NIL=
202101200200 METAR MRLM NIL=
202101200300 METAR MRLM NIL=
202101200400 METAR MRLM NIL=
202101200500 METAR MRLM NIL=
202101200600 METAR MRLM NIL=
202101200700 METAR MRLM NIL=
202101200800 METAR MRLM NIL=
202101200900 METAR MRLM NIL=
202101201000 METAR MRLM NIL=
202101201100 METAR MRLM NIL=
202101201200 METAR MRLM 201200Z 21005KT 9999 FEW015 BKN100 23/22 A2993=
202101201300 METAR MRLM 201300Z 23004KT 9999 SCT020 23/22 A2995=
202101201400 METAR MRLM 201400Z 21006KT CAVOK 26/23 A2996=
202101201500 METAR MRLM 201500Z 20005KT CAVOK 29/23 A2996=
202101201600 METAR MRLM 201600Z 18004KT 9999 FEW030 SCT140 29/22 A2995=
202101201700 METAR MRLM 201700Z 12007KT 9999 FEW030 SCT120 29/23 A2993=
202101201800 METAR MRLM 201800Z 16006KT 9999 FEW025 BKN130 30/22 A2991=
202101201900 METAR MRLM 201900Z 12010KT CAVOK 29/23 A2988=
202101202000 METAR MRLM 202000Z 10007KT 9999 FEW030 BKN130 30/22 A2985=
202101202100 METAR MRLM 202100Z 08008KT CAVOK 29/23 A2984=
202101202200 METAR MRLM 202200Z 04010KT 9999 FEW025 BKN110 28/23 A2985=
202101202300 METAR MRLM 202300Z 04006KT 9999 -DZ SCT015 BKN100 25/23 A2987 RERA=
202101210000 METAR MRLM 210000Z 00000KT 9999 FEW010 BKN120 24/23 A2989=
202101210100 METAR MRLM NIL=
202101210200 METAR MRLM NIL=
202101210300 METAR MRLM NIL=
202101210400 METAR MRLM NIL=
202101210500 METAR MRLM NIL=
202101210600 METAR MRLM NIL=
202101210700 METAR MRLM NIL=
202101210800 METAR MRLM NIL=
202101210900 METAR MRLM NIL=
202101211000 METAR MRLM NIL=
202101211100 METAR MRLM NIL=
202101211200 METAR MRLM 211200Z 23005KT 7000 VCSH SCT010TCU BKN080 23/22 A2990=
202101211300 METAR MRLM 211300Z 23003KT 8000 -DZ VCSH FEW010TCU BKN080 23/22 A2992=
202101211400 METAR MRLM 211400Z 20005KT 8000 -DZ VCSH FEW010TCU BKN080 24/23 A2995=
202101211500 METAR MRLM 211500Z 18005KT 9000 FEW015 BKN090 24/23 A2996=
202101211600 METAR MRLM 211600Z 19004KT 9000 -DZ FEW015TCU BKN090 25/23 A2994=
202101211700 METAR MRLM 211700Z 19004KT 9999 -DZ FEW015 BKN090 26/24 A2992=
202101211800 METAR MRLM 211800Z 20005KT 9999 FEW015 BKN090 28/23 A2990=
202101211900 METAR MRLM 211900Z 09003KT 9999 FEW015 BKN090 28/23 A2987=
202101212000 METAR MRLM 212000Z 04003KT 8000 DZ VCSH FEW015TCU BKN090 27/23 A2985=
202101212100 METAR MRLM 212100Z 09005KT 8000 DZ FEW015TCU BKN090 26/24 A2984=
202101212200 METAR MRLM 212200Z 15004KT 6000 -DZ FEW015 OVC090 26/23 A2985=
202101212300 METAR MRLM 212300Z 00000KT 8000 FEW015 SCT090 BKN200 25/23 A2986=
202101220000 METAR MRLM 220000Z 19002KT 9000 FEW010 SCT080 BKN200 24/23 A2986=
202101220100 METAR MRLM NIL=
202101220200 METAR MRLM NIL=
202101220300 METAR MRLM NIL=
202101220400 METAR MRLM NIL=
202101220500 METAR MRLM NIL=
202101220600 METAR MRLM NIL=
202101220700 METAR MRLM NIL=
202101220800 METAR MRLM NIL=
202101220900 METAR MRLM NIL=
202101221000 METAR MRLM NIL=
202101221100 METAR MRLM NIL=
202101221200 METAR MRLM 221200Z 00000KT 8000 SCT015 BKN090 23/22 A2991=
202101221300 METAR MRLM 221300Z 21003KT 9999 SCT015 BKN090 23/22 A2994=
202101221400 METAR MRLM 221400Z 18003KT 9999 FEW015 BKN090 25/23 A2995=
202101221500 METAR MRLM 221500Z 21004KT CAVOK 26/23 A2994=
202101221600 METAR MRLM 221600Z 10005KT 9999 FEW020 SCT100 BKN200 27/23 A2995=
202101221700 METAR MRLM 221700Z 10009KT 9999 FEW020 SCT100 BKN200 28/24 A2993=
202101221800 METAR MRLM 221800Z 11007KT CAVOK 29/24 A2990=
202101221900 METAR MRLM 221900Z 09008KT CAVOK 29/23 A2987=
202101222000 METAR MRLM 222000Z 09008KT CAVOK 29/22 A2986=
202101222100 METAR MRLM 222100Z 09006KT CAVOK 28/23 A2985=
202101222200 METAR MRLM 222200Z 06005KT CAVOK 28/22 A2985=
202101222300 METAR MRLM 222300Z 06003KT CAVOK 28/22 A2987=
202101230000 METAR MRLM 230000Z 04005KT 9999 FEW020 SCT200 27/22 A2988=
202101230100 METAR MRLM NIL=
202101230200 METAR MRLM NIL=
202101230300 METAR MRLM NIL=
202101230400 METAR MRLM NIL=
202101230500 METAR MRLM NIL=
202101230600 METAR MRLM NIL=
202101230700 METAR MRLM NIL=
202101230800 METAR MRLM NIL=
202101230900 METAR MRLM NIL=
202101231000 METAR MRLM NIL=
202101231100 METAR MRLM NIL=
202101231200 METAR MRLM 231200Z 23004KT 9999 FEW010 SCT130 21/20 A2991=
202101231300 METAR MRLM 231300Z 22005KT 9999 FEW010 SCT140 22/21 A2993=
202101231400 METAR MRLM 231400Z 21004KT CAVOK 26/22 A2995=
202101231500 METAR MRLM 231500Z 13003KT CAVOK 28/23 A2995=
202101231600 METAR MRLM 231600Z 10004KT CAVOK 28/23 A2995=
202101231700 METAR MRLM 231700Z 09004KT 9999 FEW030 SCT120 28/23 A2994=
202101231800 METAR MRLM 231800Z 08004KT 9999 FEW030 BKN130 28/23 A2991=
202101231900 METAR MRLM 231900Z 09003KT CAVOK 28/23 A2988=
202101232000 METAR MRLM 232000Z 10003KT CAVOK 28/23 A2986=
202101232100 METAR MRLM 232100Z 09004KT CAVOK 29/22 A2985=
202101232200 METAR MRLM 232200Z 09005KT 9999 FEW030 28/23 A2985=
202101232300 METAR MRLM 232300Z 07005KT 9999 FEW030 28/23 A2986=
202101240000 METAR MRLM 240000Z 08005KT 9999 SCT025 26/23 A2989=
202101240100 METAR MRLM NIL=
202101240200 METAR MRLM NIL=
202101240300 METAR MRLM NIL=
202101240400 METAR MRLM NIL=
202101240500 METAR MRLM NIL=
202101240600 METAR MRLM NIL=
202101240700 METAR MRLM NIL=
202101240800 METAR MRLM NIL=
202101240900 METAR MRLM NIL=
202101241000 METAR MRLM NIL=
202101241100 METAR MRLM NIL=
202101241200 METAR MRLM 241200Z 00000KT 9999 BKN015 21/19 A2992=
202101241300 METAR MRLM 241300Z 21005KT CAVOK 22/20 A2993=
202101241400 METAR MRLM 241400Z 00000KT CAVOK 25/21 A2995=
202101241500 METAR MRLM 241500Z 09003KT CAVOK 27/22 A2996=
202101241600 METAR MRLM 241600Z 10004KT CAVOK 28/21 A2994=
202101241700 METAR MRLM 241700Z 10005KT CAVOK 29/21 A2993=
202101241800 METAR MRLM 241800Z 07007KT CAVOK 30/22 A2991=
202101241900 METAR MRLM 241900Z 09005KT CAVOK 29/22 A2988=
202101242000 METAR MRLM 242000Z 08007KT CAVOK 29/21 A2985=
202101242100 METAR MRLM 242100Z 07007KT CAVOK 29/22 A2984=
202101242200 METAR MRLM 242200Z 06006KT CAVOK 28/22 A2984=
202101242300 METAR MRLM 242300Z 07003KT CAVOK 28/22 A2985=
202101250000 METAR MRLM 250000Z 00000KT CAVOK 26/22 A2987=
202101250100 METAR MRLM NIL=
202101250200 METAR MRLM NIL=
202101250300 METAR MRLM NIL=
202101250400 METAR MRLM NIL=
202101250500 METAR MRLM NIL=
202101250600 METAR MRLM NIL=
202101250700 METAR MRLM NIL=
202101250800 METAR MRLM NIL=
202101250900 METAR MRLM NIL=
202101251000 METAR MRLM NIL=
202101251100 METAR MRLM NIL=
202101251200 METAR MRLM 251200Z 26002KT 9999 FEW015 BKN100 20/19 A2989=
202101251300 METAR MRLM 251300Z 24002KT 9999 FEW015 BKN100 21/19 A2990=
202101251400 METAR MRLM 251400Z 22005KT 9999 VCSH FEW015TCU OVC100 22/20 A2993=
202101251500 METAR MRLM 251500Z 23004KT 9999 FEW015 OVC100 23/21 A2993=
202101251600 METAR MRLM 251600Z 28003KT 9999 FEW020 BKN100 27/23 A2992=
202101251700 METAR MRLM 251700Z 09004KT 9999 FEW020 OVC100 27/22 A2991=
202101251800 METAR MRLM 251800Z 10003KT 9999 FEW020 BKN100 27/22 A2988=
202101251900 METAR MRLM 251900Z 11007KT 9999 FEW020 BKN100 27/22 A2987 NOSIG=
202101252000 METAR MRLM 252000Z 14007KT 9999 FEW020 BKN100 28/22 A2982=
202101252100 METAR MRLM 252100Z 12007KT CAVOK 28/23 A2981=
202101252200 METAR MRLM 252200Z 12007KT CAVOK 28/23 A2981=
202101252300 METAR MRLM 252300Z 14005KT CAVOK 27/23 A2982=
202101260000 METAR MRLM 260000Z 15002KT CAVOK 26/23 A2983=
202101260100 METAR MRLM NIL=
202101260200 METAR MRLM NIL=
202101260300 METAR MRLM NIL=
202101260400 METAR MRLM NIL=
202101260500 METAR MRLM NIL=
202101260600 METAR MRLM NIL=
202101260700 METAR MRLM NIL=
202101260800 METAR MRLM NIL=
202101260900 METAR MRLM NIL=
202101261000 METAR MRLM NIL=
202101261100 METAR MRLM NIL=
202101261200 METAR MRLM 261200Z 00000KT CAVOK 21/20 A2985=
202101261300 METAR MRLM 261300Z 24003KT CAVOK 21/20 A2987=
202101261400 METAR MRLM 261400Z 00000KT 9999 FEW020 BKN120 25/21 A2990=
202101261500 METAR MRLM 261500Z 12002KT 9999 FEW020 BKN120 28/23 A2992=
202101261600 METAR MRLM 261600Z 07006KT 9999 FEW020 BKN120 28/23 A2992=
202101261700 METAR MRLM 261700Z 09014KT 9999 FEW020 OVC100 27/23 A2991=
202101261800 METAR MRLM 261800Z 05004KT 9999 FEW020 BKN100 28/22 A2989=
202101261900 METAR MRLM 261900Z 12005KT 9999 FEW020 BKN100 28/22 A2986=
202101262000 METAR MRLM 262000Z 11006KT 9999 FEW020 BKN120 28/22 A2983=
202101262100 METAR MRLM 262100Z 11005KT 9999 FEW020 BKN120 28/23 A2982=
202101262200 METAR MRLM 262200Z 12005KT 9999 FEW020 BKN120 28/23 A2983=
202101262300 METAR MRLM 262300Z 12006KT 9999 FEW020 SCT120 27/23 A2983=
202101270000 METAR MRLM 270000Z 11005KT CAVOK 27/23 A2984=
202101270200 METAR MRLM NIL=
202101270400 METAR MRLM NIL=
202101270500 METAR MRLM NIL=
202101270600 METAR MRLM NIL=
202101270700 METAR MRLM NIL=
202101270800 METAR MRLM NIL=
202101270900 METAR MRLM NIL=
202101271000 METAR MRLM NIL=
202101271100 METAR MRLM NIL=
202101271200 METAR MRLM 271200Z 23004KT CAVOK 20/19 A2988=
202101271300 METAR MRLM 271300Z 23004KT CAVOK 21/20 A2989=
202101271400 METAR MRLM 271400Z 00000KT CAVOK 24/21 A2993=
202101271500 METAR MRLM 271500Z 00000KT CAVOK 27/22 A2994=
202101271600 METAR MRLM 271600Z 05003KT 9999 FEW030 SCT140 BKN250 28/23 A2994=
202101271700 METAR MRLM 271700Z 04004KT CAVOK 28/23 A2993=
202101271800 METAR MRLM 271800Z 04006KT CAVOK 29/23 A2990=
202101271900 METAR MRLM 271900Z 03007KT CAVOK 29/24 A2988=
202101272000 METAR MRLM 272000Z 02009KT 9999 FEW030 BKN250 29/23 A2986=
202101272100 METAR MRLM 272100Z 36009KT 9999 FEW030 BKN240 28/24 A2985=
202101272200 METAR MRLM 272200Z 01007KT CAVOK 28/23 A2985=
202101272300 METAR MRLM 272300Z 35005KT CAVOK 28/23 A2985=
202101280000 METAR MRLM 280000Z 36005KT 9999 SCT020 BKN120 27/23 A2987=
202101280100 METAR MRLM NIL=
202101280200 METAR MRLM NIL=
202101280300 METAR MRLM NIL=
202101280400 METAR MRLM NIL=
202101280500 METAR MRLM NIL=
202101280600 METAR MRLM NIL=
202101280700 METAR MRLM NIL=
202101280800 METAR MRLM NIL=
202101280900 METAR MRLM NIL=
202101281000 METAR MRLM NIL=
202101281100 METAR MRLM NIL=
202101281200 METAR MRLM 281200Z 23005KT 9999 4000N DZ BKN010 23/22 A2994=
202101281300 METAR MRLM 281300Z 22005KT 9999 SCT020 BKN100 23/22 A2994 REDZ=
202101281400 METAR MRLM 281400Z 23005KT 9999 SCT020 BKN110 24/22 A2999=
202101281500 METAR MRLM 281500Z 23005KT 9999 SCT025 27/23 A3001=
202101281600 METAR MRLM 281600Z 06003KT 9999 SCT030 28/23 A3000=
202101281700 METAR MRLM 281700Z 00000KT 9999 FEW020 SCT120 29/23 A2999=
202101281800 METAR MRLM 281800Z 36012KT 4000 RA BKN015 24/23 A2999=
202101281900 METAR MRLM 281900Z 26003KT 3000 RA BKN015 23/22 A2997=
202101282000 METAR MRLM 282000Z 23005KT 9999 DZ BKN020 24/23 A2995 RERA=
202101282100 METAR MRLM 282100Z 23006KT 9999 SCT025 BKN110 24/22 A2993 REDZ=
202101282200 METAR MRLM 282200Z 24006KT 9999 SCT025 26/23 A2992=
202101282300 METAR MRLM 282300Z 22004KT 9999 SCT020 25/23 A2993=
202101290000 METAR MRLM 290000Z 21005KT 9999 SCT020 24/22 A2993=
202101290100 METAR MRLM NIL=
202101290200 METAR MRLM NIL=
202101290300 METAR MRLM NIL=
202101290400 METAR MRLM NIL=
202101290500 METAR MRLM NIL=
202101290600 METAR MRLM NIL=
202101290700 METAR MRLM NIL=
202101290800 METAR MRLM NIL=
202101290900 METAR MRLM NIL=
202101291000 METAR MRLM NIL=
202101291100 METAR MRLM NIL=
202101291200 METAR MRLM 291200Z 23005KT 8000 VCSH SCT015TCU BKN200 22/21 A2993=
202101291300 METAR MRLM 291300Z 23004KT 7000 VCSH SCT015TCU BKN200 22/21 A2995=
202101291400 METAR MRLM 291400Z 22006KT 8000 FEW015 BKN100 23/22 A2998 RERA=
202101291500 METAR MRLM 291500Z 22006KT 9999 FEW015 BKN100 24/22 A3000=
202101291600 METAR MRLM 291600Z 21005KT 9999 FEW015 BKN100 25/22 A2999=
202101291700 METAR MRLM 291700Z 16003KT 9999 FEW020 BKN100 28/21 A2997=
202101291800 METAR MRLM 291800Z 09002KT 9999 FEW020 BKN100 28/21 A2995=
202101291900 METAR MRLM 291900Z 31002KT 9999 FEW020 BKN120 29/21 A2993=
202101292000 METAR MRLM 292000Z 05002KT 9999 FEW020 BKN120 28/21 A2990=
202101292100 METAR MRLM 292100Z 08003KT 9999 FEW020TCU BKN120 29/21 A2988=
202101292200 METAR MRLM 292200Z 12004KT 9999 FEW020TCU SCT120 28/21 A2988=
202101292300 METAR MRLM 292300Z 00000KT 9999 SCT020 26/23 A2989=
202101300000 METAR MRLM 300000Z 00000KT 9999 VCSH FEW015TCU SCT200 24/22 A2989=
202101300100 METAR MRLM NIL=
202101300200 METAR MRLM NIL=
202101300300 METAR MRLM NIL=
202101300400 METAR MRLM NIL=
202101300500 METAR MRLM NIL=
202101300600 METAR MRLM NIL=
202101300700 METAR MRLM NIL=
202101300800 METAR MRLM NIL=
202101300900 METAR MRLM NIL=
202101301000 METAR MRLM NIL=
202101301100 METAR MRLM NIL=
202101301200 METAR MRLM 301200Z 22005KT 8000 -DZ VCSH FEW015TCU OVC080 21/20 A2990=
202101301300 METAR MRLM 301300Z 18004KT 7000 DZ VCSH FEW015TCU OVC080 21/20 A2993=
202101301400 METAR MRLM 301400Z 22005KT 9000 -DZ FEW015 BKN080 21/20 A2995=
202101301500 METAR MRLM 301500Z 21005KT 9999 FEW020 SCT100 24/22 A2995 REDZ=
202101301600 METAR MRLM 301600Z 21007KT 9999 FEW020 SCT100 27/22 A2994=
202101301700 METAR MRLM 301700Z 11005KT 9999 FEW020 BKN100 28/21 A2992=
202101301800 METAR MRLM 301800Z 32005KT 8000 -DZ SCT015 OVC100 25/23 A2991=
202101301900 METAR MRLM 301900Z 01009KT 6000 +DZ FEW010 OVC070 24/22 A2991 RERA=
202101302000 METAR MRLM 302000Z 19004KT 9000 FEW010 BKN080 24/23 A2988 REDZ=
202101302100 METAR MRLM 302100Z 21003KT 9999 FEW010 BKN080 25/22 A2986=
202101302200 METAR MRLM 302200Z 17002KT 8000 DZ FEW010 OVC080 25/21 A2987=
202101302300 METAR MRLM 302300Z 22004KT 9999 FEW010 SCT080 BKN200 23/22 A2987=
202101310000 METAR MRLM 310000Z 22003KT 9999 VCSH FEW010TCU BKN080 23/22 A2987=
202101310100 METAR MRLM NIL=
202101310200 METAR MRLM NIL=
202101310300 METAR MRLM NIL=
202101310400 METAR MRLM NIL=
202101310500 METAR MRLM NIL=
202101310600 METAR MRLM NIL=
202101310700 METAR MRLM NIL=
202101310800 METAR MRLM NIL=
202101310900 METAR MRLM NIL=
202101311000 METAR MRLM NIL=
202101311100 METAR MRLM NIL=
202101311200 METAR MRLM 311200Z 23003KT 9999 4000N DZ SCT015 OVC090 22/21 A2990=
202101311300 METAR MRLM 311300Z 24004KT 9999 SCT015 OVC090 22/21 A2991 REDZ=
202101311400 METAR MRLM 311400Z 00000KT 9999 FEW020 BKN110 23/22 A2993=
202101311500 METAR MRLM 311500Z 24005KT 9999 FEW020 BKN120 24/22 A2993=
202101311600 METAR MRLM 311600Z 27004KT CAVOK 26/22 A2991=
202101311700 METAR MRLM 311700Z 31004KT CAVOK 26/23 A2989=
202101311800 METAR MRLM 311800Z 02008KT 9999 SCT025 BKN120 26/22 A2988=
202101311900 METAR MRLM 311900Z 07007KT 9999 SCT020 BKN120 26/22 A2987=
202101312000 METAR MRLM 312000Z 19004KT 9999 SCT025 BKN130 27/22 A2984=
202101312100 METAR MRLM 312100Z 00000KT CAVOK 26/22 A2982=
202101312200 METAR MRLM 312200Z 23004KT CAVOK 26/22 A2982=
202101312300 METAR MRLM 312300Z 23003KT CAVOK 26/22 A2983=
202102010000 METAR MRLM 010000Z 00000KT 9999 FEW020 BKN120 25/22 A2985=
202102010100 METAR MRLM NIL=
202102010200 METAR MRLM NIL=
202102010300 METAR MRLM NIL=
202102010400 METAR MRLM NIL=
202102010500 METAR MRLM NIL=
202102010600 METAR MRLM NIL=
202102010700 METAR MRLM NIL=
202102010800 METAR MRLM NIL=
202102010900 METAR MRLM NIL=
202102011000 METAR MRLM NIL=
202102011100 METAR MRLM NIL=
202102011200 METAR MRLM 011200Z 23004KT CAVOK 22/21 A2990=
202102011300 METAR MRLM 011300Z 23004KT CAVOK 24/22 A2992=
202102011400 METAR MRLM 011400Z 24004KT CAVOK 25/22 A2993=
202102011500 METAR MRLM 011500Z 27003KT CAVOK 28/22 A2994=
202102011600 METAR MRLM 011600Z 31004KT CAVOK 28/22 A2994=
202102011700 METAR MRLM 011700Z 03005KT CAVOK 29/23 A2992=
202102011800 METAR MRLM 011800Z 04006KT CAVOK 29/24 A2988=
202102011900 METAR MRLM 011900Z 01011KT CAVOK 30/23 A2987=
202102012000 METAR MRLM 012000Z 01009KT CAVOK 29/24 A2985=
202102012100 METAR MRLM 012100Z 01010KT CAVOK 29/24 A2984=
202102012200 METAR MRLM 012200Z 01007KT 9999 FEW030 28/24 A2985=
202102012300 METAR MRLM 012300Z 01005KT CAVOK 27/23 A2986=
202102020000 METAR MRLM 020000Z 32004KT 9999 FEW020 SCT120 27/22 A2990=
202102020100 METAR MRLM NIL=
202102020200 METAR MRLM NIL=
202102020300 METAR MRLM NIL=
202102020400 METAR MRLM NIL=
202102020500 METAR MRLM NIL=
202102020600 METAR MRLM NIL=
202102020700 METAR MRLM NIL=
202102020800 METAR MRLM NIL=
202102020900 METAR MRLM NIL=
202102021000 METAR MRLM NIL=
202102021100 METAR MRLM NIL=
202102021200 METAR MRLM 021200Z 22004KT 8000 -DZ VCSH FEW010TCU BKN080 23/22 A2991=
202102021300 METAR MRLM 021300Z 23003KT 9000 VCSH FEW010TCU BKN080 23/22 A2993=
202102021400 METAR MRLM 021400Z 14004KT 9000 SCT015 BKN080 24/22 A2996=
202102021500 METAR MRLM 021500Z 23006KT 9999 FEW015TCU BKN100 26/23 A2996=
202102021600 METAR MRLM 021600Z 31002KT 9999 FEW015TCU BKN100 28/24 A2995=
202102021700 METAR MRLM 021700Z 30004KT 9999 SCT015 BKN100 28/23 A2992=
202102021800 METAR MRLM 021800Z 31007KT 9999 VCSH FEW015TCU OVC100 28/23 A2991=
202102021900 METAR MRLM 021900Z 31008KT 5000 -RA FEW008 OVC015 25/23 A2990=
202102022000 METAR MRLM 022000Z 10012KT 7000 DZ FEW010 OVC070 25/24 A2987=
202102022100 METAR MRLM 022100Z 18006KT 8000 DZ FEW010 OVC070 24/23 A2986=
202102022200 METAR MRLM 022200Z 22004KT 3000 +RA FEW006 OVC015 24/23 A2986=
202102022300 METAR MRLM 022300Z 19006KT 5000 RA FEW006 OVC015 23/22 A2987=
202102030000 METAR MRLM 030000Z 25006KT 4000 +RA OVC010 22/22 A2989=
202102030100 METAR MRLM NIL=
202102030200 METAR MRLM NIL=
202102030300 METAR MRLM NIL=
202102030400 METAR MRLM NIL=
202102030500 METAR MRLM NIL=
202102030600 METAR MRLM NIL=
202102030700 METAR MRLM NIL=
202102030800 METAR MRLM NIL=
202102030900 METAR MRLM NIL=
202102031000 METAR MRLM NIL=
202102031100 METAR MRLM NIL=
202102031200 METAR MRLM 031200Z 35016KT 8000 -DZ SCT010 OVC080 26/21 A2993=
202102031300 METAR MRLM 031300Z 29007KT 8000 -DZ SCT010 OVC080 22/21 A2995=
202102031400 METAR MRLM 031400Z 30005KT 7000 DZ FEW010 OVC080 22/21 A2998=
202102031500 METAR MRLM 031500Z 27005KT 5000 DZ FEW010 OVC070 22/21 A2999=
202102031600 METAR MRLM 031600Z 26003KT 9000 -DZ SCT010 OVC080 23/22 A3000=
202102031700 METAR MRLM 031700Z 29006KT 9999 FEW010 OVC080 24/22 A2997 REDZ=
202102031800 METAR MRLM 031800Z 29005KT 9999 FEW015 OVC090 25/22 A2995=
202102031900 METAR MRLM 031900Z 28006KT 9999 FEW015 OVC090 25/22 A2994=
202102032000 METAR MRLM 032000Z 29007KT 8000 DZ FEW015 OVC090 24/22 A2992=
202102032100 METAR MRLM 032100Z 27005KT 9999 FEW015 OVC090 24/22 A2990=
202102032200 METAR MRLM 032200Z 28003KT 8000 -DZ FEW015 OVC080 24/22 A2990=
202102032300 METAR MRLM 032300Z 31003KT 8000 -DZ FEW010 OVC080 23/22 A2991=
202102040000 METAR MRLM 040000Z 26005KT 5000 +DZ FEW010 OVC080 22/21 A2993=
202102040100 METAR MRLM NIL=
202102040200 METAR MRLM NIL=
202102040300 METAR MRLM NIL=
202102040400 METAR MRLM NIL=
202102040500 METAR MRLM NIL=
202102040600 METAR MRLM NIL=
202102040700 METAR MRLM NIL=
202102040800 METAR MRLM NIL=
202102040900 METAR MRLM NIL=
202102041000 METAR MRLM NIL=
202102041100 METAR MRLM NIL=
202102041200 METAR MRLM 041200Z 24004KT 9999 SCT015 BKN090 22/21 A2994=
202102041300 METAR MRLM 041300Z 25003KT 9999 FEW015 BKN090 22/21 A2995=
202102041400 METAR MRLM 041400Z 00000KT 9999 -DZ FEW015 BKN110 23/22 A2998=
202102041500 METAR MRLM 041500Z 00000KT 9999 FEW015 BKN110 23/22 A2999=
202102041600 METAR MRLM 041600Z 23003KT 9999 DZ FEW020 OVC110 24/23 A2998=
202102041700 METAR MRLM 041700Z 25004KT 9999 SCT020 BKN120 26/23 A2996 REDZ=
202102041800 METAR MRLM 041800Z 21003KT 9999 FEW020 BKN120 26/23 A2994=
202102041900 METAR MRLM 041900Z 25003KT 9999 FEW025 BKN130 27/22 A2990=
202102042000 METAR MRLM 042000Z 10003KT CAVOK 28/23 A2987=
202102042100 METAR MRLM 042100Z 01004KT CAVOK 27/22 A2986=
202102042200 METAR MRLM 042200Z 01004KT 9999 FEW030 27/22 A2986=
202102042300 METAR MRLM 042300Z 01004KT CAVOK 27/22 A2987=
202102050000 METAR MRLM 050000Z 00000KT CAVOK 25/21 A2991=
202102050100 METAR MRLM NIL=
202102050200 METAR MRLM NIL=
202102050300 METAR MRLM NIL=
202102050400 METAR MRLM NIL=
202102050500 METAR MRLM NIL=
202102050600 METAR MRLM NIL=
202102050700 METAR MRLM NIL=
202102050800 METAR MRLM NIL=
202102050900 METAR MRLM NIL=
202102051000 METAR MRLM NIL=
202102051100 METAR MRLM NIL=
202102051200 METAR MRLM 051200Z 23003KT CAVOK 23/22 A2990=
202102051300 METAR MRLM 051300Z 23003KT CAVOK 23/22 A2990=
202102051400 METAR MRLM 051400Z 21003KT CAVOK 25/23 A2993=
202102051500 METAR MRLM 051500Z 00000KT 9999 FEW030 BKN130 27/23 A2994=
202102051600 METAR MRLM 051600Z 09004KT 9999 FEW030 BKN130 28/23 A2994=
202102051700 METAR MRLM 051700Z 09004KT 9999 FEW030 SCT130 28/23 A2992=
202102051800 METAR MRLM 051800Z 08006KT 9999 FEW030 28/24 A2989=
202102051900 METAR MRLM 051900Z 07006KT CAVOK 28/24 A2987=
202102052000 METAR MRLM 052000Z 07005KT CAVOK 28/23 A2983=
202102052100 METAR MRLM 052100Z 08005KT CAVOK 29/23 A2982=
202102052200 METAR MRLM 052200Z 08006KT CAVOK 28/23 A2981=
202102052300 METAR MRLM 052300Z 08004KT 9999 FEW025 28/23 A2982=
202102060000 METAR MRLM 060000Z 09006KT 9999 SCT020 27/24 A2985=
202102060100 METAR MRLM NIL=
202102060200 METAR MRLM NIL=
202102060300 METAR MRLM NIL=
202102060400 METAR MRLM NIL=
202102060500 METAR MRLM NIL=
202102060600 METAR MRLM NIL=
202102060700 METAR MRLM NIL=
202102060800 METAR MRLM NIL=
202102060900 METAR MRLM NIL=
202102061000 METAR MRLM NIL=
202102061100 METAR MRLM NIL=
202102061200 METAR MRLM 061200Z 24003KT 9999 FEW015TCU BKN100 22/22 A2987=
202102061300 METAR MRLM 061300Z 26003KT 9999 FEW015TCU SCT100 23/22 A2989=
202102061400 METAR MRLM 061400Z 25004KT 9999 FEW020 27/24 A2991=
202102061500 METAR MRLM 061500Z 06003KT 9999 FEW020TCU 28/24 A2992=
202102061600 METAR MRLM 061600Z 06003KT 9999 FEW020 SCT120 29/24 A2992=
202102061700 METAR MRLM 061700Z 02008KT 9999 FEW025 29/24 A2989=
202102061800 METAR MRLM 061800Z 03007KT 9999 FEW025 29/24 A2986=
202102061900 METAR MRLM 061900Z 02008KT 9999 FEW025 29/24 A2984=
202102062000 METAR MRLM 062000Z 02006KT 9999 FEW025 29/24 A2982=
202102062100 METAR MRLM 062100Z 04006KT CAVOK 29/24 A2980=
202102062200 METAR MRLM 062200Z 02004KT CAVOK 29/24 A2980=
202102062300 METAR MRLM 062300Z 04004KT 9999 FEW020 SCT120 28/24 A2981=
202102070000 METAR MRLM 070000Z 02004KT 9999 FEW015 SCT100 28/24 A2983=
202102070100 METAR MRLM NIL=
202102070200 METAR MRLM NIL=
202102070300 METAR MRLM NIL=
202102070400 METAR MRLM NIL=
202102070500 METAR MRLM NIL=
202102070600 METAR MRLM NIL=
202102070700 METAR MRLM NIL=
202102070800 METAR MRLM NIL=
202102070900 METAR MRLM NIL=
202102071000 METAR MRLM NIL=
202102071100 METAR MRLM NIL=
202102071200 METAR MRLM 071200Z 23005KT 8000 VCSH SCT015TCU 23/23 A2986=
202102071300 METAR MRLM 071300Z 23003KT 9000 VCSH FEW015TCU SCT090 23/23 A2988=
202102071400 METAR MRLM 071400Z 24003KT 9999 VCSH FEW015TCU SCT090 24/23 A2990=
202102071500 METAR MRLM 071500Z 05002KT 8000 VCSH FEW015TCU BKN090 26/24 A2992=
202102071600 METAR MRLM 071600Z 36007KT 9999 FEW020TCU SCT100 28/25 A2992=
202102071700 METAR MRLM 071700Z 01007KT 8000 DZ VCSH FEW020TCU BKN100 27/25 A2990=
202102071800 METAR MRLM 071800Z 03005KT 9999 SCT020 BKN100 29/24 A2988 REDZ=
202102071900 METAR MRLM 071900Z 05010KT 9999 SCT020 SCT100 28/24 A2986=
202102072000 METAR MRLM 072000Z 05010KT 9999 SCT020 SCT100 28/24 A2983=
202102072100 METAR MRLM 072100Z 06010KT 9999 SCT020 SCT110 28/24 A2982=
202102072200 METAR MRLM 072200Z 05010KT 9999 FEW020 BKN110 28/24 A2981=
202102072300 METAR MRLM 072300Z 05012KT 9999 SCT020 SCT110 28/24 A2982=
202102080000 METAR MRLM 080000Z 05012KT 9999 FEW020 SCT100 BKN200 28/24 A2984=
202102080100 METAR MRLM NIL=
202102080200 METAR MRLM NIL=
202102080300 METAR MRLM NIL=
202102080400 METAR MRLM NIL=
202102080500 METAR MRLM NIL=
202102080600 METAR MRLM NIL=
202102080700 METAR MRLM NIL=
202102080800 METAR MRLM NIL=
202102080900 METAR MRLM NIL=
202102081000 METAR MRLM NIL=
202102081100 METAR MRLM NIL=
202102081200 METAR MRLM 081200Z 24004KT 9999 FEW010 BKN100 23/22 A2990=
202102081300 METAR MRLM 081300Z 22003KT 9999 SCT015 BKN110 23/22 A2993=
202102081400 METAR MRLM 081400Z 21005KT 9999 SCT015 25/22 A2995=
202102081500 METAR MRLM 081500Z 21005KT 9999 FEW020 SCT120 26/23 A2996=
202102081600 METAR MRLM 081600Z 12003KT 9999 FEW025 28/23 A2995=
202102081700 METAR MRLM 081700Z 07004KT 9999 FEW030 28/23 A2994=
202102081800 METAR MRLM 081800Z 07004KT 9999 FEW030 29/23 A2992=
202102081900 METAR MRLM 081900Z 06005KT 9999 FEW030 29/22 A2989=
202102082000 METAR MRLM 082000Z 06007KT 9999 FEW030 29/22 A2986=
202102082100 METAR MRLM 082100Z 04007KT CAVOK 29/23 A2985=
202102082200 METAR MRLM 082200Z 06005KT 9999 FEW030 28/23 A2984=
202102082300 METAR MRLM 082300Z 03006KT 9999 FEW025 28/23 A2986=
202102090000 METAR MRLM 090000Z 02008KT 9999 SCT020 27/24 A2989=
202102090100 METAR MRLM NIL=
202102090200 METAR MRLM NIL=
202102090300 METAR MRLM NIL=
202102090400 METAR MRLM NIL=
202102090500 METAR MRLM NIL=
202102090600 METAR MRLM NIL=
202102090700 METAR MRLM NIL=
202102090800 METAR MRLM NIL=
202102090900 METAR MRLM NIL=
202102091000 METAR MRLM NIL=
202102091100 METAR MRLM NIL=
202102091200 METAR MRLM 091200Z 26004KT 9999 SCT010 BKN100 22/21 A2991=
202102091300 METAR MRLM 091300Z 30004KT 9999 DZ SCT015 BKN110 23/22 A2994=
202102091400 METAR MRLM 091400Z 23006KT 9999 VCSH SCT015 BKN110 23/23 A2994 REDZ=
202102091500 METAR MRLM 091500Z 22004KT 9999 FEW020 SCT120 26/23 A2996=
202102091600 METAR MRLM 091600Z 03007KT 9999 SCT020 SCT110 24/23 A2997=
202102091700 METAR MRLM 091700Z 18003KT 9999 FEW020 SCT110 25/23 A2996=
202102091800 METAR MRLM 091800Z 15006KT 9999 FEW020 BKN120 26/23 A2993=
202102091900 METAR MRLM 091900Z 12007KT CAVOK 28/23 A2990=
202102092000 METAR MRLM 092000Z 12006KT 9999 FEW030 BKN130 28/22 A2987=
202102092100 METAR MRLM 092100Z 11006KT CAVOK 28/23 A2986=
202102092200 METAR MRLM 092200Z 11003KT CAVOK 27/23 A2986=
202102092300 METAR MRLM 092300Z 00000KT 9999 FEW025 BKN120 27/22 A2987 NOSIG=
202102100000 METAR MRLM NIL=
202102100100 METAR MRLM NIL=
202102100200 METAR MRLM NIL=
202102100300 METAR MRLM NIL=
202102100400 METAR MRLM NIL=
202102100500 METAR MRLM NIL=
202102100600 METAR MRLM NIL=
202102100700 METAR MRLM NIL=
202102100800 METAR MRLM NIL=
202102100900 METAR MRLM NIL=
202102101000 METAR MRLM NIL=
202102101100 METAR MRLM NIL=
202102101200 METAR MRLM 101200Z 22004KT 9999 FEW015 SCT100 22/21 A2991=
202102101300 METAR MRLM 101300Z 22003KT 9999 FEW015 SCT100 23/22 A2993=
202102101400 METAR MRLM 101400Z 22003KT 9999 FEW015 SCT100 27/23 A2994=
202102101500 METAR MRLM 101500Z 11005KT 9999 FEW020 SCT120 27/23 A2995=
202102101600 METAR MRLM 101600Z 09005KT 9999 FEW020 BKN120 28/23 A2995=
202102101700 METAR MRLM 101700Z 06004KT CAVOK 28/22 A2994=
202102101800 METAR MRLM 101800Z 06005KT CAVOK 29/22 A2991=
202102101900 METAR MRLM 101900Z 05006KT 9999 FEW030 SCT120 29/22 A2988=
202102102000 METAR MRLM 102000Z 03014KT 9999 FEW030 28/23 A2986=
202102102100 METAR MRLM 102100Z 01005KT CAVOK 27/22 A2984=
202102102200 METAR MRLM 102200Z 03003KT CAVOK 27/21 A2984=
202102102300 METAR MRLM 102300Z 02004KT CAVOK 27/21 A2984=
202102110000 METAR MRLM 110000Z 00000KT CAVOK 26/22 A2986=
202102110100 METAR MRLM NIL=
202102110200 METAR MRLM NIL=
202102110300 METAR MRLM NIL=
202102110400 METAR MRLM NIL=
202102110500 METAR MRLM NIL=
202102110600 METAR MRLM NIL=
202102110700 METAR MRLM NIL=
202102110800 METAR MRLM NIL=
202102110900 METAR MRLM NIL=
202102111000 METAR MRLM NIL=
202102111100 METAR MRLM NIL=
202102111200 METAR MRLM 111200Z 22004KT 9999 FEW015 BKN090 21/21 A2988=
202102111300 METAR MRLM 111300Z 20005KT 9999 VCSH FEW010TCU SCT015 BKN090 22/20 A2989=
202102111400 METAR MRLM 111400Z 21004KT 9999 VCSH FEW010TCU FEW015 BKN090 25/22 A2991=
202102111500 METAR MRLM 111500Z 15005KT 9999 VCSH FEW015TCU BKN090 25/22 A2993=
202102111600 METAR MRLM 111600Z 16006KT 9999 FEW015 BKN090 26/22 A2992=
202102111700 METAR MRLM 111700Z 13006KT CAVOK 28/22 A2990=
202102111800 METAR MRLM 111800Z 12006KT CAVOK 28/22 A2986=
202102111900 METAR MRLM 111900Z 10008KT CAVOK 29/23 A2983=
202102112000 METAR MRLM 112000Z 10008KT CAVOK 28/22 A2981=
202102112100 METAR MRLM 112100Z 09006KT CAVOK 28/22 A2980=
202102112200 METAR MRLM 112200Z 09004KT CAVOK 28/23 A2980=
202102112300 METAR MRLM 112300Z 11003KT 9999 FEW020 SCT120 27/22 A2981=
202102120000 METAR MRLM 120000Z 15002KT CAVOK 25/23 A2981=
202102120100 METAR MRLM NIL=
202102120200 METAR MRLM NIL=
202102120300 METAR MRLM NIL=
202102120400 METAR MRLM NIL=
202102120500 METAR MRLM NIL=
202102120600 METAR MRLM NIL=
202102120700 METAR MRLM NIL=
202102120800 METAR MRLM NIL=
202102120900 METAR MRLM NIL=
202102121000 METAR MRLM NIL=
202102121100 METAR MRLM NIL=
202102121200 METAR MRLM 121200Z 22004KT CAVOK 22/20 A2985=
202102121300 METAR MRLM 121300Z 21005KT CAVOK 23/21 A2987=
202102121400 METAR MRLM 121400Z 21004KT CAVOK 26/22 A2989=
202102121500 METAR MRLM 121500Z 13006KT CAVOK 28/21 A2989=
202102121600 METAR MRLM 121600Z 11006KT CAVOK 29/22 A2989=
202102121700 METAR MRLM 121700Z 11006KT 9999 FEW030 29/21 A2987=
202102121800 METAR MRLM 121800Z 09005KT CAVOK 29/22 A2984=
202102121900 METAR MRLM 121900Z 08008KT CAVOK 29/22 A2982=
202102122000 METAR MRLM 122000Z 06007KT CAVOK 29/23 A2980=
202102122100 METAR MRLM 122100Z 05006KT CAVOK 28/22 A2980=
202102122200 METAR MRLM 122200Z 04004KT CAVOK 28/22 A2980=
202102122300 METAR MRLM 122300Z 04003KT CAVOK 28/22 A2981=
202102130000 METAR MRLM 130000Z 00000KT CAVOK 27/23 A2985=
202102130100 METAR MRLM NIL=
202102130200 METAR MRLM NIL=
202102130300 METAR MRLM NIL=
202102130400 METAR MRLM NIL=
202102130500 METAR MRLM NIL=
202102130600 METAR MRLM NIL=
202102130700 METAR MRLM NIL=
202102130800 METAR MRLM NIL=
202102130900 METAR MRLM NIL=
202102131000 METAR MRLM NIL=
202102131100 METAR MRLM NIL=
202102131200 METAR MRLM 131200Z 21004KT 9999 DZ SCT010 BKN090 22/21 A2986=
202102131300 METAR MRLM 131300Z 15003KT 9999 FEW015 BKN100 22/21 A2988=
202102131400 METAR MRLM 131400Z 21003KT CAVOK 24/22 A2990=
202102131500 METAR MRLM 131500Z 06003KT CAVOK 27/23 A2990=
202102131600 METAR MRLM 131600Z 10004KT 9999 SCT025 BKN120 27/23 A2991=
202102131700 METAR MRLM 131700Z 10004KT 9999 FEW030 BKN130 27/23 A2988=
202102131800 METAR MRLM 131800Z 09005KT 9999 FEW030 SCT140 28/23 A2987 NOSIG=
202102131900 METAR MRLM 131900Z 10006KT 9999 FEW030 SCT140 28/22 A2983=
202102132000 METAR MRLM 132000Z 07006KT CAVOK 28/22 A2981=
202102132100 METAR MRLM 132100Z 07004KT 9999 FEW025 SCT130 28/23 A2980=
202102132200 METAR MRLM 132200Z 12003KT CAVOK 28/22 A2979=
202102132300 METAR MRLM 132300Z 13003KT CAVOK 27/22 A2990=
202102140000 METAR MRLM 140000Z 00000KT CAVOK 26/23 A2982=
202102140100 METAR MRLM NIL=
202102140200 METAR MRLM NIL=
202102140300 METAR MRLM NIL=
202102140400 METAR MRLM NIL=
202102140500 METAR MRLM NIL=
202102140600 METAR MRLM NIL=
202102140700 METAR MRLM NIL=
202102140800 METAR MRLM NIL=
202102140900 METAR MRLM NIL=
202102141000 METAR MRLM NIL=
202102141100 METAR MRLM NIL=
202102141200 METAR MRLM 141200Z 28002KT CAVOK 22/21 A2989=
202102141300 METAR MRLM 141300Z 23004KT CAVOK 23/21 A2991=
202102141400 METAR MRLM 141400Z 23003KT CAVOK 25/22 A2993=
202102141500 METAR MRLM 141500Z 09003KT 9999 FEW020 BKN120 28/23 A2994=
202102141600 METAR MRLM 141600Z 06003KT 9999 FEW020 SCT120 28/23 A2994=
202102141700 METAR MRLM 141700Z 06006KT 9999 FEW020 SCT120 28/23 A2992=
202102141800 METAR MRLM 141800Z 04007KT 9999 FEW025 SCT130 29/23 A2990=
202102141900 METAR MRLM 141900Z 03007KT 9999 FEW025 29/23 A2988=
202102142000 METAR MRLM 142000Z 04007KT 9999 FEW025 SCT130 29/23 A2986=
202102142100 METAR MRLM 142100Z 04006KT 9999 FEW020 BKN120 28/23 A2985=
202102142200 METAR MRLM 142200Z 05005KT 9999 SCT020 BKN120 28/23 A2984=
202102142300 METAR MRLM 142300Z 06005KT 9999 SCT020 SCT120 28/22 A2985=
202102150000 METAR MRLM 150000Z 08005KT 9999 FEW020 SCT220 27/22 A2986=
202102150100 METAR MRLM NIL=
202102150200 METAR MRLM NIL=
202102150300 METAR MRLM NIL=
202102150400 METAR MRLM NIL=
202102150500 METAR MRLM NIL=
202102150600 METAR MRLM NIL=
202102150700 METAR MRLM NIL=
202102150800 METAR MRLM NIL=
202102150900 METAR MRLM NIL=
202102151000 METAR MRLM NIL=
202102151100 METAR MRLM NIL=
202102151200 METAR MRLM 151200Z 23005KT CAVOK 21/20 A2991=
202102151300 METAR MRLM 151300Z 23005KT CAVOK 22/21 A2993=
202102151400 METAR MRLM 151400Z 22003KT CAVOK 24/22 A2995=
202102151500 METAR MRLM 151500Z 29002KT 9999 FEW020 SCT120 28/23 A2997=
202102151600 METAR MRLM 151600Z 08004KT 9999 FEW020 SCT120 28/23 A2997=
202102151700 METAR MRLM 151700Z 07004KT 9999 FEW025 28/23 A2995=
202102151800 METAR MRLM 151800Z 05006KT 9999 FEW025 29/23 A2994=
202102151900 METAR MRLM 151900Z 06005KT 9999 FEW025 SCT130 29/23 A2992=
202102152000 METAR MRLM 152000Z 07004KT CAVOK 29/23 A2989=
202102152100 METAR MRLM 152100Z 06005KT CAVOK 29/23 A2987=
202102152200 METAR MRLM 152200Z 06004KT CAVOK 29/22 A2987=
202102152300 METAR MRLM 152300Z 02003KT CAVOK 28/22 A2988=
202102160000 METAR MRLM 160000Z 05003KT 9999 FEW020 28/23 A2989=
202102160100 METAR MRLM NIL=
202102160200 METAR MRLM NIL=
202102160300 METAR MRLM NIL=
202102160400 METAR MRLM NIL=
202102160500 METAR MRLM NIL=
202102160600 METAR MRLM NIL=
202102160700 METAR MRLM NIL=
202102160800 METAR MRLM NIL=
202102160900 METAR MRLM NIL=
202102161000 METAR MRLM NIL=
202102161100 METAR MRLM NIL=
202102161200 METAR MRLM 161200Z 24004KT CAVOK 21/20 A2992=
202102161300 METAR MRLM 161300Z 23004KT CAVOK 22/21 A2993=
202102161400 METAR MRLM 161400Z 00000KT CAVOK 27/22 A2996=
202102161500 METAR MRLM 161500Z 32004KT CAVOK 29/22 A2998=
202102161600 METAR MRLM 161600Z 01006KT 9999 FEW020 BKN130 29/23 A2998=
202102161700 METAR MRLM 161700Z 01010KT 9999 SCT020 BKN130 28/24 A2998=
202102161800 METAR MRLM 161800Z 02014KT 9999 SCT025 BKN120 27/23 A2996=
202102161900 METAR MRLM 161900Z 01008KT 9999 FEW025 BKN130 28/21 A2992=
202102162000 METAR MRLM 162000Z 36008KT CAVOK 30/20 A2989=
202102162100 METAR MRLM 162100Z 02007KT CAVOK 30/22 A2987=
202102162200 METAR MRLM 162200Z 35006KT CAVOK 29/22 A2987=
202102162300 METAR MRLM 162300Z 36005KT CAVOK 28/22 A2988=
202102170000 METAR MRLM 170000Z 00000KT 9999 FEW025 BKN120 26/23 A2992=
202102170100 METAR MRLM NIL=
202102170200 METAR MRLM NIL=
202102170300 METAR MRLM NIL=
202102170400 METAR MRLM NIL=
202102170500 METAR MRLM NIL=
202102170600 METAR MRLM NIL=
202102170700 METAR MRLM NIL=
202102170800 METAR MRLM NIL=
202102170900 METAR MRLM NIL=
202102171000 METAR MRLM NIL=
202102171100 METAR MRLM NIL=
202102171200 METAR MRLM 171200Z 31005KT 9999 4000N DZ BKN010 23/21 A2998=
202102171300 METAR MRLM NIL=
202102171400 METAR MRLM NIL=
202102171500 METAR MRLM NIL=
202102171600 METAR MRLM NIL=
202102171700 METAR MRLM NIL=
202102171800 METAR MRLM NIL=
202102171900 METAR MRLM NIL=
202102172000 METAR MRLM NIL=
202102172100 METAR MRLM NIL=
202102172200 METAR MRLM NIL=
202102172300 METAR MRLM NIL=
202102180000 METAR MRLM NIL=
202102180100 METAR MRLM NIL=
202102180200 METAR MRLM NIL=
202102180300 METAR MRLM NIL=
202102180400 METAR MRLM NIL=
202102180500 METAR MRLM NIL=
202102180600 METAR MRLM NIL=
202102180700 METAR MRLM NIL=
202102180800 METAR MRLM NIL=
202102180900 METAR MRLM NIL=
202102181000 METAR MRLM NIL=
202102181100 METAR MRLM NIL=
202102181200 METAR MRLM 181200Z 23005KT 9999 FEW015TCU SCT100 21/20 A2992=
202102181300 METAR MRLM 181300Z 25003KT 9999 FEW015 SCT100 22/20 A2993=
202102181400 METAR MRLM 181400Z 07002KT 9999 FEW020 SCT120 26/22 A2996=
202102181500 METAR MRLM 181500Z 04003KT 9999 FEW020 28/23 A2997=
202102181600 MRLM 181600Z 05006KT 9999 VCSH FEW020TCU SCT220 28/23 A2998=
202102181700 METAR MRLM 181700Z 05016KT 9999 FEW020 BKN120 26/22 A2997=
202102181800 METAR MRLM 181800Z 05011KT 9999 FEW020 BKN120 27/21 A2994=
202102181900 METAR MRLM 181900Z 08003KT 9999 FEW020 BKN120 28/21 A2990=
202102182000 METAR MRLM 182000Z 08005KT CAVOK 28/20 A2988=
202102182100 METAR MRLM 182100Z 05003KT CAVOK 28/21 A2987=
202102182200 METAR MRLM 182200Z 22002KT 9999 FEW020 BKN120 27/22 A2987=
202102182300 METAR MRLM 182300Z 24003KT 9999 FEW020 BKN120 27/22 A2988=
202102190000 METAR MRLM 190000Z 24003KT 9999 FEW015 BKN100 26/22 A2989=
202102190100 METAR MRLM NIL=
202102190200 METAR MRLM NIL=
202102190300 METAR MRLM NIL=
202102190400 METAR MRLM NIL=
202102190500 METAR MRLM NIL=
202102190600 METAR MRLM NIL=
202102190700 METAR MRLM NIL=
202102190800 METAR MRLM NIL=
202102190900 METAR MRLM NIL=
202102191000 METAR MRLM NIL=
202102191100 METAR MRLM NIL=
202102191200 METAR MRLM 191200Z 31004KT 8000 -DZ SCT015 OVC080 23/21 A2994=
202102191300 METAR MRLM 191300Z 26006KT 8000 -DZ VCSH FEW010TCU SCT015 OVC080 23/22 A2997=
202102191400 METAR MRLM 191400Z 25004KT 6000 +DZ FEW015 OVC080 23/22 A2999=
202102191500 METAR MRLM 191500Z 24007KT 9000 FEW015 OVC080 23/22 A2999 REDZ=
202102191600 METAR MRLM 191600Z 24006KT 9000 FEW015 OVC090 25/22 A2999=
202102191700 METAR MRLM 191700Z 26007KT 9999 FEW015 BKN090 27/22 A2997=
202102191800 METAR MRLM 191800Z 24005KT 9999 FEW020 BKN100 28/21 A2994=
202102191900 METAR MRLM 191900Z 27004KT CAVOK 29/22 A2992=
202102192000 METAR MRLM 192000Z 33007KT 9999 FEW020 BKN100 30/22 A2990=
202102192100 METAR MRLM 192100Z 02013KT 9999 FEW020 BKN100 27/23 A2989=
202102192200 METAR MRLM 192200Z 03012KT 9999 FEW020 OVC100 27/23 A2990=
202102192300 METAR MRLM 192300Z 36006KT 9999 FEW020 OVC100 26/21 A2991=
202102200000 METAR MRLM 200000Z 01007KT 9999 FEW015 OVC090 27/23 A2993=
202102200100 METAR MRLM NIL=
202102200200 METAR MRLM NIL=
202102200300 METAR MRLM NIL=
202102200400 METAR MRLM NIL=
202102200500 METAR MRLM NIL=
202102200600 METAR MRLM NIL=
202102200700 METAR MRLM NIL=
202102200800 METAR MRLM NIL=
202102200900 METAR MRLM NIL=
202102201000 METAR MRLM NIL=
202102201100 METAR MRLM NIL=
202102201200 METAR MRLM 201200Z 31005KT 9999 4000N DZ BKN010 23/21 A2998=
202102201300 METAR MRLM 201300Z 24006KT 9999 SCT015 OVC090 22/21 A3001 REDZ=
202102201400 METAR MRLM 201400Z 22006KT 9999 FEW015 BKN100 23/21 A3001=
202102201500 METAR MRLM 201500Z 21005KT CAVOK 25/21 A3001=
202102201600 METAR MRLM 201600Z 22004KT CAVOK 28/22 A3000=
202102201700 METAR MRLM 201700Z 03006KT 9999 FEW030 29/22 A2999=
202102201800 METAR MRLM 201800Z 02011KT 9999 FEW030 30/21 A2996=
202102201900 METAR MRLM 201900Z 02006KT CAVOK 30/21 A2993=
202102202000 METAR MRLM 202000Z 01009KT CAVOK 29/22 A2990=
202102202100 METAR MRLM 202100Z 01009KT CAVOK 29/22 A2989=
202102202200 METAR MRLM 202200Z 01009KT CAVOK 29/23 A2988=
202102202300 METAR MRLM 202300Z 35006KT 9999 FEW030 BKN130 28/22 A2990=
202102210000 METAR MRLM 210000Z 26003KT 9999 FEW020 BKN120 27/22 A2991=
202102210100 METAR MRLM NIL=
202102210200 METAR MRLM NIL=
202102210300 METAR MRLM NIL=
202102210400 METAR MRLM NIL=
202102210500 METAR MRLM NIL=
202102210600 METAR MRLM NIL=
202102210700 METAR MRLM NIL=
202102210800 METAR MRLM NIL=
202102210900 METAR MRLM NIL=
202102211000 METAR MRLM NIL=
202102211100 METAR MRLM NIL=
202102211200 METAR MRLM 211200Z 22005KT CAVOK 21/20 A2996=
202102211300 METAR MRLM 211300Z 22005KT CAVOK 21/20 A2998=
202102211400 METAR MRLM 211400Z 21005KT CAVOK 26/21 A2999=
202102211500 METAR MRLM 211500Z 00000KT CAVOK 28/21 A3000=
202102211600 METAR MRLM 211600Z 04007KT 9999 FEW025 BKN130 28/22 A3001=
202102211700 METAR MRLM 211700Z 01010KT 9999 FEW025 BKN120 27/21 A2999=
202102211800 METAR MRLM 211800Z 03006KT CAVOK 28/21 A2997=
202102211900 METAR MRLM 211900Z 04005KT CAVOK 28/21 A2994=
202102212000 METAR MRLM 212000Z 06006KT CAVOK 29/22 A2991=
202102212100 METAR MRLM 212100Z 05009KT CAVOK 29/22 A2989=
202102212200 METAR MRLM 212200Z 06009KT CAVOK 29/22 A2990=
202102212300 METAR MRLM 212300Z 06007KT CAVOK 28/22 A2990=
202102220000 METAR MRLM 220000Z 09004KT CAVOK 26/23 A2995=
202102220100 METAR MRLM NIL=
202102220200 METAR MRLM NIL=
202102220300 METAR MRLM NIL=
202102220400 METAR MRLM NIL=
202102220500 METAR MRLM NIL=
202102220600 METAR MRLM NIL=
202102220700 METAR MRLM NIL=
202102220800 METAR MRLM NIL=
202102220900 METAR MRLM NIL=
202102221000 METAR MRLM NIL=
202102221100 METAR MRLM NIL=
202102221200 METAR MRLM 221200Z 23004KT 9999 FEW015 BKN100 20/19 A2992=
202102221300 METAR MRLM 221300Z 23004KT 9999 VCSH FEW015TCU BKN100 22/20 A2993=
202102221400 METAR MRLM 221400Z 27002KT 9999 VCSH FEW015TCU BKN100 23/21 A2996=
202102221500 METAR MRLM 221500Z 23003KT 9999 -DZ FEW015 BKN100 24/22 A2998=
202102221600 METAR MRLM 221600Z 35002KT 9999 FEW020 SCT120 27/22 A2998=
202102221700 METAR MRLM 221700Z 06004KT 9999 FEW020 28/22 A2996=
202102221800 METAR MRLM 221800Z 06006KT 9999 FEW030 28/23 A2994=
202102221900 METAR MRLM 221900Z 07005KT 9999 FEW030 29/22 A2991=
202102222000 METAR MRLM 222000Z 06007KT CAVOK 29/22 A2989=
202102222100 METAR MRLM 222100Z 06008KT CAVOK 29/22 A2987=
202102222200 METAR MRLM 222200Z 05008KT CAVOK 28/22 A2988=
202102222300 METAR MRLM 222300Z 04006KT 9999 FEW020 SCT120 28/22 A2989=
202102230000 METAR MRLM 230000Z 07005KT 9999 FEW020 SCT110 27/21 A2990=
202102230100 METAR MRLM NIL=
202102230200 METAR MRLM NIL=
202102230300 METAR MRLM NIL=
202102230400 METAR MRLM NIL=
202102230500 METAR MRLM NIL=
202102230600 METAR MRLM NIL=
202102230700 METAR MRLM NIL=
202102230800 METAR MRLM NIL=
202102230900 METAR MRLM NIL=
202102231000 METAR MRLM NIL=
202102231100 METAR MRLM NIL=
202102231200 METAR MRLM 231200Z 22004KT CAVOK 21/20 A2994=
202102231300 METAR MRLM 231300Z 24004KT 9999 FEW020 SCT100 22/21 A2995=
202102231400 METAR MRLM 231400Z 25003KT CAVOK 25/21 A2996=
202102231500 METAR MRLM 231500Z 00000KT 9999 FEW030 28/21 A2997=
202102231600 METAR MRLM 231600Z 08003KT 9999 FEW030 28/21 A2996=
202102231700 METAR MRLM 231700Z 04007KT 9999 FEW030 SCT120 28/21 A2994=
202102231800 METAR MRLM 231800Z 02008KT 9999 FEW030 BKN120 29/22 A2991=
202102231900 METAR MRLM 231900Z 03008KT CAVOK 28/22 A2988=
202102232000 METAR MRLM 232000Z 02006KT 9999 FEW030 29/22 A2986=
202102232100 METAR MRLM 232100Z 02007KT 9999 FEW030 29/22 A2985=
202102232200 METAR MRLM 232200Z 01007KT 9999 FEW030 28/22 A2985=
202102232300 METAR MRLM 232300Z 03006KT 9999 SCT020 28/21 A2987=
202102240000 METAR MRLM 240000Z 01004KT 9999 SCT020 27/21 A2988=
202102240100 METAR MRLM NIL=
202102240200 METAR MRLM NIL=
202102240300 METAR MRLM NIL=
202102240400 METAR MRLM NIL=
202102240500 METAR MRLM NIL=
202102240600 METAR MRLM NIL=
202102240700 METAR MRLM NIL=
202102240800 METAR MRLM NIL=
202102240900 METAR MRLM NIL=
202102241000 METAR MRLM NIL=
202102241100 METAR MRLM NIL=
202102241200 METAR MRLM 241200Z 22004KT CAVOK 19/18 A2992=
202102241300 METAR MRLM 241300Z 22005KT CAVOK 21/19 A2994=
202102241400 METAR MRLM 241400Z 22005KT CAVOK 25/20 A2995=
202102241500 METAR MRLM 241500Z 19003KT CAVOK 28/21 A2995=
202102241600 METAR MRLM 241600Z 09005KT CAVOK 28/20 A2995=
202102241700 METAR MRLM 241700Z 11006KT CAVOK 29/19 A2993=
202102241800 METAR MRLM 241800Z 09007KT CAVOK 29/20 A2991=
202102241900 METAR MRLM 241900Z 08007KT CAVOK 29/21 A2989=
202102242000 METAR MRLM 242000Z 08006KT CAVOK 29/21 A2986=
202102242100 METAR MRLM 242100Z 07007KT CAVOK 29/22 A2985=
202102242200 METAR MRLM 242200Z 06006KT CAVOK 28/22 A2985=
202102242300 METAR MRLM 242300Z 07006KT CAVOK 28/22 A2986=
202102250000 METAR MRLM 250000Z 08006KT 9999 SCT025 27/23 A2989=
202102250100 METAR MRLM NIL=
202102250200 METAR MRLM NIL=
202102250300 METAR MRLM NIL=
202102250400 METAR MRLM NIL=
202102250500 METAR MRLM NIL=
202102250600 METAR MRLM NIL=
202102250700 METAR MRLM NIL=
202102250800 METAR MRLM NIL=
202102250900 METAR MRLM NIL=
202102251000 METAR MRLM NIL=
202102251100 METAR MRLM NIL=
202102251200 METAR MRLM 251200Z 34003KT 9999 FEW020 BKN090 23/22 A2991=
202102251300 METAR MRLM 251300Z 32006KT 3000 +DZ SCT020 BKN090 24/22 A2994=
202102251400 METAR MRLM 251400Z 26007KT 3000 RA BKN015 23/22 A2995=
202102251500 METAR MRLM 251500Z 20007KT 9999 DZ SCT020 OVC090 23/22 A2998 RERA=
202102251600 METAR MRLM 251600Z 21006KT 9999 FEW020 BKN110 25/23 A2999 REDZ=
202102251700 METAR MRLM 251700Z 23005KT 9999 SCT025 BKN120 26/23 A2997=
202102251800 METAR MRLM 251800Z 17003KT 9999 SCT025 BKN130 29/23 A2995=
202102251900 METAR MRLM 251900Z 05003KT 9999 FEW030 BKN130 29/22 A2993=
202102252000 METAR MRLM 252000Z 02003KT 9999 FEW030 SCT130 29/23 A2990=
202102252100 METAR MRLM 252100Z 06004KT 9999 FEW030 SCT140 29/23 A2989=
202102252200 METAR MRLM 252200Z 05003KT 9999 FEW030 28/23 A2989=
202102252300 METAR MRLM 252300Z 00000KT 9999 FEW030 28/22 A2990=
202102260000 METAR MRLM 260000Z 00000KT 9999 FEW020 26/24 A2992=
202102260100 METAR MRLM NIL=
202102260200 METAR MRLM NIL=
202102260300 METAR MRLM NIL=
202102260400 METAR MRLM NIL=
202102260500 METAR MRLM NIL=
202102260600 METAR MRLM NIL=
202102260700 METAR MRLM NIL=
202102260800 METAR MRLM NIL=
202102260900 METAR MRLM NIL=
202102261000 METAR MRLM NIL=
202102261100 METAR MRLM NIL=
202102261200 METAR MRLM 261200Z 22005KT 9999 VCSH FEW015TCU SCT100 21/20 A2988=
202102261300 METAR MRLM 261300Z 23003KT 8000 VCSH FEW015TCU SCT100 22/20 A2990=
202102261400 METAR MRLM 261400Z 23002KT 8000 VCSH FEW015TCU BKN100 23/21 A2993=
202102261500 METAR MRLM 261500Z 22005KT 8000 VCSH FEW015TCU BKN090 24/23 A2995=
202102261600 METAR MRLM 261600Z 21005KT 9999 FEW020 BKN100 26/23 A2995=
202102261700 METAR MRLM 261700Z 22005KT 9999 FEW020 SCT100 29/22 A2994=
202102261800 METAR MRLM 261800Z 11004KT 9999 FEW030 30/22 A2991=
202102261900 METAR MRLM 261900Z 08005KT 9999 FEW030 29/22 A2988=
202102262000 METAR MRLM 262000Z 05007KT CAVOK 30/23 A2984=
202102262100 METAR MRLM 262100Z 02009KT CAVOK 30/23 A2982=
202102262200 METAR MRLM 262200Z 02009KT 9999 FEW020 BKN120 28/23 A2983=
202102262300 METAR MRLM 262300Z 36006KT 9999 FEW020 BKN120 27/23 A2984=
202102270000 METAR MRLM 270000Z 04003KT 9999 FEW015 BKN100 27/24 A2985=
202102270100 METAR MRLM NIL=
202102270200 METAR MRLM NIL=
202102270300 METAR MRLM NIL=
202102270400 METAR MRLM NIL=
202102270500 METAR MRLM NIL=
202102270600 METAR MRLM NIL=
202102270700 METAR MRLM NIL=
202102270800 METAR MRLM NIL=
202102270900 METAR MRLM NIL=
202102271000 METAR MRLM NIL=
202102271100 METAR MRLM NIL=
202102271200 METAR MRLM 271200Z 22004KT 7000 -DZ VCSH FEW010TCU BKN090 23/22 A2986=
202102271300 METAR MRLM 271300Z 22003KT 8000 DZ SCT010 OVC090 23/22 A2988=
202102271400 METAR MRLM 271400Z 23004KT 9000 -DZ SCT010 OVC090 24/23 A2991=
202102271500 METAR MRLM 271500Z 22003KT 8000 SCT010 OVC090 25/23 A2992 REDZ=
202102271600 METAR MRLM 271600Z 22004KT 8000 -DZ SCT015 OVC090 25/24 A2993=
202102271700 METAR MRLM 271700Z 23004KT 9999 SCT015 BKN090 27/24 A2991=
202102271800 METAR MRLM 271800Z 06006KT 5000 -RA SCT010 OVC080 26/24 A2990=
202102271900 METAR MRLM 271900Z 08006KT 9000 FEW010 OVC080 26/23 A2987=
202102272000 MRLM 272000Z 21003KT 9999 SCT010 BKN080 27/24 A2985=
202102272100 MRLM 272100Z 09005KT 7000 RA SCT010 OVC080 27/24 A2984=
202102272200 MRLM 272200Z 08012KT 9999 FEW015TCU BKN080 28/24 A2984 RERA=
202102272300 MRLM 272300Z 21005KT 9999 SCT015 BKN080 25/24 A2985=
202102280000 METAR MRLM 280000Z 22004KT 8000 VCSH SCT010TCU BKN080 25/23 A2986=
202102280100 METAR MRLM NIL=
202102280200 METAR MRLM NIL=
202102280300 METAR MRLM NIL=
202102280400 METAR MRLM NIL=
202102280500 METAR MRLM NIL=
202102280600 METAR MRLM NIL=
202102280700 METAR MRLM NIL=
202102280800 METAR MRLM NIL=
202102280900 METAR MRLM NIL=
202102281000 METAR MRLM NIL=
202102281100 METAR MRLM NIL=
202102281200 METAR MRLM 281200Z 00000KT 9999 FEW015 BKN100 21/21 A2988=
202102281300 METAR MRLM 281300Z 00000KT 9999 FEW020 SCT110 22/21 A2990=
202102281400 METAR MRLM 281400Z 26003KT CAVOK 24/21 A2991=
202102281500 METAR MRLM 281500Z 08003KT CAVOK 26/21 A2993=
202102281600 METAR MRLM 281600Z 10004KT 9999 FEW030 SCT240 28/22 A2993=
202102281700 METAR MRLM 281700Z 10006KT CAVOK 29/22 A2991=
202102281800 METAR MRLM 281800Z 10006KT CAVOK 29/22 A2988=
202102281900 METAR MRLM 281900Z 10006KT CAVOK 29/22 A2985=
202102282000 METAR MRLM 282000Z 08008KT CAVOK 29/23 A2982=
202102282100 METAR MRLM 282100Z 07006KT CAVOK 29/22 A2979=
202102282200 METAR MRLM 282200Z 05010KT CAVOK 28/23 A2980=
202102282300 METAR MRLM 282300Z 05008KT CAVOK 28/23 A2980=
202103010000 METAR MRLM 010000Z 05008KT CAVOK 26/23 A2990=
202103010100 METAR MRLM NIL=
202103010200 METAR MRLM NIL=
202103010300 METAR MRLM NIL=
202103010400 METAR MRLM NIL=
202103010500 METAR MRLM NIL=
202103010600 METAR MRLM NIL=
202103010700 METAR MRLM NIL=
202103010800 METAR MRLM NIL=
202103010900 METAR MRLM NIL=
202103011000 METAR MRLM NIL=
202103011100 METAR MRLM NIL=
202103011200 METAR MRLM 011200Z 21004KT 9999 BKN020 22/21 A2986=
202103011300 METAR MRLM 011300Z 21004KT 9999 -DZ SCT020 OVC090 22/21 A2988=
202103011400 METAR MRLM 011400Z 21006KT 9999 BKN020 23/22 A2989=
202103011500 METAR MRLM 011500Z 21006KT 9999 BKN025 24/22 A2990=
202103011600 METAR MRLM 011600Z 26005KT 9999 -DZ BKN025 24/22 A2991=
202103011700 METAR MRLM 011700Z 24003KT 9999 DZ BKN025 26/23 A2989=
202103011800 METAR MRLM 011800Z 21008KT 9999 FEW025 BKN110 25/22 A2987 REDZ=
202103011900 METAR MRLM 011900Z 21007KT 9999 SCT030 BKN120 27/22 A2985=
202103012000 METAR MRLM 012000Z 20004KT 9999 FEW030 BKN120 27/22 A2982=
202103012100 METAR MRLM 012100Z 10003KT 9999 -DZ SCT025 OVC110 27/22 A2981=
202103012200 METAR MRLM 012200Z 02003KT 9999 SCT025 OVC110 27/22 A2981=
202103012300 METAR MRLM 012300Z 00000KT 9999 SCT020 OVC110 26/22 A2982=
202103020000 METAR MRLM 020000Z 21003KT 9999 SCT015 BKN100 25/22 A2984=
202103020100 METAR MRLM NIL=
202103020200 METAR MRLM NIL=
202103020300 METAR MRLM NIL=
202103020400 METAR MRLM NIL=
202103020500 METAR MRLM NIL=
202103020600 METAR MRLM NIL=
202103020700 METAR MRLM NIL=
202103020800 METAR MRLM NIL=
202103020900 METAR MRLM NIL=
202103021000 METAR MRLM NIL=
202103021100 METAR MRLM NIL=
202103021200 METAR MRLM 021200Z 24005KT 8000 VCSH FEW015TCU SCT100 22/21 A2989=
202103021300 METAR MRLM 021300Z 19002KT 8000 VCSH FEW015TCU SCT100 23/22 A2992=
202103021400 METAR MRLM 021400Z 25003KT 9999 VCSH FEW015TCU SCT100 26/22 A2994=
202103021500 METAR MRLM 021500Z 17003KT 9000 -DZ VCSH FEW015TCU BKN100 26/23 A2996=
202103021600 METAR MRLM 021600Z 16007KT 9999 FEW020TCU BKN110 26/22 A2996=
202103021700 METAR MRLM 021700Z 22004KT 9999 FEW020 SCT110 27/23 A2995=
202103021800 METAR MRLM 021800Z 02003KT 9999 FEW020TCU 28/23 A2992=
202103021900 METAR MRLM 021900Z 06004KT 9999 FEW020TCU 28/23 A2990=
202103022000 METAR MRLM 022000Z 07004KT 9999 FEW020TCU SCT120 29/23 A2988=
202103022100 METAR MRLM 022100Z 01010KT 9999 FEW020 SCT120 27/23 A2987=
202103022200 METAR MRLM 022200Z 04003KT 9999 SCT020 28/23 A2987=
202103022300 METAR MRLM 022300Z 06007KT 9999 SCT020TCU 28/22 A2987=
202103030000 METAR MRLM 030000Z 18004KT 9999 VCSH SCT015TCU 25/22 A2988=
202103030100 METAR MRLM NIL=
202103030200 METAR MRLM NIL=
202103030300 METAR MRLM NIL=
202103030400 METAR MRLM NIL=
202103030500 METAR MRLM NIL=
202103030600 METAR MRLM NIL=
202103030700 METAR MRLM NIL=
202103030800 METAR MRLM NIL=
202103030900 METAR MRLM NIL=
202103031000 METAR MRLM NIL=
202103031100 METAR MRLM NIL=
202103031200 METAR MRLM 031200Z 23004KT CAVOK 20/19 A2994=
202103031300 METAR MRLM 031300Z 23004KT CAVOK 22/20 A2996=
202103031400 METAR MRLM 031400Z 22004KT CAVOK 25/21 A2998=
202103031500 METAR MRLM 031500Z 12003KT 9999 FEW025 BKN220 28/22 A2999=
202103031600 METAR MRLM 031600Z 07004KT CAVOK 28/22 A2999=
202103031700 METAR MRLM 031700Z 08004KT CAVOK 28/22 A2997=
202103031800 METAR MRLM 031800Z 06005KT CAVOK 28/22 A2994=
202103031900 METAR MRLM 031900Z 06004KT CAVOK 28/22 A2992=
202103032000 METAR MRLM 032000Z 06006KT 9999 FEW030 BKN220 29/22 A2991=
202103032100 METAR MRLM 032100Z 05010KT 9999 FEW030 BKN220 29/22 A2989=
202103032200 METAR MRLM 032200Z 05009KT 9999 FEW030 BKN220 28/22 A2989=
202103032300 METAR MRLM 032300Z 05006KT 9999 FEW020 BKN220 28/21 A2991=
202103040000 METAR MRLM 040000Z 06007KT 9999 FEW020 BKN200 27/22 A2992=
202103040100 METAR MRLM NIL=
202103040200 METAR MRLM NIL=
202103040300 METAR MRLM NIL=
202103040400 METAR MRLM NIL=
202103040500 METAR MRLM NIL=
202103040600 METAR MRLM NIL=
202103040700 METAR MRLM NIL=
202103040800 METAR MRLM NIL=
202103040900 METAR MRLM NIL=
202103041000 METAR MRLM NIL=
202103041100 METAR MRLM NIL=
202103041200 METAR MRLM 041200Z 23005KT 9999 FEW015 BKN090 20/19 A2998=
202103041300 METAR MRLM 041300Z 25004KT CAVOK 21/19 A3000=
202103041400 METAR MRLM 041400Z 25005KT CAVOK 24/20 A3001=
202103041500 METAR MRLM 041500Z 25005KT CAVOK 27/21 A3002=
202103041600 METAR MRLM 041600Z 25003KT CAVOK 29/21 A3000=
202103041700 METAR MRLM 041700Z 06005KT CAVOK 28/21 A2999=
202103041800 METAR MRLM 041800Z 09003KT 9999 FEW020 OVC130 28/21 A2997=
202103041900 METAR MRLM 041900Z 02018KT 9999 BKN020 26/22 A2996=
202103042000 METAR MRLM 042000Z 36012KT 9999 FEW020 BKN130 29/20 A2992=
202103042100 METAR MRLM 042100Z 23005KT 9999 FEW020 BKN130 28/20 A2990=
202103042200 METAR MRLM 042200Z 23003KT CAVOK 27/20 A2990=
202103042300 METAR MRLM 042300Z 00000KT 9999 SCT020 BKN120 27/20 A2991=
202103050000 METAR MRLM 050000Z 33005KT 9999 SCT015 BKN110 26/21 A2994=
202103050100 METAR MRLM NIL=
202103050200 METAR MRLM NIL=
202103050300 METAR MRLM NIL=
202103050400 METAR MRLM NIL=
202103050500 METAR MRLM NIL=
202103050600 METAR MRLM NIL=
202103050700 METAR MRLM NIL=
202103050800 METAR MRLM NIL=
202103050900 METAR MRLM NIL=
202103051000 METAR MRLM NIL=
202103051100 METAR MRLM NIL=
202103051200 METAR MRLM 051200Z 24004KT CAVOK 22/20 A2992=
202103051300 METAR MRLM 051300Z 24005KT 9999 FEW015 SCT120 23/20 A2994=
202103051400 METAR MRLM 051400Z 00000KT 9999 SCT020 BKN120 25/21 A2996=
202103051500 METAR MRLM 051500Z 09003KT 9999 FEW025 BKN130 27/21 A2997=
202103051600 METAR MRLM 051600Z 09005KT 9999 FEW020 BKN120 27/20 A2998=
202103051700 METAR MRLM 051700Z 01008KT 9999 FEW020 BKN130 27/21 A2996=
202103051800 METAR MRLM 051800Z 11005KT 9999 FEW020 BKN130 27/22 A2992=
202103051900 METAR MRLM 051900Z 10007KT 9999 FEW025 SCT130 29/21 A2989=
202103052000 METAR MRLM 052000Z 10005KT CAVOK 29/21 A2987=
202103052100 METAR MRLM 052100Z 10005KT CAVOK 28/20 A2985=
202103052200 METAR MRLM 052200Z 09005KT CAVOK 27/21 A2984=
202103052300 METAR MRLM 052300Z 09004KT CAVOK 27/21 A2984=
202103060000 METAR MRLM 060000Z 10004KT CAVOK 26/22 A2989=
202103060100 METAR MRLM NIL=
202103060200 METAR MRLM NIL=
202103060300 METAR MRLM NIL=
202103060400 METAR MRLM NIL=
202103060500 METAR MRLM NIL=
202103060600 METAR MRLM NIL=
202103060700 METAR MRLM NIL=
202103060900 METAR MRLM NIL=
202103061000 METAR MRLM NIL=
202103061200 METAR MRLM 061200Z 21004KT 9999 -DZ VCSH FEW015TCU OVC100 22/21 A2992=
202103061300 METAR MRLM 061300Z 14005KT 9999 -DZ VCSH FEW015TCU OVC100 22/21 A2994=
202103061400 METAR MRLM 061400Z 21005KT 9999 VCSH FEW015TCU BKN100 22/21 A2995=
202103061500 METAR MRLM 061500Z 21004KT 9999 FEW015 BKN100 25/22 A2996=
202103061600 METAR MRLM 061600Z 06002KT 9999 FEW020 BKN100 27/21 A2996=
202103061700 METAR MRLM 061700Z 08003KT 9999 FEW020 SCT120 27/21 A2994=
202103061800 METAR MRLM 061800Z 07004KT 9999 FEW020 SCT120 28/21 A2992=
202103061900 METAR MRLM 061900Z 06006KT 9999 FEW020 BKN120 28/21 A2989=
202103062000 METAR MRLM 062000Z 04006KT 9999 FEW020 SCT120 28/21 A2987=
202103062100 METAR MRLM 062100Z 05006KT 9999 FEW020 SCT120 28/21 A2985=
202103062200 METAR MRLM 062200Z 06004KT 9999 FEW020 SCT120 27/20 A2985=
202103062300 METAR MRLM 062300Z 05004KT 9999 FEW020 27/20 A2986=
202103070000 METAR MRLM 070000Z 06004KT 9999 FEW015 SCT100 27/19 A2987=
202103070100 METAR MRLM NIL=
202103070200 METAR MRLM NIL=
202103070300 METAR MRLM NIL=
202103070400 METAR MRLM NIL=
202103070500 METAR MRLM NIL=
202103070600 METAR MRLM NIL=
202103070700 METAR MRLM NIL=
202103070800 METAR MRLM NIL=
202103070900 METAR MRLM NIL=
202103071000 METAR MRLM NIL=
202103071100 METAR MRLM NIL=
202103071200 METAR MRLM 071200Z 23005KT 9999 FEW015 19/18 A2998=
202103071300 METAR MRLM 071300Z 22005KT 9999 FEW015 SCT100 22/19 A3000=
202103071400 METAR MRLM 071400Z 23004KT 9999 FEW020 25/20 A3001=
202103071500 METAR MRLM 071500Z 09003KT 9999 FEW020 28/20 A3002=
202103071600 METAR MRLM 071600Z 06004KT 9999 FEW030 28/20 A3002=
202103071700 METAR MRLM 071700Z 03006KT 9999 FEW030 28/21 A3000=
202103071800 METAR MRLM 071800Z 02007KT 9999 FEW030 28/21 A2997=
202103071900 METAR MRLM 071900Z 02008KT CAVOK 28/20 A2994=
202103072000 METAR MRLM 072000Z 02009KT CAVOK 29/21 A2992=
202103072100 METAR MRLM 072100Z 02009KT CAVOK 29/20 A2991=
202103072200 METAR MRLM 072200Z 02007KT CAVOK 29/19 A2991=
202103072300 METAR MRLM 072300Z 02006KT CAVOK 28/20 A2992=
202103080000 METAR MRLM 080000Z 29002KT CAVOK 24/20 A2994=
202103080100 METAR MRLM NIL=
202103080200 METAR MRLM NIL=
202103080300 METAR MRLM NIL=
202103080400 METAR MRLM NIL=
202103080500 METAR MRLM NIL=
202103080600 METAR MRLM NIL=
202103080700 METAR MRLM NIL=
202103080800 METAR MRLM NIL=
202103080900 METAR MRLM NIL=
202103081000 METAR MRLM NIL=
202103081100 METAR MRLM NIL=
202103081200 METAR MRLM 081200Z 24005KT 9999 FEW015 BKN100 20/18 A2998=
202103081300 METAR MRLM 081300Z 25005KT 9999 FEW015 BKN100 21/18 A3001=
202103081400 METAR MRLM 081400Z 23006KT 9999 DZ FEW020 BKN110 22/19 A3005=
202103081500 METAR MRLM 081500Z 23007KT 9999 FEW020 BKN110 22/19 A3008 REDZ=
202103081600 METAR MRLM 081600Z 21006KT 9999 SCT020 BKN110 22/20 A3009=
202103081700 METAR MRLM 081700Z 22006KT 9999 DZ SCT020 BKN110 23/20 A3007=
202103081800 METAR MRLM 081800Z 22006KT 9999 FEW020 BKN120 25/21 A3005 REDZ=
202103081900 METAR MRLM 081900Z 23004KT CAVOK 26/21 A3002=
202103082000 METAR MRLM 082000Z 24005KT CAVOK 27/22 A2998=
202103082100 METAR MRLM 082100Z 26003KT 9999 FEW030 OVC130 27/22 A2997=
202103082200 METAR MRLM 082200Z 23003KT 9999 SCT025 OVC130 26/22 A2997=
202103082300 METAR MRLM 082300Z 12006KT 4000 +DZ BKN020 23/22 A3000=
202103090000 METAR MRLM 090000Z 16003KT 6000 DZ SCT015 OVC100 23/22 A3001=
202103090100 METAR MRLM NIL=
202103090200 METAR MRLM NIL=
202103090300 METAR MRLM NIL=
202103090400 METAR MRLM NIL=
202103090500 METAR MRLM NIL=
202103090600 METAR MRLM NIL=
202103090700 METAR MRLM NIL=
202103090800 METAR MRLM NIL=
202103090900 METAR MRLM NIL=
202103091000 METAR MRLM NIL=
202103091100 METAR MRLM NIL=
202103091200 METAR MRLM 091200Z 24004KT 9999 SCT015 22/21 A2999=
202103091300 METAR MRLM 091300Z 26003KT 9999 FEW015 23/22 A3002=
202103091400 METAR MRLM 091400Z 24005KT 9999 FEW025 BKN240 26/23 A3002=
202103091500 METAR MRLM 091500Z 05005KT CAVOK 28/23 A3003=
202103091600 METAR MRLM 091600Z 01008KT 9999 FEW025 BKN130 28/23 A3003=
202103091700 METAR MRLM 091700Z 01009KT CAVOK 28/23 A3002=
202103091800 METAR MRLM 091800Z 01009KT CAVOK 28/23 A2999=
202103091900 METAR MRLM 091900Z 03003KT 9999 SCT030 BKN130 28/22 A2996=
202103092000 METAR MRLM 092000Z 07003KT 9999 FEW030 SCT130 28/22 A2993=
202103092100 METAR MRLM 092100Z 07003KT 9999 FEW020 BKN130 28/22 A2991=
202103092200 METAR MRLM 092200Z 00000KT 9999 FEW020 BKN130 28/22 A2991=
202103092300 METAR MRLM 092300Z 00000KT 9999 FEW015 BKN120 27/22 A2992=
202103100000 METAR MRLM 100000Z 00000KT 9999 SCT015 BKN120 27/23 A2995=
202103100100 METAR MRLM NIL=
202103100200 METAR MRLM NIL=
202103100300 METAR MRLM NIL=
202103100400 METAR MRLM NIL=
202103100500 METAR MRLM NIL=
202103100600 METAR MRLM NIL=
202103100700 METAR MRLM NIL=
202103100800 METAR MRLM NIL=
202103100900 METAR MRLM NIL=
202103101000 METAR MRLM NIL=
202103101100 METAR MRLM NIL=
202103101200 METAR MRLM 101200Z 21005KT 9999 FEW015TCU 22/21 A2996=
202103101300 METAR MRLM 101300Z 25002KT 9999 FEW020 23/22 A2997=
202103101400 METAR MRLM 101400Z 21002KT CAVOK 27/23 A2998=
202103101500 METAR MRLM 101500Z 28002KT CAVOK 28/23 A2999=
202103101600 METAR MRLM 101600Z 07004KT CAVOK 28/23 A2999=
202103101700 METAR MRLM 101700Z 05009KT CAVOK 29/23 A2998=
202103101800 METAR MRLM 101800Z 05010KT CAVOK 29/23 A2995=
202103101900 METAR MRLM 101900Z 06010KT CAVOK 29/23 A2992=
202103102000 METAR MRLM 102000Z 06011KT CAVOK 29/24 A2989=
202103102100 METAR MRLM 102100Z 06007KT CAVOK 29/22 A2988=
202103102200 METAR MRLM 102200Z 07006KT 9999 FEW025 SCT120 29/23 A2989=
202103102300 METAR MRLM 102300Z 07011KT 9999 FEW025 BKN120 28/23 A2991=
202103110000 METAR MRLM 110000Z 12003KT CAVOK 26/22 A2992=
202103110100 METAR MRLM NIL=
202103110200 METAR MRLM NIL=
202103110300 METAR MRLM NIL=
202103110400 METAR MRLM NIL=
202103110500 METAR MRLM NIL=
202103110600 METAR MRLM NIL=
202103110700 METAR MRLM NIL=
202103110800 METAR MRLM NIL=
202103110900 METAR MRLM NIL=
202103111000 METAR MRLM NIL=
202103111100 METAR MRLM NIL=
202103111200 METAR MRLM 111200Z 23004KT 9999 FEW015TCU SCT100 21/20 A2997=
202103111300 METAR MRLM 111300Z 23004KT 9999 FEW015 BKN100 22/21 A2998=
202103111400 METAR MRLM 111400Z 24003KT CAVOK 26/22 A3000=
202103111500 METAR MRLM 111500Z 01004KT 9999 FEW020 BKN120 27/23 A3002=
202103111600 METAR MRLM 111600Z 36007KT 9999 FEW020 BKN120 28/23 A3002=
202103111700 METAR MRLM 111700Z 02005KT 9999 FEW020 BKN120 27/22 A3002=
202103111800 METAR MRLM 111800Z 07006KT 9999 FEW025 BKN120 27/23 A2999=
202103111900 METAR MRLM 111900Z 04004KT 9999 FEW025 SCT120 28/22 A2996=
202103112000 METAR MRLM 112000Z 04006KT CAVOK 28/23 A2993=
202103112100 METAR MRLM 112100Z 03006KT CAVOK 28/22 A2991=
202103112200 METAR MRLM 112200Z 04005KT CAVOK 28/21 A2991=
202103112300 METAR MRLM 112300Z 04003KT CAVOK 27/22 A2992=
202103120000 METAR MRLM 120000Z 02003KT CAVOK 27/22 A2992=
202103120100 METAR MRLM NIL=
202103120200 METAR MRLM NIL=
202103120300 METAR MRLM NIL=
202103120400 METAR MRLM NIL=
202103120500 METAR MRLM NIL=
202103120600 METAR MRLM NIL=
202103120700 METAR MRLM NIL=
202103120800 METAR MRLM NIL=
202103120900 METAR MRLM NIL=
202103121000 METAR MRLM NIL=
202103121100 METAR MRLM NIL=
202103121200 METAR MRLM 121200Z 23005KT 9999 FEW010 SCT240 20/19 A2998=
202103121300 METAR MRLM 121300Z 23004KT 9999 FEW015 BKN130 21/20 A3001=
202103121400 METAR MRLM 121400Z 22005KT CAVOK 26/22 A3003=
202103121500 METAR MRLM 121500Z 00000KT CAVOK 28/23 A3004=
202103121600 METAR MRLM 121600Z 04004KT 9999 FEW025 SCT140 28/23 A3003=
202103121700 METAR MRLM 121700Z 04006KT 9999 FEW030 SCT140 28/23 A3002=
202103121800 METAR MRLM 121800Z 05007KT 9999 FEW030 29/23 A2999=
202103121900 METAR MRLM 121900Z 05008KT 9999 FEW030 29/22 A2996=
202103122000 METAR MRLM 122000Z 05007KT 9999 FEW030 29/22 A2994=
202103122100 METAR MRLM 122100Z 05007KT 9999 BKN030 29/23 A2992=
202103122200 METAR MRLM 122200Z 06005KT 9999 BKN030 28/22 A2991=
202103122300 METAR MRLM 122300Z 06005KT 9999 BKN030 28/22 A2991=
202103130000 METAR MRLM 130000Z 05004KT 9999 BKN020 27/22 A2995=
202103130100 METAR MRLM NIL=
202103130200 METAR MRLM NIL=
202103130300 METAR MRLM NIL=
202103130400 METAR MRLM NIL=
202103130500 METAR MRLM NIL=
202103130600 METAR MRLM NIL=
202103130700 METAR MRLM NIL=
202103130800 METAR MRLM NIL=
202103130900 METAR MRLM NIL=
202103131000 METAR MRLM NIL=
202103131100 METAR MRLM NIL=
202103131200 METAR MRLM 131200Z 24005KT 9999 BKN015 22/21 A2998=
202103131300 METAR MRLM 131300Z 23004KT 9999 FEW020 BKN130 24/22 A3002=
202103131400 METAR MRLM 131400Z 23004KT 9999 FEW025 26/23 A3003=
202103131500 METAR MRLM 131500Z 00000KT 9999 FEW030 28/21 A3003=
202103131600 METAR MRLM 131600Z 00000KT 9999 FEW030 28/21 A3003=
202103131700 METAR MRLM 131700Z 05006KT 9999 FEW030 29/22 A3002=
202103131800 METAR MRLM 131800Z 05008KT CAVOK 29/22 A2999=
202103131900 METAR MRLM 131900Z 05009KT CAVOK 29/22 A2997=
202103132000 METAR MRLM 132000Z 05010KT CAVOK 29/22 A2994=
202103132100 METAR MRLM 132100Z 05010KT CAVOK 29/23 A2992=
202103132200 METAR MRLM 132200Z 05008KT 9999 FEW030 29/23 A2992=
202103132300 METAR MRLM 132300Z 06006KT 9999 BKN025 28/23 A2992=
202103140000 METAR MRLM 140000Z 06006KT 9999 BKN020 27/22 A2995=
202103140100 METAR MRLM NIL=
202103140200 METAR MRLM NIL=
202103140300 METAR MRLM NIL=
202103140400 METAR MRLM NIL=
202103140500 METAR MRLM NIL=
202103140600 METAR MRLM NIL=
202103140700 METAR MRLM NIL=
202103140800 METAR MRLM NIL=
202103140900 METAR MRLM NIL=
202103141000 METAR MRLM NIL=
202103141100 METAR MRLM NIL=
202103141200 METAR MRLM 141200Z 25004KT 9999 FEW015TCU SCT100 21/20 A2997=
202103141300 METAR MRLM 141300Z 23004KT 9999 FEW015TCU SCT100 23/21 A2999=
202103141400 METAR MRLM 141400Z 22003KT 9999 FEW020 SCT120 26/22 A3001=
202103141500 METAR MRLM 141500Z 09003KT 9999 FEW020 SCT120 28/22 A3001=
202103141600 METAR MRLM 141600Z 11005KT CAVOK 28/22 A3002=
202103141700 METAR MRLM 141700Z 09006KT 9999 FEW030 SCT240 29/22 A3000=
202103141800 METAR MRLM 141800Z 07009KT 9999 FEW030 SCT240 29/23 A2997=
202103141900 METAR MRLM 141900Z 07007KT CAVOK 28/21 A2994=
202103142000 METAR MRLM 142000Z 06007KT CAVOK 29/22 A2991=
202103142100 METAR MRLM 142100Z 06006KT 9999 FEW030 SCT240 29/22 A2989=
202103142200 METAR MRLM 142200Z 07007KT 9999 SCT025 SCT240 28/23 A2988=
202103142300 METAR MRLM 142300Z 09007KT 9999 FEW025 SCT220 27/22 A2989=
202103150000 METAR MRLM 150000Z 09006KT 9999 SCT020 SCT220 27/23 A2990=
202103150100 METAR MRLM NIL=
202103150200 METAR MRLM NIL=
202103150300 METAR MRLM NIL=
202103150400 METAR MRLM NIL=
202103150500 METAR MRLM NIL=
202103150600 METAR MRLM NIL=
202103150700 METAR MRLM NIL=
202103150800 METAR MRLM NIL=
202103150900 METAR MRLM NIL=
202103151000 METAR MRLM NIL=
202103151100 METAR MRLM NIL=
202103151200 METAR MRLM 151200Z 24003KT 9999 VCSH FEW015TCU SCT090 20/19 A2994=
202103151300 METAR MRLM 151300Z 23004KT 9999 VCSH FEW015TCU SCT090 22/20 A2997=
202103151400 METAR MRLM 151400Z 23004KT 9999 FEW020TCU SCT100 24/22 A2999=
202103151500 METAR MRLM 151500Z 16002KT 9999 FEW020 BKN120 28/22 A3000=
202103151600 METAR MRLM 151600Z 06003KT 9999 FEW020 BKN120 28/21 A3000=
202103151700 METAR MRLM 151700Z 12011KT 9999 FEW025 BKN120 28/22 A2998=
202103151800 METAR MRLM 151800Z 10006KT 9999 FEW025 BKN120 28/22 A2996=
202103151900 METAR MRLM 151900Z 08005KT 9999 FEW025 SCT120 29/22 A2993=
202103152000 METAR MRLM 152000Z 07004KT 9999 FEW025 SCT120 28/22 A2990=
202103152100 METAR MRLM 152100Z 05005KT 9999 FEW025 SCT240 29/22 A2988=
202103152200 METAR MRLM 152200Z 05005KT 9999 SCT020 SCT240 28/22 A2988=
202103152300 METAR MRLM 152300Z 05005KT 9999 SCT020 BKN110 28/21 A2989=
202103160000 METAR MRLM 160000Z 05006KT 9999 SCT015 BKN100 27/22 A2989=
202103160100 METAR MRLM NIL=
202103160200 METAR MRLM NIL=
202103160300 METAR MRLM NIL=
202103160400 METAR MRLM NIL=
202103160500 METAR MRLM NIL=
202103160600 METAR MRLM NIL=
202103160700 METAR MRLM NIL=
202103160800 METAR MRLM NIL=
202103160900 METAR MRLM NIL=
202103161000 METAR MRLM NIL=
202103161100 METAR MRLM NIL=
202103161200 METAR MRLM 161200Z 23003KT CAVOK 22/20 A2991=
202103161300 METAR MRLM 161300Z 26004KT CAVOK 23/21 A2994=
202103161400 METAR MRLM 161400Z 24005KT CAVOK 26/21 A2995=
202103161500 METAR MRLM 161500Z 06003KT 9999 FEW030 BKN130 27/22 A2997=
202103161600 METAR MRLM 161600Z 02007KT 9999 FEW030 BKN140 28/22 A2996=
202103161700 METAR MRLM 161700Z 02007KT 9999 FEW030 BKN140 28/22 A2995=
202103161800 METAR MRLM 161800Z 10011KT 9999 BKN025 29/22 A2993=
202103161900 METAR MRLM 161900Z 10015KT 9999 FEW030 BKN140 28/22 A2990=
202103162000 METAR MRLM 162000Z 11010KT CAVOK 29/21 A2987=
202103162100 METAR MRLM 162100Z 10008KT CAVOK 29/20 A2985=
202103162200 METAR MRLM 162200Z 10006KT CAVOK 28/20 A2985=
202103162300 METAR MRLM 162300Z 06004KT CAVOK 27/21 A2986=
202103170000 METAR MRLM 170000Z 08004KT CAVOK 27/21 A2990=
202103170100 METAR MRLM NIL=
202103170200 METAR MRLM NIL=
202103170300 METAR MRLM NIL=
202103170400 METAR MRLM NIL=
202103170500 METAR MRLM NIL=
202103170600 METAR MRLM NIL=
202103170700 METAR MRLM NIL=
202103170800 METAR MRLM NIL=
202103170900 METAR MRLM NIL=
202103171000 METAR MRLM NIL=
202103171100 METAR MRLM NIL=
202103171200 METAR MRLM 171200Z 24005KT CAVOK 21/20 A2989=
202103171300 METAR MRLM 171300Z 24004KT CAVOK 22/20 A2989=
202103171400 METAR MRLM 171400Z 26003KT CAVOK 26/21 A2991=
202103171500 METAR MRLM 171500Z 31003KT CAVOK 28/21 A2991=
202103171600 METAR MRLM 171600Z 02010KT 9999 FEW030 BKN250 28/22 A2992=
202103171700 METAR MRLM 171700Z 36010KT CAVOK 29/22 A2991=
202103171800 METAR MRLM 171800Z 35011KT CAVOK 29/23 A2989=
202103171900 METAR MRLM 171900Z 36012KT 9999 FEW025 BKN250 29/22 A2987=
202103172000 METAR MRLM 172000Z 35013KT 9999 BKN025 28/23 A2983=
202103172100 METAR MRLM 172100Z 36008KT 9999 BKN025 27/24 A2982=
202103172200 METAR MRLM 172200Z 02008KT 9999 SCT025 BKN130 27/24 A2981=
202103172300 METAR MRLM 172300Z 34004KT 9999 BKN020 27/23 A2982=
202103180000 METAR MRLM 180000Z 27003KT 9999 BKN020 26/23 A2986=
202103180100 METAR MRLM NIL=
202103180200 METAR MRLM NIL=
202103180300 METAR MRLM NIL=
202103180400 METAR MRLM NIL=
202103180500 METAR MRLM NIL=
202103180600 METAR MRLM NIL=
202103180700 METAR MRLM NIL=
202103180800 METAR MRLM NIL=
202103180900 METAR MRLM NIL=
202103181000 METAR MRLM NIL=
202103181100 METAR MRLM NIL=
202103181200 METAR MRLM 181200Z 23003KT CAVOK 22/21 A2987=
202103181300 METAR MRLM 181300Z 23003KT CAVOK 24/22 A2989=
202103181400 METAR MRLM 181400Z 27004KT CAVOK 27/23 A2991=
202103181500 METAR MRLM 181500Z 29005KT CAVOK 28/23 A2991=
202103181600 METAR MRLM 181600Z 36008KT 9999 FEW030 SCT220 29/24 A2992=
202103181700 METAR MRLM 181700Z 01011KT 9999 FEW030 SCT220 29/24 A2991=
202103181800 METAR MRLM 181800Z 36012KT CAVOK 29/24 A2989=
202103181900 METAR MRLM 181900Z 01013KT CAVOK 29/24 A2987=
202103182000 METAR MRLM 182000Z 01011KT CAVOK 30/25 A2984=
202103182100 METAR MRLM 182100Z 02006KT 9999 FEW030 SCT240 29/24 A2983=
202103182200 METAR MRLM 182200Z 05004KT 9999 FEW030 BKN240 28/24 A2983=
202103182300 METAR MRLM 182300Z 08006KT 9999 FEW020 BKN220 28/24 A2984=
202103190000 METAR MRLM 190000Z 08005KT 9999 FEW020 BKN220 27/24 A2984=
202103190100 METAR MRLM NIL=
202103190200 METAR MRLM NIL=
202103190300 METAR MRLM NIL=
202103190400 METAR MRLM NIL=
202103190600 METAR MRLM NIL=
202103190700 METAR MRLM NIL=
202103190800 METAR MRLM NIL=
202103190900 METAR MRLM NIL=
202103191000 METAR MRLM NIL=
202103191100 METAR MRLM NIL=
202103191200 METAR MRLM 191200Z 22005KT 5000 RA SCT010TCU OVC070 24/23 A2989=
202103191300 METAR MRLM 191300Z 22005KT 6000 DZ VCSH FEW010TCU OVC070 24/23 A2991 RERA=
202103191400 METAR MRLM 191400Z 20008KT 4000 +RA SCT010TCU OVC070 23/23 A2995=
202103191500 METAR MRLM 191500Z 23005KT 5000 +DZ SCT010 OVC070 23/23 A2996=
202103191600 MRLM 191600Z 23005KT 7000 +DZ SCT015 OVC080 24/23 A2996=
202103191700 METAR MRLM 191700Z 23005KT 7000 +DZ SCT015 OVC080 24/23 A2996=
202103191800 METAR MRLM 191800Z 24004KT 8000 SCT015 BKN080 27/24 A2993 REDZ=
202103191900 METAR MRLM 191900Z 01005KT 7000 DZ FEW015TCU BKN080 25/23 A2991=
202103192000 METAR MRLM 192000Z 26004KT 8000 DZ FEW015TCU BKN090 25/24 A2987=
202103192100 METAR MRLM 192100Z 24004KT 9999 FEW015TCU SCT100 BKN200 27/24 A2985=
202103192200 METAR MRLM 192200Z 26003KT 9999 VCSH FEW015TCU BKN100 27/23 A2986=
202103192300 METAR MRLM 192300Z 05010KT 5000 +DZ FEW010 OVC080 24/23 A2987 RERA=
202103200000 METAR MRLM 200000Z 24004KT 5000 +DZ VCSH FEW010TCU OVC080 23/23 A2989=
202103200100 METAR MRLM NIL=
202103200200 METAR MRLM NIL=
202103200300 METAR MRLM NIL=
202103200400 METAR MRLM NIL=
202103200500 METAR MRLM NIL=
202103200600 METAR MRLM NIL=
202103200700 METAR MRLM NIL=
202103200800 METAR MRLM NIL=
202103200900 METAR MRLM NIL=
202103201000 METAR MRLM NIL=
202103201100 METAR MRLM NIL=
202103201200 METAR MRLM 201200Z 23005KT 9999 -DZ BKN015 23/22 A2993 NOSIG=
202103201300 METAR MRLM 201300Z 24003KT 9999 DZ BKN015 23/22 A2996=
202103201400 METAR MRLM 201400Z 25007KT 9999 4000N DZ BKN015 24/22 A2999=
202103201500 METAR MRLM 201500Z 24006KT 9999 SCT015 BKN090 24/23 A3000 REDZ=
202103201600 METAR MRLM 201600Z 24007KT 9999 FEW020 BKN100 26/23 A3000=
202103201700 METAR MRLM 201700Z 22005KT 9999 SCT020 BKN110 27/23 A2997=
202103201800 METAR MRLM 201800Z 23004KT 9999 SCT025 28/23 A2995=
202103201900 METAR MRLM 201900Z 07004KT 9999 FEW030 SCT130 28/23 A2992=
202103202000 METAR MRLM 202000Z 02004KT 9999 SCT030 29/22 A2990=
202103202100 METAR MRLM 202100Z 02004KT 9999 FEW030 SCT240 28/23 A2989=
202103202200 METAR MRLM 202200Z 04004KT 9999 FEW025 SCT240 28/22 A2989=
202103202300 METAR MRLM 202300Z 02006KT 9999 FEW025 SCT240 28/23 A2990=
202103210000 METAR MRLM 210000Z 02007KT 9999 BKN020 27/23 A2992=
202103210100 METAR MRLM NIL=
202103210200 METAR MRLM NIL=
202103210300 METAR MRLM NIL=
202103210400 METAR MRLM NIL=
202103210500 METAR MRLM NIL=
202103210600 METAR MRLM NIL=
202103210700 METAR MRLM NIL=
202103210800 METAR MRLM NIL=
202103210900 METAR MRLM NIL=
202103211000 METAR MRLM NIL=
202103211100 METAR MRLM NIL=
202103211200 METAR MRLM 211200Z 00000KT CAVOK 22/21 A2992=
202103211300 METAR MRLM 211300Z 23003KT CAVOK 23/22 A2994=
202103211400 METAR MRLM 211400Z 22003KT 9999 FEW015 BKN130 25/23 A2997=
202103211500 METAR MRLM 211500Z 28004KT 9999 FEW015 BKN130 26/22 A2997=
202103211600 METAR MRLM 211600Z 30003KT 9999 FEW020 BKN130 27/22 A2997=
202103211700 METAR MRLM 211700Z 02006KT 9999 SCT020 BKN120 26/22 A2997=
202103211800 METAR MRLM 211800Z 02006KT CAVOK 25/21 A2994=
202103211900 METAR MRLM 211900Z 00000KT CAVOK 28/22 A2991=
202103212000 METAR MRLM 212000Z 01011KT 9999 SCT025 BKN130 27/22 A2990=
202103212100 METAR MRLM 212100Z 01009KT 9999 4000N DZ BKN020 24/23 A2990=
202103212200 METAR MRLM 212200Z 02010KT 5000 DZ BKN020 24/22 A2991=
202103212300 METAR MRLM 212300Z 24006KT 7000 DZ BKN020 22/21 A2992=
202103220000 METAR MRLM 220000Z 23003KT 7000 BKN020 22/21 A2993=
202103220100 METAR MRLM NIL=
202103220200 METAR MRLM NIL=
202103220300 METAR MRLM NIL=
202103220400 METAR MRLM NIL=
202103220500 METAR MRLM NIL=
202103220600 METAR MRLM NIL=
202103220700 METAR MRLM NIL=
202103220800 METAR MRLM NIL=
202103220900 METAR MRLM NIL=
202103221000 METAR MRLM NIL=
202103221100 METAR MRLM NIL=
202103221200 METAR MRLM 221200Z 23005KT CAVOK 21/20 A2993=
202103221300 METAR MRLM 221300Z 23004KT CAVOK 22/20 A2994=
202103221400 METAR MRLM 221400Z 23003KT CAVOK 24/21 A2996=
202103221500 METAR MRLM 221500Z 18003KT 9999 FEW020 SCT120 27/22 A2998=
202103221600 METAR MRLM 221600Z 05003KT 9999 FEW020 SCT120 28/22 A2997=
202103221700 METAR MRLM 221700Z 08002KT 9999 FEW020 BKN120 27/22 A2995=
202103221800 METAR MRLM 221800Z 07005KT 9999 FEW025 BKN120 28/23 A2993=
202103221900 METAR MRLM 221900Z 09009KT 9999 SCT025 BKN120 28/23 A2990=
202103222000 METAR MRLM 222000Z 11011KT 9999 FEW025 BKN120 27/22 A2989=
202103222100 METAR MRLM 222100Z 11008KT CAVOK 27/22 A2987=
202103222200 METAR MRLM 222200Z 12003KT CAVOK 26/22 A2987=
202103222300 METAR MRLM 222300Z 22003KT CAVOK 25/22 A2987=
202103230000 METAR MRLM 230000Z 26003KT CAVOK 25/22 A2989=
202103230100 METAR MRLM NIL=
202103230200 METAR MRLM NIL=
202103230300 METAR MRLM NIL=
202103230400 METAR MRLM NIL=
202103230500 METAR MRLM NIL=
202103230600 METAR MRLM NIL=
202103230700 METAR MRLM NIL=
202103230800 METAR MRLM NIL=
202103230900 METAR MRLM NIL=
202103231000 METAR MRLM NIL=
202103231100 METAR MRLM NIL=
202103231200 METAR MRLM 231200Z 23003KT CAVOK 21/20 A2991=
202103231300 METAR MRLM 231300Z 27002KT 9999 FEW020 SCT100 23/21 A2994=
202103231400 METAR MRLM 231400Z 25003KT 9999 VCSH FEW020TCU SCT100 27/21 A2996=
202103231500 METAR MRLM 231500Z 08011KT 9999 FEW020 BKN100 26/23 A2998=
202103231600 METAR MRLM 231600Z 07003KT CAVOK 27/22 A2997=
202103231700 METAR MRLM 231700Z 08004KT 9999 FEW030 BKN120 28/21 A2995=
202103231800 METAR MRLM 231800Z 09005KT CAVOK 28/22 A2991=
202103231900 METAR MRLM 231900Z 09008KT CAVOK 29/22 A2989=
202103232000 METAR MRLM 232000Z 08009KT 9999 FEW030 29/23 A2986=
202103232100 METAR MRLM 232100Z 08006KT 9999 FEW030 28/23 A2984=
202103232200 METAR MRLM 232200Z 07006KT 9999 FEW030 28/22 A2983=
202103232300 METAR MRLM 232300Z 07005KT 9999 FEW020 SCT120 27/22 A2985=
202103240000 METAR MRLM 240000Z 06004KT 9999 FEW020 SCT100 27/23 A2985=
202103240100 METAR MRLM NIL=
202103240200 METAR MRLM NIL=
202103240300 METAR MRLM NIL=
202103240400 METAR MRLM NIL=
202103240500 METAR MRLM NIL=
202103240600 METAR MRLM NIL=
202103240700 METAR MRLM NIL=
202103240800 METAR MRLM NIL=
202103240900 METAR MRLM NIL=
202103241000 METAR MRLM NIL=
202103241100 METAR MRLM NIL=
202103241200 METAR MRLM 241200Z 00000KT 9999 FEW015 BKN090 22/21 A2990=
202103241300 METAR MRLM 241300Z 31003KT 9999 FEW020 BKN110 24/22 A2993=
202103241400 METAR MRLM 241400Z 21005KT CAVOK 27/22 A2994=
202103241500 METAR MRLM 241500Z 10005KT CAVOK 29/22 A2994=
202103241600 METAR MRLM 241600Z 11007KT CAVOK 29/21 A2994=
202103241700 METAR MRLM 241700Z 10008KT CAVOK 29/22 A2993=
202103241800 METAR MRLM 241800Z 10008KT CAVOK 29/23 A2990=
202103241900 METAR MRLM 241900Z 09008KT CAVOK 29/22 A2988=
202103242000 METAR MRLM 242000Z 08006KT CAVOK 29/22 A2985=
202103242100 METAR MRLM 242100Z 08006KT CAVOK 29/23 A2984=
202103242200 METAR MRLM 242200Z 07007KT CAVOK 29/23 A2983=
202103242300 METAR MRLM 242300Z 06007KT CAVOK 28/23 A2985=
202103250000 METAR MRLM 250000Z 07006KT CAVOK 27/22 A2985=
202103250100 METAR MRLM NIL=
202103250200 METAR MRLM NIL=
202103250300 METAR MRLM NIL=
202103250400 METAR MRLM NIL=
202103250500 METAR MRLM NIL=
202103250600 METAR MRLM NIL=
202103250700 METAR MRLM NIL=
202103250800 METAR MRLM NIL=
202103250900 METAR MRLM NIL=
202103251000 METAR MRLM NIL=
202103251100 METAR MRLM NIL=
202103251200 METAR MRLM 251200Z 00000KT 3000 -RA BKN015 22/22 A2992=
202103251300 METAR MRLM 251300Z 24003KT 9999 DZ BKN015 23/22 A2995=
202103251400 METAR MRLM 251400Z 21004KT 9999 SCT020 BKN100 23/23 A2997 REDZ=
202103251500 METAR MRLM 251500Z 19005KT CAVOK 27/23 A2997=
202103251600 METAR MRLM 251600Z 12005KT 9999 FEW030 29/23 A2997=
202103251700 METAR MRLM 251700Z 09006KT 9999 FEW030 29/23 A2995=
202103251800 METAR MRLM 251800Z 09008KT CAVOK 29/23 A2993=
202103251900 METAR MRLM 251900Z 06008KT CAVOK 29/23 A2990=
202103252000 METAR MRLM 252000Z 06008KT CAVOK 29/24 A2988=
202103252100 METAR MRLM 252100Z 06007KT 9999 FEW030 BKN130 29/23 A2986=
202103252200 METAR MRLM 252200Z 04005KT 9999 FEW030 SCT130 28/24 A2985=
202103252300 METAR MRLM 252300Z 05004KT 9999 BKN025 28/24 A2986=
202103260000 METAR MRLM 260000Z 21003KT 9999 BKN020 27/23 A2989=
202103260100 METAR MRLM NIL=
202103260200 METAR MRLM NIL=
202103260300 METAR MRLM NIL=
202103260400 METAR MRLM NIL=
202103260500 METAR MRLM NIL=
202103260600 METAR MRLM NIL=
202103260700 METAR MRLM NIL=
202103260800 METAR MRLM NIL=
202103260900 METAR MRLM NIL=
202103261000 METAR MRLM NIL=
202103261100 METAR MRLM NIL=
202103261200 METAR MRLM 261200Z 22003KT 5000 +DZ SCT010 OVC070 23/22 A2992=
202103261300 METAR MRLM 261300Z 15002KT 5000 +DZ SCT010 OVC070 23/23 A2994=
202103261400 METAR MRLM 261400Z 21003KT 7000 DZ SCT010 OVC070 23/23 A2996=
202103261500 METAR MRLM 261500Z 23006KT 9999 FEW015TCU BKN090 26/24 A2997 REDZ=
202103261600 METAR MRLM 261600Z 20004KT 9999 FEW015TCU SCT090 29/23 A2996=
202103261700 METAR MRLM 261700Z 07005KT 9999 FEW020 BKN100 29/24 A2995=
202103261800 METAR MRLM 261800Z 03008KT 9999 FEW020TCU BKN100 29/24 A2993=
202103261900 METAR MRLM 261900Z 04006KT 9999 FEW020TCU BKN120 29/24 A2990=
202103262000 METAR MRLM 262000Z 02006KT 9999 FEW020TCU SCT120 29/24 A2988=
202103262100 METAR MRLM 262100Z 04013KT 5000 RA SCT010 OVC080 26/24 A2987=
202103262200 METAR MRLM 262200Z 05013KT 9999 SCT010 BKN090 28/24 A2986 RERA=
202103262300 METAR MRLM 262300Z 05014KT 9999 FEW008TCU SCT010 BKN090 28/24 A2987=
202103270000 METAR MRLM 270000Z 05015KT 9999 SCT010 SCT080 27/24 A2988=
202103270100 METAR MRLM NIL=
202103270200 METAR MRLM NIL=
202103270300 METAR MRLM NIL=
202103270400 METAR MRLM NIL=
202103270500 METAR MRLM NIL=
202103270600 METAR MRLM NIL=
202103270700 METAR MRLM NIL=
202103270800 METAR MRLM NIL=
202103270900 METAR MRLM NIL=
202103271000 METAR MRLM NIL=
202103271100 METAR MRLM NIL=
202103271200 METAR MRLM 271200Z 23003KT 8000 VCSH FEW010TCU BKN080 23/22 A2993=
202103271300 METAR MRLM 271300Z 22005KT 9999 FEW010TCU SCT080 23/22 A2995=
202103271400 METAR MRLM 271400Z 22005KT 9999 FEW015 SCT100 26/22 A2996=
202103271500 METAR MRLM 271500Z 20005KT 9999 FEW015 SCT100 28/22 A2997=
202103271600 METAR MRLM 271600Z 11005KT 9999 FEW025 SCT120 28/23 A2997=
202103271700 METAR MRLM 271700Z 12005KT 9999 FEW025 29/22 A2996=
202103271800 METAR MRLM 271800Z 12006KT 9999 FEW025 30/22 A2994=
202103271900 METAR MRLM 271900Z 12006KT 9999 FEW025 29/22 A2991=
202103272000 METAR MRLM 272000Z 09005KT CAVOK 29/22 A2988=
202103272100 METAR MRLM 272100Z 07006KT CAVOK 29/22 A2986=
202103272200 METAR MRLM 272200Z 05006KT CAVOK 29/22 A2985=
202103272300 METAR MRLM 272300Z 07004KT CAVOK 28/22 A2986=
202103280000 METAR MRLM 280000Z 03002KT 9999 FEW020 26/22 A2988=
202103280100 METAR MRLM NIL=
202103280200 METAR MRLM NIL=
202103280300 METAR MRLM NIL=
202103280400 METAR MRLM NIL=
202103280500 METAR MRLM NIL=
202103280600 METAR MRLM NIL=
202103280700 METAR MRLM NIL=
202103280800 METAR MRLM NIL=
202103280900 METAR MRLM NIL=
202103281000 METAR MRLM NIL=
202103281100 METAR MRLM NIL=
202103281200 METAR MRLM 281200Z 22004KT 9999 SCT010 BKN100 21/20 A2988=
202103281300 METAR MRLM 281300Z 21003KT 9999 DZ SCT010 BKN100 22/20 A2991=
202103281400 METAR MRLM 281400Z 25004KT 9999 DZ SCT015 BKN100 22/21 A2993=
202103281500 METAR MRLM 281500Z 23005KT 9999 SCT020 BKN110 23/22 A2994 REDZ=
202103281600 METAR MRLM 281600Z 20005KT 9999 FEW020 BKN120 26/22 A2993=
202103281700 METAR MRLM 281700Z 20005KT 9999 FEW030 28/22 A2992=
202103281800 METAR MRLM 281800Z 04004KT 9999 FEW030 29/22 A2989=
202103281900 METAR MRLM 281900Z 06006KT 9999 FEW030 29/22 A2987=
202103282000 METAR MRLM 282000Z 08005KT CAVOK 29/22 A2984=
202103282100 METAR MRLM 282100Z 05007KT CAVOK 29/22 A2982=
202103282200 METAR MRLM 282200Z 04008KT CAVOK 28/22 A2981=
202103282300 METAR MRLM 282300Z 05005KT CAVOK 28/22 A2982=
202103290000 METAR MRLM 290000Z 00000KT CAVOK 25/23 A2984=
202103290100 METAR MRLM NIL=
202103290200 METAR MRLM NIL=
202103290300 METAR MRLM NIL=
202103290400 METAR MRLM NIL=
202103290500 METAR MRLM NIL=
202103290600 METAR MRLM NIL=
202103290700 METAR MRLM NIL=
202103290800 METAR MRLM NIL=
202103290900 METAR MRLM NIL=
202103291000 METAR MRLM NIL=
202103291100 METAR MRLM NIL=
202103291200 METAR MRLM 291200Z 18003KT 7000 DZ BKN010 22/21 A2989=
202103291300 METAR MRLM 291300Z 23005KT 9999 DZ SCT015 OVC100 22/21 A2992=
202103291400 METAR MRLM 291400Z 21004KT 9999 DZ SCT015 OVC100 22/21 A2994=
202103291500 METAR MRLM 291500Z 22006KT 9999 SCT020 BKN110 24/22 A2994 REDZ=
202103291600 METAR MRLM 291600Z 23005KT 9999 BKN020 25/22 A2994=
202103291700 METAR MRLM 291700Z 21003KT 9999 SCT020 BKN110 28/23 A2993=
202103291800 METAR MRLM 291800Z 24004KT 9999 SCT025 BKN120 29/22 A2990=
202103291900 METAR MRLM NIL=
202103292000 METAR MRLM NIL=
202103292100 METAR MRLM NIL=
202103292200 METAR MRLM NIL=
202103292300 METAR MRLM NIL=
202103300000 METAR MRLM NIL=
202103300100 METAR MRLM NIL=
202103300200 METAR MRLM NIL=
202103300300 METAR MRLM NIL=
202103300400 METAR MRLM NIL=
202103300500 METAR MRLM NIL=
202103300600 METAR MRLM NIL=
202103300700 METAR MRLM NIL=
202103300800 METAR MRLM NIL=
202103300900 METAR MRLM NIL=
202103301000 METAR MRLM NIL=
202103301100 METAR MRLM NIL=
202103301200 METAR MRLM 301200Z 26003KT 5000 +DZ FEW010 OVC080 23/22 A2985=
202103301300 METAR MRLM 301300Z 27004KT 7000 DZ FEW010 OVC080 23/23 A2988=
202103301400 METAR MRLM 301400Z 25003KT 7000 DZ SCT010 OVC080 24/23 A2992=
202103301500 METAR MRLM 301500Z 26004KT 5000 +DZ SCT010 OVC080 24/23 A2992=
202103301600 METAR MRLM 301600Z 25005KT 8000 -DZ FEW010 BKN080 26/24 A2992=
202103301700 METAR MRLM 301700Z 30007KT 9999 SCT015 BKN080 26/24 A2992 REDZ=
202103301800 METAR MRLM 301800Z 32005KT 4000 -RA FEW010 OVC070 25/24 A2990=
202103301900 METAR MRLM 301900Z 17004KT 9999 -DZ FEW015 BKN090 27/25 A2984 RERA=
202103302000 METAR MRLM 302000Z 05005KT 9999 SCT015 BKN090 29/25 A2982=
202103302100 METAR MRLM 302100Z 04005KT 9999 FEW020 BKN100 28/25 A2981=
202103302200 METAR MRLM 302200Z 01007KT 9999 DZ FEW020 BKN100 27/24 A2981=
202103302300 METAR MRLM 302300Z 26003KT 9999 SCT015 BKN090 26/24 A2981=
202103310000 METAR MRLM 310000Z 24002KT 8000 -DZ SCT015 BKN090 25/24 A2982=
202103310100 METAR MRLM NIL=
202103310200 METAR MRLM NIL=
202103310300 METAR MRLM NIL=
202103310400 METAR MRLM NIL=
202103310500 METAR MRLM NIL=
202103310600 METAR MRLM NIL=
202103310700 METAR MRLM NIL=
202103310800 METAR MRLM NIL=
202103310900 METAR MRLM NIL=
202103311000 METAR MRLM NIL=
202103311100 METAR MRLM NIL=
202103311200 METAR MRLM 311200Z 23005KT 5000 +DZ VCSH SCT010TCU OVC070 24/23 A2983=
202103311300 METAR MRLM 311300Z 22004KT 6000 DZ VCSH FEW010TCU OVC070 24/24 A2985=
202103311400 METAR MRLM 311400Z 22004KT 7000 DZ VCSH SCT010 OVC070 24/24 A2986=
202103311500 METAR MRLM 311500Z 24004KT 8000 SCT010 BKN080 24/22 A2989 REDZ=
202103311600 METAR MRLM 311600Z 21004KT 5000 RA SCT010 OVC080 25/24 A2989=
202103311700 METAR MRLM 311700Z 25004KT 8000 SCT010 OVC080 25/25 A2987 RERA=
202103311800 METAR MRLM 311800Z 19006KT 8000 3000N DZ SCT010 OVC070 25/24 A2985 RERA=
202103311900 METAR MRLM 311900Z 22002KT 8000 -DZ SCT010 OVC070 26/25 A2983 RERA=
202103312000 METAR MRLM 312000Z 05009KT 8000 FEW015 OVC080 28/25 A2980=
202103312100 METAR MRLM 312100Z 03009KT 9999 FEW015 BKN090 28/26 A2978=
202103312200 METAR MRLM 312200Z 02009KT 9999 SCT015 BKN090 27/25 A2978=
202103312300 METAR MRLM 312300Z 04011KT 9999 SCT015 BKN090 27/25 A2979=
202104010000 METAR MRLM 010000Z 03010KT 9999 FEW015 BKN090 27/25 A2980=
202104010100 METAR MRLM NIL=
202104010200 METAR MRLM NIL=
202104010300 METAR MRLM NIL=
202104010400 METAR MRLM NIL=
202104010500 METAR MRLM NIL=
202104010600 METAR MRLM NIL=
202104010700 METAR MRLM NIL=
202104010800 METAR MRLM NIL=
202104010900 METAR MRLM NIL=
202104011000 METAR MRLM NIL=
202104011100 METAR MRLM NIL=
202104011200 METAR MRLM 011200Z 01010KT 9999 SCT020 BKN110 27/25 A2984=
202104011300 METAR MRLM 011300Z 03012KT 9999 SCT020 28/24 A2987=
202104011400 METAR MRLM 011400Z 03010KT 9999 SCT025 28/25 A2989=
202104011500 METAR MRLM 011500Z 03012KT 9999 FEW025 BKN110 28/24 A2990=
202104011600 METAR MRLM 011600Z 03011KT 9999 SCT025 BKN110 28/24 A2991=
202104011700 METAR MRLM 011700Z 03011KT 9999 FEW030 BKN130 29/25 A2990=
202104011800 METAR MRLM 011800Z 03011KT 9999 FEW030 SCT130 29/25 A2989=
202104011900 METAR MRLM 011900Z 02010KT 9999 FEW030 SCT250 29/25 A2986=
202104012000 METAR MRLM 012000Z 02007KT 9999 FEW030 SCT250 29/24 A2983=
202104012100 METAR MRLM 012100Z 02009KT 9999 FEW030 BKN130 29/25 A2982=
202104012200 METAR MRLM 012200Z 36006KT 9999 FEW025 BKN130 28/24 A2981=
202104012300 METAR MRLM 012300Z 01003KT 9999 FEW020 BKN130 28/23 A2981=
202104020000 METAR MRLM 020000Z 00000KT 9999 FEW020 BKN120 27/23 A2983=
202104020100 METAR MRLM NIL=
202104020200 METAR MRLM NIL=
202104020300 METAR MRLM NIL=
202104020400 METAR MRLM NIL=
202104020500 METAR MRLM NIL=
202104020600 METAR MRLM NIL=
202104020700 METAR MRLM NIL=
202104020800 METAR MRLM NIL=
202104020900 METAR MRLM NIL=
202104021000 METAR MRLM NIL=
202104021100 METAR MRLM NIL=
202104021200 METAR MRLM 021200Z 25004KT 9999 SCT015 BKN090 23/22 A2986=
202104021300 METAR MRLM 021300Z 27004KT 9999 FEW020 BKN100 23/22 A2990=
202104021400 METAR MRLM 021400Z 27003KT 9999 FEW020 BKN110 24/23 A2993=
202104021500 METAR MRLM 021500Z 23004KT CAVOK 26/23 A2993=
202104021600 METAR MRLM 021600Z 23004KT CAVOK 26/23 A2993=
202104021700 METAR MRLM 021700Z 07004KT 9999 FEW025 BKN130 29/22 A2993=
202104021800 METAR MRLM 021800Z 02006KT CAVOK 28/23 A2991=
202104021900 METAR MRLM 021900Z 05004KT CAVOK 29/23 A2989=
202104022000 METAR MRLM 022000Z 07004KT CAVOK 29/23 A2980=
202104022100 METAR MRLM 022100Z 10004KT CAVOK 29/23 A2984=
202104022200 METAR MRLM 022200Z 06005KT CAVOK 29/23 A2984=
202104022300 METAR MRLM 022300Z 05005KT CAVOK 29/23 A2985=
202104030000 METAR MRLM 030000Z 00000KT CAVOK 27/23 A2989=
202104030100 METAR MRLM NIL=
202104030200 METAR MRLM NIL=
202104030300 METAR MRLM NIL=
202104030400 METAR MRLM NIL=
202104030500 METAR MRLM NIL=
202104030600 METAR MRLM NIL=
202104030700 METAR MRLM NIL=
202104030800 METAR MRLM NIL=
202104030900 METAR MRLM NIL=
202104031000 METAR MRLM NIL=
202104031100 METAR MRLM NIL=
202104031200 METAR MRLM 031200Z 24002KT 9999 VCSH FEW015TCU BKN100 23/22 A2993=
202104031300 METAR MRLM 031300Z 29005KT 9999 -DZ VCSH FEW015TCU BKN100 23/22 A2996=
202104031400 METAR MRLM 031400Z 28005KT 9999 FEW015 BKN100 24/22 A2997=
202104031500 METAR MRLM 031500Z 33003KT 9999 FEW020 BKN120 27/23 A2998=
202104031600 METAR MRLM 031600Z 05004KT 9999 FEW020 SCT120 28/23 A2998=
202104031700 METAR MRLM 031700Z 03007KT 9999 FEW020 BKN120 28/23 A2996=
202104031800 METAR MRLM 031800Z 02006KT CAVOK 29/23 A2994=
202104031900 METAR MRLM 031900Z 04006KT CAVOK 29/22 A2990=
202104032000 METAR MRLM 032000Z 03005KT CAVOK 29/22 A2988=
202104032100 METAR MRLM 032100Z 02006KT CAVOK 29/22 A2986=
202104032200 METAR MRLM 032200Z 02005KT CAVOK 29/22 A2986=
202104032300 METAR MRLM 032300Z 01005KT 9999 FEW025 BKN220 28/22 A2987=
202104040000 METAR MRLM 040000Z 00000KT 9999 FEW020 BKN200 26/22 A2989=
202104040100 METAR MRLM NIL=
202104040200 METAR MRLM NIL=
202104040300 METAR MRLM NIL=
202104040400 METAR MRLM NIL=
202104040500 METAR MRLM NIL=
202104040600 METAR MRLM NIL=
202104040700 METAR MRLM NIL=
202104040800 METAR MRLM NIL=
202104040900 METAR MRLM NIL=
202104041000 METAR MRLM NIL=
202104041100 METAR MRLM NIL=
202104041200 METAR MRLM 041200Z 23005KT CAVOK 20/19 A2990=
202104041300 METAR MRLM 041300Z 23004KT CAVOK 24/20 A2991=
202104041400 METAR MRLM 041400Z 22005KT CAVOK 27/21 A2993=
202104041500 METAR MRLM 041500Z 05002KT 9999 FEW030 SCT120 28/22 A2993=
202104041600 METAR MRLM 041600Z 07006KT 9999 FEW030 BKN120 28/22 A2993=
202104041629 METAR MRLM 041629Z 06018KT 8000 -DZ VCSH FEW010TCU OVC120 25/23 A2994=
202104041700 METAR MRLM 041700Z 04014KT 9999 SCT015 OVC100 25/23 A2993=
202104041800 METAR MRLM 041800Z 04013KT 9999 -DZ FEW015 OVC100 25/21 A2992=
202104041900 METAR MRLM 041900Z 15005KT 6000 +DZ FEW010 OVC080 24/22 A2990=
202104042000 METAR MRLM 042000Z 25004KT 9999 -DZ FEW010 OVC080 23/22 A2988=
202104042100 METAR MRLM 042100Z 24007KT 9999 FEW015 BKN090 24/22 A2984=
202104042200 METAR MRLM 042200Z 23004KT CAVOK 26/22 A2982=
202104042300 METAR MRLM 042300Z 25002KT CAVOK 26/23 A2983=
202104050000 METAR MRLM 050000Z 21002KT CAVOK 25/23 A2984=
202104050100 METAR MRLM NIL=
202104050200 METAR MRLM NIL=
202104050300 METAR MRLM NIL=
202104050400 METAR MRLM NIL=
202104050500 METAR MRLM NIL=
202104050600 METAR MRLM NIL=
202104050700 METAR MRLM NIL=
202104050800 METAR MRLM NIL=
202104050900 METAR MRLM NIL=
202104051000 METAR MRLM NIL=
202104051100 METAR MRLM NIL=
202104051200 METAR MRLM 051200Z 24005KT CAVOK 22/21 A2988=
202104051300 METAR MRLM 051300Z 23004KT CAVOK 23/21 A2990=
202104051400 METAR MRLM 051400Z 22004KT CAVOK 25/22 A2992=
202104051500 METAR MRLM 051500Z 08004KT CAVOK 29/23 A2993=
202104051600 METAR MRLM 051600Z 08004KT 9999 FEW030 BKN240 28/23 A2992=
202104051700 METAR MRLM 051700Z 02007KT 9999 FEW030 BKN240 28/23 A2991=
202104051800 METAR MRLM 051800Z 02007KT 9999 FEW030 SCT140 BKN240 28/23 A2989=
202104051900 METAR MRLM 051900Z 02007KT CAVOK 29/23 A2980=
202104052000 METAR MRLM 052000Z 04007KT CAVOK 28/23 A2984=
202104052100 METAR MRLM 052100Z 04006KT CAVOK 28/23 A2982=
202104052200 METAR MRLM 052200Z 04005KT 9999 SCT025 BKN130 28/23 A2981=
202104052300 METAR MRLM 052300Z 05006KT 9999 SCT020 BKN120 28/23 A2982=
202104060000 METAR MRLM 060000Z 05005KT 9999 BKN020 27/23 A2986=
202104060100 METAR MRLM NIL=
202104060200 METAR MRLM NIL=
202104060300 METAR MRLM NIL=
202104060400 METAR MRLM NIL=
202104060500 METAR MRLM NIL=
202104060600 METAR MRLM NIL=
202104060700 METAR MRLM NIL=
202104060800 METAR MRLM NIL=
202104060900 METAR MRLM NIL=
202104061000 METAR MRLM NIL=
202104061100 METAR MRLM NIL=
202104061200 METAR MRLM 061200Z 21003KT 9999 FEW020 BKN130 22/21 A2988=
202104061300 METAR MRLM 061300Z 00000KT CAVOK 24/22 A2990=
202104061400 METAR MRLM 061400Z 00000KT CAVOK 28/23 A2992=
202104061500 METAR MRLM 061500Z 09003KT 9999 FEW030 28/23 A2992=
202104061600 METAR MRLM 061600Z 06006KT 9999 FEW030 28/23 A2993=
202104061700 METAR MRLM 061700Z 06007KT 9999 FEW030 29/23 A2992=
202104061800 METAR MRLM 061800Z 05006KT 9999 FEW030 29/24 A2990=
202104061900 METAR MRLM 061900Z 05007KT 9999 FEW030 SCT140 29/23 A2987=
202104062000 METAR MRLM 062000Z 04007KT 9999 FEW030 SCT140 29/23 A2985=
202104062100 METAR MRLM 062100Z 04008KT 9999 BKN025 29/23 A2983=
202104062200 METAR MRLM 062200Z 04008KT 9999 SCT020 BKN130 28/23 A2983=
202104062300 METAR MRLM 062300Z 02005KT 9999 SCT020 BKN120 28/23 A2984=
202104070000 METAR MRLM 070000Z 21003KT 9999 SCT015 BKN110 27/22 A2986=
202104070100 METAR MRLM NIL=
202104070200 METAR MRLM NIL=
202104070300 METAR MRLM NIL=
202104070400 METAR MRLM NIL=
202104070500 METAR MRLM NIL=
202104070600 METAR MRLM NIL=
202104070700 METAR MRLM NIL=
202104070800 METAR MRLM NIL=
202104070900 METAR MRLM NIL=
202104071000 METAR MRLM NIL=
202104071100 METAR MRLM NIL=
202104071200 METAR MRLM 071200Z 24004KT 9999 FEW015 SCT100 23/22 A2988=
202104071300 METAR MRLM 071300Z 23004KT 9999 FEW015 SCT100 25/22 A2989=
202104071400 METAR MRLM 071400Z 23004KT 9999 FEW020 BKN120 28/23 A2991=
202104071500 METAR MRLM 071500Z 35004KT 9999 -DZ FEW020 BKN120 28/23 A2992=
202104071600 METAR MRLM 071600Z 04004KT 9999 FEW020 BKN120 29/23 A2992=
202104071700 METAR MRLM 071700Z 05006KT 9999 FEW030 BKN120 29/23 A2991=
202104071800 METAR MRLM 071800Z 02008KT CAVOK 28/24 A2989=
202104071900 METAR MRLM 071900Z 35007KT CAVOK 29/24 A2987=
202104072000 METAR MRLM 072000Z 36009KT CAVOK 29/24 A2984=
202104072100 METAR MRLM 072100Z 35007KT 9999 FEW030 SCT120 BKN240 28/23 A2982=
202104072200 METAR MRLM 072200Z 36006KT 9999 FEW030 SCT120 BKN240 28/24 A2982=
202104072300 METAR MRLM 072300Z 36006KT 9999 FEW020 OVC220 27/24 A2982=
202104080000 METAR MRLM 080000Z 28002KT 9999 SCT020 OVC220 27/24 A2984=
202104080100 METAR MRLM NIL=
202104080200 METAR MRLM NIL=
202104080300 METAR MRLM NIL=
202104080400 METAR MRLM NIL=
202104080500 METAR MRLM NIL=
202104080600 METAR MRLM NIL=
202104080700 METAR MRLM NIL=
202104080800 METAR MRLM NIL=
202104080900 METAR MRLM NIL=
202104081000 METAR MRLM NIL=
202104081100 METAR MRLM NIL=
202104081200 METAR MRLM 081200Z 00000KT 8000 -DZ SCT015 OVC100 24/23 A2985=
202104081300 METAR MRLM 081300Z 24002KT 8000 DZ FEW015 OVC100 25/24 A2987=
202104081400 METAR MRLM 081400Z 00000KT 8000 -DZ SCT015 OVC100 25/24 A2990=
202104081500 METAR MRLM 081500Z 06008KT 7000 -DZ SCT010 OVC090 26/24 A2990=
202104081600 METAR MRLM 081600Z 04004KT 8000 FEW010 OVC090 26/24 A2990 REDZ=
202104081700 METAR MRLM 081700Z 07007KT 6000 +DZ VCSH FEW010TCU OVC090 26/25 A2989=
202104081800 METAR MRLM 081800Z 09011KT 5000 +DZ FEW010 OVC080 25/24 A2987=
202104081900 METAR MRLM 081900Z 18004KT 9999 FEW015 OVC100 25/24 A2983 REDZ=
202104082000 METAR MRLM 082000Z 24003KT 9999 FEW015 OVC100 26/24 A2981=
202104082100 METAR MRLM 082100Z 23003KT 9999 FEW020 OVC100 27/25 A2979 NOSIG=
202104082200 METAR MRLM 082200Z 30002KT 9999 FEW020 OVC100 27/25 A2978=
202104082300 METAR MRLM 082300Z 01005KT 9999 FEW020 BKN100 27/25 A2980=
202104090000 METAR MRLM 090000Z 29003KT 9999 FEW020 SCT100 OVC200 26/24 A2982=
202104090100 METAR MRLM NIL=
202104090200 METAR MRLM NIL=
202104090300 METAR MRLM NIL=
202104090400 METAR MRLM NIL=
202104090500 METAR MRLM NIL=
202104090600 METAR MRLM NIL=
202104090700 METAR MRLM NIL=
202104090800 METAR MRLM NIL=
202104090900 METAR MRLM NIL=
202104091000 METAR MRLM NIL=
202104091100 METAR MRLM NIL=
202104091200 METAR MRLM 091200Z 24004KT 9999 FEW015 BKN090 24/24 A2986=
202104091300 METAR MRLM 091300Z 25003KT CAVOK 25/24 A2988=
202104091400 METAR MRLM 091400Z 23003KT 9999 FEW015 BKN100 26/24 A2991=
202104091500 METAR MRLM 091500Z 00000KT 9999 VCSH SCT015 BKN100 27/24 A2993=
202104091600 METAR MRLM 091600Z 10007KT 9999 SCT015 BKN100 26/23 A2993=
202104091700 METAR MRLM 091700Z 13007KT 9999 SCT020 BKN110 27/24 A2992=
202104091800 METAR MRLM 091800Z 17003KT 9999 BKN020 27/24 A2991=
202104091900 METAR MRLM 091900Z 00000KT 9999 DZ SCT020 BKN100 26/24 A2988=
202104092000 METAR MRLM 092000Z 00000KT CAVOK 28/24 A2982 REDZ=
202104092100 METAR MRLM 092100Z 03003KT CAVOK 27/24 A2981=
202104092200 METAR MRLM 092200Z 31003KT 9999 FEW025 BKN120 27/24 A2982=
202104092300 METAR MRLM 092300Z 25003KT 9999 DZ FEW020 BKN120 26/25 A2984=
202104100000 METAR MRLM 100000Z 23004KT 9999 DZ FEW015 BKN110 25/24 A2987=
202104100100 METAR MRLM NIL=
202104100200 METAR MRLM NIL=
202104100300 METAR MRLM NIL=
202104100400 METAR MRLM NIL=
202104100500 METAR MRLM NIL=
202104100600 METAR MRLM NIL=
202104100700 METAR MRLM NIL=
202104100800 METAR MRLM NIL=
202104100900 METAR MRLM NIL=
202104101000 METAR MRLM NIL=
202104101100 METAR MRLM NIL=
202104101200 METAR MRLM 101200Z 24003KT 9999 DZ BKN015 24/23 A2986=
202104101300 METAR MRLM 101300Z 31003KT 9999 BKN015 24/23 A2987 REDZ=
202104101400 METAR MRLM 101400Z 21005KT 9999 FEW015 BKN120 24/23 A2989=
202104101500 METAR MRLM 101500Z 23005KT 9999 FEW015 BKN120 25/24 A2990=
202104101600 METAR MRLM 101600Z 27004KT 9999 SCT020 27/24 A2990=
202104101700 METAR MRLM 101700Z 24004KT 9999 SCT020 BKN130 27/24 A2988=
202104101800 METAR MRLM 101800Z 03005KT 9999 SCT020 BKN130 28/24 A2987=
202104101900 METAR MRLM 101900Z 03007KT 9999 DZ FEW020 BKN120 26/24 A2983=
202104102000 METAR MRLM 102000Z 00000KT 9999 DZ FEW020 BKN130 26/23 A2981=
202104102100 METAR MRLM 102100Z 02006KT CAVOK 27/24 A2978 REDZ=
202104102200 METAR MRLM 102200Z 32004KT 9999 FEW015 BKN130 27/24 A2977=
202104102300 METAR MRLM 102300Z 00000KT 9999 FEW015 BKN130 26/24 A2978=
202104110000 METAR MRLM 110000Z 00000KT 9999 FEW015 BKN130 25/23 A2981=
202104110100 METAR MRLM NIL=
202104110200 METAR MRLM NIL=
202104110300 METAR MRLM NIL=
202104110400 METAR MRLM NIL=
202104110500 METAR MRLM NIL=
202104110600 METAR MRLM NIL=
202104110700 METAR MRLM NIL=
202104110800 METAR MRLM NIL=
202104110900 METAR MRLM NIL=
202104111000 METAR MRLM NIL=
202104111100 METAR MRLM NIL=
202104111200 METAR MRLM 111200Z 22004KT CAVOK 22/21 A2979=
202104111300 METAR MRLM 111300Z 28002KT CAVOK 24/22 A2979=
202104111400 METAR MRLM 111400Z 19002KT 9999 FEW025 28/23 A2983=
202104111500 METAR MRLM 111500Z 02006KT 9999 FEW025 28/24 A2983=
202104111600 METAR MRLM 111600Z 04005KT 9999 SCT025 28/25 A2984=
202104111700 METAR MRLM 111700Z 04005KT 9999 SCT025 28/25 A2983=
202104111800 METAR MRLM 111800Z 04007KT 9999 SCT025 SCT230 29/25 A2980=
202104111900 METAR MRLM 111900Z 04006KT 9999 SCT025 29/25 A2978=
202104112000 METAR MRLM 112000Z 06005KT 9999 FEW025 SCT230 29/25 A2975=
202104112100 METAR MRLM 112100Z 09003KT 9999 FEW025 BKN220 28/24 A2973=
202104112200 METAR MRLM 112200Z 09003KT 9999 FEW020 BKN120 28/24 A2974=
202104112300 METAR MRLM 112300Z 11005KT 9999 FEW020 OVC120 28/24 A2974=
202104120000 METAR MRLM 120000Z 22002KT 9999 FEW020 SCT120 BKN220 26/24 A2974=
202104120100 METAR MRLM NIL=
202104120200 METAR MRLM NIL=
202104120300 METAR MRLM NIL=
202104120400 METAR MRLM NIL=
202104120500 METAR MRLM NIL=
202104120600 METAR MRLM NIL=
202104120700 METAR MRLM NIL=
202104120800 METAR MRLM NIL=
202104120900 METAR MRLM NIL=
202104121000 METAR MRLM NIL=
202104121100 METAR MRLM NIL=
202104121200 METAR MRLM 121200Z 22003KT 9999 FEW015 BKN100 24/22 A2978=
202104121300 METAR MRLM 121300Z 27002KT CAVOK 26/23 A2980=
202104121400 METAR MRLM 121400Z 21003KT 9999 FEW020 BKN120 28/24 A2982=
202104121500 METAR MRLM 121500Z 08004KT 9999 FEW020 BKN120 29/23 A2983=
202104121600 METAR MRLM 121600Z 09006KT 9999 FEW025 BKN120 29/24 A2983=
202104121700 METAR MRLM 121700Z 10007KT 9999 FEW025 BKN120 30/25 A2982=
202104121800 METAR MRLM 121800Z 10007KT 9999 FEW025 SCT120 30/25 A2980=
202104121900 METAR MRLM 121900Z 11009KT 9999 FEW025 SCT130 BKN240 30/25 A2977=
202104122000 METAR MRLM 122000Z 11009KT 9999 FEW025 BKN240 29/24 A2976=
202104122100 METAR MRLM 122100Z 10005KT 9999 FEW025 BKN120 28/24 A2975=
202104122200 METAR MRLM 122200Z 10002KT 9999 FEW020 BKN120 28/24 A2975=
202104122300 METAR MRLM 122300Z 00000KT 9999 FEW020 SCT120 BKN220 28/25 A2976=
202104130000 METAR MRLM 130000Z 19003KT 9999 SCT020 BKN220 27/25 A2978=
202104130100 METAR MRLM NIL=
202104130200 METAR MRLM NIL=
202104130300 METAR MRLM NIL=
202104130400 METAR MRLM NIL=
202104130500 METAR MRLM NIL=
202104130600 METAR MRLM NIL=
202104130700 METAR MRLM NIL=
202104130800 METAR MRLM NIL=
202104130900 METAR MRLM NIL=
202104131000 METAR MRLM NIL=
202104131100 METAR MRLM NIL=
202104131200 METAR MRLM 131200Z 24003KT CAVOK 24/24 A2983=
202104131300 METAR MRLM 131300Z 21003KT CAVOK 25/24 A2985=
202104131400 METAR MRLM 131400Z 20004KT CAVOK 26/24 A2986=
202104131500 METAR MRLM 131500Z 00000KT CAVOK 29/24 A2986=
202104131600 METAR MRLM 131600Z 09006KT 9999 FEW030 BKN240 30/24 A2987=
202104131700 METAR MRLM 131700Z 09006KT 9999 FEW030 BKN250 30/25 A2986=
202104131800 METAR MRLM 131800Z 07008KT CAVOK 30/25 A2985=
202104131900 METAR MRLM 131900Z 05009KT 9999 FEW030 SCT250 30/25 A2982=
202104132000 METAR MRLM 132000Z 06008KT 9999 FEW030 SCT250 30/25 A2981=
202104132100 METAR MRLM 132100Z 06008KT 9999 BKN030 30/25 A2980=
202104132200 METAR MRLM 132200Z 06007KT 9999 BKN020 29/25 A2980=
202104132300 METAR MRLM 132300Z 05005KT 9999 BKN015 29/25 A2983=
202104140000 METAR MRLM 140000Z 05007KT 9999 BKN015 28/24 A2985=
202104140100 METAR MRLM NIL=
202104140200 METAR MRLM NIL=
202104140300 METAR MRLM NIL=
202104140400 METAR MRLM NIL=
202104140500 METAR MRLM NIL=
202104140600 METAR MRLM NIL=
202104140700 METAR MRLM NIL=
202104140800 METAR MRLM NIL=
202104140900 METAR MRLM NIL=
202104141000 METAR MRLM NIL=
202104141100 METAR MRLM NIL=
202104141200 METAR MRLM 141200Z 15003KT 5000 DZ BKN015 24/23 A2988=
202104141300 METAR MRLM 141300Z 20004KT 5000 RA BKN015 24/23 A2990=
202104141400 METAR MRLM 141400Z 22006KT 7000 DZ BKN015 24/23 A2990 RERA=
202104141500 METAR MRLM 141500Z 22007KT 5000 +DZ BKN010 24/23 A2992 RERA=
202104141600 METAR MRLM 141600Z 22005KT 5000 +DZ BKN015 24/24 A2994=
202104141700 METAR MRLM 141700Z 20003KT 1000 +RA BKN015 25/25 A2993=
202104141800 METAR MRLM 141800Z 19006KT 4000 RA BKN010 25/24 A2989=
202104141900 METAR MRLM 141900Z 21004KT 4000 RA BKN015 25/24 A2985=
202104142000 METAR MRLM 142000Z 23004KT 7000 DZ BKN010 25/25 A2984 RERA=
202104142100 METAR MRLM 142100Z 26003KT 5000 +DZ BKN010 25/25 A2982=
202104142200 METAR MRLM 142200Z 04014KT 7000 DZ BKN015 27/25 A2983=
202104142300 METAR MRLM 142300Z 06013KT 8000 FEW007 BKN100 27/25 A2981=
202104150000 METAR MRLM 150000Z 06013KT 9999 FEW010 BKN100 27/25 A2984=
202104150100 METAR MRLM NIL=
202104150200 METAR MRLM NIL=
202104150300 METAR MRLM NIL=
202104150400 METAR MRLM NIL=
202104150500 METAR MRLM NIL=
202104150600 METAR MRLM NIL=
202104150700 METAR MRLM NIL=
202104150800 METAR MRLM NIL=
202104150900 METAR MRLM NIL=
202104151000 METAR MRLM NIL=
202104151100 METAR MRLM NIL=
202104151200 METAR MRLM 151200Z 23006KT 8000 SCT010 OVC080 24/23 A2983=
202104151300 METAR MRLM 151300Z 24005KT 6000 DZ VCTS VCSH FEW007CB SCT010 OVC080 24/23 A2986=
202104151400 METAR MRLM 151400Z 22002KT 5000 +DZ VCTS FEW007CB OVC080 24/23 A2989=
202104151500 METAR MRLM 151500Z 22004KT 3000 -TSRA FEW007CB OVC015 24/24 A2989=
202104151600 METAR MRLM 151600Z 23006KT 6000 VCSH FEW007TCU SCT015 OVC070 24/24 A2988 RETSRA=
202104151700 METAR MRLM 151700Z 27004KT 8000 SCT015 OVC070 25/24 A2987=
202104151800 METAR MRLM 151800Z 04012KT 8000 SCT015 OVC080 28/16 A2985=
202104151900 METAR MRLM 151900Z 03012KT 8000 HZ SCT015 OVC080 28/26 A2983=
202104152000 METAR MRLM 152000Z 04010KT 8000 HZ VCSH FEW010TCU SCT015 OVC080 28/26 A2982=
202104152100 METAR MRLM 152100Z 21006KT 8000 DZ VCSH SCT010TCU OVC080 25/23 A2981=
202104152200 METAR MRLM 152200Z 23004KT 5000 -RA FEW010 OVC070 24/23 A2980=
202104152300 METAR MRLM 152300Z 19003KT 6000 DZ VCSH FEW006TCU SCT010 OVC070 24/23 A2981=
202104160000 METAR MRLM 160000Z 26006KT 5000 +DZ SCT010 OVC070 24/24 A2982=
202104160100 METAR MRLM NIL=
202104160200 METAR MRLM NIL=
202104160300 METAR MRLM NIL=
202104160400 METAR MRLM NIL=
202104160500 METAR MRLM NIL=
202104160600 METAR MRLM NIL=
202104160700 METAR MRLM NIL=
202104160800 METAR MRLM NIL=
202104160900 METAR MRLM NIL=
202104161000 METAR MRLM NIL=
202104161100 METAR MRLM NIL=
202104161200 METAR MRLM 161200Z 24002KT CAVOK 23/22 A2982=
202104161300 METAR MRLM 161300Z 15002KT 9999 FEW015 SCT200 24/23 A2986=
202104161400 METAR MRLM 161400Z 22005KT 9999 FEW015 SCT200 26/24 A2986=
202104161500 METAR MRLM 161500Z 03005KT 9999 FEW020 SCT220 28/25 A2987=
202104161600 METAR MRLM 161600Z 06003KT 9999 FEW020 BKN120 28/24 A2988=
202104161700 METAR MRLM 161700Z 05005KT 9999 SCT020 BKN120 28/25 A2987=
202104161800 METAR MRLM 161800Z 08010KT 9999 SCT020 BKN120 28/24 A2984=
202104161900 METAR MRLM 161900Z 11006KT 9999 FEW020 BKN120 28/24 A2980=
202104162000 METAR MRLM NIL=
202104162100 METAR MRLM 162100Z 06012KT 8000 -DZ SCT015 OVC100 27/24 A2979=
202104162200 METAR MRLM 162200Z 05015KT 9999 SCT015 OVC100 26/24 A2980=
202104162300 METAR MRLM 162300Z 09010KT 8000 -DZ FEW010 OVC080 25/23 A2981 NOSIG=
202104170000 METAR MRLM 170000Z 15005KT 9999 DZ SCT010 OVC080 25/24 A2983=
202104170100 METAR MRLM NIL=
202104170200 METAR MRLM NIL=
202104170300 METAR MRLM NIL=
202104170400 METAR MRLM NIL=
202104170500 METAR MRLM NIL=
202104170600 METAR MRLM NIL=
202104170700 METAR MRLM NIL=
202104170800 METAR MRLM NIL=
202104170900 METAR MRLM NIL=
202104171000 METAR MRLM NIL=
202104171100 METAR MRLM NIL=
202104171200 METAR MRLM 171200Z 24003KT 9999 FEW020 BKN100 23/22 A2982=
202104171300 METAR MRLM 171300Z 00000KT CAVOK 23/22 A2984=
202104171400 METAR MRLM 171400Z 00000KT CAVOK 23/22 A2984=
202104171500 METAR MRLM 171500Z 00000KT 9999 DZ FEW015 BKN120 26/24 A2989=
202104171600 METAR MRLM 171600Z 31009KT 9999 DZ BKN015 26/24 A2989=
202104171700 METAR MRLM 171700Z 27004KT CAVOK 26/24 A2987 REDZ=
202104171800 METAR MRLM 171800Z 32003KT 9999 4000N DZ SCT015 BKN110 27/24 A2985=
202104171900 METAR MRLM 171900Z 06005KT 3000 RA BKN015 25/24 A2985=
202104172000 METAR MRLM 172000Z 22003KT 2000 RA VCTS BKN015 24/24 A2983=
202104172100 METAR MRLM 172100Z 27003KT 2000 RA VCTS SCT015 OVC080 24/24 A2984=
202104172200 METAR MRLM 172200Z 24005KT 3000 +DZ SCT010 OVC080 24/23 A2982 RERA=
202104172300 METAR MRLM 172300Z 00000KT 5000 DZ FEW010 BKN100 24/23 A2982=
202104180000 METAR MRLM 180000Z 00000KT 8000 DZ FEW010 BKN100 24/23 A2985=
202104180100 METAR MRLM NIL=
202104180200 METAR MRLM NIL=
202104180300 METAR MRLM NIL=
202104180400 METAR MRLM NIL=
202104180500 METAR MRLM NIL=
202104180600 METAR MRLM NIL=
202104180700 METAR MRLM NIL=
202104180800 METAR MRLM NIL=
202104180900 METAR MRLM NIL=
202104181000 METAR MRLM NIL=
202104181100 METAR MRLM NIL=
202104181200 METAR MRLM 181200Z 25004KT CAVOK 22/21 A2985=
202104181300 METAR MRLM 181300Z 23005KT CAVOK 25/23 A2985=
202104181400 METAR MRLM 181400Z 00000KT CAVOK 28/23 A2988=
202104181500 METAR MRLM 181500Z 05004KT CAVOK 29/23 A2989=
202104181600 METAR MRLM 181600Z 02004KT CAVOK 30/23 A2989=
202104181700 METAR MRLM 181700Z 02008KT CAVOK 30/24 A2989=
202104181800 METAR MRLM 181800Z 02009KT CAVOK 30/24 A2986=
202104181900 METAR MRLM 181900Z 01008KT CAVOK 30/24 A2982=
202104182000 METAR MRLM 182000Z 03008KT CAVOK 30/25 A2981=
202104182100 METAR MRLM 182100Z 03005KT 9999 FEW030 SCT250 29/24 A2980=
202104182200 METAR MRLM 182200Z 01006KT 9999 FEW030 SCT240 28/25 A2981=
202104182300 METAR MRLM 182300Z 35005KT 9999 FEW025 SCT240 28/25 A2983=
202104190000 METAR MRLM 190000Z 21005KT 9999 FEW020 SCT130 28/24 A2985=
202104190100 METAR MRLM NIL=
202104190200 METAR MRLM NIL=
202104190300 METAR MRLM NIL=
202104190400 METAR MRLM NIL=
202104190500 METAR MRLM NIL=
202104190600 METAR MRLM NIL=
202104190700 METAR MRLM NIL=
202104190800 METAR MRLM NIL=
202104190900 METAR MRLM NIL=
202104191000 METAR MRLM NIL=
202104191100 METAR MRLM NIL=
202104191200 METAR MRLM 191200Z 25004KT 9999 VCSH FEW015TCU BKN100 23/22 A2987=
202104191300 METAR MRLM 191300Z 27002KT 9999 VCSH FEW015TCU BKN100 25/23 A2990=
202104191400 METAR MRLM 191400Z 26002KT 9999 FEW020TCU BKN120 27/23 A2991=
202104191500 METAR MRLM 191500Z 22002KT CAVOK 29/23 A2992=
202104191600 METAR MRLM 191600Z 04006KT CAVOK 29/24 A2991=
202104191700 METAR MRLM 191700Z 02009KT CAVOK 29/25 A2989=
202104191800 METAR MRLM 191800Z 02007KT CAVOK 29/25 A2987=
202104191900 METAR MRLM 191900Z 02008KT CAVOK 30/25 A2983=
202104192000 METAR MRLM 192000Z 01006KT 9999 FEW025 BKN240 28/24 A2979=
202104192100 METAR MRLM 192100Z 04006KT 9999 SCT025 BKN240 29/25 A2977=
202104192200 METAR MRLM 192200Z 05005KT 9999 SCT025 BKN240 29/25 A2978=
202104192300 METAR MRLM 192300Z 06005KT 9999 SCT020 BKN220 28/25 A2980=
202104200000 METAR MRLM 200000Z 03005KT 9999 SCT020 BKN220 28/25 A2982=
202104200100 METAR MRLM NIL=
202104200200 METAR MRLM NIL=
202104200300 METAR MRLM NIL=
202104200400 METAR MRLM NIL=
202104200500 METAR MRLM NIL=
202104200600 METAR MRLM NIL=
202104200700 METAR MRLM NIL=
202104200800 METAR MRLM NIL=
202104200900 METAR MRLM NIL=
202104201000 METAR MRLM NIL=
202104201100 METAR MRLM NIL=
202104201200 METAR MRLM 201200Z 33002KT 7000 RA SCT015TCU BKN100 25/24 A2987=
202104201300 METAR MRLM 201300Z 22002KT 9999 VCSH FEW015TCU BKN100 26/25 A2989 RERA=
202104201400 METAR MRLM 201400Z 21004KT 9999 FEW020 SCT120 BKN220 28/24 A2990=
202104201500 METAR MRLM 201500Z 04005KT 9999 FEW020TCU BKN220 29/25 A2992=
202104201600 METAR MRLM 201600Z 05008KT 9999 FEW020TCU BKN220 29/25 A2991=
202104201700 METAR MRLM 201700Z 04007KT 9999 FEW025 BKN240 29/26 A2990=
202104201800 METAR MRLM 201800Z 02007KT 9999 FEW025 BKN240 30/26 A2989=
202104201900 METAR MRLM 201900Z 03010KT 9999 FEW025 BKN240 29/25 A2986=
202104202000 METAR MRLM 202000Z 04007KT 9999 FEW025 BKN240 29/25 A2984=
202104202100 METAR MRLM 202100Z 04006KT 9999 FEW025 BKN240 29/24 A2983=
202104202200 METAR MRLM 202200Z 10003KT 9999 FEW025 BKN240 28/24 A2983=
202104202300 METAR MRLM 202300Z 10004KT 9999 FEW020 BKN220 28/25 A2984=
202104210000 METAR MRLM 210000Z 10005KT 9999 FEW020 BKN220 28/25 A2985=
202104210100 METAR MRLM NIL=
202104210200 METAR MRLM NIL=
202104210300 METAR MRLM NIL=
202104210400 METAR MRLM NIL=
202104210500 METAR MRLM NIL=
202104210600 METAR MRLM NIL=
202104210700 METAR MRLM NIL=
202104210800 METAR MRLM NIL=
202104210900 METAR MRLM NIL=
202104211000 METAR MRLM NIL=
202104211100 METAR MRLM NIL=
202104211200 METAR MRLM 211200Z 35004KT 9999 4000N DZ BKN010 24/23 A2989=
202104211300 METAR MRLM 211300Z 27003KT 9999 2000NW DZ BKN010 24/24 A2992=
202104211400 METAR MRLM 211400Z 27006KT 9999 3000SE DZ SCT015 BKN100 25/24 A2992=
202104211500 METAR MRLM 211500Z 24005KT 9999 VCSH FEW015 BKN110 26/25 A2993 REDZ=
202104211600 METAR MRLM 211600Z 22004KT 9999 BKN020 27/25 A2993=
202104211700 METAR MRLM 211700Z 32010KT 9999 BKN015 25/24 A2992 RERA=
202104211800 METAR MRLM 211800Z 23005KT 9999 DZ SCT010 BKN100 25/24 A2991=
202104211900 METAR MRLM 211900Z 23003KT 9999 SCT010 BKN120 28/25 A2988 REDZ=
202104212000 METAR MRLM 212000Z 25004KT 9999 SCT020 28/25 A2985 RERA=
202104212100 METAR MRLM 212100Z 00000KT 9999 SCT020 29/25 A2982=
202104212200 METAR MRLM 212200Z 04011KT 9999 SCT020 28/24 A2982=
202104212300 METAR MRLM 212300Z 06009KT 9999 FEW020 SCT120 28/25 A2983=
202104220000 METAR MRLM 220000Z 36008KT 9999 SCT015 BKN110 27/24 A2980=
202104220100 METAR MRLM NIL=
202104220200 METAR MRLM NIL=
202104220300 METAR MRLM NIL=
202104220400 METAR MRLM NIL=
202104220500 METAR MRLM NIL=
202104220600 METAR MRLM NIL=
202104220700 METAR MRLM NIL=
202104220800 METAR MRLM NIL=
202104220900 METAR MRLM NIL=
202104221000 METAR MRLM NIL=
202104221100 METAR MRLM NIL=
202104221200 METAR MRLM 221200Z 24004KT 9999 DZ BKN015 24/23 A2988=
202104221300 METAR MRLM 221300Z 26004KT 9999 DZ BKN015 24/23 A2991=
202104221400 METAR MRLM 221400Z 20003KT 9999 BKN015 24/23 A2993 REDZ=
202104221500 METAR MRLM 221500Z 25004KT 9999 DZ BKN015 24/23 A2994=
202104221600 METAR MRLM 221600Z 25006KT 9999 BKN020 26/24 A2995 REDZ=
202104221700 METAR MRLM 221700Z 23004KT 9999 SCT025 29/25 A2992=
202104221800 METAR MRLM 221800Z 24005KT 9999 BKN020 28/24 A2989=
202104221900 METAR MRLM 221900Z 25004KT 9999 DZ BKN020 27/24 A2987=
202104222000 METAR MRLM 222000Z 24005KT 9999 BKN015 27/24 A2984=
202104222100 METAR MRLM 222100Z 00000KT 9999 BKN020 28/23 A2983=
202104222200 METAR MRLM 222200Z 00000KT 9999 BKN020 27/23 A2983=
202104222300 METAR MRLM 222300Z 00000KT 9999 BKN015 26/24 A2983=
202104230000 METAR MRLM 230000Z 23005KT 9999 BKN015 25/24 A2986=
202104230100 METAR MRLM NIL=
202104230200 METAR MRLM NIL=
202104230300 METAR MRLM NIL=
202104230400 METAR MRLM NIL=
202104230500 METAR MRLM NIL=
202104230600 METAR MRLM NIL=
202104230700 METAR MRLM NIL=
202104230800 METAR MRLM NIL=
202104230900 METAR MRLM NIL=
202104231000 METAR MRLM NIL=
202104231100 METAR MRLM NIL=
202104231200 METAR MRLM 231200Z 20004KT 5000 DZ FEW010 OVC090 23/22 A2992=
202104231300 METAR MRLM 231300Z 20005KT 8000 DZ FEW010 OVC090 23/22 A2993=
202104231400 METAR MRLM 231400Z 21003KT 8000 HZ SCT010 OVC090 24/22 A2995=
202104231500 METAR MRLM 231500Z 22002KT 8000 -DZ FEW010 OVC080 24/23 A2996=
202104231600 METAR MRLM 231600Z 27004KT 6000 DZ FEW010 OVC080 24/23 A2996=
202104231700 METAR MRLM 231700Z 19005KT 8000 -DZ FEW010 OVC080 24/23 A2996=
202104231800 METAR MRLM 231800Z 17004KT 9999 -DZ FEW015 OVC090 25/22 A2994=
202104231900 METAR MRLM 231900Z 22006KT CAVOK 27/23 A2989=
202104232000 METAR MRLM 232000Z 23005KT CAVOK 27/22 A2987=
202104232100 METAR MRLM 232100Z 22004KT CAVOK 27/23 A2986=
202104232200 METAR MRLM 232200Z 24002KT CAVOK 28/23 A2985=
202104232300 METAR MRLM 232300Z 18002KT 9999 FEW020 BKN100 27/24 A2985=
202104240000 METAR MRLM 240000Z 20002KT 9999 FEW020 SCT100 BKN200 25/24 A2988=
202104240100 METAR MRLM NIL=
202104240200 METAR MRLM NIL=
202104240300 METAR MRLM NIL=
202104240400 METAR MRLM NIL=
202104240500 METAR MRLM NIL=
202104240600 METAR MRLM NIL=
202104240700 METAR MRLM NIL=
202104240800 METAR MRLM NIL=
202104240900 METAR MRLM NIL=
202104241000 METAR MRLM NIL=
202104241100 METAR MRLM NIL=
202104241200 METAR MRLM 241200Z 23004KT 9999 FEW015TCU SCT100 22/21 A2990=
202104241300 METAR MRLM 241300Z 22004KT 9999 FEW020 SCT100 25/22 A2993=
202104241400 METAR MRLM 241400Z 21003KT 9999 FEW020 SCT120 28/23 A2994=
202104241500 METAR MRLM 241500Z 10004KT 9999 FEW020 SCT120 29/24 A2994=
202104241600 METAR MRLM 241600Z 08006KT 9999 FEW025 29/24 A2993=
202104241700 METAR MRLM 241700Z 09006KT 9999 FEW025 SCT130 29/24 A2993=
202104241800 METAR MRLM 241800Z 10008KT CAVOK 29/24 A2990=
202104241900 METAR MRLM 241900Z 09009KT CAVOK 30/24 A2987=
202104242000 METAR MRLM 242000Z 08009KT 9999 FEW030 29/24 A2985=
202104242100 METAR MRLM 242100Z 08010KT 9999 SCT025 29/24 A2983=
202104242200 METAR MRLM 242200Z 08009KT 9999 SCT025 29/24 A2982=
202104242300 METAR MRLM 242300Z 08008KT 9999 SCT020 28/24 A2982=
202104250000 METAR MRLM 250000Z 08007KT 9999 SCT020 28/23 A2984=
202104250100 METAR MRLM NIL=
202104250200 METAR MRLM NIL=
202104250300 METAR MRLM NIL=
202104250400 METAR MRLM NIL=
202104250500 METAR MRLM NIL=
202104250600 METAR MRLM NIL=
202104250700 METAR MRLM NIL=
202104250800 METAR MRLM NIL=
202104250900 METAR MRLM NIL=
202104251000 METAR MRLM NIL=
202104251100 METAR MRLM NIL=
202104251200 METAR MRLM 251200Z 22003KT 9999 FEW015 SCT120 24/23 A2988=
202104251300 METAR MRLM 251300Z 23004KT 9999 FEW020 BKN120 25/23 A2990=
202104251400 METAR MRLM 251400Z 18003KT 9999 FEW020 SCT120 26/23 A2993=
202104251500 METAR MRLM 251500Z 00000KT 9999 FEW025 28/23 A2994=
202104251600 METAR MRLM 251600Z 06003KT 9999 FEW030 29/23 A2993=
202104251700 METAR MRLM 251700Z 07005KT 9999 FEW030 29/24 A2993=
202104251800 METAR MRLM 251800Z 03009KT 9999 FEW030 30/24 A2991=
202104251900 METAR MRLM 251900Z 03007KT 9999 FEW030 30/24 A2988=
202104252000 METAR MRLM 252000Z 05009KT 9999 SCT030 29/25 A2985=
202104252100 METAR MRLM 252100Z 05009KT 9999 SCT030 29/24 A2984=
202104252200 METAR MRLM 252200Z 06007KT 9999 BKN025 29/24 A2983=
202104252300 METAR MRLM 252300Z 06006KT 9999 SCT025 28/23 A2983=
202104260000 METAR MRLM 260000Z 21003KT 9999 SCT020 27/24 A2986=
202104260100 METAR MRLM NIL=
202104260200 METAR MRLM NIL=
202104260300 METAR MRLM NIL=
202104260400 METAR MRLM NIL=
202104260500 METAR MRLM NIL=
202104260600 METAR MRLM NIL=
202104260700 METAR MRLM NIL=
202104260800 METAR MRLM NIL=
202104260900 METAR MRLM NIL=
202104261000 METAR MRLM NIL=
202104261100 METAR MRLM NIL=
202104261200 METAR MRLM 261200Z 23004KT CAVOK 22/21 A2987=
202104261300 METAR MRLM 261300Z 25004KT CAVOK 24/22 A2990=
202104261400 METAR MRLM 261400Z 24003KT CAVOK 27/23 A2992=
202104261500 METAR MRLM 261500Z 07003KT 9999 FEW030 BKN240 29/23 A2992=
202104261600 METAR MRLM 261600Z 05005KT 9999 FEW030 BKN250 29/23 A2992=
202104261700 METAR MRLM 261700Z 02007KT 9999 FEW030 29/24 A2991=
202104261800 METAR MRLM 261800Z 03008KT 9999 FEW030 29/24 A2990=
202104261900 METAR MRLM 261900Z 04010KT 9999 FEW030 29/24 A2987=
202104262000 METAR MRLM 262000Z 05009KT 9999 FEW030 SCT250 30/22 A2985=
202104262100 METAR MRLM 262100Z 04007KT CAVOK 30/22 A2985=
202104262200 METAR MRLM 262200Z 04007KT 9999 SCT025 29/24 A2984=
202104262300 METAR MRLM 262300Z 05007KT 9999 BKN025 28/24 A2985=
202104270000 METAR MRLM 270000Z 21005KT 9999 BKN025 28/24 A2985=
202104270100 METAR MRLM NIL=
202104270200 METAR MRLM NIL=
202104270300 METAR MRLM NIL=
202104270400 METAR MRLM NIL=
202104270500 METAR MRLM NIL=
202104270600 METAR MRLM NIL=
202104270700 METAR MRLM NIL=
202104270800 METAR MRLM NIL=
202104270900 METAR MRLM NIL=
202104271000 METAR MRLM NIL=
202104271100 METAR MRLM NIL=
202104271200 METAR MRLM 271200Z 24006KT 8000 VCSH SCT015TCU BKN090 23/22 A2990=
202104271300 METAR MRLM 271300Z 15006KT 7000 DZ VCSH FEW015TCU OVC090 23/22 A2993=
202104271400 METAR MRLM 271400Z 25004KT 8000 HZ FEW015TCU OVC090 23/22 A2994 REDZ=
202104271500 METAR MRLM 271500Z 22007KT 9999 FEW015 OVC090 24/23 A2995=
202104271600 METAR MRLM 271600Z 21005KT 9999 FEW015 OVC100 25/22 A2994=
202104271700 METAR MRLM 271700Z 23004KT 9999 FEW020 OVC100 27/22 A2993=
202104271800 METAR MRLM 271800Z 23002KT 9999 FEW020 OVC100 28/23 A2992=
202104271900 METAR MRLM 271900Z 00000KT 9999 FEW020 BKN120 29/22 A2989=
202104272000 METAR MRLM 272000Z 08004KT CAVOK 29/22 A2988=
202104272100 METAR MRLM 272100Z 07004KT CAVOK 28/22 A2987=
202104272200 METAR MRLM 272200Z 06005KT 9999 FEW020 BKN120 28/23 A2986=
202104272300 METAR MRLM 272300Z 06004KT 9999 SCT020 BKN120 28/23 A2987=
202104280000 METAR MRLM 280000Z 16003KT 9999 FEW015 SCT100 BKN200 27/23 A2987=
202104280100 METAR MRLM NIL=
202104280200 METAR MRLM NIL=
202104280300 METAR MRLM NIL=
202104280400 METAR MRLM NIL=
202104280500 METAR MRLM NIL=
202104280600 METAR MRLM NIL=
202104280700 METAR MRLM NIL=
202104280800 METAR MRLM NIL=
202104280900 METAR MRLM NIL=
202104281000 METAR MRLM NIL=
202104281100 METAR MRLM NIL=
202104281200 METAR MRLM 281200Z 27002KT CAVOK 21/20 A2990=
202104281300 METAR MRLM 281300Z 23004KT CAVOK 22/21 A2993=
202104281400 METAR MRLM 281400Z 24003KT CAVOK 25/22 A2994=
202104281500 METAR MRLM 281500Z 09002KT CAVOK 28/21 A2994=
202104281600 METAR MRLM 281600Z 08003KT CAVOK 28/20 A2994=
202104281700 METAR MRLM 281700Z 10004KT CAVOK 28/21 A2993=
202104281800 METAR MRLM 281800Z 09006KT CAVOK 29/23 A2991=
202104281900 METAR MRLM 281900Z 07007KT CAVOK 29/23 A2989=
202104282000 METAR MRLM 282000Z 07008KT CAVOK 29/23 A2987=
202104282100 METAR MRLM 282100Z 04006KT 9999 FEW025 BKN120 29/23 A2986=
202104282200 METAR MRLM 282200Z 05005KT 9999 FEW025 BKN120 28/23 A2985=
202104282300 METAR MRLM 282300Z 05003KT 9999 SCT020 BKN220 28/23 A2986=
202104290000 METAR MRLM 290000Z 05004KT 9999 SCT020 BKN220 28/23 A2988=
202104290100 METAR MRLM NIL=
202104290200 METAR MRLM NIL=
202104290300 METAR MRLM NIL=
202104290400 METAR MRLM NIL=
202104290500 METAR MRLM NIL=
202104290600 METAR MRLM NIL=
202104290700 METAR MRLM NIL=
202104290800 METAR MRLM NIL=
202104290900 METAR MRLM NIL=
202104291000 METAR MRLM NIL=
202104291100 METAR MRLM NIL=
202104291200 METAR MRLM 291200Z 00000KT CAVOK 23/22 A2990=
202104291300 METAR MRLM 291300Z 22004KT CAVOK 25/22 A2992=
202104291400 METAR MRLM 291400Z 00000KT CAVOK 26/22 A2993=
202104291500 METAR MRLM 291500Z 06004KT CAVOK 28/23 A2995=
202104291600 METAR MRLM 291600Z 08006KT CAVOK 29/22 A2995=
202104291700 METAR MRLM 291700Z 09007KT CAVOK 30/22 A2994=
202104291800 METAR MRLM 291800Z 09007KT CAVOK 29/23 A2992=
202104291900 METAR MRLM 291900Z 07007KT CAVOK 29/23 A2989=
202104292000 METAR MRLM 292000Z 06005KT CAVOK 29/23 A2987=
202104292100 METAR MRLM 292100Z 09004KT CAVOK 28/23 A2986=
202104292200 METAR MRLM 292200Z 09003KT CAVOK 28/23 A2985=
202104292300 METAR MRLM 292300Z 12004KT 9999 FEW020 BKN120 28/23 A2986=
202104300000 METAR MRLM 300000Z 00000KT 9999 SCT020 BKN110 28/23 A2990=
202104300100 METAR MRLM NIL=
202104300200 METAR MRLM NIL=
202104300300 METAR MRLM NIL=
202104300400 METAR MRLM NIL=
202104300500 METAR MRLM NIL=
202104300600 METAR MRLM NIL=
202104300700 METAR MRLM NIL=
202104300800 METAR MRLM NIL=
202104300900 METAR MRLM NIL=
202104301000 METAR MRLM NIL=
202104301100 METAR MRLM NIL=
202104301200 METAR MRLM 301200Z 25003KT CAVOK 22/20 A2991=
202104301300 METAR MRLM 301300Z 22004KT 9999 FEW015 BKN140 25/21 A2993=
202104301400 METAR MRLM 301400Z 00000KT CAVOK 28/21 A2995=
202104301500 METAR MRLM 301500Z 08005KT CAVOK 28/23 A2996=
202104301600 METAR MRLM 301600Z 09005KT CAVOK 29/23 A2994=
202104301700 METAR MRLM 301700Z 10006KT 9999 FEW030 SCT140 BKN250 29/23 A2994=
202104301800 METAR MRLM 301800Z 07005KT CAVOK 29/23 A2992=
202104301900 METAR MRLM 301900Z 06008KT CAVOK 30/23 A2990=
202104302000 METAR MRLM 302000Z 07010KT CAVOK 30/23 A2987=
202104302100 METAR MRLM 302100Z 06005KT 9999 FEW030 BKN130 29/23 A2985=
202104302200 METAR MRLM 302200Z 05004KT 9999 FEW030 BKN130 29/23 A2984=
202104302300 METAR MRLM 302300Z 10004KT 9999 FEW025 BKN120 28/23 A2986=
202105010000 METAR MRLM 010000Z 18005KT 9999 SCT020 BKN110 27/23 A2991=
202105010100 METAR MRLM NIL=
202105010200 METAR MRLM NIL=
202105010300 METAR MRLM NIL=
202105010400 METAR MRLM NIL=
202105010500 METAR MRLM NIL=
202105010600 METAR MRLM NIL=
202105010700 METAR MRLM NIL=
202105010800 METAR MRLM NIL=
202105010900 METAR MRLM NIL=
202105011000 METAR MRLM NIL=
202105011100 METAR MRLM NIL=
202105011200 METAR MRLM 011200Z 23003KT 9999 FEW015 BKN100 23/22 A2992=
202105011300 METAR MRLM 011300Z 25002KT 9999 FEW015 BKN100 24/23 A2994=
202105011400 METAR MRLM 011400Z 21002KT 9999 FEW020 BKN100 27/23 A2996=
202105011500 METAR MRLM 011500Z 08002KT 9999 FEW020 BKN120 29/22 A2996=
202105011600 METAR MRLM 011600Z 05005KT 9999 FEW020 SCT120 BKN220 29/23 A2996=
202105011700 METAR MRLM 011700Z 05005KT 9999 FEW030 BKN220 29/23 A2994=
202105011800 METAR MRLM 011800Z 06007KT 9999 FEW030 SCT220 30/23 A2992=
202105011900 METAR MRLM 011900Z 07007KT 9999 FEW030 SCT130 29/23 A2989=
202105012000 METAR MRLM 012000Z 07004KT 9999 FEW030 BKN130 29/23 A2986=
202105012100 METAR MRLM 012100Z 07007KT 9999 FEW030 BKN130 29/24 A2986=
202105012200 METAR MRLM 012200Z 09007KT 9999 SCT020 BKN120 29/23 A2985=
202105012300 METAR MRLM 012300Z 09006KT 9999 SCT020 BKN120 28/23 A2986=
202105020000 METAR MRLM 020000Z 12008KT 9999 SCT015 BKN100 28/23 A2987=
202105020100 METAR MRLM NIL=
202105020200 METAR MRLM NIL=
202105020300 METAR MRLM NIL=
202105020400 METAR MRLM NIL=
202105020500 METAR MRLM NIL=
202105020600 METAR MRLM NIL=
202105020700 METAR MRLM NIL=
202105020800 METAR MRLM NIL=
202105020900 METAR MRLM NIL=
202105021000 METAR MRLM NIL=
202105021100 METAR MRLM NIL=
202105021200 METAR MRLM 021200Z 23004KT 9999 FEW015 BKN100 23/22 A2990=
202105021300 METAR MRLM 021300Z 23005KT 9999 FEW015 BKN100 24/22 A2992=
202105021400 METAR MRLM 021400Z 21002KT 9999 FEW020 BKN120 27/21 A2993=
202105021500 METAR MRLM 021500Z 07003KT 9999 FEW020 BKN120 28/22 A2993=
202105021600 METAR MRLM 021600Z 06004KT 9999 FEW020 BKN120 29/23 A2993=
202105021700 METAR MRLM 021700Z 03006KT 9999 FEW030 SCT130 29/23 A2993=
202105021800 METAR MRLM 021800Z 02011KT 9999 FEW030 SCT130 29/24 A2990=
202105021900 METAR MRLM 021900Z 03010KT CAVOK 29/24 A2989=
202105022000 METAR MRLM 022000Z 01008KT 9999 FEW030 SCT240 28/23 A2987=
202105022100 METAR MRLM 022100Z 36006KT 9999 FEW020 SCT120 BKN220 27/23 A2988=
202105022200 METAR MRLM 022200Z 25003KT 9999 DZ FEW020 BKN120 26/23 A2988=
202105022300 METAR MRLM 022300Z 24005KT 9999 DZ FEW015 BKN100 24/24 A2990=
202105030000 METAR MRLM 030000Z 22004KT 9999 DZ FEW015 BKN100 24/23 A2991=
202105030100 METAR MRLM NIL=
202105030200 METAR MRLM NIL=
202105030300 METAR MRLM NIL=
202105030400 METAR MRLM NIL=
202105030500 METAR MRLM NIL=
202105030600 METAR MRLM NIL=
202105030700 METAR MRLM NIL=
202105030800 METAR MRLM NIL=
202105030900 METAR MRLM NIL=
202105031000 METAR MRLM NIL=
202105031100 METAR MRLM NIL=
202105031200 METAR MRLM 031200Z 24004KT CAVOK 22/21 A2989=
202105031300 METAR MRLM 031300Z 20004KT CAVOK 23/22 A2991=
202105031400 METAR MRLM 031400Z 24003KT CAVOK 26/23 A2993=
202105031500 METAR MRLM 031500Z 11003KT CAVOK 27/23 A2994=
202105031600 METAR MRLM 031600Z 10005KT CAVOK 28/24 A2992=
202105031700 METAR MRLM 031700Z 10008KT CAVOK 29/23 A2991=
202105031800 METAR MRLM 031800Z 08007KT CAVOK 29/24 A2990=
202105031900 METAR MRLM 031900Z 08007KT CAVOK 29/24 A2988=
202105032000 METAR MRLM 032000Z 07004KT CAVOK 29/23 A2985=
202105032100 METAR MRLM 032100Z 06005KT CAVOK 29/23 A2984=
202105032200 METAR MRLM 032200Z 06005KT CAVOK 29/23 A2984=
202105032300 METAR MRLM 032300Z 07005KT CAVOK 28/23 A2985=
202105040000 METAR MRLM 040000Z 12005KT 9999 FEW020 SCT140 BKN250 27/22 A2987=
202105040100 METAR MRLM NIL=
202105040200 METAR MRLM NIL=
202105040300 METAR MRLM NIL=
202105040400 METAR MRLM NIL=
202105040500 METAR MRLM NIL=
202105040600 METAR MRLM NIL=
202105040700 METAR MRLM NIL=
202105040800 METAR MRLM NIL=
202105040900 METAR MRLM NIL=
202105041000 METAR MRLM NIL=
202105041100 METAR MRLM NIL=
202105041200 METAR MRLM 041200Z 23004KT 9999 FEW010CB SCT130 BKN240 23/23 A2990=
202105041300 METAR MRLM 041300Z 23004KT 9999 FEW010 SCT130 24/24 A2993=
202105041400 METAR MRLM 041400Z 12003KT CAVOK 29/24 A2994=
202105041500 METAR MRLM 041500Z 06004KT 9999 FEW030 BKN140 29/24 A2995=
202105041600 METAR MRLM 041600Z 07007KT 9999 FEW030 BKN130 29/25 A2995=
202105041700 METAR MRLM 041700Z 08007KT 9999 FEW030 BKN130 29/25 A2993=
202105041800 METAR MRLM 041800Z 07006KT 9999 FEW030 SCT250 30/25 A2992=
202105041900 METAR MRLM 041900Z 04007KT 9999 FEW030 BKN250 30/25 A2988=
202105042000 METAR MRLM 042000Z 06006KT 9999 FEW025 BKN240 29/24 A2986=
202105042100 METAR MRLM 042100Z 05005KT 9999 FEW025 BKN240 29/24 A2985=
202105042200 METAR MRLM 042200Z 06004KT 9999 FEW020 SCT130 BKN240 28/25 A2986=
202105042300 METAR MRLM 042300Z 11004KT 9999 FEW020 SCT130 BKN240 28/24 A2988=
202105050000 METAR MRLM 050000Z 20003KT CAVOK 26/24 A2991=
202105050100 METAR MRLM NIL=
202105050200 METAR MRLM NIL=
202105050300 METAR MRLM NIL=
202105050400 METAR MRLM NIL=
202105050500 METAR MRLM NIL=
202105050600 METAR MRLM NIL=
202105050700 METAR MRLM NIL=
202105050800 METAR MRLM NIL=
202105050900 METAR MRLM NIL=
202105051000 METAR MRLM NIL=
202105051100 METAR MRLM NIL=
202105051200 METAR MRLM 051200Z 26003KT 9999 VCSH FEW015TCU BKN100 23/22 A2993=
202105051300 METAR MRLM 051300Z 08002KT 9999 DZ FEW015 BKN100 23/22 A2997=
202105051400 METAR MRLM 051400Z 27003KT 9999 -DZ FEW015 BKN100 24/23 A2999=
202105051500 METAR MRLM 051500Z 32005KT 9999 FEW020 BKN100 26/23 A3000=
202105051600 METAR MRLM 051600Z 32006KT 9999 FEW020 BKN100 27/23 A3000=
202105051700 METAR MRLM 051700Z 31006KT 9999 SCT020 BKN120 27/23 A2998=
202105051800 METAR MRLM 051800Z 31005KT 9999 SCT020 BKN120 28/23 A2997=
202105051900 METAR MRLM 051900Z 01008KT 9999 FEW020 BKN120 29/24 A2994=
202105052000 METAR MRLM 052000Z 02007KT 9999 FEW020 SCT130 BKN220 28/23 A2990=
202105052100 METAR MRLM 052100Z 04005KT CAVOK 28/23 A2988=
202105052200 METAR MRLM 052200Z 05005KT 9999 FEW020 BKN220 28/24 A2988=
202105052300 METAR MRLM 052300Z 11002KT CAVOK 27/23 A2989=
202105060000 METAR MRLM 060000Z 02002KT CAVOK 27/23 A2991=
202105060100 METAR MRLM NIL=
202105060200 METAR MRLM NIL=
202105060300 METAR MRLM NIL=
202105060400 METAR MRLM NIL=
202105060500 METAR MRLM NIL=
202105060600 METAR MRLM NIL=
202105060700 METAR MRLM NIL=
202105060800 METAR MRLM NIL=
202105060900 METAR MRLM NIL=
202105061000 METAR MRLM NIL=
202105061100 METAR MRLM NIL=
202105061200 METAR MRLM 061200Z 06009KT 5000 +DZ FEW010 OVC070 24/23 A2993=
202105061300 METAR MRLM 061300Z 20003KT 4000 RA FEW010 OVC070 24/23 A2997=
202105061400 METAR MRLM 061400Z 25005KT 8000 DZ SCT010 OVC080 23/23 A2997 RERA=
202105061500 METAR MRLM 061500Z 23005KT 9999 -DZ SCT015 OVC080 24/23 A2999=
202105061600 METAR MRLM 061600Z 22003KT 9000 -DZ SCT015 OVC080 25/23 A3000=
202105061700 METAR MRLM 061700Z 23007KT 9999 -DZ SCT015 OVC080 24/23 A2997=
202105061800 METAR MRLM 061800Z 22007KT 9999 FEW015 BKN090 26/23 A2995=
202105061900 METAR MRLM 061900Z 21005KT 9999 SCT015 OVC090 27/23 A2993=
202105062000 METAR MRLM 062000Z 21003KT 9999 SCT020 OVC090 27/23 A2990=
202105062100 METAR MRLM 062100Z 16004KT 9999 SCT020 OVC090 27/23 A2989=
202105062200 METAR MRLM 062200Z 23004KT 9999 SCT020 OVC100 26/23 A2988=
202105062300 METAR MRLM 062300Z 21005KT 9999 FEW020 BKN100 26/23 A2989=
202105070000 METAR MRLM 070000Z 23005KT 9999 FEW015 SCT100 BKN200 25/23 A2989=
202105070100 METAR MRLM NIL=
202105070200 METAR MRLM NIL=
202105070300 METAR MRLM NIL=
202105070400 METAR MRLM NIL=
202105070500 METAR MRLM NIL=
202105070600 METAR MRLM NIL=
202105070700 METAR MRLM NIL=
202105070800 METAR MRLM NIL=
202105070900 METAR MRLM NIL=
202105071000 METAR MRLM NIL=
202105071100 METAR MRLM NIL=
202105071200 METAR MRLM 071200Z 26003KT 9999 DZ BKN015 23/22 A2992=
202105071300 METAR MRLM 071300Z 27006KT 9999 FEW015 BKN100 24/22 A2993 REDZ=
202105071400 METAR MRLM 071400Z 28004KT 9999 SCT020 BKN100 25/23 A2995=
202105071500 METAR MRLM 071500Z 12003KT 1000 RA BKN015 24/23 A2998=
202105071600 METAR MRLM 071600Z 23004KT 3000 +DZ SCT015 OVC100 24/23 A2999 RERA=
202105071700 METAR MRLM 071700Z 23005KT 9999 DZ FEW020 OVC100 23/23 A2996=
202105071800 METAR MRLM 071800Z 21005KT 9999 DZ FEW020 BKN120 24/23 A2994=
202105071900 METAR MRLM 071900Z 22005KT 9999 DZ FEW020 BKN130 24/23 A2993=
202105072000 METAR MRLM 072000Z 27004KT 9999 FEW020 BKN120 25/23 A2988 REDZ=
202105072100 METAR MRLM 072100Z 02004KT 9999 SCT020 BKN130 27/23 A2986=
202105072200 METAR MRLM 072200Z 35006KT 9999 FEW025 BKN130 26/23 A2988=
202105072300 METAR MRLM 072300Z 03008KT 9999 -DZ FEW025 BKN130 26/23 A2989=
202105080000 METAR MRLM 080000Z 03008KT 9999 -DZ FEW020 BKN130 25/23 A2991=
202105080100 METAR MRLM NIL=
202105080200 METAR MRLM NIL=
202105080300 METAR MRLM NIL=
202105080400 METAR MRLM NIL=
202105080500 METAR MRLM NIL=
202105080600 METAR MRLM NIL=
202105080700 METAR MRLM NIL=
202105080800 METAR MRLM NIL=
202105080900 METAR MRLM NIL=
202105081000 METAR MRLM NIL=
202105081100 METAR MRLM NIL=
202105081200 METAR MRLM 081200Z 24005KT 9999 SCT020 BKN110 23/22 A2992=
202105081300 METAR MRLM 081300Z 24004KT 9999 SCT020 24/23 A2994=
202105081400 METAR MRLM 081400Z 25005KT 9999 FEW020 SCT130 27/23 A2995=
202105081500 METAR MRLM 081500Z 23003KT 9999 SCT020 28/23 A2996=
202105081600 METAR MRLM 081600Z 19004KT 9999 FEW025 SCT120 28/24 A2996=
202105081700 METAR MRLM 081700Z 19003KT 9999 SCT020 29/23 A2995=
202105081800 METAR MRLM 081800Z 04006KT 9999 DZ FEW015 BKN120 25/22 A2994=
202105081900 METAR MRLM 081900Z 21007KT 9999 BKN015 25/22 A2992 REDZ=
202105082000 METAR MRLM 082000Z 17005KT 9999 FEW015 BKN130 25/22 A2990=
202105082100 METAR MRLM 082100Z 23006KT CAVOK 28/24 A2987=
202105082200 METAR MRLM 082200Z 21004KT CAVOK 28/22 A2987=
202105082300 METAR MRLM 082300Z 00000KT CAVOK 29/23 A2987=
202105090000 METAR MRLM 090000Z 24003KT CAVOK 28/22 A2985=
202105090100 METAR MRLM NIL=
202105090200 METAR MRLM NIL=
202105090300 METAR MRLM NIL=
202105090400 METAR MRLM NIL=
202105090500 METAR MRLM NIL=
202105090600 METAR MRLM NIL=
202105090700 METAR MRLM NIL=
202105090800 METAR MRLM NIL=
202105090900 METAR MRLM NIL=
202105091000 METAR MRLM NIL=
202105091100 METAR MRLM NIL=
202105091200 METAR MRLM 091200Z 20003KT 4000 -RA FEW008 OVC070 22/22 A2993=
202105091300 METAR MRLM 091300Z 17003KT 8000 VCSH FEW010TCU OVC080 23/23 A2995=
202105091400 MRLM 091400Z 19005KT 8000 DZ VCSH FEW010TCU OVC080 23/23 A2996=
202105091500 METAR MRLM 091500Z 23005KT 9000 -DZ FEW010 BKN080 26/23 A2996=
202105091600 METAR MRLM 091600Z 23004KT 9999 FEW010TCU SCT015 BKN080 28/23 A2995=
202105091700 METAR MRLM 091700Z 13015KT 8000 DZ FEW015 OVC080 26/24 A2995=
202105091800 METAR MRLM 091800Z 21006KT 9999 -DZ FEW015 BKN090 26/23 A2993=
202105091900 METAR MRLM 091900Z 22005KT 9999 FEW020 BKN110 28/23 A2989=
202105092000 METAR MRLM 092000Z 21002KT 9999 FEW020 BKN110 29/23 A2987=
202105092100 METAR MRLM 092100Z 26003KT CAVOK 30/23 A2984=
202105092200 METAR MRLM 092200Z 04005KT CAVOK 29/23 A2984=
202105092300 METAR MRLM 092300Z 01006KT CAVOK 28/24 A2986=
202105100000 METAR MRLM 100000Z 30003KT CAVOK 26/24 A2988=
202105100100 METAR MRLM NIL=
202105100200 METAR MRLM NIL=
202105100300 METAR MRLM NIL=
202105100400 METAR MRLM NIL=
202105100500 METAR MRLM NIL=
202105100600 METAR MRLM NIL=
202105100700 METAR MRLM NIL=
202105100800 METAR MRLM NIL=
202105100900 METAR MRLM NIL=
202105101000 METAR MRLM NIL=
202105101100 METAR MRLM NIL=
202105101200 METAR MRLM 101200Z 23003KT 5000 +DZ FEW010 OVC070 22/22 A2985=
202105101300 METAR MRLM 101300Z 29002KT 5000 +DZ VCTS FEW007CB FEW010 OVC070 22/22 A2988=
202105101400 METAR MRLM 101400Z 20002KT 5000 +DZ FEW010 OVC070 23/22 A2990=
202105101500 METAR MRLM 101500Z 26003KT 7000 -DZ FEW010 BKN080 23/23 A2991=
202105101600 METAR MRLM 101600Z 26003KT 9999 FEW015 BKN080 26/23 A2989=
202105101700 METAR MRLM 101700Z 10003KT 9999 FEW020 BKN100 27/24 A2988=
202105101800 METAR MRLM 101800Z 08004KT CAVOK 28/24 A2985=
202105101900 METAR MRLM 101900Z 02009KT CAVOK 29/25 A2982=
202105102000 METAR MRLM 102000Z 01010KT CAVOK 29/24 A2980=
202105102100 METAR MRLM 102100Z 01007KT CAVOK 29/24 A2977=
202105102200 METAR MRLM 102200Z 36009KT CAVOK 29/24 A2977=
202105102300 METAR MRLM 102300Z 35006KT 9999 VCSH FEW020TCU BKN110 28/24 A2979=
202105110000 METAR MRLM 110000Z 32005KT 9999 VCSH FEW020TCU SCT200 27/24 A2980=
202105110100 METAR MRLM NIL=
202105110200 METAR MRLM NIL=
202105110300 METAR MRLM NIL=
202105110400 METAR MRLM NIL=
202105110500 METAR MRLM NIL=
202105110600 METAR MRLM NIL=
202105110700 METAR MRLM NIL=
202105110800 METAR MRLM NIL=
202105110900 METAR MRLM NIL=
202105111000 METAR MRLM NIL=
202105111100 METAR MRLM NIL=
202105111200 METAR MRLM 111200Z 23004KT 9999 VCTS FEW015 BKN110 23/23 A2981=
202105111300 METAR MRLM 111300Z 00000KT 9999 -DZ FEW015 BKN110 24/23 A2983=
202105111400 METAR MRLM 111400Z 30005KT CAVOK 25/24 A2986=
202105111500 METAR MRLM 111500Z 25003KT CAVOK 27/24 A2986=
202105111600 METAR MRLM 111600Z 01003KT CAVOK 29/26 A2985=
202105111700 METAR MRLM 111700Z 01005KT CAVOK 29/25 A2984=
202105111800 METAR MRLM 111800Z 36008KT CAVOK 29/25 A2983=
202105111900 METAR MRLM 111900Z 36008KT 9999 FEW015 BKN130 29/24 A2981=
202105112000 METAR MRLM 112000Z 36006KT 9999 FEW020 BKN140 29/24 A2978=
202105112100 METAR MRLM 112100Z 34005KT 9999 BKN020 28/25 A2979=
202105112200 METAR MRLM 112200Z 01005KT 9999 SCT020 BKN130 28/25 A2979=
202105112300 METAR MRLM 112300Z 03005KT 9999 SCT015 BKN120 28/25 A2980=
202105120000 METAR MRLM 120000Z 36005KT 9999 DZ BKN015 27/25 A2984=
202105120100 METAR MRLM NIL=
202105120200 METAR MRLM NIL=
202105120300 METAR MRLM NIL=
202105120400 METAR MRLM NIL=
202105120500 METAR MRLM NIL=
202105120600 METAR MRLM NIL=
202105120700 METAR MRLM NIL=
202105120800 METAR MRLM NIL=
202105120900 METAR MRLM NIL=
202105121000 METAR MRLM NIL=
202105121100 METAR MRLM NIL=
202105121200 METAR MRLM 121200Z 15003KT 9999 VCSH SCT010 BKN100 25/24 A2984=
202105121300 METAR MRLM 121300Z 31003KT 9999 DZ SCT007 BKN100 25/24 A2989=
202105121400 METAR MRLM 121400Z 28003KT 4000 RA BKN010 25/24 A2992=
202105121500 METAR MRLM 121500Z 24004KT 9999 +DZ FEW007 BKN100 25/24 A2992 RERA=
202105121600 METAR MRLM 121600Z 27003KT 9999 VCSH FEW010 BKN110 26/24 A2991=
202105121700 METAR MRLM 121700Z 31004KT 9999 FEW015 BKN130 28/25 A2990=
202105121800 METAR MRLM 121800Z 28004KT 9999 FEW020 BKN140 29/25 A2990=
202105121900 METAR MRLM 121900Z 29005KT 9999 FEW020 BKN140 29/25 A2985=
202105122000 METAR MRLM 122000Z 34006KT 9999 FEW020 BKN140 29/24 A2985=
202105122100 METAR MRLM 122100Z 35008KT CAVOK 30/24 A2983=
202105122200 METAR MRLM 122200Z 35008KT 9999 VCTS SCT020 BKN130 29/25 A2985=
202105122300 METAR MRLM 122300Z 35007KT 9999 4000N DZ VCSH BKN010 28/25 A2985=
202105130000 METAR MRLM 130000Z 35006KT 9999 5000SE DZ BKN010 28/25 A2987=
202105130100 METAR MRLM NIL=
202105130200 METAR MRLM NIL=
202105130300 METAR MRLM NIL=
202105130400 METAR MRLM NIL=
202105130500 METAR MRLM NIL=
202105130600 METAR MRLM NIL=
202105130700 METAR MRLM NIL=
202105130800 METAR MRLM NIL=
202105130900 METAR MRLM NIL=
202105131000 METAR MRLM NIL=
202105131100 METAR MRLM NIL=
202105131200 METAR MRLM 131200Z 24005KT 6000 DZ VCSH SCT010TCU OVC080 24/24 A2988=
202105131300 METAR MRLM 131300Z 18004KT 6000 +DZ VCSH SCT010TCU OVC080 24/24 A2989=
202105131400 METAR MRLM 131400Z 23005KT 6000 DZ VCSH FEW010TCU OVC080 25/25 A2992=
202105131500 METAR MRLM 131500Z 23003KT 8000 -DZ SCT010 OVC080 26/25 A2990=
202105131600 METAR MRLM 131600Z 26006KT 9999 FEW015 BKN090 27/25 A2990 REDZ=
202105131700 METAR MRLM 131700Z 24005KT 9999 -DZ SCT015 BKN090 27/25 A2989=
202105131800 METAR MRLM 131800Z 25005KT 9999 FEW015 BKN090 28/25 A2988=
202105131900 METAR MRLM 131900Z 25003KT 9999 FEW020 BKN100 29/25 A2985=
202105132000 METAR MRLM 132000Z 03006KT 9999 FEW020 BKN100 29/24 A2984=
202105132100 METAR MRLM 132100Z 01007KT 9999 FEW020TCU BKN120 29/24 A2982=
202105132200 METAR MRLM 132200Z 33005KT 9999 VCSH SCT020TCU BKN120 29/25 A2981=
202105132300 METAR MRLM 132300Z 26002KT 9999 VCSH SCT020TCU BKN120 27/26 A2982=
202105140000 METAR MRLM 140000Z 25002KT 9999 VCSH SCT015TCU BKN100 27/26 A2983=
202105140100 METAR MRLM NIL=
202105140200 METAR MRLM NIL=
202105140300 METAR MRLM NIL=
202105140400 METAR MRLM NIL=
202105140500 METAR MRLM NIL=
202105140600 METAR MRLM NIL=
202105140700 METAR MRLM NIL=
202105140800 METAR MRLM NIL=
202105140900 METAR MRLM NIL=
202105141000 METAR MRLM NIL=
202105141100 METAR MRLM NIL=
202105141200 METAR MRLM 141200Z 24004KT 8000 -DZ VCSH FEW015TCU BKN090 24/24 A2986=
202105141300 METAR MRLM 141300Z 17003KT 7000 DZ VCSH FEW015TCU BKN090 25/24 A2989=
202105141400 METAR MRLM 141400Z 23003KT 6000 +DZ SCT015 OVC090 26/25 A2990=
202105141500 METAR MRLM 141500Z 03012KT 9999 FEW015 BKN100 28/25 A2990=
202105141600 METAR MRLM 141600Z 04011KT 9999 SCT020 BKN100 29/25 A2991=
202105141700 METAR MRLM 141700Z 04008KT 9999 FEW020 BKN100 30/25 A2990=
202105141800 METAR MRLM 141800Z 05007KT 9999 FEW020TCU SCT100 BKN240 30/25 A2988=
202105141900 METAR MRLM 141900Z 04008KT 9999 VCSH FEW020TCU SCT120 BKN240 30/26 A2987=
202105142000 METAR MRLM 142000Z 05010KT 9999 FEW020 BKN240 29/25 A2985=
202105142100 METAR MRLM 142100Z 05011KT 9999 FEW025TCU BKN240 29/25 A2984=
202105142200 METAR MRLM 142200Z 05012KT 8000 DZ VCSH FEW025TCU SCT120 BKN240 28/24 A2984=
202105142300 METAR MRLM 142300Z 09005KT 9999 SCT020 OVC220 28/25 A2984 REDZ=
202105150000 METAR MRLM 150000Z 07011KT 9999 SCT015 OVC200 28/25 A2986=
202105150100 METAR MRLM NIL=
202105150200 METAR MRLM NIL=
202105150300 METAR MRLM NIL=
202105150400 METAR MRLM NIL=
202105150500 METAR MRLM NIL=
202105150600 METAR MRLM NIL=
202105150700 METAR MRLM NIL=
202105150800 METAR MRLM NIL=
202105150900 METAR MRLM NIL=
202105151000 METAR MRLM NIL=
202105151100 METAR MRLM NIL=
202105151200 METAR MRLM 151200Z 03009KT 9999 BKN030 28/24 A2990=
202105151300 METAR MRLM 151300Z 02010KT 9999 BKN030 28/24 A2992=
202105151400 METAR MRLM 151400Z 03009KT 9999 BKN030 29/24 A2993=
202105151500 METAR MRLM 151500Z 03008KT 9999 BKN030 29/24 A2994=
202105151600 METAR MRLM 151600Z 03009KT 9999 BKN035 29/24 A2994=
202105151700 METAR MRLM 151700Z 04006KT 9999 SCT035 30/24 A2993=
202105151800 METAR MRLM 151800Z 04007KT 9999 SCT035 30/24 A2991=
202105151900 METAR MRLM 151900Z 02009KT 9999 SCT030 30/24 A2988=
202105152000 METAR MRLM 152000Z 02009KT 9999 SCT030 30/24 A2986=
202105152100 METAR MRLM 152100Z 02009KT 9999 SCT030 30/24 A2986=
202105152200 METAR MRLM 152200Z 02009KT 9999 BKN025 29/24 A2986=
202105152300 METAR MRLM 152300Z 02009KT 9999 FEW020 SCT140 BKN240 29/24 A2987=
202105160000 METAR MRLM 160000Z 03008KT 9999 FEW020 SCT130 BKN230 28/23 A2990=
202105160100 METAR MRLM NIL=
202105160200 METAR MRLM NIL=
202105160300 METAR MRLM NIL=
202105160400 METAR MRLM NIL=
202105160500 METAR MRLM NIL=
202105160600 METAR MRLM NIL=
202105160700 METAR MRLM NIL=
202105160800 METAR MRLM NIL=
202105160900 METAR MRLM NIL=
202105161000 METAR MRLM NIL=
202105161100 METAR MRLM NIL=
202105161200 METAR MRLM 161200Z 26003KT 9999 BKN015 23/22 A2992=
202105161300 METAR MRLM 161300Z 25004KT 9999 -DZ BKN015 24/23 A2993=
202105161400 METAR MRLM 161400Z 14006KT 9999 SCT020 BKN100 25/23 A2996=
202105161500 METAR MRLM 161500Z 06003KT 9999 FEW025 BKN240 28/23 A2995=
202105161600 METAR MRLM 161600Z 07004KT 9999 FEW030 BKN250 29/23 A2995=
202105161700 METAR MRLM 161700Z 06006KT CAVOK 30/24 A2994=
202105161800 METAR MRLM 161800Z 06007KT CAVOK 30/24 A2993=
202105161900 METAR MRLM 161900Z 04006KT 9999 FEW030 BKN250 30/24 A2991=
202105162000 METAR MRLM 162000Z 03006KT 9999 SCT030 BKN250 29/23 A2988=
202105162100 METAR MRLM 162100Z 03007KT 9999 SCT025 BKN250 29/23 A2988=
202105162200 METAR MRLM 162200Z 03008KT 9999 BKN025 29/23 A2988=
202105162300 METAR MRLM 162300Z 02008KT 9999 BKN026 29/23 A2988=
202105170000 METAR MRLM 170000Z 02007KT 9999 SCT020 BKN240 28/23 A2991=
202105170100 METAR MRLM NIL=
202105170200 METAR MRLM NIL=
202105170300 METAR MRLM NIL=
202105170400 METAR MRLM NIL=
202105170500 METAR MRLM NIL=
202105170600 METAR MRLM NIL=
202105170700 METAR MRLM NIL=
202105170800 METAR MRLM NIL=
202105170900 METAR MRLM NIL=
202105171000 METAR MRLM NIL=
202105171100 METAR MRLM NIL=
202105171200 METAR MRLM 171200Z 15006KT 9999 VCSH FEW015TCU SCT090 BKN200 24/23 A2995=
202105171300 METAR MRLM 171300Z 14005KT 9999 VCSH FEW015TCU BKN090 25/23 A2996=
202105171400 METAR MRLM 171400Z 24005KT 9999 FEW020 BKN100 27/24 A2996=
202105171500 METAR MRLM 171500Z 03002KT 9999 FEW020 SCT220 29/23 A2997=
202105171600 METAR MRLM 171600Z 06004KT 9999 FEW030 SCT220 29/23 A2996=
202105171700 METAR MRLM 171700Z 08005KT 9999 FEW030 SCT240 30/23 A2995=
202105171800 METAR MRLM 171800Z 07005KT CAVOK 29/24 A2993=
202105171900 METAR MRLM 171900Z 07007KT 9999 FEW030 BKN240 30/24 A2989=
202105172000 METAR MRLM 172000Z 06005KT 9999 FEW030 BKN240 29/24 A2987=
202105172100 METAR MRLM 172100Z 08006KT 9999 FEW030 BKN240 29/24 A2985=
202105172200 METAR MRLM 172200Z 05005KT 9999 FEW030 BKN240 29/24 A2985=
202105172300 METAR MRLM 172300Z 07005KT 9999 FEW020 BKN220 29/24 A2986=
202105180000 METAR MRLM 180000Z 05006KT 9999 SCT020 BKN220 28/24 A2988=
202105180100 METAR MRLM NIL=
202105180200 METAR MRLM NIL=
202105180300 METAR MRLM NIL=
202105180400 METAR MRLM NIL=
202105180500 METAR MRLM NIL=
202105180600 METAR MRLM NIL=
202105180700 METAR MRLM NIL=
202105180800 METAR MRLM NIL=
202105180900 METAR MRLM NIL=
202105181000 METAR MRLM NIL=
202105181100 METAR MRLM NIL=
202105181200 METAR MRLM 181200Z 26003KT 9999 FEW020 BKN100 24/23 A2992=
202105181300 METAR MRLM 181300Z 22005KT 9999 FEW020 SCT100 BKN220 26/24 A2993=
202105181400 METAR MRLM 181400Z 19003KT 9999 FEW025 BKN220 28/23 A2994=
202105181500 METAR MRLM 181500Z 07003KT 9999 FEW025 SCT240 29/23 A2994=
202105181600 METAR MRLM 181600Z 05005KT 9999 FEW025 SCT240 30/23 A2994=
202105181700 METAR MRLM 181700Z 05006KT 9999 FEW025 SCT240 29/23 A2993=
202105181800 METAR MRLM 181800Z 05006KT 9999 FEW030 SCT240 30/23 A2991=
202105181900 METAR MRLM 181900Z 04006KT 9999 FEW030 SCT240 30/23 A2989=
202105182000 METAR MRLM 182000Z 06006KT 9999 FEW030 SCT240 30/23 A2986=
202105182100 METAR MRLM 182100Z 06006KT 9999 FEW030 BKN240 29/23 A2984=
202105182200 METAR MRLM 182200Z 08005KT 9999 FEW030 BKN240 29/23 A2985=
202105182300 METAR MRLM 182300Z 08004KT 9999 FEW030 BKN240 29/23 A2984=
202105190000 METAR MRLM 190000Z 11003KT 9999 FEW020 BKN220 28/23 A2986=
202105190100 METAR MRLM NIL=
202105190200 METAR MRLM NIL=
202105190300 METAR MRLM NIL=
202105190400 METAR MRLM NIL=
202105190500 METAR MRLM NIL=
202105190600 METAR MRLM NIL=
202105190700 METAR MRLM NIL=
202105190800 METAR MRLM NIL=
202105190900 METAR MRLM NIL=
202105191000 METAR MRLM NIL=
202105191100 METAR MRLM NIL=
202105191200 METAR MRLM 191200Z 23004KT CAVOK 24/23 A2986=
202105191300 METAR MRLM 191300Z 23004KT CAVOK 26/23 A2988=
202105191400 METAR MRLM 191400Z 23003KT CAVOK 29/23 A2988=
202105191500 METAR MRLM 191500Z 03005KT 9999 FEW030 BKN250 29/24 A2989=
202105191600 METAR MRLM 191600Z 03008KT 9999 FEW030 BKN250 29/24 A2989=
202105191700 METAR MRLM 191700Z 03007KT CAVOK 29/24 A2989=
202105191800 METAR MRLM 191800Z 05005KT CAVOK 30/23 A2989=
202105191900 METAR MRLM 191900Z 03007KT CAVOK 30/24 A2984=
202105192000 METAR MRLM 192000Z 01009KT 9999 FEW030 30/24 A2981=
202105192100 METAR MRLM 192100Z 36009KT 9999 FEW030 30/24 A2979=
202105192200 METAR MRLM 192200Z 01007KT 9999 FEW030 30/25 A2979=
202105192300 METAR MRLM 192300Z 01007KT CAVOK 29/25 A2979=
202105200000 METAR MRLM 200000Z 01009KT CAVOK 28/24 A2982=
202105200100 METAR MRLM NIL=
202105200200 METAR MRLM NIL=
202105200300 METAR MRLM NIL=
202105200400 METAR MRLM NIL=
202105200500 METAR MRLM NIL=
202105200600 METAR MRLM NIL=
202105200700 METAR MRLM NIL=
202105200800 METAR MRLM NIL=
202105200900 METAR MRLM NIL=
202105201000 METAR MRLM NIL=
202105201100 METAR MRLM NIL=
202105201200 METAR MRLM 201200Z 24005KT CAVOK 24/22 A2983=
202105201300 METAR MRLM 201300Z 00000KT CAVOK 26/23 A2985=
202105201400 METAR MRLM 201400Z 00000KT CAVOK 29/24 A2987=
202105201500 METAR MRLM 201500Z 08003KT 9999 FEW030 30/25 A2987=
202105201600 METAR MRLM 201600Z 06004KT 9999 FEW030 30/25 A2987=
202105201700 METAR MRLM 201700Z 08006KT 9999 FEW030 30/25 A2984=
202105201800 METAR MRLM 201800Z 08007KT 9999 FEW030 30/26 A2982=
202105201900 METAR MRLM 201900Z COR 07010KT CAVOK 31/26 A2980=
202105202000 METAR MRLM 202000Z 06010KT CAVOK 30/25 A2978=
202105202100 METAR MRLM 202100Z 05009KT 9999 FEW030 BKN240 30/25 A2977=
202105202200 METAR MRLM 202200Z 04008KT 9999 BKN025 29/26 A2978=
202105202300 METAR MRLM 202300Z 05006KT 9999 BKN025 29/25 A2978=
202105210000 METAR MRLM 210000Z 23003KT 9999 BKN020 28/25 A2981=
202105210100 METAR MRLM NIL=
202105210200 METAR MRLM NIL=
202105210300 METAR MRLM NIL=
202105210400 METAR MRLM NIL=
202105210500 METAR MRLM NIL=
202105210600 METAR MRLM NIL=
202105210700 METAR MRLM NIL=
202105210800 METAR MRLM NIL=
202105210900 METAR MRLM NIL=
202105211000 METAR MRLM NIL=
202105211100 METAR MRLM NIL=
202105211200 METAR MRLM 211200Z 23004KT 9999 VCSH FEW015TCU SCT200 24/23 A2983=
202105211300 METAR MRLM 211300Z 27003KT 9999 VCTS VCSH FEW015CB SCT200 25/23 A2985=
202105211400 METAR MRLM 211400Z 32002KT 9999 VCSH FEW015TCU SCT100 BKN200 28/25 A2987=
202105211500 METAR MRLM 211500Z 31003KT 9999 VCSH FEW020TCU BKN100 29/25 A2988=
202105211600 METAR MRLM 211600Z 04005KT 9999 VCTS VCSH FEW010CB SCT020 BKN120 30/25 A2990=
202105211700 METAR MRLM 211700Z 06006KT 9999 FEW020 BKN120 29/25 A2989=
202105211800 METAR MRLM 211800Z 06006KT 9999 FEW025 SCT120 BKN240 30/25 A2987=
202105211900 METAR MRLM 211900Z 06005KT 9999 SCT025 BKN120 29/26 A2986=
202105212000 METAR MRLM 212000Z 06009KT 9999 SCT020 BKN120 29/25 A2984=
202105212100 METAR MRLM 212100Z 06008KT 9999 FEW020 BKN110 29/25 A2982=
202105212200 METAR MRLM 212200Z 06005KT 9999 FEW020 SCT110 BKN220 29/25 A2981=
202105212300 METAR MRLM 212300Z 07003KT 9999 SCT020 SCT110 BKN220 29/25 A2983=
202105220000 METAR MRLM 220000Z 09006KT 9999 FEW015TCU BKN200 29/25 A2985=
202105220100 METAR MRLM NIL=
202105220200 METAR MRLM NIL=
202105220300 METAR MRLM NIL=
202105220400 METAR MRLM NIL=
202105220500 METAR MRLM NIL=
202105220600 METAR MRLM NIL=
202105220700 METAR MRLM NIL=
202105220800 METAR MRLM NIL=
202105220900 METAR MRLM NIL=
202105221000 METAR MRLM NIL=
202105221100 METAR MRLM NIL=
202105221200 METAR MRLM 221200Z 23005KT 9999 FEW015TCU BKN090 24/23 A2987=
202105221300 METAR MRLM 221300Z 22004KT 9999 FEW015 SCT100 BKN200 26/24 A2989=
202105221400 METAR MRLM 221400Z 23003KT 9999 FEW020 SCT100 27/25 A2989=
202105221500 METAR MRLM 221500Z 24003KT 9999 FEW020TCU SCT120 30/25 A2989=
202105221600 METAR MRLM 221600Z 04007KT 9999 FEW020 BKN120 29/25 A2989=
202105221700 METAR MRLM 221700Z 05006KT 9999 FEW025 SCT130 30/25 A2986=
202105221800 METAR MRLM 221800Z 04009KT CAVOK 30/25 A2986=
202105221900 METAR MRLM 221900Z 02010KT CAVOK 30/26 A2984=
202105222000 METAR MRLM 222000Z 04007KT CAVOK 29/24 A2983=
202105222100 METAR MRLM 222100Z 07012KT 9999 +DZ FEW020 OVC110 27/25 A2983=
202105222200 METAR MRLM 222200Z 32003KT 9999 FEW020 OVC110 27/25 A2981 REDZ=
202105222300 METAR MRLM 222300Z 29002KT 9999 FEW020 SCT110 OVC220 27/25 A2983=
202105230000 METAR MRLM 230000Z 00000KT 9999 FEW015 SCT100 OVC200 26/24 A2985=
202105230100 METAR MRLM NIL=
202105230200 METAR MRLM NIL=
202105230300 METAR MRLM NIL=
202105230400 METAR MRLM NIL=
202105230500 METAR MRLM NIL=
202105230600 METAR MRLM NIL=
202105230700 METAR MRLM NIL=
202105230800 METAR MRLM NIL=
202105230900 METAR MRLM NIL=
202105231000 METAR MRLM NIL=
202105231100 METAR MRLM NIL=
202105231200 METAR MRLM 231200Z 25005KT 9999 BKN015 24/24 A2985=
202105231300 METAR MRLM 231300Z 24003KT 9999 SCT020 BKN100 25/24 A2987=
202105231400 METAR MRLM 231400Z 22004KT 9999 SCT020 BKN110 26/25 A2988=
202105231500 METAR MRLM 231500Z 22004KT 9999 -DZ SCT020 BKN110 27/25 A2990=
202105231600 METAR MRLM 231600Z 21005KT 9999 FEW010CB FEW020 BKN130 30/25 A2989=
202105231700 METAR MRLM 231700Z 36010KT 9999 VCSH BKN015 29/26 A2987=
202105231800 METAR MRLM 231800Z 03007KT 9999 -DZ SCT015 BKN110 27/25 A2987=
202105231900 METAR MRLM 231900Z 00000KT 9999 SCT020 BKN110 27/26 A2985=
202105232000 METAR MRLM 232000Z 09004KT 9999 DZ SCT015 BKN110 27/25 A2983=
202105232100 METAR MRLM 232100Z 09004KT 9999 DZ SCT015 BKN110 27/26 A2983=
202105232200 METAR MRLM 232200Z 00000KT 9999 FEW015 BKN100 26/25 A2983=
202105232300 METAR MRLM 232300Z 00000KT 9999 VCSH FEW010 BKN100 26/25 A2984=
202105240000 METAR MRLM 240000Z 00000KT 9999 DZ SCT010 BKN100 26/25 A2986=
202105240100 METAR MRLM NIL=
202105240200 METAR MRLM NIL=
202105240300 METAR MRLM NIL=
202105240400 METAR MRLM NIL=
202105240500 METAR MRLM NIL=
202105240600 METAR MRLM NIL=
202105240700 METAR MRLM NIL=
202105240800 METAR MRLM NIL=
202105240900 METAR MRLM NIL=
202105241000 METAR MRLM NIL=
202105241100 METAR MRLM NIL=
202105241200 METAR MRLM 241200Z 00000KT 3000 +DZ SCT010 BKN090 24/23 A2987=
202105241300 METAR MRLM 241300Z 30004KT 8000 3000N RA VCTS SCT010 BKN090 24/24 A2991=
202105241400 METAR MRLM 241400Z 27005KT 8000 +DZ SCT015 BKN100 24/24 A2992=
202105241500 METAR MRLM 241500Z 00000KT 5000 +DZ VCSH SCT015 BKN100 24/24 A2994=
202105241600 METAR MRLM 241600Z 00000KT 2000 RA VCTS SCT015 BKN090 24/24 A2995=
202105241700 METAR MRLM 241700Z 26005KT 9999 -DZ FEW015 BKN110 25/24 A2993=
202105241800 METAR MRLM 241800Z 00000KT CAVOK 26/25 A2991=
202105241900 METAR MRLM 241900Z 00000KT CAVOK 28/24 A2988=
202105242000 METAR MRLM 242000Z 08003KT 9999 FEW015 OVC130 28/24 A2986=
202105242100 METAR MRLM 242100Z 09003KT CAVOK 27/24 A2984=
202105242200 METAR MRLM 242200Z 07003KT CAVOK 27/24 A2983=
202105242300 METAR MRLM 242300Z 02005KT CAVOK 27/24 A2984=
202105250000 METAR MRLM 250000Z 36006KT CAVOK 27/24 A2988=
202105250100 METAR MRLM NIL=
202105250200 METAR MRLM NIL=
202105250300 METAR MRLM NIL=
202105250400 METAR MRLM NIL=
202105250500 METAR MRLM NIL=
202105250600 METAR MRLM NIL=
202105250700 METAR MRLM NIL=
202105250800 METAR MRLM NIL=
202105250900 METAR MRLM NIL=
202105251000 METAR MRLM NIL=
202105251100 METAR MRLM NIL=
202105251200 METAR MRLM 251200Z 22002KT 9999 FEW015 BKN090 24/24 A2988=
202105251300 METAR MRLM 251300Z 23002KT 9999 -DZ VCSH FEW015TCU OVC090 25/24 A2991=
202105251400 METAR MRLM 251400Z 34013KT 9999 -DZ SCT015 OVC090 24/23 A2994=
202105251500 METAR MRLM 251500Z 25007KT 9999 FEW015 BKN090 24/23 A2994=
202105251600 METAR MRLM 251600Z 26006KT 9999 FEW020 BKN100 26/24 A2994=
202105251700 METAR MRLM 251700Z 30005KT 9999 FEW020 BKN100 28/24 A2993=
202105251800 METAR MRLM 251800Z 28004KT 9999 FEW020 BKN120 29/24 A2991=
202105251900 METAR MRLM 251900Z 36009KT 9999 FEW020 BKN120 30/24 A2989=
202105252000 METAR MRLM 252000Z 36009KT 8000 DZ FEW015 OVC100 28/24 A2988=
202105252100 METAR MRLM 252100Z 28004KT 9999 -DZ SCT015 OVC100 26/25 A2986=
202105252200 METAR MRLM 252200Z 00000KT 9999 -DZ FEW015 OVC100 27/25 A2986=
202105252300 METAR MRLM 252300Z 23002KT 9999 FEW015 SCT100 BKN200 27/25 A2987=
202105260000 METAR MRLM 260000Z 21002KT 9999 FEW015 SCT100 OVC200 26/25 A2989=
202105260100 METAR MRLM NIL=
202105260200 METAR MRLM NIL=
202105260300 METAR MRLM NIL=
202105260400 METAR MRLM NIL=
202105260500 METAR MRLM NIL=
202105260600 METAR MRLM NIL=
202105260700 METAR MRLM NIL=
202105260800 METAR MRLM NIL=
202105260900 METAR MRLM NIL=
202105261000 METAR MRLM NIL=
202105261100 METAR MRLM NIL=
202105261200 METAR MRLM 261200Z 24002KT CAVOK 24/24 A2987=
202105261300 METAR MRLM 261300Z 00000KT CAVOK 27/24 A2989=
202105261400 METAR MRLM 261400Z 03004KT 9999 FEW020 BKN220 28/25 A2990=
202105261500 METAR MRLM 261500Z 32004KT CAVOK 29/25 A2993=
202105261600 METAR MRLM 261600Z 33009KT 9999 FEW020 BKN120 28/25 A2993=
202105261700 METAR MRLM 261700Z 36013KT 8000 +DZ SCT015 OVC100 26/25 A2994=
202105261800 METAR MRLM 261800Z 02013KT 6000 +DZ VCTS FEW010CB FEW015 OVC080 25/24 A2992=
202105261900 METAR MRLM 261900Z 30004KT 8000 DZ FEW010 OVC080 25/24 A2990=
202105262000 METAR MRLM 262000Z 29004KT 9000 -DZ SCT010 OVC080 25/24 A2989=
202105262100 METAR MRLM 262100Z 31005KT 8000 DZ SCT010 OVC080 25/24 A2987=
202105262200 METAR MRLM 262200Z 28005KT 9000 -DZ SCT010 OVC080 25/24 A2988=
202105262300 METAR MRLM 262300Z 30005KT 8000 DZ SCT010 OVC080 25/24 A2988=
202105270000 METAR MRLM 270000Z 29005KT 9999 -DZ SCT007 OVC080 25/23 A2990=
202105270100 METAR MRLM NIL=
202105270200 METAR MRLM NIL=
202105270300 METAR MRLM NIL=
202105270400 METAR MRLM NIL=
202105270500 METAR MRLM NIL=
202105270600 METAR MRLM NIL=
202105270700 METAR MRLM NIL=
202105270800 METAR MRLM NIL=
202105270900 METAR MRLM NIL=
202105271000 METAR MRLM NIL=
202105271100 METAR MRLM NIL=
202105271200 METAR MRLM 271200Z 25003KT 9999 SCT015 OVC090 24/23 A2991=
202105271300 METAR MRLM 271300Z 31002KT 9999 SCT015 OVC090 24/24 A2994=
202105271400 METAR MRLM 271400Z 00000KT 8000 +DZ VCSH FEW010TCU SCT015 OVC090 26/24 A2995=
202105271500 METAR MRLM 271500Z 31005KT 9999 SCT015 OVC100 26/24 A2997=
202105271600 METAR MRLM 271600Z 28003KT 9999 SCT015 BKN100 27/24 A2997=
202105271700 METAR MRLM 271700Z 29003KT 9999 FEW020 BKN120 29/25 A2994=
202105271800 METAR MRLM 271800Z 06003KT 9999 FEW020 SCT120 BKN220 29/25 A2992=
202105271900 METAR MRLM 271900Z 03006KT 9999 FEW020TCU SCT120 BKN220 29/25 A2991=
202105272000 METAR MRLM 272000Z 36006KT 9999 FEW020 BKN120 29/25 A2989=
202105272100 METAR MRLM 272100Z 01005KT 9999 -DZ SCT020 OVC120 28/25 A2988=
202105272200 METAR MRLM 272200Z 10008KT 9999 SCT015 OVC100 27/25 A2989=
202105272300 METAR MRLM 272300Z 20002KT 9999 SCT015 OVC100 26/25 A2990=
202105280000 METAR MRLM 280000Z 23003KT 9999 SCT010 BKN090 26/25 A2992=
202105280100 METAR MRLM NIL=
202105280200 METAR MRLM NIL=
202105280300 METAR MRLM NIL=
202105280400 METAR MRLM NIL=
202105280500 METAR MRLM NIL=
202105280600 METAR MRLM NIL=
202105280700 METAR MRLM NIL=
202105280800 METAR MRLM NIL=
202105280900 METAR MRLM NIL=
202105281000 METAR MRLM NIL=
202105281100 METAR MRLM NIL=
202105281200 METAR MRLM 281200Z 23003KT 9999 BKN015 24/24 A2991=
202105281300 METAR MRLM 281300Z 13007KT 4000 +DZ BKN015 24/23 A2993 RERA=
202105281400 METAR MRLM 281400Z 22005KT 9999 4000N +DZ BKN020 25/24 A2994=
202105281500 METAR MRLM 281500Z 27004KT 9999 SCT020 BKN110 26/24 A2994 REDZ=
202105281600 METAR MRLM 281600Z 23005KT 9999 FEW025 BKN130 29/24 A2994=
202105281700 METAR MRLM 281700Z 04004KT 9999 SCT030 29/23 A2994=
202105281800 METAR MRLM 281800Z 03004KT 9999 FEW030 BKN250 29/24 A2991=
202105281900 METAR MRLM 281900Z 04004KT 9999 FEW030 SCT250 30/24 A2989=
202105282000 METAR MRLM 282000Z 01006KT 9999 FEW030 SCT250 30/24 A2987=
202105282100 METAR MRLM 282100Z 01006KT 9999 FEW030 BKN240 29/24 A2985=
202105282200 METAR MRLM 282200Z 36006KT 9999 FEW030 BKN240 29/23 A2985=
202105282300 METAR MRLM 282300Z 25006KT 9999 SCT020 BKN130 27/23 A2988=
202105290000 METAR MRLM 290000Z 23004KT 9999 DZ BKN010 25/23 A2992=
202105290100 METAR MRLM NIL=
202105290200 METAR MRLM NIL=
202105290300 METAR MRLM NIL=
202105290400 METAR MRLM NIL=
202105290500 METAR MRLM NIL=
202105290600 METAR MRLM NIL=
202105290700 METAR MRLM NIL=
202105290800 METAR MRLM NIL=
202105290900 METAR MRLM NIL=
202105291000 METAR MRLM NIL=
202105291100 METAR MRLM NIL=
202105291200 METAR MRLM 291200Z 24005KT CAVOK 23/21 A2985=
202105291300 METAR MRLM 291300Z 25005KT CAVOK 24/22 A2987=
202105291400 METAR MRLM 291400Z 24002KT CAVOK 27/23 A2989=
202105291500 METAR MRLM 291500Z 13003KT CAVOK 29/24 A2990=
202105291600 METAR MRLM 291600Z 03007KT CAVOK 30/23 A2991=
202105291700 METAR MRLM 291700Z 02007KT 9999 FEW030 SCT140 30/23 A2990=
202105291800 METAR MRLM 291800Z 01010KT 9999 FEW030 SCT140 29/25 A2989=
202105291900 METAR MRLM 291900Z 36007KT CAVOK 29/24 A2986=
202105292000 METAR MRLM 292000Z 02008KT CAVOK 29/24 A2983=
202105292100 METAR MRLM 292100Z 02008KT CAVOK 28/24 A2982=
202105292200 METAR MRLM 292200Z 04004KT CAVOK 28/24 A2982=
202105292300 METAR MRLM 292300Z 01002KT CAVOK 28/24 A2984=
202105300000 METAR MRLM 300000Z 25002KT CAVOK 26/24 A2985=
202105300100 METAR MRLM NIL=
202105300200 METAR MRLM NIL=
202105300300 METAR MRLM NIL=
202105300400 METAR MRLM NIL=
202105300500 METAR MRLM NIL=
202105300600 METAR MRLM NIL=
202105300700 METAR MRLM NIL=
202105300800 METAR MRLM NIL=
202105300900 METAR MRLM NIL=
202105301000 METAR MRLM NIL=
202105301100 METAR MRLM NIL=
202105301200 METAR MRLM 301200Z 23004KT 9999 VCSH FEW015TCU BKN100 23/23 A2988=
202105301300 METAR MRLM 301300Z 24003KT 9999 VCTS VCSH FEW015CB SCT100 23/23 A2988=
202105301400 METAR MRLM 301400Z 00000KT 9999 DZ VCSH FEW015TCU BKN100 24/23 A2991=
202105301500 METAR MRLM 301500Z 04009KT 9999 DZ FEW010 BKN090 25/24 A2993=
202105301600 METAR MRLM 301600Z 29002KT 8000 DZ SCT010 OVC090 25/24 A2994=
202105301700 METAR MRLM 301700Z 25003KT 8000 DZ SCT010 OVC090 25/24 A2993=
202105301800 METAR MRLM 301800Z 12004KT 7000 +DZ SCT010 OVC090 25/24 A2993=
202105301900 METAR MRLM 301900Z 23004KT 9000 -DZ SCT010 OVC090 25/24 A2991=
202105302000 METAR MRLM 302000Z 20004KT 9999 FEW015 OVC100 25/24 A2988=
202105302100 METAR MRLM 302100Z 22003KT 9999 FEW015 OVC100 26/25 A2987=
202105302200 METAR MRLM 302200Z 24003KT CAVOK 27/25 A2986=
202105302300 METAR MRLM 302300Z 23003KT CAVOK 27/25 A2988=
202105310000 METAR MRLM 310000Z 21004KT 9999 FEW020 BKN110 26/25 A2989=
202105310100 METAR MRLM NIL=
202105310200 METAR MRLM NIL=
202105310300 METAR MRLM NIL=
202105310400 METAR MRLM NIL=
202105310500 METAR MRLM NIL=
202105310600 METAR MRLM NIL=
202105310700 METAR MRLM NIL=
202105310800 METAR MRLM NIL=
202105310900 METAR MRLM NIL=
202105311000 METAR MRLM NIL=
202105311100 METAR MRLM NIL=
202105311200 METAR MRLM 311200Z 00000KT 9999 DZ SCT010 BKN090 ///// A2998=
202105311300 METAR MRLM 311300Z 26005KT 9999 RA SCT010 BKN090 ///// A2999=
202105311400 METAR MRLM 311400Z 27008KT 5000 DZ SCT015 BKN090 ///// A3000=
202105311500 METAR MRLM 311500Z 23005KT 9999 BKN015 ///// A3000 REDZ=
202105311600 METAR MRLM 311600Z 23006KT 9999 FEW015 BKN120 26/24 A2998=
202105311700 METAR MRLM 311700Z 22006KT 9999 FEW020 BKN130 28/24 A2997=
202105311800 METAR MRLM 311800Z 00000KT 9999 SCT020 BKN130 28/24 A2996=
202105311900 METAR MRLM 311900Z 07003KT 9999 FEW030 SCT130 29/24 A2992=
202105312000 METAR MRLM 312000Z 05004KT 9999 FEW030 SCT140 29/24 A2991=
202105312100 METAR MRLM 312100Z 06004KT 9999 FEW030 BKN140 29/23 A2989=
202105312200 METAR MRLM 312200Z 04007KT CAVOK 29/24 A2989=
202105312300 METAR MRLM 312300Z 02006KT CAVOK 29/23 A2990=
202106010000 METAR MRLM 010000Z 36003KT CAVOK 28/24 A2991=
202106010100 METAR MRLM NIL=
202106010200 METAR MRLM NIL=
202106010300 METAR MRLM NIL=
202106010400 METAR MRLM NIL=
202106010500 METAR MRLM NIL=
202106010600 METAR MRLM NIL=
202106010700 METAR MRLM NIL=
202106010800 METAR MRLM NIL=
202106010900 METAR MRLM NIL=
202106011000 METAR MRLM NIL=
202106011100 METAR MRLM NIL=
202106011200 METAR MRLM 011200Z 20004KT 9999 FEW015 BKN090 ///// A2992=
202106011300 METAR MRLM 011300Z 17003KT 9999 4000N DZ FEW015 BKN090 ///// A2994=
202106011400 METAR MRLM 011400Z 00000KT 9999 4000N DZ FEW015 BKN100 ///// A2996=
202106011500 METAR MRLM 011500Z 23005KT CAVOK ///// A2996=
202106011600 METAR MRLM 011600Z 25005KT CAVOK 28/24 A2993=
202106011700 METAR MRLM 011700Z 28004KT CAVOK 29/23 A2993=
202106011800 METAR MRLM 011800Z 28004KT CAVOK 30/23 A2990=
202106011900 METAR MRLM 011900Z 02006KT CAVOK 30/23 A2989=
202106012000 METAR MRLM 012000Z 03006KT CAVOK 30/23 A2987=
202106012100 METAR MRLM 012100Z 03009KT CAVOK 30/23 A2985=
202106012200 METAR MRLM 012200Z 03007KT CAVOK 29/23 A2984=
202106012300 METAR MRLM 012300Z 02006KT CAVOK 29/23 A2985=
202106020000 METAR MRLM 020000Z 36005KT CAVOK 28/22 A2987=
202106020100 METAR MRLM NIL=
202106020200 METAR MRLM NIL=
202106020300 METAR MRLM NIL=
202106020400 METAR MRLM NIL=
202106020500 METAR MRLM NIL=
202106020600 METAR MRLM NIL=
202106020700 METAR MRLM NIL=
202106020800 METAR MRLM NIL=
202106020900 METAR MRLM NIL=
202106021000 METAR MRLM NIL=
202106021100 METAR MRLM NIL=
202106021200 METAR MRLM 021200Z 23005KT CAVOK 22/21 A2987=
202106021300 METAR MRLM 021300Z 23003KT CAVOK 25/23 A2987=
202106021400 METAR MRLM 021400Z 23004KT 9999 FEW025 SCT220 28/24 A2989=
202106021500 METAR MRLM 021500Z 06004KT 9999 FEW025 SCT220 29/23 A2989=
202106021600 METAR MRLM 021600Z 03006KT 9999 FEW025 SCT220 29/24 A2990=
202106021700 METAR MRLM 021700Z 02006KT 9999 FEW030 SCT240 30/24 A2988=
202106021800 METAR MRLM 021800Z 02007KT 9999 FEW030 SCT240 30/24 A2986=
202106021900 METAR MRLM 021900Z 01009KT CAVOK 30/24 A2983=
202106022000 METAR MRLM 022000Z 01010KT CAVOK 30/25 A2981=
202106022100 METAR MRLM 022100Z 36009KT CAVOK 30/24 A2979=
202106022200 METAR MRLM 022200Z 01008KT CAVOK 30/24 A2978=
202106022300 METAR MRLM 022300Z 35007KT CAVOK 29/24 A2980=
202106030000 METAR MRLM 030000Z 30002KT 9999 FEW020 SCT220 27/24 A2981=
202106030100 METAR MRLM NIL=
202106030200 METAR MRLM NIL=
202106030300 METAR MRLM NIL=
202106030400 METAR MRLM NIL=
202106030500 METAR MRLM NIL=
202106030600 METAR MRLM NIL=
202106030700 METAR MRLM NIL=
202106030800 METAR MRLM NIL=
202106030900 METAR MRLM NIL=
202106031000 METAR MRLM NIL=
202106031100 METAR MRLM NIL=
202106031200 METAR MRLM 031200Z 21003KT 9999 VCSH SCT015TCU OVC090 24/23 A2986=
202106031300 METAR MRLM 031300Z 29005KT 4000 TSRA FEW010CB OVC015 24/24 A2990=
202106031400 METAR MRLM 031400Z 21003KT 8000 +DZ SCT010 OVC070 24/23 A2991 RETSRA=
202106031500 METAR MRLM 031500Z 21006KT 9999 DZ SCT015 OVC080 24/23 A2990=
202106031600 METAR MRLM 031600Z 19004KT 9999 FEW015 BKN080 25/24 A2992 REDZ=
202106031700 METAR MRLM 031700Z 22003KT 9999 FEW015 SCT100 BKN200 27/24 A2986=
202106031800 METAR MRLM 031800Z 07005KT CAVOK 28/24 A2985=
202106031900 METAR MRLM 031900Z 06005KT CAVOK 29/25 A2984=
202106032000 METAR MRLM 032000Z 07008KT CAVOK 30/24 A2982=
202106032100 METAR MRLM 032100Z 10005KT CAVOK 30/24 A2981=
202106032200 METAR MRLM 032200Z 09004KT 9999 FEW025 SCT230 29/24 A2982=
202106032300 METAR MRLM 032300Z 10002KT 9999 FEW025 SCT230 29/24 A2983=
202106040000 METAR MRLM 040000Z 07004KT 9999 FEW020 SCT200 28/24 A2984=
202106040100 METAR MRLM NIL=
202106040200 METAR MRLM NIL=
202106040300 METAR MRLM NIL=
202106040400 METAR MRLM NIL=
202106040500 METAR MRLM NIL=
202106040600 METAR MRLM NIL=
202106040700 METAR MRLM NIL=
202106040800 METAR MRLM NIL=
202106040900 METAR MRLM NIL=
202106041000 METAR MRLM NIL=
202106041100 METAR MRLM NIL=
202106041200 METAR MRLM 041200Z 03006KT 4000 +DZ BKN015 25/24 A2987=
202106041300 METAR MRLM 041300Z 22004KT 9999 -DZ BKN015 25/24 A2990=
202106041400 METAR MRLM 041400Z 22006KT 9999 FEW020 BKN120 26/24 A2991=
202106041500 METAR MRLM 041500Z 23006KT 9999 SCT020 BKN120 27/24 A2992=
202106041600 METAR MRLM 041600Z 31004KT 2000 RA SCT015 BKN100 28/24 A2992=
202106041700 METAR MRLM 041700Z 25003KT 9999 -DZ FEW010 BKN100 25/23 A2990 RERA=
202106041800 METAR MRLM 041800Z 25005KT 9999 SCT015 BKN100 26/24 A2989=
202106041900 METAR MRLM 041900Z 25004KT 9999 FEW020 BKN120 28/24 A2986=
202106042000 METAR MRLM 042000Z 06003KT 9999 FEW020 BKN120 28/24 A2984=
202106042100 METAR MRLM 042100Z 34005KT 9999 SCT015 BKN110 27/24 A2982=
202106042200 METAR MRLM 042200Z 00000KT 9999 FEW020 SCT120 28/24 A2982=
202106042300 METAR MRLM 042300Z 04003KT CAVOK 28/24 A2983=
202106050000 METAR MRLM 050000Z 00000KT CAVOK 28/23 A2986=
202106050100 METAR MRLM NIL=
202106050200 METAR MRLM NIL=
202106050300 METAR MRLM NIL=
202106050400 METAR MRLM NIL=
202106050500 METAR MRLM NIL=
202106050600 METAR MRLM NIL=
202106050700 METAR MRLM NIL=
202106050800 METAR MRLM NIL=
202106050900 METAR MRLM NIL=
202106051000 METAR MRLM NIL=
202106051100 METAR MRLM NIL=
202106051200 METAR MRLM 051200Z 00000KT 9999 BKN015 24/23 A2987=
202106051300 METAR MRLM 051300Z 24003KT 9999 SCT015 25/24 A2988=
202106051400 METAR MRLM 051400Z 24003KT 9999 BKN020 26/24 A2991=
202106051500 METAR MRLM 051500Z 25005KT 9999 SCT020 BKN110 28/25 A2991=
202106051600 METAR MRLM 051600Z 00000KT 9999 SCT020 26/26 A2991=
202106051700 METAR MRLM 051700Z 00000KT 9999 SCT020 26/26 A2991=
202106051800 METAR MRLM 051800Z 28003KT 9999 SCT025 30/25 A2987=
202106051900 METAR MRLM 051900Z 00000KT 9999 SCT025 30/24 A2985=
202106052000 METAR MRLM 052000Z 04005KT 9999 SCT030 30/25 A2983=
202106052100 METAR MRLM 052100Z 03006KT 9999 BKN030 30/25 A2981=
202106052200 METAR MRLM 052200Z 03006KT 9999 BKN030 29/25 A2980=
202106052300 METAR MRLM 052300Z 04005KT 9999 BKN030 29/25 A2982=
202106060000 METAR MRLM 060000Z 03006KT 9999 BKN020 28/24 A2985=
202106060100 METAR MRLM NIL=
202106060200 METAR MRLM NIL=
202106060300 METAR MRLM NIL=
202106060400 METAR MRLM NIL=
202106060500 METAR MRLM NIL=
202106060600 METAR MRLM NIL=
202106060700 METAR MRLM NIL=
202106060800 METAR MRLM NIL=
202106060900 METAR MRLM NIL=
202106061000 METAR MRLM NIL=
202106061100 METAR MRLM NIL=
202106061200 METAR MRLM 061200Z 23004KT CAVOK 23/22 A2985=
202106061300 METAR MRLM 061300Z 25004KT CAVOK 24/22 A2986=
202106061400 METAR MRLM 061400Z 00000KT CAVOK 29/24 A2987=
202106061500 METAR MRLM 061500Z 08004KT 9999 FEW025 SCT130 BKN230 28/24 A2989=
202106061600 METAR MRLM 061600Z 05005KT 9999 SCT015 BKN130 28/24 A2990=
202106061700 METAR MRLM 061700Z 06011KT 9999 DZ FEW015 BKN130 27/24 A2989=
202106061800 METAR MRLM 061800Z 24004KT 9999 FEW025 BKN140 29/25 A2986=
202106061900 METAR MRLM 061900Z 02007KT 9999 FEW025 BKN130 28/25 A2983=
202106062000 METAR MRLM 062000Z 01006KT 9999 FEW030 BKN140 29/25 A2980=
202106062100 METAR MRLM 062100Z 01007KT CAVOK 30/25 A2979=
202106062200 METAR MRLM 062200Z 02008KT CAVOK 29/24 A2978=
202106062300 METAR MRLM 062300Z 36007KT CAVOK 29/24 A2978=
202106070000 METAR MRLM 070000Z 36005KT CAVOK 29/24 A2980=
202106070100 METAR MRLM NIL=
202106070200 METAR MRLM NIL=
202106070300 METAR MRLM NIL=
202106070400 METAR MRLM NIL=
202106070500 METAR MRLM NIL=
202106070600 METAR MRLM NIL=
202106070700 METAR MRLM NIL=
202106070800 METAR MRLM NIL=
202106070900 METAR MRLM NIL=
202106071000 METAR MRLM NIL=
202106071100 METAR MRLM NIL=
202106071200 METAR MRLM 071200Z 00000KT 9999 FEW015 BKN090 24/24 A2985=
202106071300 METAR MRLM 071300Z 25004KT 9999 FEW015 BKN090 25/25 A2986=
202106071400 METAR MRLM 071400Z 00000KT 9999 VCSH FEW015TCU BKN090 26/24 A2988=
202106071500 METAR MRLM 071500Z 30006KT 9999 VCSH FEW020TCU BKN100 29/24 A2989=
202106071600 METAR MRLM 071600Z 31005KT 9999 -DZ FEW020 BKN100 28/25 A2989=
202106071700 METAR MRLM 071700Z 35006KT 9999 FEW020 BKN100 29/25 A2987=
202106071800 METAR MRLM 071800Z 01006KT 9999 FEW020 BKN120 29/25 A2987=
202106071900 METAR MRLM 071900Z 02006KT 9999 FEW025 SCT120 BKN230 29/25 A2984=
202106072000 METAR MRLM 072000Z 07004KT 9999 FEW025 SCT120 BKN230 29/25 A2981=
202106072100 METAR MRLM 072100Z 03007KT 9999 FEW025 BKN230 30/25 A2978=
202106072200 METAR MRLM 072200Z 03008KT 9999 FEW025 BKN230 29/25 A2979=
202106072300 METAR MRLM 072300Z 04008KT 9999 FEW025 BKN230 28/24 A2981=
202106080000 METAR MRLM 080000Z 00000KT 9999 FEW020 BKN200 27/25 A2984=
202106080100 METAR MRLM NIL=
202106080200 METAR MRLM NIL=
202106080300 METAR MRLM NIL=
202106080400 METAR MRLM NIL=
202106080500 METAR MRLM NIL=
202106080600 METAR MRLM NIL=
202106080700 METAR MRLM NIL=
202106080800 METAR MRLM NIL=
202106080900 METAR MRLM NIL=
202106081000 METAR MRLM NIL=
202106081100 METAR MRLM NIL=
202106081200 METAR MRLM 081200Z 23003KT 9999 SCT020 23/23 A2988=
202106081300 METAR MRLM 081300Z 00000KT 9999 FEW020 SCT130 24/23 A2990=
202106081400 METAR MRLM 081400Z 24003KT CAVOK 27/24 A2992=
202106081500 METAR MRLM 081500Z 05003KT CAVOK 29/24 A2993 NOSIG=
202106081600 METAR MRLM 081600Z 06005KT 9999 FEW030 BKN130 29/24 A2993=
202106081700 METAR MRLM 081700Z 06006KT CAVOK 29/25 A2993=
202106081800 METAR MRLM 081800Z 08006KT 9999 FEW030 BKN130 29/25 A2990=
202106081900 METAR MRLM 081900Z 11007KT 9999 FEW030 SCT240 29/25 A2988=
202106082000 METAR MRLM 082000Z 09007KT 9999 FEW030 BKN240 29/25 A2986=
202106082100 METAR MRLM 082100Z 06007KT CAVOK 29/25 A2985=
202106082200 METAR MRLM 082200Z 07008KT 9999 FEW030 BKN240 30/23 A2986=
202106082300 METAR MRLM 082300Z 09008KT 9999 BKN020 29/24 A2987=
202106090000 METAR MRLM 090000Z 10008KT 9999 BKN015 28/25 A2990=
202106090100 METAR MRLM NIL=
202106090200 METAR MRLM NIL=
202106090300 METAR MRLM NIL=
202106090400 METAR MRLM NIL=
202106090500 METAR MRLM NIL=
202106090600 METAR MRLM NIL=
202106090700 METAR MRLM NIL=
202106090800 METAR MRLM NIL=
202106090900 METAR MRLM NIL=
202106091000 METAR MRLM NIL=
202106091100 METAR MRLM NIL=
202106091200 METAR MRLM 091200Z 24004KT 9999 FEW015 BKN140 23/22 A2993=
202106091300 METAR MRLM 091300Z 24005KT 9999 FEW015 BKN140 24/23 A2995=
202106091400 METAR MRLM 091400Z 25003KT 9999 FEW015 BKN130 25/23 A2997=
202106091500 METAR MRLM 091500Z 32003KT 9999 FEW015 BKN130 26/23 A2999=
202106091600 METAR MRLM 091600Z 32003KT 9999 FEW015 BKN130 26/23 A2999=
202106091700 METAR MRLM 091700Z 03005KT 9999 SCT020 BKN130 28/24 A2997=
202106091800 METAR MRLM 091800Z 02006KT 9999 FEW025 BKN250 28/24 A2995=
202106091900 METAR MRLM 091900Z 01008KT 9999 FEW030 BKN250 28/24 A2991=
202106092000 METAR MRLM 092000Z 01006KT 9999 FEW025 SCT140 BKN240 28/24 A2989=
202106092100 METAR MRLM 092100Z 01006KT 9999 FEW025 SCT140 BKN240 28/24 A2989=
202106092200 METAR MRLM 092200Z 04004KT 9999 -DZ VCSH FEW020 BKN130 28/23 A2989=
202106092300 METAR MRLM 092300Z 22004KT 9999 DZ SCT020 BKN120 26/25 A2990=
202106100000 METAR MRLM 100000Z 21005KT 9999 -DZ FEW015 BKN120 25/24 A2992=
202106100100 METAR MRLM NIL=
202106100200 METAR MRLM NIL=
202106100300 METAR MRLM NIL=
202106100400 METAR MRLM NIL=
202106100500 METAR MRLM NIL=
202106100600 METAR MRLM NIL=
202106100700 METAR MRLM NIL=
202106100800 METAR MRLM NIL=
202106100900 METAR MRLM NIL=
202106101000 METAR MRLM NIL=
202106101100 METAR MRLM NIL=
202106101200 METAR MRLM 101200Z 23005KT CAVOK 23/21 A2990=
202106101300 METAR MRLM 101300Z 23004KT CAVOK 25/23 A2991=
202106101400 METAR MRLM 101400Z 00000KT CAVOK 28/23 A2991=
202106101500 METAR MRLM 101500Z 04003KT CAVOK 29/23 A2992=
202106101600 METAR MRLM 101600Z 02006KT CAVOK 29/23 A2992=
202106101700 METAR MRLM 101700Z 04006KT CAVOK 29/24 A2991=
202106101800 METAR MRLM 101800Z 05006KT CAVOK 29/24 A2989=
202106101900 METAR MRLM 101900Z 06008KT CAVOK 30/24 A2986=
202106102000 METAR MRLM 102000Z 04006KT 9999 FEW025 SCT240 29/24 A2985=
202106102100 METAR MRLM 102100Z 05004KT 9999 FEW025 BKN240 29/24 A2983=
202106102200 METAR MRLM 102200Z 05004KT 9999 FEW025 SCT130 BKN240 29/23 A2982=
202106102300 METAR MRLM 102300Z 05003KT 9999 FEW025 SCT130 BKN240 29/24 A2982=
202106110000 METAR MRLM 110000Z 04004KT 9999 FEW020 BKN120 28/24 A2986=
202106110100 METAR MRLM NIL=
202106110200 METAR MRLM NIL=
202106110300 METAR MRLM NIL=
202106110400 METAR MRLM NIL=
202106110500 METAR MRLM NIL=
202106110600 METAR MRLM NIL=
202106110700 METAR MRLM NIL=
202106110800 METAR MRLM NIL=
202106110900 METAR MRLM NIL=
202106111000 METAR MRLM NIL=
202106111100 METAR MRLM NIL=
202106111200 METAR MRLM 111200Z 24003KT 9999 FEW015TCU BKN090 25/24 A2986=
202106111300 METAR MRLM 111300Z 21002KT 9999 VCSH FEW015TCU BKN090 26/24 A2989=
202106111400 METAR MRLM 111400Z 00000KT 9999 VCSH FEW020TCU BKN100 27/24 A2991=
202106111500 METAR MRLM 111500Z 07002KT 9999 FEW020 BKN100 28/24 A2992=
202106111600 METAR MRLM 111600Z 07003KT 9999 FEW020 SCT120 BKN220 29/25 A2992=
202106111700 METAR MRLM 111700Z 07004KT 9999 FEW025 BKN220 29/24 A2989=
202106111800 METAR MRLM 111800Z 06007KT 9999 FEW025 SCT240 29/25 A2988=
202106111900 METAR MRLM 111900Z 06006KT 9999 FEW025 SCT130 BKN240 30/25 A2985=
202106112000 METAR MRLM 112000Z 11010KT 9999 FEW025 BKN240 29/25 A2983=
202106112100 METAR MRLM 112100Z 10006KT 9999 FEW025TCU BKN240 29/24 A2983=
202106112200 METAR MRLM 112200Z 09006KT 9999 FEW025 BKN240 29/23 A2982=
202106112300 METAR MRLM 112300Z 00000KT CAVOK 28/24 A2981=
202106120000 METAR MRLM 120000Z 00000KT 9999 FEW020 BKN220 27/24 A2982=
202106120100 METAR MRLM NIL=
202106120200 METAR MRLM NIL=
202106120300 METAR MRLM NIL=
202106120400 METAR MRLM NIL=
202106120500 METAR MRLM NIL=
202106120600 METAR MRLM NIL=
202106120700 METAR MRLM NIL=
202106120800 METAR MRLM NIL=
202106120900 METAR MRLM NIL=
202106121000 METAR MRLM NIL=
202106121100 METAR MRLM NIL=
202106121200 METAR MRLM 121200Z 24004KT CAVOK 24/23 A2986=
202106121300 METAR MRLM 121300Z 23003KT CAVOK 26/24 A2987=
202106121400 METAR MRLM 121400Z 26004KT CAVOK 28/24 A2988=
202106121500 METAR MRLM 121500Z 33006KT 9999 FEW030 SCT250 30/24 A2988=
202106121600 METAR MRLM 121600Z 36011KT 9999 FEW030 BKN250 30/24 A2988=
202106121700 METAR MRLM 121700Z 36011KT 9999 FEW030 BKN250 30/25 A2987=
202106121800 METAR MRLM 121800Z 36010KT 9999 FEW030 BKN240 30/25 A2986=
202106121900 METAR MRLM 121900Z 01008KT CAVOK 30/25 A2984=
202106122000 METAR MRLM 122000Z 01007KT 9999 FEW030 BKN240 30/25 A2981=
202106122100 METAR MRLM 122100Z 02007KT 9999 FEW030 BKN240 30/25 A2979=
202106122200 METAR MRLM 122200Z 04005KT 9999 FEW030 BKN240 29/24 A2979=
202106122300 METAR MRLM 122300Z 00000KT 9999 FEW030 SCT240 29/24 A2981=
202106130000 METAR MRLM 130000Z 00000KT 9999 FEW025 SCT240 28/24 A2985=
202106130100 METAR MRLM NIL=
202106130200 METAR MRLM NIL=
202106130300 METAR MRLM NIL=
202106130400 METAR MRLM NIL=
202106130500 METAR MRLM NIL=
202106130600 METAR MRLM NIL=
202106130700 METAR MRLM NIL=
202106130800 METAR MRLM NIL=
202106130900 METAR MRLM NIL=
202106131000 METAR MRLM NIL=
202106131100 METAR MRLM NIL=
202106131200 METAR MRLM 131200Z 25005KT CAVOK 23/22 A2986=
202106131300 METAR MRLM 131300Z 24003KT CAVOK 26/23 A2988=
202106131400 METAR MRLM 131400Z 00000KT CAVOK 29/24 A2988=
202106131500 METAR MRLM 131500Z 24005KT CAVOK 30/24 A2989=
202106131600 METAR MRLM 131600Z 33008KT 9999 FEW030 30/24 A2989=
202106131700 METAR MRLM 131700Z 02009KT 9999 FEW030 BKN250 30/24 A2987=
202106131800 METAR MRLM 131800Z 01010KT CAVOK 30/25 A2985=
202106131900 METAR MRLM 131900Z 02010KT CAVOK 30/25 A2982=
202106132000 METAR MRLM 132000Z 02010KT CAVOK 30/25 A2980=
202106132100 METAR MRLM 132100Z 01007KT 9999 FEW030 BKN240 30/25 A2979=
202106132200 METAR MRLM 132200Z 03006KT 9999 FEW030 BKN240 29/25 A2979=
202106132300 METAR MRLM 132300Z 01005KT 9999 FEW030 OVC230 29/25 A2980=
202106140000 METAR MRLM 140000Z 01005KT 9999 FEW025 OVC230 28/24 A2983=
202106140100 METAR MRLM NIL=
202106140200 METAR MRLM NIL=
202106140300 METAR MRLM NIL=
202106140400 METAR MRLM NIL=
202106140500 METAR MRLM NIL=
202106140600 METAR MRLM NIL=
202106140700 METAR MRLM NIL=
202106140800 METAR MRLM NIL=
202106140900 METAR MRLM NIL=
202106141000 METAR MRLM NIL=
202106141100 METAR MRLM NIL=
202106141200 METAR MRLM 141200Z 24004KT CAVOK 23/22 A2986=
202106141300 METAR MRLM 141300Z 24005KT CAVOK 24/23 A2988=
202106141400 METAR MRLM 141400Z 28003KT CAVOK 26/23 A2989=
202106141500 METAR MRLM 141500Z 29005KT CAVOK 27/23 A2991=
202106141600 METAR MRLM 141600Z 30005KT CAVOK 29/23 A2992=
202106141700 METAR MRLM 141700Z 32008KT 9999 FEW030 OVC240 30/23 A2990=
202106141800 METAR MRLM 141800Z 33009KT 9999 FEW020TCU BKN120 30/24 A2990=
202106141900 METAR MRLM 141900Z 35007KT 9999 FEW020 BKN120 29/24 A2987=
202106142000 METAR MRLM 142000Z 06012KT 9999 +DZ FEW020 OVC100 27/25 A2987=
202106142100 METAR MRLM 142100Z COR 05011KT 9999 DZ SCT020 OVC100 27/24 A2985=
202106142200 METAR MRLM 142200Z 06008KT 9999 DZ VCTS VCSH FEW010CB SCT020 OVC100 27/25 A2985=
202106142300 METAR MRLM 142300Z 23006KT 9999 DZ VCTS FEW010CB SCT015 OVC090 25/24 A2987=
202106150000 METAR MRLM 150000Z 20004KT 9999 DZ VCTS FEW008CB SCT015 OVC090 24/24 A2990=
202106150100 METAR MRLM NIL=
202106150200 METAR MRLM NIL=
202106150300 METAR MRLM NIL=
202106150400 METAR MRLM NIL=
202106150500 METAR MRLM NIL=
202106150600 METAR MRLM NIL=
202106150700 METAR MRLM NIL=
202106150800 METAR MRLM NIL=
202106150900 METAR MRLM NIL=
202106151000 METAR MRLM NIL=
202106151100 METAR MRLM NIL=
202106151200 METAR MRLM 151200Z 24005KT 9999 FEW015 BKN090 23/22 A2990=
202106151300 METAR MRLM 151300Z 23002KT 9999 FEW015 BKN090 24/23 A2992=
202106151400 METAR MRLM 151400Z 21003KT 9999 FEW020 BKN100 26/24 A2992=
202106151500 METAR MRLM 151500Z 25002KT 9999 FEW020 BKN100 28/24 A2994=
202106151600 METAR MRLM 151600Z 06004KT 9999 FEW025 SCT120 29/24 A2993=
202106151700 METAR MRLM 151700Z 06005KT 9999 FEW025 SCT120 29/24 A2991=
202106151800 METAR MRLM 151800Z 07005KT 9999 FEW025 SCT240 29/24 A2989=
202106151900 METAR MRLM 151900Z 05006KT CAVOK 29/25 A2987=
202106152000 METAR MRLM 152000Z 05008KT CAVOK 30/25 A2985=
202106152100 METAR MRLM 152100Z 04006KT CAVOK 30/25 A2984=
202106152200 METAR MRLM 152200Z 04006KT 9999 FEW025 BKN240 29/24 A2983=
202106152300 METAR MRLM 152300Z 07006KT 9999 SCT020 BKN240 29/25 A2985=
202106160000 METAR MRLM 160000Z 09007KT 9999 SCT020 BKN220 29/25 A2986=
202106160100 METAR MRLM NIL=
202106160200 METAR MRLM NIL=
202106160300 METAR MRLM NIL=
202106160400 METAR MRLM NIL=
202106160500 METAR MRLM NIL=
202106160600 METAR MRLM NIL=
202106160700 METAR MRLM NIL=
202106160800 METAR MRLM NIL=
202106160900 METAR MRLM NIL=
202106161000 METAR MRLM NIL=
202106161100 METAR MRLM NIL=
202106161200 METAR MRLM 161200Z 23004KT 9999 FEW020 BKN110 25/24 A2986=
202106161300 METAR MRLM 161300Z 22003KT 9999 VCTS FEW020 BKN110 25/24 A2989=
202106161400 METAR MRLM 161400Z 19003KT 9999 FEW020 BKN110 25/24 A2990=
202106161500 METAR MRLM 161500Z 25004KT 9999 FEW020 SCT120 BKN230 26/25 A2989=
202106161600 METAR MRLM 161600Z 07003KT 9999 SCT020 BKN120 29/24 A2990=
202106161700 METAR MRLM 161700Z 36009KT 9999 FEW025 BKN130 29/25 A2989=
202106161800 METAR MRLM 161800Z 03004KT 9999 FEW030 SCT240 30/25 A2987=
202106161900 METAR MRLM 161900Z 01006KT CAVOK 29/25 A2985=
202106162000 METAR MRLM 162000Z 03007KT 9999 FEW030 BKN240 30/25 A2982=
202106162100 METAR MRLM 162100Z 06006KT 9999 FEW030 BKN240 30/25 A2980=
202106162200 METAR MRLM 162200Z 07007KT 9999 FEW030 BKN240 29/25 A2979=
202106162300 METAR MRLM 162300Z 07007KT 9999 FEW030 BKN240 29/25 A2979=
202106170000 METAR MRLM 170000Z 06005KT 9999 FEW025 BKN240 28/25 A2981=
202106170100 METAR MRLM NIL=
202106170200 METAR MRLM NIL=
202106170300 METAR MRLM NIL=
202106170400 METAR MRLM NIL=
202106170500 METAR MRLM NIL=
202106170600 METAR MRLM NIL=
202106170700 METAR MRLM NIL=
202106170800 METAR MRLM NIL=
202106170900 METAR MRLM NIL=
202106171000 METAR MRLM NIL=
202106171100 METAR MRLM NIL=
202106171200 METAR MRLM 171200Z 25003KT CAVOK 24/23 A2982=
202106171300 METAR MRLM 171300Z 00000KT CAVOK 27/25 A2984=
202106171400 METAR MRLM 171400Z 00000KT CAVOK 27/25 A2984=
202106171500 METAR MRLM 171500Z 04004KT 9999 FEW030 SCT240 30/25 A2986=
202106171600 METAR MRLM 171600Z 06004KT 9999 FEW030 SCT240 29/26 A2986=
202106171700 METAR MRLM 171700Z 06005KT 9999 SCT030 BKN240 29/25 A2985=
202106171800 METAR MRLM 171800Z 09007KT 9999 BKN030 30/26 A2986=
202106171900 METAR MRLM 171900Z 06005KT 9999 BKN030 30/25 A2979=
202106172000 METAR MRLM 172000Z 05007KT 9999 FEW030 BKN240 30/26 A2978=
202106172100 METAR MRLM 172100Z 05008KT CAVOK 30/25 A2978=
202106172200 METAR MRLM 172200Z 07008KT CAVOK 30/25 A2979=
202106172300 METAR MRLM 172300Z 09005KT CAVOK 29/24 A2980=
202106180000 METAR MRLM 180000Z 21003KT 9999 FEW025 SCT140 BKN240 29/23 A2984=
202106180100 METAR MRLM NIL=
202106180200 METAR MRLM NIL=
202106180300 METAR MRLM NIL=
202106180400 METAR MRLM NIL=
202106180500 METAR MRLM NIL=
202106180600 METAR MRLM NIL=
202106180700 METAR MRLM NIL=
202106180800 METAR MRLM NIL=
202106180900 METAR MRLM NIL=
202106181000 METAR MRLM NIL=
202106181100 METAR MRLM NIL=
202106181200 METAR MRLM 181200Z 21006KT 8000 +DZ SCT015 OVC080 24/23 A2987=
202106181300 METAR MRLM 181300Z 30004KT 9999 TS VCSH FEW010CB SCT015 OVC080 24/23 A2988=
202106181400 METAR MRLM 181400Z 28002KT 9999 VCTS VCSH FEW010CB SCT015 BKN080 25/24 A2990=
202106181500 METAR MRLM 181500Z 27004KT 9999 VCTS FEW015CB BKN080 26/24 A2989=
202106181600 METAR MRLM 181600Z 25003KT 9999 -DZ FEW015 OVC090 27/24 A2987=
202106181700 METAR MRLM 181700Z 04002KT 9999 -DZ FEW015 OVC090 28/24 A2989=
202106181800 METAR MRLM 181800Z 32004KT 9999 SCT015 OVC090 27/24 A2990=
202106181900 METAR MRLM 181900Z 00000KT 9999 SCT020 OVC100 28/24 A2986=
202106182000 METAR MRLM 182000Z 03004KT 9999 SCT020 OVC100 28/24 A2984=
202106182100 METAR MRLM 182100Z 04002KT 9999 SCT020 OVC120 28/24 A2983=
202106182200 METAR MRLM 182200Z 07002KT 9999 FEW020 OVC120 28/24 A2983=
202106182300 METAR MRLM 182300Z 07002KT 9999 FEW020 OVC120 28/24 A2983=
202106190000 METAR MRLM 190000Z 00000KT CAVOK 26/25 A2983=
202106190100 METAR MRLM NIL=
202106190200 METAR MRLM NIL=
202106190300 METAR MRLM NIL=
202106190400 METAR MRLM NIL=
202106190500 METAR MRLM NIL=
202106190600 METAR MRLM NIL=
202106190700 METAR MRLM NIL=
202106190800 METAR MRLM NIL=
202106190900 METAR MRLM NIL=
202106191000 METAR MRLM NIL=
202106191100 METAR MRLM NIL=
202106191200 METAR MRLM 191200Z 22004KT CAVOK 24/23 A2990=
202106191300 METAR MRLM 191300Z 22004KT CAVOK 26/24 A2991=
202106191400 METAR MRLM 191400Z 10003KT 9999 FEW020 28/25 A2991=
202106191500 METAR MRLM 191500Z 06005KT 9999 FEW020 29/25 A2983=
202106191600 METAR MRLM 191600Z 06006KT 9999 FEW030 29/25 A2993=
202106191700 METAR MRLM 191700Z 04006KT 9999 FEW030 SCT240 29/25 A2992=
202106191800 METAR MRLM 191800Z 05004KT 9999 FEW030 SCT240 29/25 A2989=
202106191900 METAR MRLM 191900Z 06005KT 9999 FEW030 SCT240 30/25 A2988=
202106192000 METAR MRLM 192000Z 05006KT 9999 FEW030 SCT240 30/25 A2986=
202106192100 METAR MRLM 192100Z 05007KT 9999 SCT030 SCT240 30/25 A2986=
202106192200 METAR MRLM 192200Z 05006KT 9999 FEW030 SCT240 30/25 A2986=
202106192300 METAR MRLM 192300Z 06007KT 9999 SCT020 29/25 A2988=
202106200000 METAR MRLM 200000Z 10004KT 9999 SCT020 29/25 A2990=
202106200100 METAR MRLM NIL=
202106200200 METAR MRLM NIL=
202106200300 METAR MRLM NIL=
202106200400 METAR MRLM NIL=
202106200500 METAR MRLM NIL=
202106200600 METAR MRLM NIL=
202106200700 METAR MRLM NIL=
202106200800 METAR MRLM NIL=
202106200900 METAR MRLM NIL=
202106201000 METAR MRLM NIL=
202106201100 METAR MRLM NIL=
202106201200 METAR MRLM 201200Z 23004KT CAVOK 23/22 A2992=
202106201300 METAR MRLM 201300Z 24005KT 9999 FEW030 SCT240 25/23 A2995=
202106201400 METAR MRLM 201400Z 28004KT CAVOK 28/24 A2991=
202106201500 METAR MRLM 201500Z 30004KT 9999 VCTS FEW020 BKN240 29/24 A2992=
202106201600 METAR MRLM 201600Z 31004KT 9999 -DZ FEW020 SCT130 BKN240 28/24 A2994=
202106201700 METAR MRLM 201700Z 32006KT 9999 VCTS BKN025 28/25 A2996=
202106201800 METAR MRLM 201800Z 06004KT 9999 SCT025 BKN130 29/25 A2993=
202106201900 METAR MRLM 201900Z 06004KT 9999 SCT030 BKN130 29/25 A2993=
202106202000 METAR MRLM 202000Z 01007KT 9999 SCT030 BKN240 30/25 A2988=
202106202100 METAR MRLM 202100Z 01004KT 9999 -DZ VCTS BKN025 29/25 A2987=
202106202200 METAR MRLM 202200Z 02006KT 9999 FEW025 BKN130 28/25 A2986=
202106202300 METAR MRLM 202300Z 00000KT 9999 FEW025 BKN130 28/25 A2988=
202106210000 METAR MRLM 210000Z 00000KT 9999 FEW020 BKN130 28/25 A2988=
202106210100 METAR MRLM NIL=
202106210200 METAR MRLM NIL=
202106210300 METAR MRLM NIL=
202106210400 METAR MRLM NIL=
202106210500 METAR MRLM NIL=
202106210600 METAR MRLM NIL=
202106210700 METAR MRLM NIL=
202106210800 METAR MRLM NIL=
202106210900 METAR MRLM NIL=
202106211000 METAR MRLM NIL=
202106211100 METAR MRLM NIL=
202106211200 METAR MRLM 211200Z 00000KT 9999 FEW015 BKN110 24/23 A2990=
202106211300 METAR MRLM 211300Z 27003KT 9999 FEW020 BKN120 26/24 A2992=
202106211400 METAR MRLM 211400Z 28006KT CAVOK 28/24 A2993=
202106211500 METAR MRLM 211500Z 29005KT 9999 FEW020 SCT130 BKN230 29/24 A2993=
202106211600 METAR MRLM 211600Z 35010KT 6000 DZ BKN015 27/24 A2996=
202106211700 METAR MRLM 211700Z 31004KT 9999 DZ SCT020 BKN120 27/24 A2994 REDZ=
202106211800 METAR MRLM 211800Z 00000KT 9999 DZ VCTS SCT020 BKN110 27/24 A2994=
202106211900 METAR MRLM 211900Z 14017G29KT 2000 TS DZ SCT015CB BKN020 22/21 A2995=
202106212000 METAR MRLM 212000Z 20008KT 9999 +DZ VCTS FEW015 OVC090 23/21 A2988=
202106212100 METAR MRLM 212100Z 21010KT 9999 DZ FEW015 OVC110 23/21 A2979=
202106212200 METAR MRLM 212200Z 08003KT 9999 DZ FEW015 OVC130 24/21 A2980=
202106212300 METAR MRLM 212300Z 03008KT CAVOK 26/22 A2984=
202106220000 METAR MRLM 220000Z 00000KT CAVOK 24/22 A2982=
202106220100 METAR MRLM NIL=
202106220200 METAR MRLM NIL=
202106220300 METAR MRLM NIL=
202106220400 METAR MRLM NIL=
202106220500 METAR MRLM NIL=
202106220600 METAR MRLM NIL=
202106220700 METAR MRLM NIL=
202106220800 METAR MRLM NIL=
202106220900 METAR MRLM NIL=
202106221000 METAR MRLM NIL=
202106221100 METAR MRLM NIL=
202106221200 METAR MRLM 221200Z 24005KT 9999 FEW015 SCT090 22/21 A2992=
202106221300 METAR MRLM 221300Z 25003KT 9999 FEW015 BKN090 24/22 A2996=
202106221400 METAR MRLM 221400Z 23002KT 9999 FEW015 BKN090 25/23 A2998=
202106221500 METAR MRLM 221500Z 24003KT 9999 FEW015 BKN090 27/24 A3000=
202106221600 METAR MRLM 221600Z 25002KT 9999 FEW020 BKN100 27/24 A2999=
202106221700 METAR MRLM 221700Z 05004KT 9999 FEW020 BKN100 29/23 A2997=
202106221800 METAR MRLM 221800Z 08004KT 9999 FEW020 SCT120 BKN220 29/23 A2996=
202106221900 METAR MRLM 221900Z 07004KT CAVOK 29/23 A2991=
202106222000 METAR MRLM 222000Z 08006KT CAVOK 29/23 A2990=
202106222100 METAR MRLM 222100Z 09007KT CAVOK 30/24 A2987=
202106222200 METAR MRLM 222200Z 08008KT CAVOK 29/23 A2987=
202106222300 METAR MRLM 222300Z 08004KT CAVOK 29/24 A2987=
202106230000 METAR MRLM 230000Z 09004KT CAVOK 28/23 A2988=
202106230100 METAR MRLM NIL=
202106230200 METAR MRLM NIL=
202106230300 METAR MRLM NIL=
202106230400 METAR MRLM NIL=
202106230500 METAR MRLM NIL=
202106230600 METAR MRLM NIL=
202106230700 METAR MRLM NIL=
202106230800 METAR MRLM NIL=
202106230900 METAR MRLM NIL=
202106231000 METAR MRLM NIL=
202106231100 METAR MRLM NIL=
202106231200 METAR MRLM 231200Z 24005KT 9999 VCSH FEW015TCU SCT200 24/23 A2994=
202106231300 METAR MRLM 231300Z 25003KT 9999 FEW015TCU 27/24 A2996=
202106231400 METAR MRLM 231400Z 23003KT 9999 FEW020TCU 29/25 A2997=
202106231500 METAR MRLM 231500Z 07004KT 9999 SCT020TCU 29/25 A2997=
202106231600 METAR MRLM 231600Z 04005KT 9999 VCSH FEW020TCU SCT240 29/25 A2998=
202106231700 METAR MRLM 231700Z 09013KT 9999 VCSH FEW020TCU BKN240 27/23 A2998=
202106231800 METAR MRLM 231800Z 09006KT 9999 FEW020 BKN120 28/23 A2997=
202106231900 METAR MRLM 231900Z 09002KT CAVOK 29/23 A2994=
202106232000 METAR MRLM 232000Z 09002KT CAVOK 29/24 A2990=
202106232100 METAR MRLM 232100Z 34003KT 9999 FEW030 BKN240 29/24 A2990=
202106232200 METAR MRLM 232200Z 05003KT 9999 FEW030 BKN240 29/25 A2990=
202106232300 METAR MRLM 232300Z 36004KT 9999 FEW030 BKN240 29/24 A2991=
202106240000 METAR MRLM 240000Z 28002KT 9999 FEW020 BKN220 27/24 A2991=
202106240100 METAR MRLM NIL=
202106240200 METAR MRLM NIL=
202106240300 METAR MRLM NIL=
202106240400 METAR MRLM NIL=
202106240500 METAR MRLM NIL=
202106240600 METAR MRLM NIL=
202106240700 METAR MRLM NIL=
202106240800 METAR MRLM NIL=
202106240900 METAR MRLM NIL=
202106241000 METAR MRLM NIL=
202106241100 METAR MRLM NIL=
202106241200 METAR MRLM 241200Z 23003KT CAVOK 24/23 A2994=
202106241300 METAR MRLM 241300Z 23003KT CAVOK 25/24 A2993=
202106241400 METAR MRLM 241400Z 00000KT CAVOK 28/24 A2994=
202106241500 METAR MRLM 241500Z 06003KT 9999 FEW030 SCT250 29/24 A2995=
202106241600 METAR MRLM 241600Z 05004KT CAVOK 30/24 A2996=
202106241700 METAR MRLM 241700Z 07005KT 9999 FEW030 BKN240 30/24 A2995=
202106241800 METAR MRLM 241800Z 06006KT CAVOK 30/24 A2993=
202106241900 METAR MRLM 241900Z 05007KT CAVOK 30/24 A2991=
202106242000 METAR MRLM 242000Z 05007KT 9999 FEW030 OVC250 30/24 A2988=
202106242100 METAR MRLM 242100Z 05005KT 9999 FEW030 OVC250 30/24 A2986=
202106242200 METAR MRLM 242200Z 01005KT 9999 SCT030 BKN240 30/24 A2985=
202106242300 METAR MRLM 242300Z 03005KT 9999 BKN030 29/24 A2985=
202106250000 METAR MRLM 250000Z 02005KT 9999 BKN020 28/24 A2986=
202106250100 METAR MRLM NIL=
202106250200 METAR MRLM NIL=
202106250300 METAR MRLM NIL=
202106250400 METAR MRLM NIL=
202106250500 METAR MRLM NIL=
202106250600 METAR MRLM NIL=
202106250700 METAR MRLM NIL=
202106250800 METAR MRLM NIL=
202106250900 METAR MRLM NIL=
202106251000 METAR MRLM NIL=
202106251100 METAR MRLM NIL=
202106251200 METAR MRLM 251200Z 25003KT 9999 FEW025 SCT240 24/23 A2989=
202106251300 METAR MRLM 251300Z 26003KT 9999 FEW025 BKN240 25/24 A2990=
202106251400 METAR MRLM 251400Z 28003KT CAVOK 27/24 A2990=
202106251500 METAR MRLM 251500Z 30004KT 9999 FEW030 OVC250 29/24 A2989=
202106251600 METAR MRLM 251600Z 01008KT CAVOK 29/24 A2990=
202106251700 METAR MRLM 251700Z 01008KT CAVOK 29/24 A2989=
202106251800 METAR MRLM 251800Z 02008KT FEW030 BKN250 30/24 A2989=
202106251900 METAR MRLM 251900Z 02008KT FEW030 BKN240 29/24 A2987=
202106252000 METAR MRLM 252000Z 36010KT FEW030 BKN240 30/24 A2985=
202106252100 METAR MRLM 252100Z 05009KT 9999 FEW025 SCT130 BKN240 29/24 A2983=
202106252200 METAR MRLM 252200Z 32006KT 9999 SCT025 BKN240 29/24 A2982=
202106252300 METAR MRLM 252300Z 34004KT 9999 FEW020 BKN240 29/24 A2983=
202106260000 METAR MRLM 260000Z 29003KT 9999 FEW020 SCT130 BKN230 28/24 A2986=
202106260100 METAR MRLM NIL=
202106260200 METAR MRLM NIL=
202106260300 METAR MRLM NIL=
202106260400 METAR MRLM NIL=
202106260500 METAR MRLM NIL=
202106260600 METAR MRLM NIL=
202106260700 METAR MRLM NIL=
202106260800 METAR MRLM NIL=
202106260900 METAR MRLM NIL=
202106261000 METAR MRLM NIL=
202106261100 METAR MRLM NIL=
202106261200 METAR MRLM 261200Z 24002KT 9999 VCSH FEW015TCU BKN100 24/23 A2986=
202106261300 METAR MRLM 261300Z 17003KT 9999 VCSH FEW015TCU BKN100 25/23 A2987=
202106261400 METAR MRLM 261400Z 23003KT 9999 FEW015 BKN100 26/24 A2989=
202106261500 METAR MRLM 261500Z 31002KT 9999 FEW020 BKN100 28/23 A2990=
202106261600 METAR MRLM 261600Z 31006KT 9999 FEW020 BKN100 28/23 A2990=
202106261700 METAR MRLM 261700Z 30004KT 9999 FEW020 BKN120 28/24 A2990=
202106261800 METAR MRLM 261800Z 30004KT 9999 FEW020 BKN120 30/24 A2987=
202106261900 METAR MRLM 261900Z 34008KT 9999 FEW020 BKN120 29/24 A2986=
202106262000 METAR MRLM 262000Z 36009KT 9999 FEW020 SCT120 BKN220 29/24 A2983=
202106262100 METAR MRLM 262100Z 34009KT 9999 FEW020 SCT120 BKN220 28/24 A2982=
202106262200 METAR MRLM 262200Z 33006KT 9999 FEW020 BKN120 27/24 A2983=
202106262300 METAR MRLM 262300Z 29003KT 9999 VCTS VCSH FEW015CB SCT020 BKN120 27/24 A2984=
202106270000 METAR MRLM 270000Z 24006KT 9999 -DZ VCSH SCT015TCU OVC100 25/24 A2987=
202106270100 METAR MRLM NIL=
202106270200 METAR MRLM NIL=
202106270300 METAR MRLM NIL=
202106270400 METAR MRLM NIL=
202106270500 METAR MRLM NIL=
202106270600 METAR MRLM NIL=
202106270700 METAR MRLM NIL=
202106270800 METAR MRLM NIL=
202106270900 METAR MRLM NIL=
202106271000 METAR MRLM NIL=
202106271100 METAR MRLM NIL=
202106271200 METAR MRLM 271200Z 23005KT CAVOK 22/21 A2984=
202106271300 METAR MRLM 271300Z 26003KT CAVOK 25/22 A2986=
202106271400 METAR MRLM 271400Z 30006KT CAVOK 28/22 A2989=
202106271500 METAR MRLM 271500Z 28005KT CAVOK 29/23 A2991=
202106271600 METAR MRLM 271600Z 34005KT 9999 FEW030 SCT130 30/23 A2991=
202106271700 METAR MRLM 271700Z 01008KT 9999 FEW030 SCT130 30/23 A2989=
202106271800 METAR MRLM 271800Z 02008KT 9999 FEW025TCU BKN130 29/24 A2987=
202106271900 METAR MRLM 271900Z 36008KT 9999 FEW025TCU BKN130 29/24 A2985=
202106272000 METAR MRLM 272000Z 36009KT 9999 SCT025 SCT120 29/24 A2983=
202106272100 METAR MRLM 272100Z 02009KT 9999 DZ VCSH FEW025TCU BKN120 28/24 A2982=
202106272200 METAR MRLM 272200Z 02006KT 9999 -DZ FEW020 BKN120 27/24 A2982=
202106272300 METAR MRLM 272300Z 21004KT 9999 DZ SCT015 OVC100 24/23 A2985=
202106280000 METAR MRLM 280000Z 26005KT 9999 -DZ SCT015 OVC100 24/23 A2989=
202106280100 METAR MRLM NIL=
202106280200 METAR MRLM NIL=
202106280300 METAR MRLM NIL=
202106280400 METAR MRLM NIL=
202106280500 METAR MRLM NIL=
202106280600 METAR MRLM NIL=
202106280700 METAR MRLM NIL=
202106280800 METAR MRLM NIL=
202106280900 METAR MRLM NIL=
202106281000 METAR MRLM NIL=
202106281100 METAR MRLM NIL=
202106281200 METAR MRLM 281200Z 22004KT CAVOK 22/21 A2988=
202106281300 METAR MRLM 281300Z 24004KT CAVOK 25/22 A2990=
202106281400 METAR MRLM 281400Z 24003KT CAVOK 28/23 A2991=
202106281500 METAR MRLM 281500Z 06004KT CAVOK 29/24 A2992=
202106281600 METAR MRLM 281600Z 05005KT 9999 FEW030 29/23 A2992=
202106281700 METAR MRLM 281700Z 06008KT 9999 FEW030 29/23 A2991=
202106281800 METAR MRLM 281800Z 04008KT CAVOK 30/24 A2990=
202106281900 METAR MRLM 281900Z 05010KT CAVOK 30/24 A2988=
202106282000 METAR MRLM 282000Z 07007KT CAVOK 30/24 A2985=
202106282100 METAR MRLM 282100Z 07005KT 9999 FEW030 BKN250 30/24 A2983=
202106282200 METAR MRLM 282200Z 07007KT 9999 FEW030 BKN250 30/24 A2983=
202106282300 METAR MRLM 282300Z 08007KT 9999 FEW030 BKN240 29/24 A2984=
202106290000 METAR MRLM 290000Z 09007KT 9999 BKN020 28/24 A2980=
202106290100 METAR MRLM NIL=
202106290200 METAR MRLM NIL=
202106290300 METAR MRLM NIL=
202106290400 METAR MRLM NIL=
202106290500 METAR MRLM NIL=
202106290600 METAR MRLM NIL=
202106290700 METAR MRLM NIL=
202106290800 METAR MRLM NIL=
202106290900 METAR MRLM NIL=
202106291000 METAR MRLM NIL=
202106291100 METAR MRLM NIL=
202106291200 METAR MRLM 291200Z 25004KT 9999 FEW030 BKN250 23/23 A2986=
202106291300 METAR MRLM 291300Z 25005KT CAVOK 26/24 A2989=
202106291400 METAR MRLM 291400Z 29003KT 9999 FEW025 BKN250 27/25 A2990=
202106291500 METAR MRLM 291500Z 32004KT 9999 FEW030 BKN250 29/24 A2992=
202106291600 METAR MRLM 291600Z 31006KT 9999 FEW030 BKN240 29/25 A2992=
202106291700 METAR MRLM 291700Z 33010KT 9999 FEW030 BKN240 30/25 A2990=
202106291800 METAR MRLM 291800Z 34003KT 9999 FEW030 BKN230 30/24 A2990=
202106291900 METAR MRLM 291900Z 35012KT 9999 FEW030 BKN230 30/25 A2987=
202106292000 METAR MRLM 292000Z 34013KT 9999 FEW030 BKN230 30/25 A2985=
202106292100 METAR MRLM 292100Z 36011KT 9999 BKN025 29/25 A2986=
202106292200 METAR MRLM 292200Z 36010KT 9999 BKN020 29/25 A2985=
202106292300 METAR MRLM 292300Z 35006KT 9999 BKN020 28/25 A2988=
202106300000 METAR MRLM 300000Z 29003KT 9999 FEW020 SCT130 BKN230 27/24 A2990=
202106300100 METAR MRLM NIL=
202106300200 METAR MRLM NIL=
202106300300 METAR MRLM NIL=
202106300400 METAR MRLM NIL=
202106300500 METAR MRLM NIL=
202106300600 METAR MRLM NIL=
202106300700 METAR MRLM NIL=
202106300800 METAR MRLM NIL=
202106300900 METAR MRLM NIL=
202106301000 METAR MRLM NIL=
202106301100 METAR MRLM NIL=
202106301200 METAR MRLM 301200Z 15002KT 8000 DZ SCT010 OVC080 24/24 A2986=
202106301300 METAR MRLM 301300Z 24003KT 8000 DZ SCT010 OVC080 24/24 A2985=
202106301400 METAR MRLM 301400Z 26006KT 9999 -DZ FEW010 BKN080 25/24 A2987=
202106301500 METAR MRLM 301500Z 27007KT 9999 SCT015 BKN090 27/24 A2988 REDZ=
202106301600 METAR MRLM 301600Z 32005KT 8000 +DZ VCTS FEW010CB SCT015 OVC080 26/24 A2989=
202106301700 METAR MRLM 301700Z 26006KT 9999 SCT015 BKN080 26/25 A2989 REDZ=
202106301800 METAR MRLM 301800Z 24005KT 9999 -DZ FEW015 BKN090 27/25 A2988=
202106301900 METAR MRLM 301900Z 20003KT 9999 FEW020 SCT100 BKN200 29/24 A2984=
202106302000 METAR MRLM 302000Z 04005KT CAVOK 29/25 A2983=
202106302100 METAR MRLM 302100Z 36006KT CAVOK 30/25 A2981=
202106302200 METAR MRLM 302200Z 02007KT CAVOK 29/25 A2981=
202106302300 METAR MRLM 302300Z 04005KT CAVOK 29/24 A2983=
202107010000 METAR MRLM 010000Z 10004KT CAVOK 28/24 A2986=
202107010100 METAR MRLM NIL=
202107010200 METAR MRLM NIL=
202107010300 METAR MRLM NIL=
202107010400 METAR MRLM NIL=
202107010500 METAR MRLM NIL=
202107010600 METAR MRLM NIL=
202107010700 METAR MRLM NIL=
202107010800 METAR MRLM NIL=
202107010900 METAR MRLM NIL=
202107011000 METAR MRLM NIL=
202107011100 METAR MRLM NIL=
202107011200 METAR MRLM 011200Z 23002KT CAVOK 23/23 A2987=
202107011300 METAR MRLM 011300Z 24003KT CAVOK 24/23 A2988=
202107011400 METAR MRLM 011400Z 27002KT CAVOK 25/23 A2989=
202107011500 METAR MRLM 011500Z 26002KT CAVOK 25/23 A2990=
202107011600 METAR MRLM 011600Z 00000KT CAVOK 28/23 A2991=
202107011700 METAR MRLM 011700Z 31008KT 9999 FEW020 BKN220 29/25 A2991=
202107011800 METAR MRLM 011800Z 33008KT 9999 FEW020 BKN220 29/25 A2989=
202107011900 METAR MRLM 011900Z 36006KT 9999 FEW020 OVC120 28/25 A2988=
202107012000 METAR MRLM 012000Z 31005KT 9999 FEW020 OVC120 28/25 A2986=
202107012100 METAR MRLM 012100Z 34007KT 9999 SCT020 OVC120 28/25 A2984=
202107012200 METAR MRLM 012200Z 29003KT 9999 SCT020 OVC120 28/25 A2983=
202107012300 METAR MRLM 012300Z 36005KT 9999 SCT015 OVC100 28/25 A2985=
202107020000 METAR MRLM 020000Z 36005KT 9999 FEW015TCU OVC200 27/25 A2987=
202107020100 METAR MRLM NIL=
202107020200 METAR MRLM NIL=
202107020300 METAR MRLM NIL=
202107020400 METAR MRLM NIL=
202107020500 METAR MRLM NIL=
202107020600 METAR MRLM NIL=
202107020700 METAR MRLM NIL=
202107020800 METAR MRLM NIL=
202107020900 METAR MRLM NIL=
202107021000 METAR MRLM NIL=
202107021100 METAR MRLM NIL=
202107021200 METAR MRLM 021200Z 00000KT CAVOK 23/23 A2991=
202107021300 METAR MRLM 021300Z 00000KT CAVOK 26/24 A2993=
202107021400 METAR MRLM 021400Z 00000KT 9999 FEW030 BKN250 28/24 A2995=
202107021500 METAR MRLM 021500Z 30004KT 9999 FEW030 BKN250 29/24 A2994=
202107021600 METAR MRLM 021600Z 36007KT 9999 FEW030 BKN240 29/24 A2994=
202107021700 METAR MRLM 021700Z 02007KT 9999 FEW030 BKN240 30/25 A2993=
202107021800 METAR MRLM 021800Z 01008KT 9999 FEW030 OVC240 30/25 A2991=
202107021900 METAR MRLM 021900Z 01009KT CAVOK 29/25 A2987=
202107022000 METAR MRLM 022000Z 01009KT CAVOK 30/25 A2984=
202107022100 METAR MRLM 022100Z 01008KT 9999 FEW030 SCT250 30/25 A2981=
202107022200 METAR MRLM 022200Z 01006KT CAVOK 29/25 A2983=
202107022300 METAR MRLM 022300Z 01008KT 9999 FEW025 SCT250 29/25 A2984=
202107030000 METAR MRLM 030000Z 29005KT 9999 FEW020 SCT240 27/24 A2987=
202107030100 METAR MRLM NIL=
202107030200 METAR MRLM NIL=
202107030300 METAR MRLM NIL=
202107030400 METAR MRLM NIL=
202107030500 METAR MRLM NIL=
202107030600 METAR MRLM NIL=
202107030700 METAR MRLM NIL=
202107030800 METAR MRLM NIL=
202107030900 METAR MRLM NIL=
202107031000 METAR MRLM NIL=
202107031100 METAR MRLM NIL=
202107031200 METAR MRLM 031200Z 25005KT 9999 VCTS FEW020 BKN130 23/23 A2991=
202107031300 METAR MRLM 031300Z 23004KT CAVOK 25/24 A2993=
202107031400 METAR MRLM 031400Z 27003KT CAVOK 29/24 A2993=
202107031500 METAR MRLM 031500Z 29003KT CAVOK 30/23 A2993=
202107031600 METAR MRLM 031600Z 36008KT 9999 FEW035 SCT250 31/24 A2991=
202107031700 METAR MRLM 031700Z 02010KT CAVOK 31/25 A2990=
202107031800 METAR MRLM 031800Z 02009KT CAVOK 30/25 A2988=
202107031900 METAR MRLM 031900Z 01010KT CAVOK 30/25 A2986=
202107032000 METAR MRLM 032000Z 02009KT CAVOK 30/25 A2983=
202107032100 METAR MRLM 032100Z 01008KT 9999 FEW030 SCT250 30/25 A2982=
202107032200 METAR MRLM 032200Z 02008KT 9999 SCT030 BKN240 29/25 A2983=
202107032300 METAR MRLM 032300Z 04006KT 9999 SCT030 BKN140 29/25 A2986=
202107040000 METAR MRLM 040000Z 07004KT 9999 BKN025 29/25 A2988=
202107040100 METAR MRLM NIL=
202107040200 METAR MRLM NIL=
202107040300 METAR MRLM NIL=
202107040400 METAR MRLM NIL=
202107040500 METAR MRLM NIL=
202107040600 METAR MRLM NIL=
202107040700 METAR MRLM NIL=
202107040800 METAR MRLM NIL=
202107040900 METAR MRLM NIL=
202107041000 METAR MRLM NIL=
202107041100 METAR MRLM NIL=
202107041200 METAR MRLM 041200Z 23004KT CAVOK 22/21 A2988=
202107041300 METAR MRLM 041300Z 24002KT 9999 FEW020 SCT120 25/23 A2991=
202107041400 METAR MRLM 041400Z 25003KT 9999 FEW020 SCT220 29/24 A2993=
202107041500 METAR MRLM 041500Z 07005KT 9999 VCSH FEW020TCU SCT220 29/24 A2994=
202107041600 METAR MRLM 041600Z 05005KT 9999 VCSH FEW020TCU BKN120 28/24 A2995=
202107041700 METAR MRLM 041700Z 04003KT 9999 FEW020 BKN120 28/24 A2993=
202107041800 METAR MRLM 041800Z 10003KT 9999 FEW030 SCT130 BKN240 29/25 A2991=
202107041900 METAR MRLM 041900Z 06005KT CAVOK 29/25 A2988=
202107042000 METAR MRLM 042000Z 06006KT CAVOK 30/25 A2985=
202107042100 METAR MRLM 042100Z 07006KT CAVOK 30/24 A2984=
202107042200 METAR MRLM 042200Z 09005KT CAVOK 29/23 A2984=
202107042300 METAR MRLM 042300Z 11004KT 9999 FEW020 SCT220 29/24 A2986=
202107050000 METAR MRLM 050000Z 22002KT CAVOK 27/24 A2986=
202107050100 METAR MRLM NIL=
202107050200 METAR MRLM NIL=
202107050300 METAR MRLM NIL=
202107050400 METAR MRLM NIL=
202107050500 METAR MRLM NIL=
202107050600 METAR MRLM NIL=
202107050700 METAR MRLM NIL=
202107050800 METAR MRLM NIL=
202107050900 METAR MRLM NIL=
202107051000 METAR MRLM NIL=
202107051100 METAR MRLM NIL=
202107051200 METAR MRLM 051200Z 23005KT CAVOK 23/22 A2990=
202107051300 METAR MRLM 051300Z 23004KT CAVOK 26/23 A2992=
202107051400 METAR MRLM 051400Z 00000KT 9999 FEW025 SCT220 29/24 A2993=
202107051500 METAR MRLM 051500Z 06004KT 9999 FEW025 30/24 A2993=
202107051600 METAR MRLM 051600Z 07006KT 9999 FEW030 30/24 A2994=
202107051700 METAR MRLM 051700Z 06007KT 9999 FEW030 SCT250 30/24 A2994=
202107051800 METAR MRLM 051800Z 04006KT 9999 FEW030 SCT250 30/25 A2993=
202107051900 METAR MRLM 051900Z 03005KT 9999 FEW030 BKN250 30/25 A2986=
202107052000 METAR MRLM 052000Z 03006KT 9999 FEW030 BKN250 30/25 A2988=
202107052100 METAR MRLM 052100Z 04006KT 9999 FEW030 BKN250 30/25 A2987=
202107052200 METAR MRLM 052200Z 06007KT 9999 FEW030 SCT250 30/25 A2986=
202107052300 METAR MRLM 052300Z 06006KT 9999 FEW030 SCT250 29/24 A2988=
202107060000 METAR MRLM 060000Z 11006KT 9999 FEW020 SCT220 29/24 A2990=
202107060100 METAR MRLM NIL=
202107060200 METAR MRLM NIL=
202107060300 METAR MRLM NIL=
202107060400 METAR MRLM NIL=
202107060500 METAR MRLM NIL=
202107060600 METAR MRLM NIL=
202107060700 METAR MRLM NIL=
202107060800 METAR MRLM NIL=
202107060900 METAR MRLM NIL=
202107061000 METAR MRLM NIL=
202107061100 METAR MRLM NIL=
202107061200 METAR MRLM 061200Z 25003KT CAVOK 23/22 A2990=
202107061300 METAR MRLM 061300Z 23004KT CAVOK 25/23 A2992=
202107061400 METAR MRLM 061400Z 21003KT CAVOK 29/24 A2993=
202107061500 METAR MRLM 061500Z 10004KT 9999 FEW030 SCT250 29/23 A2993=
202107061600 METAR MRLM 061600Z 08005KT 9999 FEW030 BKN250 30/24 A2992=
202107061700 METAR MRLM 061700Z 08006KT CAVOK 30/24 A2991=
202107061800 METAR MRLM 061800Z 08009KT CAVOK 31/24 A2991=
202107061900 METAR MRLM 061900Z 09008KT CAVOK 30/24 A2988=
202107062000 METAR MRLM 062000Z 10004KT 9999 FEW025 SCT140 BKN240 29/24 A2986=
202107062100 METAR MRLM 062100Z 10007KT 9999 FEW025 BKN140 29/24 A2984=
202107062200 METAR MRLM 062200Z 08009KT 9999 FEW020 BKN130 29/24 A2984=
202107062300 METAR MRLM 062300Z 08003KT 9999 FEW025 SCT130 BKN240 29/24 A2984=
202107070000 METAR MRLM 070000Z 00000KT 9999 FEW020 SCT130 28/25 A2987=
202107070100 METAR MRLM NIL=
202107070200 METAR MRLM NIL=
202107070300 METAR MRLM NIL=
202107070400 METAR MRLM NIL=
202107070500 METAR MRLM NIL=
202107070600 METAR MRLM NIL=
202107070700 METAR MRLM NIL=
202107070800 METAR MRLM NIL=
202107070900 METAR MRLM NIL=
202107071000 METAR MRLM NIL=
202107071100 METAR MRLM NIL=
202107071200 METAR MRLM 071200Z 23005KT 9999 VCTS BKN020 24/23 A2987=
202107071300 METAR MRLM 071300Z 20005KT 9999 DZ BKN020 24/23 A2989=
202107071400 METAR MRLM 071400Z 22005KT 9999 SCT020 BKN120 25/24 A2990 REDZ=
202107071500 METAR MRLM 071500Z 25004KT CAVOK 28/24 A2990=
202107071600 METAR MRLM 071600Z 23003KT 9999 FEW030 BKN250 31/24 A2989=
202107071700 METAR MRLM 071700Z 05004KT 9999 FEW030 BKN250 31/25 A2987=
202107071800 METAR MRLM 071800Z 03007KT 9999 FEW030 BKN240 31/24 A2987=
202107071900 METAR MRLM 071900Z 02005KT 9999 FEW030 BKN140 31/24 A2984=
202107072000 METAR MRLM 072000Z 03007KT CAVOK 29/24 A2983=
202107072100 METAR MRLM 072100Z 05007KT 9999 FEW025 BKN130 29/25 A2981=
202107072200 METAR MRLM 072200Z 09007KT 9999 FEW025 BKN120 28/24 A2980=
202107072300 METAR MRLM 072300Z 10003KT 9999 FEW020 SCT130 BKN230 28/24 A2980=
202107080000 METAR MRLM 080000Z 05008KT 9999 VCSH FEW020 SCT130 BKN230 28/24 A2983=
202107080100 METAR MRLM NIL=
202107080200 METAR MRLM NIL=
202107080300 METAR MRLM NIL=
202107080400 METAR MRLM NIL=
202107080500 METAR MRLM NIL=
202107080600 METAR MRLM NIL=
202107080700 METAR MRLM NIL=
202107080800 METAR MRLM NIL=
202107080900 METAR MRLM NIL=
202107081000 METAR MRLM NIL=
202107081100 METAR MRLM NIL=
202107081200 METAR MRLM 081200Z 36006KT 5000 -RA VCSH FEW015TCU OVC090 26/25 A2984=
202107081300 METAR MRLM 081300Z 22005KT 9999 VCTS FEW010CB SCT015 OVC090 25/24 A2985 RERA=
202107081400 METAR MRLM 081400Z 24003KT 9999 VCSH FEW015TCU BKN090 26/24 A2986=
202107081500 METAR MRLM 081500Z 28003KT 9999 SCT015 BKN090 27/25 A2988=
202107081600 METAR MRLM 081600Z 27003KT 9999 FEW020 SCT100 BKN200 29/25 A2988=
202107081700 METAR MRLM 081700Z 08003KT 9999 FEW020 BKN200 29/25 A2986=
202107081800 METAR MRLM 081800Z 05004KT CAVOK 30/25 A2983=
202107081900 METAR MRLM 081900Z 03006KT CAVOK 30/25 A2980=
202107082000 METAR MRLM 082000Z 03007KT CAVOK 31/25 A2978=
202107082100 METAR MRLM 082100Z 02006KT CAVOK 31/25 A2977=
202107082200 METAR MRLM 082200Z 01006KT 9999 FEW025 BKN240 30/25 A2978=
202107082300 METAR MRLM 082300Z 35007KT 9999 SCT020 BKN220 29/25 A2980=
202107090000 METAR MRLM 090000Z 01006KT 9999 FEW020 BKN220 29/25 A2982=
202107090100 METAR MRLM NIL=
202107090200 METAR MRLM NIL=
202107090300 METAR MRLM NIL=
202107090400 METAR MRLM NIL=
202107090500 METAR MRLM NIL=
202107090600 METAR MRLM NIL=
202107090700 METAR MRLM NIL=
202107090800 METAR MRLM NIL=
202107090900 METAR MRLM NIL=
202107091000 METAR MRLM NIL=
202107091100 METAR MRLM NIL=
202107091200 METAR MRLM 091200Z 01009KT 4000 -RA FEW010 OVC070 26/24 A2985=
202107091300 METAR MRLM 091300Z 03008KT 8000 +DZ FEW010 OVC070 25/24 A2987=
202107091400 METAR MRLM 091400Z 30003KT 7000 +DZ VCTS FEW007CB SCT010 OVC080 25/24 A2987=
202107091500 METAR MRLM 091500Z 21005KT 6000 +DZ FEW010 OVC080 25/24 A2992=
202107091600 METAR MRLM 091600Z 27002KT 8000 +DZ VCTS FEW008CB FEW010 OVC080 25/24 A2992=
202107091700 METAR MRLM 091700Z 28002KT 6000 +DZ SCT010 OVC080 25/24 A2992=
202107091800 METAR MRLM 091800Z 21003KT 5000 +DZ FEW010 OVC080 24/24 A2991=
202107091900 METAR MRLM 091900Z 00000KT 6000 DZ SCT010 OVC080 24/23 A2991=
202107092000 METAR MRLM 092000Z 30003KT 9999 SCT015 OVC100 25/24 A2988 REDZ=
202107092100 METAR MRLM 092100Z 27006KT 9999 FEW015 SCT100 OVC200 27/24 A2983=
202107092200 METAR MRLM 092200Z 25004KT 9999 FEW020 SCT100 BKN200 27/25 A2983=
202107092300 METAR MRLM 092300Z 27003KT CAVOK 26/25 A2983=
202107100000 METAR MRLM 100000Z 27004KT CAVOK 26/24 A2983=
202107100100 METAR MRLM NIL=
202107100200 METAR MRLM NIL=
202107100300 METAR MRLM NIL=
202107100400 METAR MRLM NIL=
202107100500 METAR MRLM NIL=
202107100600 METAR MRLM NIL=
202107100700 METAR MRLM NIL=
202107100800 METAR MRLM NIL=
202107100900 METAR MRLM NIL=
202107101000 METAR MRLM NIL=
202107101100 METAR MRLM NIL=
202107101200 METAR MRLM 101200Z 00000KT 9999 5000N DZ SCT020 BKN120 23/23 A2983=
202107101300 METAR MRLM 101300Z 00000KT 9999 4000N DZ SCT020 BKN120 24/23 A2987=
202107101400 METAR MRLM 101400Z 24004KT 9999 -DZ BKN020 24/23 A2989=
202107101500 METAR MRLM 101500Z 26004KT 9999 4000N +DZ SCT020 BKN110 24/24 A2989=
202107101600 METAR MRLM 101600Z 30005KT 9999 FEW020 BKN120 24/23 A2991 REDZ=
202107101700 METAR MRLM 101700Z 30003KT 9999 FEW020 BKN130 25/24 A2989=
202107101800 METAR MRLM 101800Z 33003KT 9999 DZ SCT020 BKN130 26/24 A2988=
202107101900 METAR MRLM 101900Z 28003KT 9999 DZ FEW020 BKN130 26/24 A2986=
202107102000 METAR MRLM 102000Z 26003KT 9999 SCT025 BKN130 26/24 A2989 REDZ=
202107102100 METAR MRLM 102100Z 26003KT 9999 FEW020 OVC130 26/24 A2980=
202107102200 METAR MRLM 102200Z 00000KT CAVOK 26/24 A2979=
202107102300 METAR MRLM 102300Z 31004KT 9999 -DZ VCSH FEW015 BKN120 25/24 A2982=
202107110000 METAR MRLM 110000Z 27005KT 9999 SCT015 BKN110 25/23 A2985=
202107110100 METAR MRLM NIL=
202107110200 METAR MRLM NIL=
202107110300 METAR MRLM NIL=
202107110400 METAR MRLM NIL=
202107110500 METAR MRLM NIL=
202107110600 METAR MRLM NIL=
202107110700 METAR MRLM NIL=
202107110800 METAR MRLM NIL=
202107110900 METAR MRLM NIL=
202107111000 METAR MRLM NIL=
202107111100 METAR MRLM NIL=
202107111200 METAR MRLM 111200Z 19003KT 9999 DZ FEW015 BKN110 23/22 A2987=
202107111300 METAR MRLM 111300Z 24002KT CAVOK 24/23 A2988=
202107111400 METAR MRLM 111400Z 21004KT CAVOK 25/23 A2988=
202107111500 METAR MRLM 111500Z 00000KT CAVOK 27/24 A2989=
202107111600 METAR MRLM 111600Z 06003KT CAVOK 29/24 A2989=
202107111700 METAR MRLM 111700Z 03007KT CAVOK 29/24 A2989=
202107111800 METAR MRLM 111800Z 03007KT CAVOK 28/24 A2987=
202107111900 METAR MRLM 111900Z 03006KT CAVOK 29/24 A2985=
202107112000 METAR MRLM 112000Z 05004KT CAVOK 29/24 A2981=
202107112100 METAR MRLM 112100Z 05006KT CAVOK 29/25 A2981=
202107112200 METAR MRLM 112200Z 04008KT CAVOK 28/24 A2981=
202107112300 METAR MRLM 112300Z 06008KT CAVOK 29/24 A2982=
202107120000 METAR MRLM 120000Z 07006KT CAVOK 28/24 A2985=
202107120100 METAR MRLM NIL=
202107120200 METAR MRLM NIL=
202107120300 METAR MRLM NIL=
202107120400 METAR MRLM NIL=
202107120500 METAR MRLM NIL=
202107120600 METAR MRLM NIL=
202107120700 METAR MRLM NIL=
202107120800 METAR MRLM NIL=
202107120900 METAR MRLM NIL=
202107121000 METAR MRLM NIL=
202107121100 METAR MRLM NIL=
202107121200 METAR MRLM 121200Z 23004KT 9999 FEW015 SCT200 24/23 A2985=
202107121300 METAR MRLM 121300Z 29002KT 8000 VCTS VCSH FEW010CB SCT015 OVC100 24/23 A2987=
202107121400 METAR MRLM 121400Z 29003KT 9999 -DZ VCSH SCT015 OVC100 24/23 A2987=
202107121500 METAR MRLM 121500Z 30004KT 9999 -DZ VCTS FEW010CB SCT015 OVC100 25/24 A2990=
202107121600 METAR MRLM 121600Z 30004KT 9999 -DZ VCTS VCSH FEW010CB SCT015 OVC100 25/23 A2993=
202107121700 METAR MRLM 121700Z 26004KT 8000 DZ SCT015 OVC090 25/24 A2992=
202107121800 METAR MRLM 121800Z 30003KT 9999 DZ FEW015 OVC090 25/24 A2989=
202107121900 METAR MRLM 121900Z 28002KT 9999 FEW020 OVC110 25/24 A2987 REDZ=
202107122000 METAR MRLM 122000Z 31005KT 9999 FEW020 OVC110 26/24 A2986=
202107122100 METAR MRLM 122100Z 30004KT 9999 FEW020 OVC110 26/24 A2984=
202107122200 METAR MRLM 122200Z 30005KT 9999 FEW020 OVC110 26/24 A2983=
202107122300 METAR MRLM 122300Z 31002KT 9999 FEW020 SCT110 OVC200 26/24 A2986=
202107130000 METAR MRLM 130000Z 25003KT 9999 SCT015 OVC200 25/24 A2989=
202107130100 METAR MRLM NIL=
202107130200 METAR MRLM NIL=
202107130300 METAR MRLM NIL=
202107130400 METAR MRLM NIL=
202107130500 METAR MRLM NIL=
202107130600 METAR MRLM NIL=
202107130700 METAR MRLM NIL=
202107130800 METAR MRLM NIL=
202107130900 METAR MRLM NIL=
202107131000 METAR MRLM NIL=
202107131100 METAR MRLM NIL=
202107131200 METAR MRLM 131200Z 26004KT 9999 SCT015 BKN200 24/23 A2986=
202107131300 METAR MRLM 131300Z 28003KT 9999 VCTS VCSH FEW010CB SCT015 BKN200 24/24 A2987=
202107131400 METAR MRLM 131400Z 31005KT 9999 SCT015 OVC100 26/24 A2990=
202107131500 METAR MRLM 131500Z 08004KT 2000 +RA FEW006 OVC015 25/24 A2996=
202107131600 METAR MRLM 131600Z 28003KT 8000 DZ SCT015 OVC080 24/24 A2992 RERA=
202107131700 METAR MRLM 131700Z 29003KT 9999 -DZ FEW015 OVC080 25/24 A2990=
202107131800 METAR MRLM 131800Z 29003KT CAVOK 27/24 A2987=
202107131900 METAR MRLM 131900Z 32003KT CAVOK 28/24 A2986=
202107132000 METAR MRLM 132000Z 36008KT CAVOK 29/23 A2985=
202107132100 METAR MRLM 132100Z 30003KT CAVOK 30/24 A2984=
202107132200 METAR MRLM 132200Z 02008KT CAVOK 29/25 A2983=
202107132300 METAR MRLM 132300Z 01009KT CAVOK 28/25 A2983=
202107140000 METAR MRLM 140000Z 36007KT CAVOK 27/25 A2986=
202107140100 METAR MRLM NIL=
202107140200 METAR MRLM NIL=
202107140300 METAR MRLM NIL=
202107140400 METAR MRLM NIL=
202107140500 METAR MRLM NIL=
202107140600 METAR MRLM NIL=
202107140700 METAR MRLM NIL=
202107140800 METAR MRLM NIL=
202107140900 METAR MRLM NIL=
202107141000 METAR MRLM NIL=
202107141100 METAR MRLM NIL=
202107141200 METAR MRLM 141200Z 00000KT 9999 VCTS FEW020 BKN130 24/23 A2989=
202107141300 METAR MRLM 141300Z 00000KT 9999 VCTS FEW020 BKN130 24/24 A2991=
202107141400 METAR MRLM 141400Z 00000KT CAVOK 25/24 A2994=
202107141500 METAR MRLM 141500Z 23004KT 9999 DZ SCT020 BKN120 25/24 A2995=
202107141600 METAR MRLM 141600Z 22003KT 9999 FEW020 BKN130 26/25 A2996 REDZ=
202107141700 METAR MRLM 141700Z 12004KT 9999 VCSH FEW020 BKN130 27/25 A2996=
202107141800 METAR MRLM 141800Z 20004KT 9999 SCT020 BKN120 25/24 A2997=
202107141900 METAR MRLM 141900Z 22004KT 9999 DZ FEW020 BKN130 25/24 A2992=
202107142000 METAR MRLM 142000Z 20003KT 9999 FEW025 BKN140 26/23 A2989 REDZ=
202107142100 METAR MRLM 142100Z 06003KT 9999 FEW025 BKN140 27/24 A2989=
202107142200 METAR MRLM 142200Z 12003KT 9999 FEW020 BKN130 27/24 A2989=
202107142300 METAR MRLM 142300Z 27003KT 9999 FEW020 BKN130 27/24 A2989=
202107150000 METAR MRLM 150000Z 00000KT 9999 FEW020 BKN120 27/24 A2992=
202107150100 METAR MRLM NIL=
202107150200 METAR MRLM NIL=
202107150300 METAR MRLM NIL=
202107150400 METAR MRLM NIL=
202107150500 METAR MRLM NIL=
202107150600 METAR MRLM NIL=
202107150700 METAR MRLM NIL=
202107150800 METAR MRLM NIL=
202107150900 METAR MRLM NIL=
202107151000 METAR MRLM NIL=
202107151100 METAR MRLM NIL=
202107151200 METAR MRLM 151200Z 00000KT CAVOK 24/23 A2994=
202107151300 METAR MRLM 151300Z 24003KT CAVOK 26/24 A2995=
202107151400 METAR MRLM 151400Z 00000KT CAVOK 28/24 A2996=
202107151500 METAR MRLM 151500Z 08003KT 9999 FEW030 30/25 A2996=
202107151600 METAR MRLM 151600Z 08004KT 9999 FEW030 30/25 A2994=
202107151700 METAR MRLM 151700Z 07005KT 9999 FEW030 30/25 A2994=
202107151800 METAR MRLM 151800Z 05007KT 9999 FEW030 30/25 A2993=
202107151900 METAR MRLM 151900Z 04007KT 9999 FEW030 30/25 A2990=
202107152000 METAR MRLM 152000Z 03007KT 9999 SCT030 30/25 A2988=
202107152100 METAR MRLM NIL=
202107152200 METAR MRLM NIL=
202107152300 METAR MRLM NIL=
202107160000 METAR MRLM NIL=
202107160100 METAR MRLM NIL=
202107160200 METAR MRLM NIL=
202107160300 METAR MRLM NIL=
202107160400 METAR MRLM NIL=
202107160500 METAR MRLM NIL=
202107160600 METAR MRLM NIL=
202107160700 METAR MRLM NIL=
202107160800 METAR MRLM NIL=
202107160900 METAR MRLM NIL=
202107161000 METAR MRLM NIL=
202107161100 METAR MRLM NIL=
202107161200 METAR MRLM 161200Z 24005KT CAVOK 22/21 A2988 NOSIG=
202107161300 METAR MRLM 161300Z 11008KT 080V170 CAVOK 22/16 A3000 NOSIG=
202107161400 METAR MRLM 161400Z 00000KT CAVOK 29/23 A2992 NOSIG=
202107161500 METAR MRLM 161500Z 08003KT 9999 FEW030 29/23 A2993=
202107161600 METAR MRLM 161600Z 09003KT 9999 FEW030 29/24 A2993=
202107161700 METAR MRLM 161700Z 07005KT 9999 FEW030 29/24 A2994=
202107161800 METAR MRLM 161800Z 08004KT 9999 FEW030 SCT140 29/24 A2992=
202107161900 METAR MRLM 161900Z 07005KT 9999 FEW030 SCT130 29/24 A2991=
202107162000 METAR MRLM 162000Z 05007KT 9999 FEW030 SCT250 30/24 A2988=
202107162100 METAR MRLM 162100Z 05005KT 9999 FEW030 SCT250 30/25 A2987=
202107162200 METAR MRLM 162200Z 04006KT 9999 FEW030 SCT130 BKN250 30/25 A2986=
202107162300 METAR MRLM NIL=
202107170000 METAR MRLM NIL=
202107170100 METAR MRLM NIL=
202107170200 METAR MRLM NIL=
202107170300 METAR MRLM NIL=
202107170400 METAR MRLM NIL=
202107170500 METAR MRLM NIL=
202107170600 METAR MRLM NIL=
202107170700 METAR MRLM NIL=
202107170800 METAR MRLM NIL=
202107170900 METAR MRLM NIL=
202107171000 METAR MRLM NIL=
202107171100 METAR MRLM NIL=
202107171200 METAR MRLM 171200Z 20003KT 9999 VCTS SCT020 BKN120 23/22 A2989=
202107171300 METAR MRLM 171300Z 08003KT 9999 +DZ VCTS BKN020 24/24 A2994 RERA=
202107171400 METAR MRLM 171400Z 25003KT 8000 DZ SCT020 BKN110 24/23 A2994=
202107171500 METAR MRLM 171500Z 23005KT 9999 +DZ FEW025 BKN120 24/24 A2995=
202107171600 METAR MRLM 171600Z 26005KT 9999 FEW025 SCT130 BKN230 26/24 A2994=
202107171700 METAR MRLM 171700Z 23004KT CAVOK 26/24 A2993=
202107171800 METAR MRLM 171800Z 28006KT CAVOK 27/25 A2989=
202107171900 METAR MRLM 171900Z 33004KT 9999 SCT020 BKN130 29/25 A2990=
202107172000 METAR MRLM NIL=
202107172100 METAR MRLM 172100Z 30005KT CAVOK 29/25 A2985=
202107172200 METAR MRLM 172200Z 30006KT CAVOK 29/24 A2983=
202107172300 METAR MRLM NIL=
202107180000 METAR MRLM NIL=
202107180100 METAR MRLM NIL=
202107180200 METAR MRLM NIL=
202107180300 METAR MRLM NIL=
202107180400 METAR MRLM NIL=
202107180500 METAR MRLM NIL=
202107180600 METAR MRLM NIL=
202107180700 METAR MRLM NIL=
202107180800 METAR MRLM NIL=
202107180900 METAR MRLM NIL=
202107181000 METAR MRLM NIL=
202107181100 METAR MRLM NIL=
202107181200 METAR MRLM 181200Z 24004KT 9999 BKN015 24/23 A2989 NOSIG=
202107181300 METAR MRLM 181300Z 25004KT 9999 DZ BKN020 25/24 A2990=
202107181400 METAR MRLM 181400Z 26003KT 9999 4000N DZ BKN020 26/25 A2992=
202107181500 METAR MRLM 181500Z 25004KT 5000 -RA BKN015 26/25 A2995=
202107181600 METAR MRLM 181600Z 23003KT 9999 DZ SCT010 BKN110 26/25 A2995=
202107181700 METAR MRLM 181700Z 23004KT 9999 BKN020 26/25 A2993 REDZ=
202107181800 METAR MRLM 181800Z 23003KT 9999 DZ BKN020 26/24 A2992=
202107181900 METAR MRLM 181900Z 24004KT 9999 BKN020 27/25 A2990 REDZ=
202107182000 METAR MRLM 182000Z 22005KT 9999 DZ BKN020 26/24 A2987=
202107182100 METAR MRLM 182100Z 19005KT 9999 DZ BKN015 25/24 A2988=
202107182200 METAR MRLM 182200Z 20004KT 9999 DZ BKN015 25/24 A2987=
202107182300 METAR MRLM NIL=
202107190000 METAR MRLM NIL=
202107190100 METAR MRLM NIL=
202107190200 METAR MRLM NIL=
202107190300 METAR MRLM NIL=
202107190400 METAR MRLM NIL=
202107190500 METAR MRLM NIL=
202107190600 METAR MRLM NIL=
202107190700 METAR MRLM NIL=
202107190800 METAR MRLM NIL=
202107190900 METAR MRLM NIL=
202107191000 METAR MRLM NIL=
202107191100 METAR MRLM NIL=
202107191200 METAR MRLM 191200Z 23004KT 9999 SCT020 BKN110 24/23 A2990=
202107191300 METAR MRLM 191300Z 27003KT 9999 SCT020 BKN110 24/24 A2992=
202107191400 METAR MRLM 191400Z 28003KT 9999 FEW020 BKN120 25/24 A2994=
202107191500 METAR MRLM 191500Z 00000KT 9999 FEW020 BKN140 27/24 A2994=
202107191600 METAR MRLM 191600Z 22003KT CAVOK 28/25 A2992=
202107191700 METAR MRLM 191700Z 09004KT CAVOK 30/25 A2990=
202107191800 METAR MRLM 191800Z 03004KT 9999 FEW030 SCT130 BKN240 29/25 A2988=
202107191900 METAR MRLM 191900Z 04004KT CAVOK 29/24 A2985=
202107192000 METAR MRLM 192000Z 04004KT CAVOK 30/25 A2983=
202107192100 METAR MRLM 192100Z 04005KT CAVOK 30/25 A2983=
202107192200 METAR MRLM 192200Z 02005KT CAVOK 30/25 A2983=
202107192300 METAR MRLM NIL=
202107200000 METAR MRLM NIL=
202107200100 METAR MRLM NIL=
202107200200 METAR MRLM NIL=
202107200300 METAR MRLM NIL=
202107200400 METAR MRLM NIL=
202107200500 METAR MRLM NIL=
202107200600 METAR MRLM NIL=
202107200700 METAR MRLM NIL=
202107200800 METAR MRLM NIL=
202107200900 METAR MRLM NIL=
202107201000 METAR MRLM NIL=
202107201100 METAR MRLM NIL=
202107201200 METAR MRLM 201200Z 00000KT CAVOK 24/23 A2986=
202107201300 METAR MRLM 201300Z 22003KT CAVOK 26/24 A2988=
202107201400 METAR MRLM 201400Z 00000KT CAVOK 29/24 A2989=
202107201500 METAR MRLM 201500Z 06003KT 9999 FEW030 30/25 A2989=
202107201600 METAR MRLM 201600Z 05005KT 9999 FEW030 30/25 A2989=
202107201700 METAR MRLM 201700Z 04005KT 9999 FEW030 30/25 A2987=
202107201800 METAR MRLM 201800Z 03009KT 9999 FEW030 31/25 A2985=
202107201900 METAR MRLM 201900Z 03007KT CAVOK 31/25 A2984=
202107202000 METAR MRLM 202000Z 04007KT CAVOK 31/26 A2982=
202107202100 METAR MRLM 202100Z 03009KT 9999 SCT030 31/26 A2981=
202107202200 METAR MRLM 202200Z 04009KT 9999 SCT030 30/26 A2981=
202107202300 METAR MRLM NIL=
202107210000 METAR MRLM NIL=
202107210100 METAR MRLM NIL=
202107210200 METAR MRLM NIL=
202107210300 METAR MRLM NIL=
202107210400 METAR MRLM NIL=
202107210500 METAR MRLM NIL=
202107210600 METAR MRLM NIL=
202107210700 METAR MRLM NIL=
202107210800 METAR MRLM NIL=
202107210900 METAR MRLM NIL=
202107211000 METAR MRLM NIL=
202107211100 METAR MRLM NIL=
202107211200 METAR MRLM 211200Z 19003KT 9999 BKN020 24/24 A2983=
202107211300 METAR MRLM 211300Z 00000KT 9999 BKN020 24/24 A2985=
202107211400 METAR MRLM 211400Z 24003KT 9999 DZ SCT020 BKN110 25/24 A2989=
202107211500 METAR MRLM 211500Z 22004KT 9999 SCT020 BKN110 25/24 A2990 REDZ=
202107211600 METAR MRLM 211600Z 22004KT 9999 FEW020 BKN120 27/25 A2987=
202107211700 METAR MRLM 211700Z 09004KT 9999 FEW020 BKN130 30/25 A2987=
202107211800 METAR MRLM 211800Z 05006KT 9999 FEW025 SCT130 BKN240 30/25 A2985=
202107211900 METAR MRLM 211900Z 05006KT CAVOK 29/26 A2983=
202107212000 METAR MRLM 212000Z 04005KT CAVOK 30/25 A2982=
202107212100 METAR MRLM 212100Z 03004KT CAVOK 29/25 A2982=
202107212200 METAR MRLM 212200Z 03004KT CAVOK 29/25 A2982=
202107212300 METAR MRLM NIL=
202107220000 METAR MRLM NIL=
202107220100 METAR MRLM NIL=
202107220200 METAR MRLM NIL=
202107220300 METAR MRLM NIL=
202107220400 METAR MRLM NIL=
202107220500 METAR MRLM NIL=
202107220600 METAR MRLM NIL=
202107220700 METAR MRLM NIL=
202107220800 METAR MRLM NIL=
202107220900 METAR MRLM NIL=
202107221000 METAR MRLM NIL=
202107221100 METAR MRLM NIL=
202107221200 METAR MRLM 221200Z 22004KT 9999 4000N DZ BKN015 24/24 A2988=
202107221300 METAR MRLM 221300Z 23005KT 8000 1000N TS RA SCT010CB BKN015 25/24 A2989=
202107221400 METAR MRLM 221400Z 28003KT 8000 DZ BKN020 25/25 A2992 RETS=
202107221500 METAR MRLM 221500Z 25005KT 5000 DZ VCSH BKN020 26/25 A2993=
202107221600 METAR MRLM 221600Z 29003KT 9999 +DZ BKN020 25/25 A2992=
202107221700 METAR MRLM 221700Z 00000KT 5000 RA BKN015 25/25 A2991=
202107221800 METAR MRLM 221800Z 06017KT 9999 DZ SCT020 BKN100 28/26 A2990 RERA=
202107221900 METAR MRLM 221900Z 06021KT 9999 DZ SCT025 OVC120 28/25 A2989=
202107222000 METAR MRLM 222000Z 05019KT 9999 SCT025 OVC120 28/25 A2988 REDZ=
202107222100 METAR MRLM 222100Z 05016KT 9999 FEW025 OVC120 28/25 A2987=
202107222200 METAR MRLM 222200Z 06013KT 9999 FEW025 BKN120 28/25 A2986=
202107222300 METAR MRLM NIL=
202107230000 METAR MRLM NIL=
202107230100 METAR MRLM NIL=
202107230200 METAR MRLM NIL=
202107230300 METAR MRLM NIL=
202107230400 METAR MRLM NIL=
202107230500 METAR MRLM NIL=
202107230600 METAR MRLM NIL=
202107230700 METAR MRLM NIL=
202107230800 METAR MRLM NIL=
202107230900 METAR MRLM NIL=
202107231000 METAR MRLM NIL=
202107231100 METAR MRLM NIL=
202107231200 METAR MRLM 231200Z 04015KT 9999 SCT015 BKN100 28/25 A2990=
202107231300 METAR MRLM 231300Z 03011KT 9999 BKN020 27/25 A2991=
202107231400 METAR MRLM 231400Z 04013KT 9999 FEW020 BKN120 28/25 A2992=
202107231500 METAR MRLM 231500Z 04014KT 9999 BKN020 28/25 A2993=
202107231600 METAR MRLM 231600Z 05011KT 9999 BKN020 28/26 A2994=
202107231700 METAR MRLM 231700Z 21006KT 5000 +DZ BKN015 25/24 A2993=
202107231800 METAR MRLM 231800Z 22005KT 8000 DZ SCT015 OVC090 24/24 A2992=
202107231900 METAR MRLM 231900Z 24005KT 8000 DZ SCT015 OVC090 24/24 A2991 RETS=
202107232000 METAR MRLM 232000Z 16003KT 9999 DZ SCT020 BKN110 25/24 A2990=
202107232100 METAR MRLM 232100Z 22003KT 9999 DZ FEW020 BKN110 25/24 A2986=
202107232200 METAR MRLM 232200Z 00000KT 9999 DZ FEW020 SCT110 BKN230 25/24 A2986=
202107232300 METAR MRLM NIL=
202107240000 METAR MRLM NIL=
202107240100 METAR MRLM NIL=
202107240200 METAR MRLM NIL=
202107240300 METAR MRLM NIL=
202107240400 METAR MRLM NIL=
202107240500 METAR MRLM NIL=
202107240600 METAR MRLM NIL=
202107240700 METAR MRLM NIL=
202107240800 METAR MRLM NIL=
202107240900 METAR MRLM NIL=
202107241000 METAR MRLM NIL=
202107241100 METAR MRLM NIL=
202107241200 METAR MRLM 241200Z 28008KT 7000 +DZ BKN015 24/23 A2986=
202107241300 METAR MRLM 241300Z 28007KT 7000 TS DZ FEW007CB SCT015 BKN090 24/23 A2988=
202107241400 METAR MRLM 241400Z 29009KT 9999 5000N -RA SCT015 OVC090 24/23 A2992 RETS=
202107241500 METAR MRLM 241500Z 29005KT 5000 +DZ SCT015 OVC090 24/23 A2993=
202107241600 METAR MRLM 241600Z 00000KT 5000 +DZ FEW015 OVC090 24/23 A2995=
202107241700 METAR MRLM 241700Z 29003KT 9999 DZ FEW020 BKN110 24/23 A2994=
202107241800 METAR MRLM 241800Z 34005KT 7000 +DZ FEW020 BKN110 25/24 A2994=
202107241900 METAR MRLM 241900Z 26007KT 9999 -DZ FEW020 BKN120 24/24 A2986=
202107242000 METAR MRLM 242000Z 33004KT CAVOK 25/24 A2990=
202107242100 METAR MRLM 242100Z 28007KT 9999 FEW020 SCT140 BKN240 26/24 A2987=
202107242200 METAR MRLM 242200Z 25003KT 9999 FEW020 BKN240 26/24 A2987=
202107242300 METAR MRLM NIL=
202107250000 METAR MRLM NIL=
202107250100 METAR MRLM NIL=
202107250200 METAR MRLM NIL=
202107250300 METAR MRLM NIL=
202107250400 METAR MRLM NIL=
202107250500 METAR MRLM NIL=
202107250600 METAR MRLM NIL=
202107250700 METAR MRLM NIL=
202107250800 METAR MRLM NIL=
202107250900 METAR MRLM NIL=
202107251000 METAR MRLM NIL=
202107251100 METAR MRLM NIL=
202107251200 METAR MRLM 251200Z 25005KT 9999 FEW020 BKN100 24/23 A2990=
202107251300 METAR MRLM 251300Z 00000KT 9999 FEW020 BKN100 24/23 A2992=
202107251400 METAR MRLM 251400Z 21004KT 9999 SCT020 BKN100 24/23 A2994=
202107251500 METAR MRLM 251500Z 00000KT 9999 4000N DZ FEW020 BKN110 24/23 A2995=
202107251600 METAR MRLM 251600Z 28003KT 9999 FEW015 SCT120 BKN240 25/23 A2994 REDZ=
202107251700 METAR MRLM 251700Z 24006KT 9999 FEW015 BKN130 25/24 A2991=
202107251800 METAR MRLM 251800Z 29005KT CAVOK 28/24 A2989=
202107251900 METAR MRLM 251900Z 30007KT CAVOK 29/25 A2987=
202107252000 METAR MRLM 252000Z 36009KT 9999 FEW030 SCT150 BKN250 30/25 A2986=
202107252100 METAR MRLM 252100Z 36009KT CAVOK 29/25 A2984=
202107252200 METAR MRLM 252200Z 36009KT CAVOK 29/25 A2984=
202107252300 METAR MRLM NIL=
202107260000 METAR MRLM NIL=
202107260100 METAR MRLM NIL=
202107260200 METAR MRLM NIL=
202107260300 METAR MRLM NIL=
202107260400 METAR MRLM NIL=
202107260500 METAR MRLM NIL=
202107260600 METAR MRLM NIL=
202107260700 METAR MRLM NIL=
202107260800 METAR MRLM NIL=
202107260900 METAR MRLM NIL=
202107261000 METAR MRLM NIL=
202107261100 METAR MRLM NIL=
202107261200 METAR MRLM 261200Z 00000KT 8000 DZ FEW015 BKN100 24/23 A2989=
202107261300 METAR MRLM 261300Z 28003KT 8000 DZ FEW015 BKN100 24/23 A2990=
202107261400 METAR MRLM 261400Z 27003KT 9999 FEW015 BKN120 24/24 A2990=
202107261500 METAR MRLM 261500Z 24003KT 9999 FEW015 BKN130 25/24 A2991=
202107261600 METAR MRLM 261600Z 26005KT CAVOK 26/24 A2991=
202107261700 METAR MRLM 261700Z 26003KT CAVOK 28/24 A2990=
202107261800 METAR MRLM 261800Z 24006KT CAVOK 28/24 A2988=
202107261900 METAR MRLM 261900Z 33007KT CAVOK 28/25 A2987=
202107262000 METAR MRLM 262000Z 33008KT CAVOK 28/25 A2986=
202107262100 METAR MRLM 262100Z 32008KT 9999 FEW020 BKN130 28/24 A2996=
202107262200 METAR MRLM NIL=
202107262300 METAR MRLM NIL=
202107270000 METAR MRLM NIL=
202107270100 METAR MRLM NIL=
202107270200 METAR MRLM NIL=
202107270300 METAR MRLM NIL=
202107270400 METAR MRLM NIL=
202107270500 METAR MRLM NIL=
202107270600 METAR MRLM NIL=
202107270700 METAR MRLM NIL=
202107270800 METAR MRLM NIL=
202107270900 METAR MRLM NIL=
202107271000 METAR MRLM NIL=
202107271100 METAR MRLM NIL=
202107271200 METAR MRLM 271200Z 00000KT CAVOK 23/22 A2990=
202107271300 METAR MRLM 271300Z 00000KT CAVOK 23/23 A2993=
202107271400 METAR MRLM 271400Z 00000KT CAVOK 26/23 A2994=
202107271500 METAR MRLM 271500Z 11004KT CAVOK 27/23 A2994=
202107271600 METAR MRLM 271600Z 06004KT CAVOK 28/23 A2994=
202107271700 METAR MRLM 271700Z 06007KT CAVOK 29/23 A2993=
202107271800 METAR MRLM 271800Z 05005KT CAVOK 28/23 A2992=
202107271900 METAR MRLM 271900Z 04008KT CAVOK 29/24 A2991=
202107272000 METAR MRLM 272000Z 02007KT 9999 FEW030 SCT130 BKN240 29/24 A2989=
202107272100 METAR MRLM 272100Z 03006KT 9999 FEW030 SCT130 BKN240 29/24 A2988=
202107272200 METAR MRLM 272200Z 05003KT 9999 -DZ FEW030 BKN130 28/24 A2987=
202107272300 METAR MRLM NIL=
202107280000 METAR MRLM NIL=
202107280100 METAR MRLM NIL=
202107280200 METAR MRLM NIL=
202107280300 METAR MRLM NIL=
202107280400 METAR MRLM NIL=
202107280500 METAR MRLM NIL=
202107280600 METAR MRLM NIL=
202107280700 METAR MRLM NIL=
202107280800 METAR MRLM NIL=
202107280900 METAR MRLM NIL=
202107281000 METAR MRLM NIL=
202107281100 METAR MRLM NIL=
202107281200 METAR MRLM 281200Z 25003KT 9999 FEW030 23/22 A2987=
202107281300 METAR MRLM 281300Z 24005KT CAVOK 24/23 A2989=
202107281400 METAR MRLM 281400Z 24006KT CAVOK 26/24 A2990=
202107281500 METAR MRLM 281500Z 31004KT CAVOK 28/24 A2992=
202107281600 METAR MRLM 281600Z 30006KT 9999 FEW030 SCT250 30/23 A2990=
202107281700 METAR MRLM 281700Z 02010KT 9999 FEW030 SCT250 BKN240 30/25 A2998=
202107281800 METAR MRLM 281800Z 02009KT 9999 FEW030 BKN240 30/25 A2986=
202107281900 METAR MRLM 281900Z 03006KT CAVOK 30/24 A2982=
202107282000 METAR MRLM 282000Z 03009KT CAVOK 29/25 A2982=
202107282100 METAR MRLM 282100Z 03006KT 9999 FEW030 BKN130 29/25 A2980=
202107282200 METAR MRLM 282200Z 02003KT 9999 SCT030 SCT130 28/29 A2979=
202107282300 METAR MRLM NIL=
202107290000 METAR MRLM NIL=
202107290100 METAR MRLM NIL=
202107290200 METAR MRLM NIL=
202107290300 METAR MRLM NIL=
202107290400 METAR MRLM NIL=
202107290500 METAR MRLM NIL=
202107290600 METAR MRLM NIL=
202107290700 METAR MRLM NIL=
202107290800 METAR MRLM NIL=
202107290900 METAR MRLM NIL=
202107291000 METAR MRLM NIL=
202107291100 METAR MRLM NIL=
202107291200 METAR MRLM 291200Z 22005KT 9999 FEW015 SCT130 BKN250 23/22 A2991=
202107291300 METAR MRLM NIL=
202107291400 METAR MRLM NIL=
202107291500 METAR MRLM NIL=
202107291600 METAR MRLM NIL=
202107291700 METAR MRLM NIL=
202107291800 METAR MRLM NIL=
202107291900 METAR MRLM NIL=
202107292000 METAR MRLM NIL=
202107292100 METAR MRLM NIL=
202107292200 METAR MRLM NIL=
202107292300 METAR MRLM NIL=
202107300000 METAR MRLM NIL=
202107300100 METAR MRLM NIL=
202107300200 METAR MRLM NIL=
202107300300 METAR MRLM NIL=
202107300400 METAR MRLM NIL=
202107300500 METAR MRLM NIL=
202107300600 METAR MRLM NIL=
202107300700 METAR MRLM NIL=
202107300800 METAR MRLM NIL=
202107300900 METAR MRLM NIL=
202107301000 METAR MRLM NIL=
202107301100 METAR MRLM NIL=
202107301200 METAR MRLM 301200Z 22005KT 9999 FEW015 SCT130 BKN250 23/22 A2991=
202107301300 METAR MRLM 301300Z 24004KT 9999 FEW020 SCT130 24/23 A2993=
202107301400 METAR MRLM 301400Z 23003KT CAVOK 25/23 A2993=
202107301500 METAR MRLM 301500Z 21003KT CAVOK 28/23 A2994=
202107301600 METAR MRLM 301600Z 05004KT 9999 FEW030 SCT140 30/24 A2991=
202107301700 METAR MRLM 301700Z 04007KT 9999 FEW030 BKN140 29/24 A2990=
202107301800 METAR MRLM 301800Z 06008KT CAVOK 30/24 A2989=
202107301900 METAR MRLM 301900Z 06005KT CAVOK 30/23 A2985=
202107302000 METAR MRLM 302000Z 04007KT 9999 FEW030 BKN130 30/23 A2983=
202107302100 METAR MRLM 302100Z 02007KT CAVOK 30/24 A2983=
202107302200 METAR MRLM 302200Z 01005KT CAVOK 30/24 A2983=
202107302300 METAR MRLM NIL=
202107310000 METAR MRLM NIL=
202107310100 METAR MRLM NIL=
202107310200 METAR MRLM NIL=
202107310300 METAR MRLM NIL=
202107310400 METAR MRLM NIL=
202107310500 METAR MRLM NIL=
202107310600 METAR MRLM NIL=
202107310700 METAR MRLM NIL=
202107310800 METAR MRLM NIL=
202107310900 METAR MRLM NIL=
202107311000 METAR MRLM NIL=
202107311100 METAR MRLM NIL=
202107311200 METAR MRLM 311200Z 23003KT CAVOK 24/23 A2988=
202107311300 METAR MRLM 311300Z 21004KT CAVOK 26/24 A2989=
202107311400 METAR MRLM 311400Z 00000KT CAVOK 29/24 A2989=
202107311500 METAR MRLM 311500Z 07004KT CAVOK 29/25 A2990=
202107311600 METAR MRLM 311600Z 04008KT CAVOK 29/25 A2990=
202107311700 METAR MRLM 311700Z 02007KT CAVOK 29/25 A2990=
202107311800 METAR MRLM 311800Z 01005KT 9999 FEW030 SCT250 30/25 A2988=
202107311900 METAR MRLM 311900Z 01008KT 9999 FEW030 SCT250 30/25 A2986=
202107312000 METAR MRLM 312000Z 01007KT CAVOK 31/25 A2983=
202107312100 METAR MRLM 312100Z 01008KT CAVOK 31/25 A2982=
202107312200 METAR MRLM 312200Z 36008KT CAVOK 30/25 A2983=
202107312300 METAR MRLM NIL=
202108010000 METAR MRLM NIL=
202108010100 METAR MRLM NIL=
202108010200 METAR MRLM NIL=
202108010300 METAR MRLM NIL=
202108010400 METAR MRLM NIL=
202108010500 METAR MRLM NIL=
202108010600 METAR MRLM NIL=
202108010700 METAR MRLM NIL=
202108010800 METAR MRLM NIL=
202108010900 METAR MRLM NIL=
202108011000 METAR MRLM NIL=
202108011100 METAR MRLM NIL=
202108011200 METAR MRLM 011200Z 20003KT 8000 DZ VCSH FEW006TCU SCT010 OVC070 24/24 A2990=
202108011300 METAR MRLM 011300Z 24004KT 8000 HZ VCSH FEW006TCU SCT010 OVC070 25/24 A2993=
202108011400 METAR MRLM 011400Z 20005KT 9000 -DZ FEW010 OVC080 25/25 A2993=
202108011500 METAR MRLM 011500Z 21004KT 9999 SCT010 OVC080 26/25 A2993 REDZ=
202108011600 METAR MRLM 011600Z 23004KT 9999 VCSH FEW010TCU SCT015 OVC080 27/25 A2993=
202108011700 METAR MRLM 011700Z 19003KT 9999 FEW015 OVC100 29/26 A2992=
202108011800 METAR MRLM 011800Z 10003KT 9999 FEW020TCU OVC200 30/25 A2990=
202108011900 METAR MRLM 011900Z 06004KT 8000 DZ SCT020 OVC120 28/25 A2990=
202108012000 METAR MRLM 012000Z 09003KT 9999 SCT020 BKN120 29/25 A2988=
202108012100 METAR MRLM 012100Z 01003KT 9999 VCSH FEW015TCU SCT020 BKN120 29/25 A2986=
202108012200 METAR MRLM 012200Z 35007KT 9999 VCSH FEW015TCU SCT020 BKN120 29/25 A2985=
202108012300 METAR MRLM 012300Z 29002KT 9999 VCSH FEW010TCU SCT015 BKN100 28/25 A2987=
202108020000 METAR MRLM 020000Z 25005KT 9999 VCSH SCT010TCU BKN090 26/25 A2987=
202108020100 METAR MRLM NIL=
202108020200 METAR MRLM NIL=
202108020300 METAR MRLM NIL=
202108020400 METAR MRLM NIL=
202108020500 METAR MRLM NIL=
202108020600 METAR MRLM NIL=
202108020700 METAR MRLM NIL=
202108020800 METAR MRLM NIL=
202108020900 METAR MRLM NIL=
202108021000 METAR MRLM NIL=
202108021100 METAR MRLM NIL=
202108021200 METAR MRLM 021200Z 27003KT 9999 FEW015TCU BKN200 24/23 A2987=
202108021300 METAR MRLM 021300Z 29002KT 9999 FEW015 BKN200 26/24 A2989=
202108021400 METAR MRLM 021400Z 28004KT 9999 FEW015 SCT100 BKN200 26/23 A2991=
202108021500 METAR MRLM 021500Z 27004KT 9999 FEW020 BKN120 27/24 A2991=
202108021600 METAR MRLM 021600Z 32003KT 9999 FEW020 BKN120 28/24 A2991=
202108021700 METAR MRLM 021700Z 32004KT 9999 FEW020 BKN120 28/25 A2989=
202108021800 METAR MRLM 021800Z 32005KT 9999 FEW020 BKN120 28/25 A2989=
202108021900 METAR MRLM 021900Z 32005KT 9999 FEW020 BKN120 28/25 A2987=
202108022000 METAR MRLM 022000Z 34007KT 9999 SCT020 OVC120 28/25 A2985=
202108022100 METAR MRLM 022100Z 31004KT 9999 SCT020 OVC120 28/25 A2985=
202108022200 METAR MRLM 022200Z 01004KT 9999 FEW020 OVC120 27/24 A2984=
202108022300 METAR MRLM 022300Z 23002KT CAVOK 27/25 A2983=
202108030000 METAR MRLM 030000Z 34002KT CAVOK 27/25 A2985=
202108030100 METAR MRLM NIL=
202108030200 METAR MRLM NIL=
202108030300 METAR MRLM NIL=
202108030400 METAR MRLM NIL=
202108030500 METAR MRLM NIL=
202108030600 METAR MRLM NIL=
202108030700 METAR MRLM NIL=
202108030800 METAR MRLM NIL=
202108030900 METAR MRLM NIL=
202108031000 METAR MRLM NIL=
202108031100 METAR MRLM NIL=
202108031200 METAR MRLM 031200Z 26003KT 9999 FEW015TCU SCT100 BKN200 24/24 A2990=
202108031300 METAR MRLM 031300Z 24003KT 9999 FEW015 SCT100 BKN200 25/24 A2992=
202108031400 METAR MRLM 031400Z 23003KT 9999 FEW015 SCT100 BKN200 26/25 A2994=
202108031500 METAR MRLM 031500Z 00000KT 9999 VCSH FEW010TCU SCT015 OVC100 27/25 A2995=
202108031600 METAR MRLM 031600Z 04010KT 4000 -RA SCT010 OVC070 26/24 A2996=
202108031700 METAR MRLM 031700Z 06003KT 8000 DZ VCTS FEW007CB SCT010 OVC070 25/24 A2995 RERA=
202108031800 METAR MRLM 031800Z 23003KT 9999 -DZ FEW015 OVC090 26/25 A2991=
202108031900 METAR MRLM 031900Z 26002KT 9999 -DZ FEW015 OVC090 26/25 A2989=
202108032000 METAR MRLM 032000Z 04003KT 9999 -DZ FEW015 OVC090 26/25 A2990=
202108032100 METAR MRLM 032100Z 35005KT 9999 SCT020 OVC110 27/25 A2988=
202108032200 METAR MRLM 032200Z 30004KT 9999 FEW020 OVC200 27/25 A2986=
202108032300 METAR MRLM NIL=
202108040000 METAR MRLM NIL=
202108040100 METAR MRLM NIL=
202108040200 METAR MRLM NIL=
202108040300 METAR MRLM NIL=
202108040400 METAR MRLM NIL=
202108040500 METAR MRLM NIL=
202108040600 METAR MRLM NIL=
202108040700 METAR MRLM NIL=
202108040800 METAR MRLM NIL=
202108040900 METAR MRLM NIL=
202108041000 METAR MRLM NIL=
202108041100 METAR MRLM NIL=
202108041200 METAR MRLM 041200Z 22004KT 9999 +DZ SCT015 OVC100 24/23 A2994=
202108041300 METAR MRLM 041300Z 00000KT 9999 DZ SCT015 OVC100 24/23 A2995=
202108041400 METAR MRLM 041400Z 26003KT 9999 DZ FEW015 OVC100 24/24 A2997=
202108041500 METAR MRLM 041500Z 26004KT 9999 -DZ FEW020 BKN120 25/24 A2997=
202108041600 METAR MRLM 041600Z 09002KT CAVOK 28/24 A2996=
202108041700 METAR MRLM 041700Z 04004KT CAVOK 29/24 A2993=
202108041800 METAR MRLM 041800Z 05006KT CAVOK 29/24 A2991=
202108041900 METAR MRLM 041900Z 06007KT CAVOK 29/24 A2990=
202108042000 METAR MRLM 042000Z 07007KT CAVOK 29/25 A2988=
202108042100 METAR MRLM 042100Z 06006KT 9999 FEW025 BKN240 30/24 A2989=
202108042200 METAR MRLM 042200Z 08003KT 9999 FEW025 BKN120 29/24 A2988=
202108042300 METAR MRLM NIL=
202108050000 METAR MRLM NIL=
202108050100 METAR MRLM NIL=
202108050200 METAR MRLM NIL=
202108050300 METAR MRLM NIL=
202108050400 METAR MRLM NIL=
202108050500 METAR MRLM NIL=
202108050600 METAR MRLM NIL=
202108050700 METAR MRLM NIL=
202108050800 METAR MRLM NIL=
202108050900 METAR MRLM NIL=
202108051000 METAR MRLM NIL=
202108051100 METAR MRLM NIL=
202108051200 METAR MRLM 051200Z 26005KT CAVOK 24/23 A2993=
202108051300 METAR MRLM 051300Z 23003KT CAVOK 26/24 A2995=
202108051400 METAR MRLM 051400Z 02002KT 9999 FEW020 29/25 A2997=
202108051500 METAR MRLM 051500Z 04004KT 9999 FEW020 30/24 A2996=
202108051600 METAR MRLM 051600Z 03007KT CAVOK 30/25 A2997=
202108051700 METAR MRLM 051700Z 04006KT CAVOK 30/25 A2996=
202108051800 METAR MRLM 051800Z 04006KT CAVOK 30/25 A2993=
202108051900 METAR MRLM 051900Z 04006KT 9999 FEW030 30/25 A2990=
202108052000 METAR MRLM 052000Z 04006KT 9999 SCT030 30/26 A2987=
202108052100 METAR MRLM 052100Z 02006KT 9999 SCT030 SCT240 30/25 A2986=
202108052200 METAR MRLM 052200Z 04006KT 9999 SCT030 SCT240 30/25 A2987=
202108052300 METAR MRLM NIL=
202108060000 METAR MRLM NIL=
202108060100 METAR MRLM NIL=
202108060200 METAR MRLM NIL=
202108060300 METAR MRLM NIL=
202108060400 METAR MRLM NIL=
202108060500 METAR MRLM NIL=
202108060600 METAR MRLM NIL=
202108060700 METAR MRLM NIL=
202108060800 METAR MRLM NIL=
202108060900 METAR MRLM NIL=
202108061000 METAR MRLM NIL=
202108061100 METAR MRLM NIL=
202108061200 METAR MRLM 061200Z 23005KT 9999 VCSH FEW015TCU SCT100 BKN200 24/23 A2992=
202108061300 METAR MRLM 061300Z 00000KT 9999 DZ FEW015TCU BKN100 24/23 A2993=
202108061400 METAR MRLM 061400Z 20003KT 9999 DZ SCT015 OVC100 24/24 A2997=
202108061500 METAR MRLM 061500Z 17004KT 9999 SCT015 OVC100 26/24 A2999 REDZ=
202108061600 METAR MRLM 061600Z 22003KT 9999 DZ VCTS FEW010CB FEW015 OVC100 26/25 A3000=
202108061700 METAR MRLM 061700Z 16006KT 8000 +DZ FEW010 OVC080 24/23 A2998=
202108061800 METAR MRLM 061800Z 00000KT 9999 DZ FEW010TCU OVC080 25/24 A2998=
202108061900 METAR MRLM 061900Z 26002KT 9999 -DZ SCT010 OVC090 26/24 A2994=
202108062000 METAR MRLM 062000Z 30009KT 9999 FEW015 BKN100 26/24 A2987=
202108062100 METAR MRLM 062100Z 27005KT 9999 FEW020 SCT100 BKN200 27/24 A2989=
202108062200 METAR MRLM 062200Z 31004KT 9999 FEW020 SCT100 BKN200 27/24 A2989=
202108062300 METAR MRLM NIL=
202108070000 METAR MRLM NIL=
202108070100 METAR MRLM NIL=
202108070200 METAR MRLM NIL=
202108070300 METAR MRLM NIL=
202108070400 METAR MRLM NIL=
202108070500 METAR MRLM NIL=
202108070600 METAR MRLM NIL=
202108070700 METAR MRLM NIL=
202108070800 METAR MRLM NIL=
202108070900 METAR MRLM NIL=
202108071000 METAR MRLM NIL=
202108071100 METAR MRLM NIL=
202108071200 METAR MRLM 071200Z 23003KT 9999 VCSH FEW015TCU SCT100 BKN200 23/23 A2992=
202108071300 METAR MRLM 071300Z 24002KT 9999 VCSH FEW015TCU SCT100 BKN200 24/23 A2995=
202108071400 METAR MRLM 071400Z 25003KT 9999 FEW015 BKN200 25/24 A2995=
202108071500 METAR MRLM 071500Z 30005KT 9999 FEW020 BKN220 27/23 A2995=
202108071600 METAR MRLM 071600Z 31004KT 9999 FEW020 SCT120 BKN220 28/24 A2997=
202108071700 METAR MRLM 071700Z 03005KT 9999 VCSH FEW010TCU SCT015 OVC120 27/23 A2998=
202108071800 METAR MRLM 071800Z 08009KT 9999 +DZ FEW015 OVC090 25/24 A2997 RERA=
202108071900 METAR MRLM 071900Z 22004KT 9999 -DZ SCT015 OVC090 25/24 A2995=
202108072000 METAR MRLM 072000Z 17002KT 9999 SCT015 OVC110 26/24 A2991 REDZ=
202108072100 METAR MRLM 072100Z 17003KT 9999 FEW020 OVC110 26/24 A2990=
202108072200 METAR MRLM 072200Z 22002KT 9999 FEW020 OVC110 27/23 A2990=
202108072300 METAR MRLM NIL=
202108080000 METAR MRLM NIL=
202108080100 METAR MRLM NIL=
202108080200 METAR MRLM NIL=
202108080300 METAR MRLM NIL=
202108080400 METAR MRLM NIL=
202108080500 METAR MRLM NIL=
202108080600 METAR MRLM NIL=
202108080700 METAR MRLM NIL=
202108080800 METAR MRLM NIL=
202108080900 METAR MRLM NIL=
202108081000 METAR MRLM NIL=
202108081100 METAR MRLM NIL=
202108081200 METAR MRLM 081200Z 24005KT CAVOK 23/22 A2989=
202108081300 METAR MRLM 081300Z 23004KT CAVOK 25/23 A2991=
202108081400 METAR MRLM 081400Z 08002KT CAVOK 27/23 A2994=
202108081500 METAR MRLM 081500Z 12004KT 9999 FEW020 BKN120 27/24 A2995=
202108081600 METAR MRLM 081600Z 11005KT 9999 FEW020 OVC120 28/24 A2996=
202108081700 METAR MRLM 081700Z 06011KT 9999 SCT015 OVC100 27/25 A2998=
202108081800 METAR MRLM 081800Z 05006KT 9999 SCT015 OVC100 26/24 A2996=
202108081900 METAR MRLM 081900Z 04002KT 9999 SCT020 OVC100 27/24 A2994=
202108082000 METAR MRLM 082000Z 02005KT 9999 SCT020 OVC120 28/24 A2992=
202108082100 METAR MRLM 082100Z 02005KT 9999 SCT020 OVC120 28/24 A2991=
202108082200 METAR MRLM 082200Z 32005KT 9999 FEW020 SCT120 BKN220 27/24 A2990=
202108082300 METAR MRLM NIL=
202108090000 METAR MRLM NIL=
202108090100 METAR MRLM NIL=
202108090200 METAR MRLM NIL=
202108090300 METAR MRLM NIL=
202108090400 METAR MRLM NIL=
202108090500 METAR MRLM NIL=
202108090600 METAR MRLM NIL=
202108090700 METAR MRLM NIL=
202108090800 METAR MRLM NIL=
202108090900 METAR MRLM NIL=
202108091000 METAR MRLM NIL=
202108091100 METAR MRLM NIL=
202108091200 METAR MRLM 091200Z 22005KT 9999 FEW015 SCT200 23/22 A2994=
202108091300 METAR MRLM 091300Z 23004KT 9999 FEW020 SCT200 26/24 A2995=
202108091400 METAR MRLM 091400Z 27002KT 9999 FEW020 SCT220 28/23 A2995=
202108091500 METAR MRLM 091500Z 03004KT 9999 FEW020 SCT220 29/24 A2995=
202108091600 METAR MRLM 091600Z 05005KT 9999 FEW030 BKN220 30/23 A2996=
202108091700 METAR MRLM 091700Z 05004KT CAVOK 29/24 A2997=
202108091800 METAR MRLM 091800Z 06003KT 9999 FEW030 BKN240 29/24 A2994=
202108091900 METAR MRLM 091900Z 03006KT 9999 FEW030 BKN240 30/24 A2992=
202108092000 METAR MRLM 092000Z 04006KT 9999 FEW030 BKN240 30/24 A2990=
202108092100 METAR MRLM 092100Z 04006KT 9999 FEW030 BKN240 29/24 A2988=
202108092200 METAR MRLM 092200Z 36005KT 9999 FEW030 BKN240 29/24 A2987=
202108092300 METAR MRLM NIL=
202108100000 METAR MRLM NIL=
202108100100 METAR MRLM NIL=
202108100200 METAR MRLM NIL=
202108100300 METAR MRLM NIL=
202108100400 METAR MRLM NIL=
202108100500 METAR MRLM NIL=
202108100600 METAR MRLM NIL=
202108100700 METAR MRLM NIL=
202108100800 METAR MRLM NIL=
202108100900 METAR MRLM NIL=
202108101000 METAR MRLM NIL=
202108101100 METAR MRLM NIL=
202108101200 METAR MRLM 101200Z 25006KT 9999 -DZ SCT015 OVC090 23/22 A2991=
202108101300 METAR MRLM 101300Z 25004KT 9999 -DZ VCSH FEW010TCU SCT015 OVC090 23/22 A2993=
202108101400 METAR MRLM 101400Z 00000KT 9999 DZ SCT015 OVC090 24/23 A2995=
202108101500 METAR MRLM 101500Z 22006KT 9999 FEW015 BKN090 25/23 A2995=
202108101600 METAR MRLM 101600Z 27004KT 9999 DZ VCSH FEW010TCU SCT015 OVC100 25/24 A2996=
202108101700 METAR MRLM 101700Z 25004KT 9999 FEW020 BKN120 26/24 A2995 REDZ=
202108101800 METAR MRLM 101800Z 23003KT 9999 FEW020 BKN120 29/23 A2993=
202108101900 METAR MRLM 101900Z 14003KT 9999 FEW020TCU SCT120 BKN220 30/24 A2990=
202108102000 METAR MRLM 102000Z 06005KT 9999 FEW020 SCT120 BKN220 29/24 A2988=
202108102100 METAR MRLM 102100Z 07004KT 9999 FEW020 BKN220 29/24 A2986=
202108102200 METAR MRLM 102200Z 09005KT CAVOK 29/24 A2985=
202108102300 METAR MRLM NIL=
202108110000 METAR MRLM NIL=
202108110100 METAR MRLM NIL=
202108110200 METAR MRLM NIL=
202108110300 METAR MRLM NIL=
202108110400 METAR MRLM NIL=
202108110500 METAR MRLM NIL=
202108110600 METAR MRLM NIL=
202108110700 METAR MRLM NIL=
202108110800 METAR MRLM NIL=
202108110900 METAR MRLM NIL=
202108111000 METAR MRLM NIL=
202108111100 METAR MRLM NIL=
202108111200 METAR MRLM 111200Z 22005KT CAVOK 22/21 A2989=
202108111300 METAR MRLM 111300Z 22004KT CAVOK 25/22 A2991=
202108111400 METAR MRLM 111400Z 24003KT CAVOK 29/23 A2992=
202108111500 METAR MRLM 111500Z 05003KT 9999 FEW030 SCT250 30/23 A2993=
202108111600 METAR MRLM 111600Z 05004KT CAVOK 29/23 A2993=
202108111700 METAR MRLM 111700Z 02006KT CAVOK 29/23 A2994=
202108111800 METAR MRLM 111800Z 29004KT CAVOK 30/24 A2990=
202108111900 METAR MRLM 111900Z 36008KT CAVOK 30/24 A2988=
202108112000 METAR MRLM 112000Z 36010KT CAVOK 29/25 A2987=
202108112100 METAR MRLM 112100Z 36011KT 9999 SCT030 BKN130 29/25 A2986=
202108112200 METAR MRLM 112200Z 36008KT 9999 BKN025 29/25 A2986=
202108112300 METAR MRLM 112300Z 32007KT 9999 BKN020 27/24 A2988=
202108120000 METAR MRLM 120000Z 32006KT 9999 BKN020 27/25 A2990=
202108120100 METAR MRLM NIL=
202108120200 METAR MRLM NIL=
202108120300 METAR MRLM NIL=
202108120400 METAR MRLM NIL=
202108120500 METAR MRLM NIL=
202108120600 METAR MRLM NIL=
202108120700 METAR MRLM NIL=
202108120800 METAR MRLM NIL=
202108120900 METAR MRLM NIL=
202108121000 METAR MRLM NIL=
202108121100 METAR MRLM NIL=
202108121200 METAR MRLM 121200Z 00000KT CAVOK 23/22 A2991=
202108121300 METAR MRLM 121300Z 00000KT CAVOK 24/22 A2993=
202108121400 METAR MRLM 121400Z 00000KT 9999 FEW020 BKN130 26/23 A2995=
202108121500 METAR MRLM 121500Z 29005KT CAVOK 30/23 A2994=
202108121600 METAR MRLM 121600Z 33007KT CAVOK 30/23 A2995=
202108121700 METAR MRLM 121700Z 33007KT CAVOK 31/24 A2995=
202108121800 METAR MRLM 121800Z 36011KT 9999 FEW030 SCT250 30/25 A2993=
202108121900 METAR MRLM 121900Z 36009KT 9999 FEW030 SCT250 30/25 A2990=
202108122000 METAR MRLM 122000Z 36011KT 9999 FEW030 SCT250 29/26 A2988=
202108122100 METAR MRLM 122100Z 35009KT 9999 FEW025 SCT240 29/25 A2988=
202108122200 METAR MRLM 122200Z 32004KT 9999 BKN025 29/25 A2987=
202108122300 METAR MRLM 122300Z 00000KT 9999 BKN020 28/25 A2989=
202108130000 METAR MRLM 130000Z 32004KT 9999 BKN020 28/24 A2990=
202108130100 METAR MRLM NIL=
202108130200 METAR MRLM NIL=
202108130300 METAR MRLM NIL=
202108130400 METAR MRLM NIL=
202108130500 METAR MRLM NIL=
202108130600 METAR MRLM NIL=
202108130700 METAR MRLM NIL=
202108130800 METAR MRLM NIL=
202108130900 METAR MRLM NIL=
202108131000 METAR MRLM NIL=
202108131100 METAR MRLM NIL=
202108131200 METAR MRLM 131200Z 29004KT 9999 -DZ VCSH FEW015TCU BKN100 24/23 A2993=
202108131300 METAR MRLM 131300Z 24002KT 9999 -DZ FEW015 BKN100 25/24 A2995=
202108131400 METAR MRLM 131400Z 31002KT 9999 FEW020 SCT100 BKN200 27/24 A2997=
202108131500 METAR MRLM 131500Z 29006KT 9999 FEW020 BKN220 29/24 A2997=
202108131600 METAR MRLM 131600Z 33009KT 9999 FEW015TCU SCT020 BKN220 28/24 A2998=
202108131700 METAR MRLM 131700Z 36008KT 9999 FEW025 BKN220 29/24 A2997=
202108131800 METAR MRLM 131800Z 30006KT CAVOK 29/23 A2995=
202108131900 METAR MRLM 131900Z 35007KT CAVOK 30/23 A2992=
202108132000 METAR MRLM 132000Z 36009KT CAVOK 30/25 A2991=
202108132100 METAR MRLM 132100Z 35008KT CAVOK 29/24 A2990=
202108132200 METAR MRLM 132200Z 34004KT 9999 FEW025 BKN220 29/24 A2989=
202108132300 METAR MRLM 132300Z 00000KT 9999 FEW020 BKN220 29/24 A2991=
202108140000 METAR MRLM 140000Z 24002KT 9999 FEW020 BKN200 27/25 A2992=
202108140100 METAR MRLM NIL=
202108140200 METAR MRLM NIL=
202108140300 METAR MRLM NIL=
202108140400 METAR MRLM NIL=
202108140500 METAR MRLM NIL=
202108140600 METAR MRLM NIL=
202108140700 METAR MRLM NIL=
202108140800 METAR MRLM NIL=
202108140900 METAR MRLM NIL=
202108141000 METAR MRLM NIL=
202108141100 METAR MRLM NIL=
202108141200 METAR MRLM 141200Z 23005KT CAVOK 23/22 A2994=
202108141300 METAR MRLM 141300Z 24003KT CAVOK 26/23 A2995=
202108141400 METAR MRLM 141400Z 26003KT CAVOK 27/24 A2996=
202108141500 METAR MRLM 141500Z 26003KT 9999 FEW020 BKN120 29/23 A2996=
202108141600 METAR MRLM 141600Z 23004KT 9999 FEW020 BKN120 30/24 A2995=
202108141700 METAR MRLM 141700Z 02007KT 9999 FEW020 SCT120 BKN220 29/25 A2995=
202108141800 METAR MRLM 141800Z 02008KT 9999 FEW025 SCT120 BKN220 29/25 A2992=
202108141900 METAR MRLM 141900Z 04003KT CAVOK 29/25 A2990=
202108142000 METAR MRLM 142000Z 02005KT CAVOK 30/24 A2987=
202108142100 METAR MRLM 142100Z 01009KT CAVOK 30/24 A2986=
202108142200 METAR MRLM 142200Z 02005KT CAVOK 29/24 A2984=
202108142300 METAR MRLM 142300Z 02005KT 9999 FEW020TCU SCT220 28/25 A2987=
202108150000 METAR MRLM 150000Z 36004KT 9999 FEW020 SCT220 28/25 A2988=
202108150100 METAR MRLM NIL=
202108150200 METAR MRLM NIL=
202108150300 METAR MRLM NIL=
202108150400 METAR MRLM NIL=
202108150500 METAR MRLM NIL=
202108150600 METAR MRLM NIL=
202108150700 METAR MRLM NIL=
202108150800 METAR MRLM NIL=
202108150900 METAR MRLM NIL=
202108151000 METAR MRLM NIL=
202108151100 METAR MRLM NIL=
202108151200 METAR MRLM 151200Z 23003KT 9999 FEW010 BKN130 24/23 A2988=
202108151300 METAR MRLM 151300Z 22004KT CAVOK 25/23 A2990=
202108151400 METAR MRLM 151400Z 29003KT CAVOK 27/23 A2991=
202108151500 METAR MRLM 151500Z 00000KT 9999 FEW030 SCT130 BKN240 28/24 A2993=
202108151600 METAR MRLM 151600Z 00000KT 9999 FEW030 SCT130 BKN240 29/23 A2993=
202108151700 METAR MRLM 151700Z 01009KT 9999 FEW030 BKN130 29/24 A2993=
202108151800 METAR MRLM 151800Z 01005KT 9999 FEW030 BKN130 29/24 A2990=
202108151900 METAR MRLM 151900Z 01009KT 9999 SCT030 BKN130 29/25 A2987=
202108152000 METAR MRLM 152000Z 02007KT CAVOK 29/24 A2985=
202108152100 METAR MRLM 152100Z 02006KT CAVOK 29/24 A2985=
202108152200 METAR MRLM 152200Z 05006KT CAVOK 29/24 A2984=
202108152300 METAR MRLM 152300Z 05006KT 9999 FEW030 BKN140 29/24 A2987=
202108160000 METAR MRLM 160000Z 09003KT 9999 FEW025 BKN130 28/24 A2987=
202108160100 METAR MRLM NIL=
202108160200 METAR MRLM NIL=
202108160300 METAR MRLM NIL=
202108160400 METAR MRLM NIL=
202108160500 METAR MRLM NIL=
202108160600 METAR MRLM NIL=
202108160700 METAR MRLM NIL=
202108160800 METAR MRLM NIL=
202108160900 METAR MRLM NIL=
202108161000 METAR MRLM NIL=
202108161100 METAR MRLM NIL=
202108161200 METAR MRLM 161200Z 23004KT 9999 SCT020 BKN110 23/22 A2987=
202108161300 METAR MRLM 161300Z 00000KT 9999 -DZ FEW010 BKN110 23/22 A2991=
202108161400 METAR MRLM 161400Z 00000KT CAVOK 24/23 A2992=
202108161500 METAR MRLM 161500Z 21004KT 9999 DZ FEW015 BKN130 24/23 A2994=
202108161600 METAR MRLM 161600Z 22003KT 9999 FEW015 BKN130 24/23 A2993 REDZ=
202108161700 METAR MRLM 161700Z 17003KT CAVOK 25/24 A2992=
202108161800 METAR MRLM 161800Z 20004KT CAVOK 27/24 A2990=
202108161900 METAR MRLM 161900Z 21003KT CAVOK 28/23 A2987=
202108162000 METAR MRLM 162000Z 12004KT CAVOK 29/21 A2983=
202108162100 METAR MRLM 162100Z 10005KT CAVOK 29/21 A2981=
202108162200 METAR MRLM 162200Z 10006KT CAVOK 28/22 A2980=
202108162300 METAR MRLM 162300Z 09006KT CAVOK 28/22 A2982=
202108170000 METAR MRLM 170000Z 00000KT CAVOK 27/22 A2985=
202108170100 METAR MRLM NIL=
202108170200 METAR MRLM NIL=
202108170300 METAR MRLM NIL=
202108170400 METAR MRLM NIL=
202108170500 METAR MRLM NIL=
202108170600 METAR MRLM NIL=
202108170700 METAR MRLM NIL=
202108170800 METAR MRLM NIL=
202108170900 METAR MRLM NIL=
202108171000 METAR MRLM NIL=
202108171100 METAR MRLM NIL=
202108171200 METAR MRLM 171200Z 24003KT CAVOK 22/21 A2987=
202108171300 METAR MRLM 171300Z 22005KT CAVOK 25/22 A2990=
202108171400 METAR MRLM 171400Z 23004KT CAVOK 28/21 A2991=
202108171500 METAR MRLM 171500Z 08003KT CAVOK 29/22 A2991=
202108171600 METAR MRLM 171600Z 08004KT CAVOK 30/21 A2990=
202108171700 METAR MRLM 171700Z 07005KT CAVOK 30/22 A2989=
202108171800 METAR MRLM 171800Z 05006KT CAVOK 30/23 A2987=
202108171900 METAR MRLM 171900Z 04008KT CAVOK 30/24 A2984=
202108172000 METAR MRLM 172000Z 06006KT 9999 FEW030 SCT240 30/24 A2982=
202108172100 METAR MRLM 172100Z 08005KT 9999 FEW030 SCT240 30/24 A2981=
202108172200 METAR MRLM 172200Z 09005KT 9999 FEW030 SCT240 29/24 A2980=
202108172300 METAR MRLM 172300Z 10005KT 9999 FEW030 SCT220 29/24 A2981=
202108180000 METAR MRLM 180000Z 11005KT 9999 FEW020 SCT220 28/24 A2982=
202108180100 METAR MRLM NIL=
202108180200 METAR MRLM NIL=
202108180300 METAR MRLM NIL=
202108180400 METAR MRLM NIL=
202108180500 METAR MRLM NIL=
202108180600 METAR MRLM NIL=
202108180700 METAR MRLM NIL=
202108180800 METAR MRLM NIL=
202108180900 METAR MRLM NIL=
202108181000 METAR MRLM NIL=
202108181100 METAR MRLM NIL=
202108181200 METAR MRLM 181200Z 24005KT CAVOK 23/22 A2987=
202108181300 METAR MRLM 181300Z 21003KT CAVOK 25/22 A2989=
202108181400 METAR MRLM 181400Z 21003KT CAVOK 28/23 A2990=
202108181500 METAR MRLM 181500Z 11006KT CAVOK 29/23 A2992=
202108181600 METAR MRLM 181600Z 11009KT CAVOK 30/24 A2991=
202108181700 METAR MRLM 181700Z 11009KT CAVOK 30/24 A2991=
202108181800 METAR MRLM 181800Z 11009KT CAVOK 31/24 A2988=
202108181900 METAR MRLM 181900Z 10009KT CAVOK 30/24 A2986=
202108182000 METAR MRLM 182000Z 10009KT 9999 FEW030 SCT240 31/25 A2983=
202108182100 METAR MRLM 182100Z 09009KT 9999 FEW030 30/25 A2982=
202108182200 METAR MRLM 182200Z 09008KT 9999 FEW030 30/24 A2982=
202108182300 METAR MRLM 182300Z 10007KT 9999 FEW030 30/24 A2983=
202108190000 METAR MRLM 190000Z 08004KT 9999 FEW020 29/24 A2984=
202108190100 METAR MRLM NIL=
202108190200 METAR MRLM NIL=
202108190300 METAR MRLM NIL=
202108190400 METAR MRLM NIL=
202108190500 METAR MRLM NIL=
202108190600 METAR MRLM NIL=
202108190700 METAR MRLM NIL=
202108190800 METAR MRLM NIL=
202108190900 METAR MRLM NIL=
202108191000 METAR MRLM NIL=
202108191100 METAR MRLM NIL=
202108191200 METAR MRLM 191200Z 24004KT CAVOK 24/24 A2986=
202108191300 METAR MRLM 191300Z 26005KT CAVOK 25/24 A2987=
202108191400 METAR MRLM 191400Z 32003KT CAVOK 27/25 A2988=
202108191500 METAR MRLM 191500Z 27003KT 9999 FEW025 SCT140 BKN240 28/25 A2990=
202108191600 METAR MRLM 191600Z 04003KT 9999 FEW025 BKN130 29/24 A2992=
202108191700 METAR MRLM 191700Z 10003KT CAVOK 29/24 A2991=
202108191800 METAR MRLM 191800Z 09004KT 9999 FEW025 BKN130 29/24 A2990=
202108191900 METAR MRLM 191900Z 09005KT CAVOK 30/25 A2985=
202108192000 METAR MRLM 192000Z 08005KT CAVOK 29/24 A2982=
202108192100 METAR MRLM 192100Z 09004KT CAVOK 30/24 A2980=
202108192200 METAR MRLM 192200Z 09006KT 9999 FEW030 SCT140 BKN240 29/25 A2980=
202108192300 METAR MRLM 192300Z 06005KT 9999 FEW020 SCT130 BKN230 29/24 A2981=
202108200000 METAR MRLM 200000Z 06005KT 9999 FEW020 SCT130 BKN230 28/23 A2985=
202108200100 METAR MRLM NIL=
202108200200 METAR MRLM NIL=
202108200300 METAR MRLM NIL=
202108200400 METAR MRLM NIL=
202108200500 METAR MRLM NIL=
202108200600 METAR MRLM NIL=
202108200700 METAR MRLM NIL=
202108200800 METAR MRLM NIL=
202108200900 METAR MRLM NIL=
202108201000 METAR MRLM NIL=
202108201100 METAR MRLM NIL=
202108201200 METAR MRLM 201200Z 27003KT CAVOK 24/23 A2983=
202108201300 METAR MRLM 201300Z 00000KT 9999 FEW015 BKN130 24/23 A2984=
202108201400 METAR MRLM 201400Z 23003KT 9999 FEW020 BKN130 25/24 A2985=
202108201500 METAR MRLM 201500Z 26003KT 9999 FEW020 BKN130 27/24 A2986=
202108201600 METAR MRLM 201600Z 31005KT 9999 SCT020 BKN130 28/24 A2985=
202108201700 METAR MRLM 201700Z 34004KT 9999 SCT030 BKN130 29/24 A2984=
202108201800 METAR MRLM 201800Z 01006KT 9999 FEW030 BKN130 29/25 A2983=
202108201900 METAR MRLM 201900Z 03005KT 9999 FEW030 BKN130 29/25 A2979=
202108202000 METAR MRLM 202000Z 03004KT 9999 FEW030 BKN140 29/24 A2975=
202108202100 METAR MRLM 202100Z 04006KT 9999 FEW030 SCT250 29/24 A2974=
202108202200 METAR MRLM 202200Z 03005KT CAVOK 30/24 A2975=
202108202300 METAR MRLM 202300Z 00000KT CAVOK 28/23 A2976=
202108210000 METAR MRLM 210000Z 00000KT 9999 FEW020 BKN130 28/23 A2980=
202108210100 METAR MRLM NIL=
202108210200 METAR MRLM NIL=
202108210300 METAR MRLM NIL=
202108210400 METAR MRLM NIL=
202108210500 METAR MRLM NIL=
202108210600 METAR MRLM NIL=
202108210700 METAR MRLM NIL=
202108210800 METAR MRLM NIL=
202108210900 METAR MRLM NIL=
202108211000 METAR MRLM NIL=
202108211100 METAR MRLM NIL=
202108211200 METAR MRLM 211200Z 22004KT 9999 VCSH FEW015TCU SCT100 BKN200 23/23 A2979=
202108211300 METAR MRLM 211300Z 21005KT 9999 VCSH FEW015TCU SCT100 BKN200 24/23 A2982=
202108211400 METAR MRLM 211400Z 28002KT 9999 FEW020 BKN100 25/24 A2983=
202108211500 METAR MRLM 211500Z 30002KT 9999 -DZ VCSH FEW020TCU BKN100 27/24 A2983=
202108211600 METAR MRLM 211600Z 03003KT 9999 -DZ FEW020 BKN100 27/24 A2982=
202108211700 METAR MRLM 211700Z 04005KT 9999 FEW020 BKN120 29/24 A2981=
202108211800 METAR MRLM 211800Z 05005KT 9999 FEW025 BKN220 30/25 A2979=
202108211900 METAR MRLM 211900Z 05007KT 9999 FEW025 BKN220 29/24 A2977=
202108212000 METAR MRLM 212000Z 05007KT 9999 FEW025 SCT220 30/24 A2974=
202108212100 METAR MRLM 212100Z 05008KT 9999 FEW025 SCT220 30/24 A2973=
202108212200 METAR MRLM 212200Z 07006KT 9999 SCT025 SCT220 29/24 A2973=
202108212300 METAR MRLM 212300Z 07004KT 9999 BKN020 SCT200 28/24 A2974=
202108220000 METAR MRLM 220000Z 00000KT 9999 BKN020 SCT200 27/24 A2977=
202108220100 METAR MRLM NIL=
202108220200 METAR MRLM NIL=
202108220300 METAR MRLM NIL=
202108220400 METAR MRLM NIL=
202108220500 METAR MRLM NIL=
202108220600 METAR MRLM NIL=
202108220700 METAR MRLM NIL=
202108220800 METAR MRLM NIL=
202108220900 METAR MRLM NIL=
202108221000 METAR MRLM NIL=
202108221100 METAR MRLM NIL=
202108221200 METAR MRLM 221200Z 22003KT 9999 FEW015 SCT100 BKN200 24/23 A2983=
202108221300 METAR MRLM 221300Z 22003KT 9999 FEW015 BKN200 24/24 A2984=
202108221400 METAR MRLM 221400Z 11007KT 9999 FEW020 BKN220 28/24 A2985=
202108221500 METAR MRLM 221500Z 10006KT 9999 FEW020 SCT220 28/24 A2986=
202108221600 METAR MRLM 221600Z 10005KT 9999 FEW025 29/24 A2985=
202108221700 METAR MRLM 221700Z 10006KT CAVOK 30/23 A2983=
202108221800 METAR MRLM 221800Z 08008KT CAVOK 31/24 A2981=
202108221900 METAR MRLM 221900Z 08009KT CAVOK 30/24 A2980=
202108222000 METAR MRLM 222000Z 07009KT CAVOK 30/24 A2977=
202108222100 METAR MRLM 222100Z 08006KT 9999 FEW030 30/24 A2976=
202108222200 METAR MRLM 222200Z 11005KT 9999 FEW030 SCT240 30/24 A2975=
202108222300 METAR MRLM 222300Z 08006KT 9999 FEW030 SCT240 29/24 A2975=
202108230000 METAR MRLM 230000Z 02003KT CAVOK 29/24 A2976=
202108230100 METAR MRLM NIL=
202108230200 METAR MRLM NIL=
202108230300 METAR MRLM NIL=
202108230400 METAR MRLM NIL=
202108230500 METAR MRLM NIL=
202108230600 METAR MRLM NIL=
202108230700 METAR MRLM NIL=
202108230800 METAR MRLM NIL=
202108230900 METAR MRLM NIL=
202108231000 METAR MRLM NIL=
202108231100 METAR MRLM NIL=
202108231200 METAR MRLM 231200Z 00000KT CAVOK 23/23 A2980=
202108231300 METAR MRLM 231300Z 27004KT CAVOK 24/23 A2982=
202108231400 METAR MRLM 231400Z 30005KT CAVOK 28/24 A2983=
202108231500 METAR MRLM 231500Z 30006KT CAVOK 29/23 A2986=
202108231600 METAR MRLM 231600Z 00000KT CAVOK 31/23 A2985=
202108231700 METAR MRLM 231700Z 02010KT 9999 FEW030 SCT250 31/24 A2984=
202108231800 METAR MRLM 231800Z 01009KT 9999 FEW030 SCT250 31/24 A2981=
202108231900 METAR MRLM 231900Z 02007KT CAVOK 31/25 A2978=
202108232000 METAR MRLM 232000Z 03008KT 9999 FEW030 SCT250 30/25 A2975=
202108232100 METAR MRLM 232100Z 01008KT 9999 FEW030 BKN240 30/25 A2973=
202108232200 METAR MRLM 232200Z 01008KT 9999 FEW030 BKN240 30/25 A2974=
202108232300 METAR MRLM 232300Z 01006KT 9999 BKN020 29/25 A2975=
202108240000 METAR MRLM 240000Z 02007KT 9999 BKN020 29/25 A2978=
202108240100 METAR MRLM NIL=
202108240200 METAR MRLM NIL=
202108240300 METAR MRLM NIL=
202108240400 METAR MRLM NIL=
202108240500 METAR MRLM NIL=
202108240600 METAR MRLM NIL=
202108240700 METAR MRLM NIL=
202108240800 METAR MRLM NIL=
202108240900 METAR MRLM NIL=
202108241000 METAR MRLM NIL=
202108241100 METAR MRLM NIL=
202108241200 METAR MRLM 241200Z 22003KT CAVOK 24/23 A2977=
202108241300 METAR MRLM 241300Z 24004KT CAVOK 25/24 A2980=
202108241400 METAR MRLM 241400Z 30005KT CAVOK 28/24 A2981=
202108241500 METAR MRLM 241500Z 30007KT 9999 FEW030 BKN240 29/24 A2982=
202108241600 METAR MRLM 241600Z 30007KT 9999 SCT030 BKN240 30/24 A2982=
202108241700 METAR MRLM 241700Z 34011KT 9999 FEW030 BKN240 30/24 A2980=
202108241800 METAR MRLM 241800Z 34011KT 9999 FEW030 BKN250 31/25 A2977=
202108241900 METAR MRLM 241900Z 35016KT 9999 FEW030 BKN250 31/25 A2975=
202108242000 METAR MRLM 242000Z 34013KT CAVOK 31/25 A2973=
202108242100 METAR MRLM 242100Z 35018KT 9999 FEW030 BKN240 30/25 A2973=
202108242200 METAR MRLM 242200Z 34015KT 9999 FEW030 BKN240 30/24 A2971=
202108242300 METAR MRLM 242300Z 30006KT 9999 BKN020 28/24 A2973=
202108250000 METAR MRLM 250000Z 30007KT 9999 BKN020 28/24 A2975=
202108250100 METAR MRLM NIL=
202108250200 METAR MRLM NIL=
202108250300 METAR MRLM NIL=
202108250400 METAR MRLM NIL=
202108250500 METAR MRLM NIL=
202108250600 METAR MRLM NIL=
202108250700 METAR MRLM NIL=
202108250800 METAR MRLM NIL=
202108250900 METAR MRLM NIL=
202108251000 METAR MRLM NIL=
202108251100 METAR MRLM NIL=
202108251200 METAR MRLM 251200Z 25004KT 8000 DZ FEW010 OVC080 24/23 A2981=
202108251300 METAR MRLM 251300Z 26002KT 9999 SCT010 OVC080 24/24 A2983 REDZ=
202108251400 METAR MRLM 251400Z 30003KT 8000 DZ SCT010 OVC080 25/24 A2985=
202108251500 METAR MRLM 251500Z 32005KT 8000 +DZ SCT010 OVC080 25/24 A2987=
202108251600 METAR MRLM 251600Z 28005KT 8000 DZ SCT010 OVC080 25/24 A2986=
202108251700 METAR MRLM 251700Z 29006KT 9999 -DZ SCT010 OVC080 26/24 A2984=
202108251800 METAR MRLM 251800Z 27007KT 9999 SCT015 OVC100 27/24 A2981=
202108251900 METAR MRLM 251900Z 30007KT 9999 FEW015 OVC100 27/24 A2979=
202108252000 METAR MRLM 252000Z 31008KT 9999 FEW020 OVC200 28/24 A2977=
202108252100 METAR MRLM 252100Z 29007KT 9999 FEW020 BKN200 28/24 A2975=
202108252200 METAR MRLM 252200Z 29006KT 9999 FEW020 BKN200 28/24 A2976=
202108252300 METAR MRLM 252300Z 30005KT 9999 FEW020 BKN110 27/23 A2977=
202108260000 METAR MRLM 260000Z 31007KT 9999 FEW015 SCT100 BKN200 27/23 A2979=
202108260100 METAR MRLM NIL=
202108260200 METAR MRLM NIL=
202108260300 METAR MRLM NIL=
202108260400 METAR MRLM NIL=
202108260500 METAR MRLM NIL=
202108260600 METAR MRLM NIL=
202108260700 METAR MRLM NIL=
202108260800 METAR MRLM NIL=
202108260900 METAR MRLM NIL=
202108261000 METAR MRLM NIL=
202108261100 METAR MRLM NIL=
202108261200 METAR MRLM 261200Z 29007KT 9999 FEW015 SCT100 BKN200 25/22 A2980=
202108261300 METAR MRLM 261300Z 29006KT 9999 FEW015 OVC100 25/22 A2983=
202108261400 METAR MRLM 261400Z 29007KT 9999 FEW020 OVC100 26/22 A2985=
202108261500 METAR MRLM 261500Z 30006KT 9999 -DZ FEW020 OVC100 27/22 A2986=
202108261600 METAR MRLM 261600Z 31008KT 9999 FEW020 SCT120 OVC220 28/23 A2986=
202108261700 METAR MRLM 261700Z 31010KT 9999 FEW020 OVC220 28/23 A2986=
202108261800 METAR MRLM 261800Z 29006KT 9999 SCT020 OVC120 28/24 A2984=
202108261900 METAR MRLM 261900Z 30006KT 9999 -DZ SCT020 OVC120 28/24 A2982=
202108262000 METAR MRLM 262000Z 30004KT 9999 SCT020 OVC120 27/24 A2980=
202108262100 METAR MRLM 262100Z 28004KT 9999 -DZ SCT015 OVC100 27/24 A2980=
202108262200 METAR MRLM 262200Z 28004KT 9999 VCSH FEW010TCU SCT015 OVC100 26/24 A2979=
202108262300 METAR MRLM 262300Z 29003KT 9999 VCSH FEW010TCU SCT015 OVC100 26/24 A2980=
202108270000 METAR MRLM 270000Z 27004KT 9999 VCSH FEW010TCU OVC090 25/23 A2982=
202108270100 METAR MRLM NIL=
202108270200 METAR MRLM NIL=
202108270300 METAR MRLM NIL=
202108270400 METAR MRLM NIL=
202108270500 METAR MRLM NIL=
202108270600 METAR MRLM NIL=
202108270700 METAR MRLM NIL=
202108270800 METAR MRLM NIL=
202108270900 METAR MRLM NIL=
202108271000 METAR MRLM NIL=
202108271100 METAR MRLM NIL=
202108271200 METAR MRLM NIL=
202108271300 METAR MRLM NIL=
202108271400 METAR MRLM NIL=
202108271500 METAR MRLM NIL=
202108271600 METAR MRLM NIL=
202108271700 METAR MRLM NIL=
202108271800 METAR MRLM NIL=
202108271900 METAR MRLM NIL=
202108272000 METAR MRLM NIL=
202108272100 METAR MRLM NIL=
202108272200 METAR MRLM NIL=
202108272300 METAR MRLM NIL=
202108280000 METAR MRLM NIL=
202108280100 METAR MRLM NIL=
202108280200 METAR MRLM NIL=
202108280300 METAR MRLM NIL=
202108280400 METAR MRLM NIL=
202108280500 METAR MRLM NIL=
202108280600 METAR MRLM NIL=
202108280700 METAR MRLM NIL=
202108280800 METAR MRLM NIL=
202108280900 METAR MRLM NIL=
202108281000 METAR MRLM NIL=
202108281100 METAR MRLM NIL=
202108281200 METAR MRLM 281200Z 23003KT CAVOK 23/22 A2987=
202108281300 METAR MRLM 281300Z 24004KT CAVOK 25/23 A2989=
202108281400 METAR MRLM 281400Z 00000KT CAVOK 28/23 A2990=
202108281500 METAR MRLM 281500Z 10005KT 9999 FEW030 SCT250 30/23 A2990=
202108281600 METAR MRLM 281600Z 10005KT CAVOK 29/24 A2989=
202108281700 METAR MRLM 281700Z 08008KT CAVOK 30/24 A2988=
202108281800 METAR MRLM 281800Z 07009KT CAVOK 30/24 A2987=
202108281900 METAR MRLM 281900Z 07007KT CAVOK 30/25 A2985=
202108282000 METAR MRLM 282000Z 05006KT CAVOK 30/25 A2984=
202108282100 METAR MRLM 282100Z 05004KT 9999 FEW030 BKN240 30/25 A2983=
202108282200 METAR MRLM 282200Z 04004KT 9999 FEW030 BKN240 29/25 A2982=
202108282300 METAR MRLM 282300Z 06004KT 9999 FEW030 BKN240 29/25 A2983=
202108290000 METAR MRLM 290000Z 04003KT 9999 FEW025 BKN240 28/25 A2985=
202108290100 METAR MRLM NIL=
202108290200 METAR MRLM NIL=
202108290300 METAR MRLM NIL=
202108290400 METAR MRLM NIL=
202108290500 METAR MRLM NIL=
202108290600 METAR MRLM NIL=
202108290700 METAR MRLM NIL=
202108290800 METAR MRLM NIL=
202108290900 METAR MRLM NIL=
202108291000 METAR MRLM NIL=
202108291100 METAR MRLM NIL=
202108291200 METAR MRLM 291200Z 22005KT 9999 SCT015 BKN090 24/23 A2990=
202108291300 METAR MRLM 291300Z 22005KT 9999 +DZ SCT015 BKN090 25/24 A2993=
202108291400 METAR MRLM 291400Z 23007KT 9999 FEW015 SCT100 BKN200 27/24 A2991 REDZ=
202108291500 METAR MRLM 291500Z 30002KT 9999 FEW020 BKN200 29/25 A2991=
202108291600 METAR MRLM 291600Z 04003KT 9999 FEW020 BKN120 30/24 A2992=
202108291700 METAR MRLM 291700Z 02009KT 9999 VCTS FEW020CB SCT120 BKN220 30/25 A2991=
202108291800 METAR MRLM 291800Z 01007KT 9999 FEW025TCU BKN220 30/24 A2989=
202108291900 METAR MRLM 291900Z 05004KT 9999 FEW025 BKN130 30/23 A2985=
202108292000 METAR MRLM 292000Z 02004KT CAVOK 30/24 A2983=
202108292100 METAR MRLM 292100Z 04003KT CAVOK 30/24 A2983=
202108292200 METAR MRLM 292200Z 33005KT CAVOK 30/24 A2983=
202108292300 METAR MRLM 292300Z 34005KT CAVOK 29/24 A2985=
202108300000 METAR MRLM 300000Z 27002KT 9999 FEW020 OVC200 27/25 A2985=
202108300100 METAR MRLM NIL=
202108300200 METAR MRLM NIL=
202108300300 METAR MRLM NIL=
202108300400 METAR MRLM NIL=
202108300500 METAR MRLM NIL=
202108300600 METAR MRLM NIL=
202108300700 METAR MRLM NIL=
202108300800 METAR MRLM NIL=
202108300900 METAR MRLM NIL=
202108301000 METAR MRLM NIL=
202108301100 METAR MRLM NIL=
202108301200 METAR MRLM 301200Z 26002KT CAVOK 23/22 A2985=
202108301300 METAR MRLM 301300Z 24005KT CAVOK 24/23 A2987=
202108301400 METAR MRLM 301400Z 24002KT 9999 FEW020 SCT100 BKN200 25/23 A2991=
202108301500 METAR MRLM 301500Z 03002KT 9999 -DZ FEW020 OVC100 26/24 A2991=
202108301600 METAR MRLM 301600Z 28004KT 9999 -DZ FEW020 OVC100 27/24 A2989=
202108301700 METAR MRLM 301700Z 33006KT 9999 DZ FEW015 OVC100 27/24 A2986=
202108301800 METAR MRLM 301800Z 29005KT CAVOK 28/25 A2982 REDZ=
202108301900 METAR MRLM 301900Z 31007KT CAVOK 29/25 A2979=
202108302000 METAR MRLM 302000Z 31007KT CAVOK 29/25 A2975=
202108302100 METAR MRLM 302100Z 30005KT CAVOK 29/24 A2976=
202108302200 METAR MRLM 302200Z 35006KT CAVOK 29/25 A2978=
202108302300 METAR MRLM 302300Z 31003KT CAVOK 29/25 A2979=
202108310000 METAR MRLM 310000Z 35005KT CAVOK 28/25 A2981=
202108310100 METAR MRLM NIL=
202108310200 METAR MRLM NIL=
202108310300 METAR MRLM NIL=
202108310400 METAR MRLM NIL=
202108310500 METAR MRLM NIL=
202108310600 METAR MRLM NIL=
202108310700 METAR MRLM NIL=
202108310800 METAR MRLM NIL=
202108310900 METAR MRLM NIL=
202108311000 METAR MRLM NIL=
202108311100 METAR MRLM NIL=
202108311200 METAR MRLM 311200Z 00000KT 9999 FEW020 BKN110 23/22 A2987=
202108311300 METAR MRLM 311300Z 25004KT 9999 FEW020 BKN110 24/22 A2988=
202108311400 METAR MRLM 311400Z 29004KT 9999 FEW020 BKN130 26/22 A2989=
202108311500 METAR MRLM 311500Z 29004KT 9999 FEW020 BKN130 27/22 A2990=
202108311600 METAR MRLM 311600Z 00000KT 9999 FEW020 SCT130 BKN240 28/23 A2991=
202108311700 METAR MRLM 311700Z 00000KT 9999 FEW020 BKN140 29/22 A2990=
202108311800 METAR MRLM 311800Z 07004KT 9999 FEW020 BKN130 28/22 A2988=
202108311900 METAR MRLM 311900Z 11007KT 9999 FEW015 BKN120 28/24 A2985=
202108312000 METAR MRLM 312000Z 10007KT 9999 FEW015 BKN120 28/24 A2983=
202108312100 METAR MRLM 312100Z 10008KT 9999 SCT015 BKN120 28/24 A2981=
202108312200 METAR MRLM 312200Z 10007KT 9999 BKN015 28/24 A2982=
202108312300 METAR MRLM 312300Z 11005KT 9999 DZ BKN015 27/24 A2984=
202109010000 METAR MRLM 010000Z 20005KT 9999 DZ BKN015 25/24 A2985=
202109010100 METAR MRLM NIL=
202109010200 METAR MRLM NIL=
202109010300 METAR MRLM NIL=
202109010400 METAR MRLM NIL=
202109010500 METAR MRLM NIL=
202109010600 METAR MRLM NIL=
202109010700 METAR MRLM NIL=
202109010800 METAR MRLM NIL=
202109010900 METAR MRLM NIL=
202109011000 METAR MRLM NIL=
202109011100 METAR MRLM NIL=
202109011200 METAR MRLM 011200Z 00000KT CAVOK 22/22 A2987=
202109011300 METAR MRLM 011300Z 00000KT CAVOK 25/22 A2990=
202109011400 METAR MRLM 011400Z 00000KT CAVOK 27/22 A2991=
202109011500 METAR MRLM 011500Z 08004KT 9999 FEW030 BKN140 27/22 A2991=
202109011600 METAR MRLM 011600Z 07004KT 9999 FEW030 SCT140 28/23 A2992=
202109011700 METAR MRLM 011700Z 07006KT 9999 FEW030 SCT140 29/23 A2991=
202109011800 METAR MRLM 011800Z 05005KT 9999 FEW030 BKN140 29/22 A2989=
202109011900 METAR MRLM 011900Z 05004KT 9999 FEW030 BKN140 29/22 A2988=
202109012000 METAR MRLM 012000Z 03005KT 9999 FEW030 BKN140 29/22 A2988=
202109012100 METAR MRLM 012100Z 04004KT CAVOK 29/22 A2983=
202109012200 METAR MRLM 012200Z 05003KT CAVOK 28/23 A2982=
202109012300 METAR MRLM 012300Z 01003KT CAVOK 28/23 A2982=
202109020000 METAR MRLM 020000Z 01003KT CAVOK 28/23 A2982=
202109020100 METAR MRLM NIL=
202109020200 METAR MRLM NIL=
202109020300 METAR MRLM NIL=
202109020400 METAR MRLM NIL=
202109020500 METAR MRLM NIL=
202109020600 METAR MRLM NIL=
202109020700 METAR MRLM NIL=
202109020800 METAR MRLM NIL=
202109020900 METAR MRLM NIL=
202109021000 METAR MRLM NIL=
202109021100 METAR MRLM NIL=
202109021200 METAR MRLM 021200Z 21004KT 9999 FEW020 SCT200 23/23 A2987=
202109021300 METAR MRLM 021300Z 24002KT 9999 FEW020 SCT200 26/24 A2989=
202109021400 METAR MRLM 021400Z 12004KT 9999 FEW020 SCT220 28/24 A2991=
202109021500 METAR MRLM 021500Z 11009KT 9999 FEW020 SCT220 29/24 A2992=
202109021600 METAR MRLM 021600Z 11007KT 9999 FEW030 29/24 A2992=
202109021700 METAR MRLM 021700Z 09007KT CAVOK 30/24 A2990=
202109021800 METAR MRLM 021800Z 08009KT CAVOK 30/25 A2988=
202109021900 METAR MRLM 021900Z 07009KT CAVOK 30/24 A2986=
202109022000 METAR MRLM 022000Z 06007KT 9999 FEW030 30/24 A2985=
202109022100 METAR MRLM 022100Z 05006KT 9999 FEW030 30/24 A2984=
202109022200 METAR MRLM 022200Z 05006KT 9999 SCT030 29/24 A2983=
202109022300 METAR MRLM 022300Z 07003KT 9999 SCT020 29/24 A2985=
202109030000 METAR MRLM 030000Z 09006KT 9999 SCT020 28/24 A2985=
202109030100 METAR MRLM NIL=
202109030200 METAR MRLM NIL=
202109030300 METAR MRLM NIL=
202109030400 METAR MRLM NIL=
202109030500 METAR MRLM NIL=
202109030600 METAR MRLM NIL=
202109030700 METAR MRLM NIL=
202109030800 METAR MRLM NIL=
202109030900 METAR MRLM NIL=
202109031000 METAR MRLM NIL=
202109031100 METAR MRLM NIL=
202109031200 METAR MRLM 031200Z 22004KT 9999 FEW020 BKN100 24/22 A2987=
202109031300 METAR MRLM 031300Z 22004KT 9999 FEW020TCU BKN100 25/23 A2990=
202109031400 METAR MRLM 031400Z 23003KT 9999 FEW020 SCT120 27/23 A2991=
202109031500 METAR MRLM 031500Z 09003KT 9999 FEW020 SCT220 29/23 A2993=
202109031600 METAR MRLM 031600Z 09004KT 9999 FEW030 SCT240 30/23 A2992=
202109031700 METAR MRLM 031700Z 09007KT 9999 FEW030 BKN240 30/23 A2992=
202109031800 METAR MRLM 031800Z 07007KT CAVOK 30/24 A2988=
202109031900 METAR MRLM 031900Z 05006KT CAVOK 30/25 A2984=
202109032000 METAR MRLM 032000Z 04008KT CAVOK 30/25 A2983=
202109032100 METAR MRLM 032100Z 05008KT CAVOK 30/24 A2982=
202109032200 METAR MRLM 032200Z 07002KT CAVOK 29/24 A2982=
202109032300 METAR MRLM 032300Z 07002KT 9999 FEW020 SCT120 BKN220 29/24 A2983=
202109040000 METAR MRLM 040000Z 00000KT 9999 FEW020 SCT120 BKN220 27/24 A2983=
202109040100 METAR MRLM NIL=
202109040200 METAR MRLM NIL=
202109040300 METAR MRLM NIL=
202109040400 METAR MRLM NIL=
202109040500 METAR MRLM NIL=
202109040600 METAR MRLM NIL=
202109040700 METAR MRLM NIL=
202109040800 METAR MRLM NIL=
202109040900 METAR MRLM NIL=
202109041000 METAR MRLM NIL=
202109041100 METAR MRLM NIL=
202109041200 METAR MRLM 041200Z 00000KT 7000 DZ VCTS BKN015 24/24 A2985=
202109041300 METAR MRLM 041300Z 26005KT 2000 -RA BKN015 24/23 A2989=
202109041400 METAR MRLM 041400Z 26006KT 5000 +DZ VCTS BKN020 24/23 A2991=
202109041500 METAR MRLM 041500Z 17006KT 5000 TS DZ FEW010CB BKN020 24/23 A2993=
202109041600 METAR MRLM 041600Z 14004KT 9999 DZ VCTS SCT020 BKN100 24/22 A2994=
202109041700 METAR MRLM 041700Z 20004KT CAVOK 24/23 A2990 REDZ=
202109041800 METAR MRLM 041800Z 20004KT CAVOK 25/24 A2986=
202109041900 METAR MRLM 041900Z 00000KT CAVOK 28/23 A2983=
202109042000 METAR MRLM 042000Z 05003KT CAVOK 28/23 A2982=
202109042100 METAR MRLM 042100Z 02005KT CAVOK 28/24 A2982=
202109042200 METAR MRLM 042200Z 00000KT CAVOK 29/24 A2982=
202109042300 METAR MRLM 042300Z 00000KT CAVOK 27/23 A2981=
202109050000 METAR MRLM 050000Z 29003KT CAVOK 26/24 A2985=
202109050100 METAR MRLM NIL=
202109050200 METAR MRLM NIL=
202109050300 METAR MRLM NIL=
202109050400 METAR MRLM NIL=
202109050500 METAR MRLM NIL=
202109050600 METAR MRLM NIL=
202109050700 METAR MRLM NIL=
202109050800 METAR MRLM NIL=
202109050900 METAR MRLM NIL=
202109051000 METAR MRLM NIL=
202109051100 METAR MRLM NIL=
202109051200 METAR MRLM 051200Z 22004KT CAVOK 23/22 A2987=
202109051300 METAR MRLM 051300Z 26003KT 9999 FEW020 SCT130 BKN230 25/23 A2988=
202109051400 METAR MRLM 051400Z 21004KT CAVOK 29/23 A2990=
202109051500 METAR MRLM 051500Z 05004KT CAVOK 30/23 A2990=
202109051600 METAR MRLM 051600Z 03006KT 9999 FEW030 SCT130 BKN240 30/24 A2990=
202109051700 METAR MRLM 051700Z 02006KT CAVOK 30/25 A2989=
202109051800 METAR MRLM 051800Z 04005KT CAVOK 30/25 A2988=
202109051900 METAR MRLM 051900Z 04005KT 9999 FEW030 30/25 A2986=
202109052000 METAR MRLM 052000Z 06005KT CAVOK 30/25 A2982=
202109052100 METAR MRLM 052100Z 05005KT CAVOK 30/25 A2981=
202109052200 METAR MRLM 052200Z 06004KT CAVOK 30/25 A2979=
202109052300 METAR MRLM 052300Z 03004KT 9999 FEW030 SCT240 29/25 A2981=
202109060000 METAR MRLM 060000Z 22003KT 9999 FEW020 SCT240 28/25 A2985=
202109060100 METAR MRLM NIL=
202109060200 METAR MRLM NIL=
202109060300 METAR MRLM NIL=
202109060400 METAR MRLM NIL=
202109060500 METAR MRLM NIL=
202109060600 METAR MRLM NIL=
202109060700 METAR MRLM NIL=
202109060800 METAR MRLM NIL=
202109060900 METAR MRLM NIL=
202109061000 METAR MRLM NIL=
202109061100 METAR MRLM NIL=
202109061200 METAR MRLM 061200Z 24004KT 9999 FEW020TCU SCT200 23/22 A2986=
202109061300 METAR MRLM 061300Z 21003KT 9999 FEW020TCU SCT200 25/23 A2988=
202109061400 METAR MRLM 061400Z 26003KT CAVOK 29/24 A2989=
202109061500 METAR MRLM 061500Z 32007KT 9999 FEW030 SCT240 30/24 A2990=
202109061600 METAR MRLM 061600Z 33009KT 9999 FEW030 SCT240 31/24 A2989=
202109061700 METAR MRLM 061700Z 01011KT CAVOK 30/25 A2988=
202109061800 METAR MRLM 061800Z 01012KT CAVOK 31/25 A2985=
202109061900 METAR MRLM 061900Z 02013KT 9999 VCSH FEW025TCU BKN120 30/25 A2983=
202109062000 METAR MRLM 062000Z 01010KT 9999 FEW025 SCT120 BKN240 30/25 A2980=
202109062100 METAR MRLM 062100Z 01007KT 9999 FEW025 BKN240 30/25 A2978=
202109062200 METAR MRLM 062200Z 01006KT 9999 SCT025 BKN240 29/24 A2978=
202109062300 METAR MRLM 062300Z 33004KT 9999 FEW020 SCT120 BKN220 29/25 A2979=
202109070000 METAR MRLM 070000Z 21003KT 9999 FEW020 BKN220 26/24 A2980=
202109070100 METAR MRLM NIL=
202109070200 METAR MRLM NIL=
202109070300 METAR MRLM NIL=
202109070400 METAR MRLM NIL=
202109070500 METAR MRLM NIL=
202109070600 METAR MRLM NIL=
202109070700 METAR MRLM NIL=
202109070800 METAR MRLM NIL=
202109070900 METAR MRLM NIL=
202109071000 METAR MRLM NIL=
202109071100 METAR MRLM NIL=
202109071200 METAR MRLM 071200Z 27002KT 9999 FEW020TCU BKN200 23/22 A2983=
202109071300 METAR MRLM 071300Z 23003KT 9999 FEW020 BKN200 25/23 A2985=
202109071400 METAR MRLM 071400Z 28003KT 9999 FEW020 SCT120 BKN220 28/23 A2989=
202109071500 METAR MRLM 071500Z 30004KT 9999 FEW020 BKN120 28/24 A2991=
202109071600 METAR MRLM 071600Z 29005KT 9999 -DZ FEW020 OVC120 28/24 A2990=
202109071700 METAR MRLM 071700Z 31007KT 9999 SCT020 BKN120 29/24 A2988=
202109071800 METAR MRLM 071800Z 34010KT 9999 SCT020 BKN120 29/25 A2986=
202109071900 METAR MRLM 071900Z 35012KT 9999 FEW020 BKN120 29/25 A2983=
202109072000 METAR MRLM 072000Z 35013KT 9999 SCT020 BKN120 29/25 A2980=
202109072100 METAR MRLM 072100Z 32007KT 9999 SCT020 BKN120 28/24 A2979=
202109072200 METAR MRLM 072200Z 31005KT 9999 SCT020 BKN120 28/24 A2979=
202109072300 METAR MRLM 072300Z 30005KT 9999 SCT015 BKN100 28/24 A2980=
202109080000 METAR MRLM 080000Z 28003KT 9999 FEW015 SCT100 BKN200 27/24 A2982=
202109080100 METAR MRLM NIL=
202109080200 METAR MRLM NIL=
202109080300 METAR MRLM NIL=
202109080400 METAR MRLM NIL=
202109080500 METAR MRLM NIL=
202109080600 METAR MRLM NIL=
202109080700 METAR MRLM NIL=
202109080800 METAR MRLM NIL=
202109080900 METAR MRLM NIL=
202109081000 METAR MRLM NIL=
202109081100 METAR MRLM NIL=
202109081200 METAR MRLM 081200Z 00000KT 9999 FEW015 BKN130 24/24 A2985=
202109081300 METAR MRLM 081300Z 00000KT 9999 FEW015 BKN130 24/24 A2985=
202109081400 METAR MRLM 081400Z 23003KT CAVOK 26/25 A2990=
202109081500 METAR MRLM 081500Z 33004KT CAVOK 26/24 A2990=
202109081600 METAR MRLM 081600Z 31004KT CAVOK 29/25 A2988=
202109081700 METAR MRLM 081700Z 02009KT CAVOK 29/25 A2987=
202109081800 METAR MRLM 081800Z 01008KT 9999 FEW030 BKN130 29/25 A2984=
202109081900 METAR MRLM 081900Z 04006KT 9999 FEW030 SCT130 29/25 A2981=
202109082000 METAR MRLM 082000Z 04006KT 9999 FEW030 SCT130 29/25 A2981=
202109082100 METAR MRLM 082100Z 02005KT CAVOK 29/24 A2976=
202109082200 METAR MRLM 082200Z 02005KT CAVOK 28/24 A2977=
202109082300 METAR MRLM 082300Z 06005KT CAVOK 28/23 A2979=
202109090000 METAR MRLM 090000Z 05004KT CAVOK 28/24 A2980=
202109090100 METAR MRLM NIL=
202109090200 METAR MRLM NIL=
202109090300 METAR MRLM NIL=
202109090400 METAR MRLM NIL=
202109090500 METAR MRLM NIL=
202109090600 METAR MRLM NIL=
202109090700 METAR MRLM NIL=
202109090800 METAR MRLM NIL=
202109090900 METAR MRLM NIL=
202109091000 METAR MRLM NIL=
202109091100 METAR MRLM NIL=
202109091200 METAR MRLM 091200Z 21004KT CAVOK 24/22 A2984=
202109091300 METAR MRLM 091300Z 22004KT CAVOK 26/23 A2987=
202109091400 METAR MRLM 091400Z 00000KT CAVOK 28/23 A2989=
202109091500 METAR MRLM 091500Z 07003KT CAVOK 29/23 A2990=
202109091600 METAR MRLM 091600Z 05004KT CAVOK 29/24 A2990=
202109091700 METAR MRLM 091700Z 02006KT CAVOK 30/24 A2989=
202109091800 METAR MRLM 091800Z 02008KT 9999 SCT030 29/25 A2987=
202109091900 METAR MRLM 091900Z 05007KT 9999 FEW030 BKN140 29/25 A2984=
202109092000 METAR MRLM 092000Z 05005KT 9999 BKN025 29/25 A2981=
202109092100 METAR MRLM 092100Z 05005KT 9999 BKN025 29/25 A2981=
202109092200 METAR MRLM 092200Z 11004KT 9999 SCT020 BKN130 28/24 A2981=
202109092300 METAR MRLM 092300Z 00000KT CAVOK 28/25 A2980=
202109100000 METAR MRLM 100000Z 00000KT CAVOK 28/25 A2980=
202109100100 METAR MRLM NIL=
202109100200 METAR MRLM NIL=
202109100300 METAR MRLM NIL=
202109100400 METAR MRLM NIL=
202109100500 METAR MRLM NIL=
202109100600 METAR MRLM NIL=
202109100700 METAR MRLM NIL=
202109100800 METAR MRLM NIL=
202109100900 METAR MRLM NIL=
202109101000 METAR MRLM NIL=
202109101100 METAR MRLM NIL=
202109101200 METAR MRLM 101200Z 27003KT CAVOK 23/23 A2986=
202109101300 METAR MRLM 101300Z 25003KT CAVOK 25/24 A2988=
202109101400 METAR MRLM 101400Z 30005KT CAVOK 27/22 A2990=
202109101500 METAR MRLM 101500Z 30007KT CAVOK 28/23 A2991=
202109101600 METAR MRLM 101600Z 34005KT CAVOK 29/24 A2991=
202109101700 METAR MRLM 101700Z 33008KT 9999 FEW020 OVC120 29/24 A2991=
202109101800 METAR MRLM 101800Z 36011KT 9999 FEW020 OVC120 29/25 A2990=
202109101900 METAR MRLM 101900Z 35010KT 9999 FEW020 SCT120 BKN220 30/25 A2986=
202109102000 METAR MRLM 102000Z 36009KT 9999 FEW025 SCT120 BKN220 30/24 A2983=
202109102100 METAR MRLM 102100Z 01008KT 9999 SCT025 BKN220 29/25 A2980=
202109102200 METAR MRLM 102200Z 36006KT 9999 FEW025 OVC220 29/25 A2979=
202109102300 METAR MRLM 102300Z 35005KT 9999 FEW020 OVC200 29/24 A2981=
202109110000 METAR MRLM 110000Z 01006KT 9999 SCT020 OVC200 28/24 A2982=
202109110100 METAR MRLM NIL=
202109110200 METAR MRLM NIL=
202109110300 METAR MRLM NIL=
202109110400 METAR MRLM NIL=
202109110500 METAR MRLM NIL=
202109110600 METAR MRLM NIL=
202109110700 METAR MRLM NIL=
202109110800 METAR MRLM NIL=
202109110900 METAR MRLM NIL=
202109111000 METAR MRLM NIL=
202109111100 METAR MRLM NIL=
202109111200 METAR MRLM 111200Z 25003KT 9999 VCSH FEW015TCU SCT100 BKN200 25/24 A2988=
202109111300 METAR MRLM 111300Z 25004KT 9999 VCSH FEW015TCU SCT100 BKN200 25/24 A2988=
202109111400 METAR MRLM 111400Z 23004KT 9999 -DZ VCTS VCSH FEW015CB OVC100 26/24 A2993=
202109111500 METAR MRLM 111500Z 31005KT 4000 +RA SCT010 OVC080 25/24 A2994=
202109111600 METAR MRLM 111600Z 26003KT 9999 -DZ VCTS FEW010CB SCT015 OVC100 26/25 A2994 RERA=
202109111700 METAR MRLM 111700Z 28002KT 9999 +DZ FEW015 OVC100 26/25 A2992=
202109111800 METAR MRLM 111800Z 31004KT 8000 DZ VCSH FEW015TCU OVC100 26/25 A2991=
202109111900 METAR MRLM 111900Z 31005KT 9999 DZ FEW015 OVC100 26/25 A2988=
202109112000 METAR MRLM 112000Z 29006KT 9999 FEW020 SCT100 BKN200 28/25 A2985 REDZ=
202109112100 METAR MRLM 112100Z 26005KT 9999 FEW020 SCT120 BKN200 29/25 A2985=
202109112200 METAR MRLM 112200Z 32004KT 9999 FEW020 OVC200 28/25 A2983=
202109112300 METAR MRLM 112300Z 34005KT CAVOK 27/25 A2984=
202109120000 METAR MRLM 120000Z 00000KT CAVOK 26/25 A2985=
202109120100 METAR MRLM NIL=
202109120200 METAR MRLM NIL=
202109120300 METAR MRLM NIL=
202109120400 METAR MRLM NIL=
202109120500 METAR MRLM NIL=
202109120600 METAR MRLM NIL=
202109120700 METAR MRLM NIL=
202109120800 METAR MRLM NIL=
202109120900 METAR MRLM NIL=
202109121000 METAR MRLM NIL=
202109121100 METAR MRLM NIL=
202109121200 METAR MRLM 121200Z 00000KT CAVOK 23/22 A2990=
202109121300 METAR MRLM 121300Z 22004KT CAVOK 25/23 A2992=
202109121400 METAR MRLM 121400Z 08003KT CAVOK 28/24 A2992=
202109121500 METAR MRLM 121500Z 04006KT CAVOK 28/24 A2994=
202109121600 METAR MRLM 121600Z 08005KT CAVOK 29/25 A2995=
202109121700 METAR MRLM 121700Z 07007KT CAVOK 29/25 A2994=
202109121800 METAR MRLM 121800Z 06007KT CAVOK 30/25 A2992=
202109121900 METAR MRLM 121900Z 06007KT CAVOK 30/25 A2988=
202109122000 METAR MRLM 122000Z 08008KT 9999 FEW030 BKN250 30/26 A2988=
202109122100 METAR MRLM 122100Z 09007KT 9999 FEW030 BKN240 30/25 A2987=
202109122200 METAR MRLM 122200Z 08009KT 9999 FEW020TCU BKN240 29/25 A2985=
202109122300 METAR MRLM 122300Z 09009KT 9999 FEW020 BKN240 29/25 A2988=
202109130000 METAR MRLM 130000Z 08007KT 9999 FEW020 SCT130 BKN240 28/25 A2992=
202109130100 METAR MRLM NIL=
202109130200 METAR MRLM NIL=
202109130300 METAR MRLM NIL=
202109130400 METAR MRLM NIL=
202109130500 METAR MRLM NIL=
202109130600 METAR MRLM NIL=
202109130700 METAR MRLM NIL=
202109130800 METAR MRLM NIL=
202109130900 METAR MRLM NIL=
202109131000 METAR MRLM NIL=
202109131100 METAR MRLM NIL=
202109131200 METAR MRLM 131200Z 25004KT 9999 FEW015 SCT100 BKN200 24/23 A2996=
202109131300 METAR MRLM 131300Z 30005KT 9999 VCSH FEW015TCU SCT100 BKN200 25/24 A2997=
202109131400 METAR MRLM 131400Z 31006KT 9999 SCT015 OVC100 26/23 A2999=
202109131500 METAR MRLM 131500Z 31005KT 9999 SCT015 OVC100 26/24 A2999=
202109131600 METAR MRLM 131600Z 27004KT 9999 FEW015 OVC100 26/24 A2999=
202109131700 METAR MRLM 131700Z 28004KT CAVOK 28/25 A2995=
202109131800 METAR MRLM 131800Z 04007KT CAVOK 28/23 A2993=
202109131900 METAR MRLM 131900Z 02008KT CAVOK 28/24 A2992=
202109132000 METAR MRLM 132000Z 36010KT 9999 FEW020 BKN120 28/24 A2990=
202109132100 METAR MRLM 132100Z 35006KT 9999 FEW020 SCT120 BKN220 28/23 A2989=
202109132200 METAR MRLM 132200Z 31004KT 9999 FEW020 OVC200 27/23 A2990=
202109132300 METAR MRLM 132300Z 26003KT 9999 FEW020 SCT100 OVC200 26/24 A2990=
202109140000 METAR MRLM 140000Z 23003KT 9999 FEW020 SCT100 OVC200 26/24 A2991=
202109140100 METAR MRLM NIL=
202109140200 METAR MRLM NIL=
202109140300 METAR MRLM NIL=
202109140400 METAR MRLM NIL=
202109140500 METAR MRLM NIL=
202109140600 METAR MRLM NIL=
202109140700 METAR MRLM NIL=
202109140800 METAR MRLM NIL=
202109140900 METAR MRLM NIL=
202109141000 METAR MRLM NIL=
202109141100 METAR MRLM NIL=
202109141200 METAR MRLM 141200Z 23004KT 9999 FEW015 BKN100 23/22 A2992=
202109141300 METAR MRLM 141300Z 24004KT 9999 FEW015 SCT100 25/23 A2994=
202109141400 METAR MRLM 141400Z 27005KT 9999 FEW020 SCT120 28/23 A2995=
202109141500 METAR MRLM 141500Z 31006KT 9999 FEW020 SCT120 29/23 A2995=
202109141600 METAR MRLM 141600Z 31005KT 9999 FEW030 SCT140 30/23 A2995=
202109141700 METAR MRLM 141700Z 02008KT 9999 FEW030 30/24 A2993=
202109141800 METAR MRLM 141800Z 02008KT 9999 FEW030 30/24 A2991=
202109141900 METAR MRLM 141900Z 03008KT CAVOK 30/24 A2988=
202109142000 METAR MRLM 142000Z 02008KT CAVOK 30/24 A2985=
202109142100 METAR MRLM 142100Z 03003KT 9999 FEW030 BKN240 29/24 A2983=
202109142200 METAR MRLM 142200Z 36004KT 9999 FEW030 SCT240 28/24 A2983=
202109142300 METAR MRLM 142300Z 02004KT 9999 FEW020 SCT220 28/24 A2984=
202109150000 METAR MRLM 150000Z 25002KT CAVOK 26/24 A2985=
202109150100 METAR MRLM NIL=
202109150200 METAR MRLM NIL=
202109150300 METAR MRLM NIL=
202109150400 METAR MRLM NIL=
202109150500 METAR MRLM NIL=
202109150600 METAR MRLM NIL=
202109150700 METAR MRLM NIL=
202109150800 METAR MRLM NIL=
202109150900 METAR MRLM NIL=
202109151000 METAR MRLM NIL=
202109151100 METAR MRLM NIL=
202109151200 METAR MRLM 151200Z 24004KT 9999 FEW015TCU BKN100 24/23 A2988=
202109151300 METAR MRLM 151300Z 22004KT 9999 FEW015 SCT100 25/24 A2991=
202109151400 METAR MRLM 151400Z 26004KT 9999 FEW020 SCT120 29/24 A2992=
202109151500 METAR MRLM 151500Z 03005KT 9999 FEW020 BKN120 29/24 A2993=
202109151600 METAR MRLM 151600Z 03005KT 9999 FEW020 BKN120 29/24 A2993=
202109151700 METAR MRLM 151700Z 01006KT 9999 FEW020 SCT120 BKN220 29/25 A2991=
202109151800 METAR MRLM 151800Z 01006KT 9999 FEW020 BKN220 29/25 A2987=
202109151900 METAR MRLM 151900Z 02005KT CAVOK 29/25 A2983=
202109152000 METAR MRLM 152000Z 06005KT CAVOK 29/25 A2982=
202109152100 METAR MRLM 152100Z 06007KT CAVOK 29/24 A2981=
202109152200 METAR MRLM 152200Z 09006KT 9999 FEW025 BKN220 29/24 A2982=
202109152300 METAR MRLM 152300Z 13008KT 9999 FEW025 BKN220 29/24 A2984=
202109160000 METAR MRLM 160000Z 15006KT 9999 FEW020 BKN200 27/24 A2984=
202109160100 METAR MRLM NIL=
202109160200 METAR MRLM NIL=
202109160300 METAR MRLM NIL=
202109160400 METAR MRLM NIL=
202109160500 METAR MRLM NIL=
202109160600 METAR MRLM NIL=
202109160700 METAR MRLM NIL=
202109160800 METAR MRLM NIL=
202109160900 METAR MRLM NIL=
202109161000 METAR MRLM NIL=
202109161100 METAR MRLM NIL=
202109161200 METAR MRLM 161200Z 23003KT CAVOK 23/22 A2989=
202109161300 METAR MRLM 161300Z 21005KT CAVOK 25/23 A2992=
202109161400 METAR MRLM 161400Z 24003KT CAVOK 28/24 A2994=
202109161500 METAR MRLM 161500Z 08005KT 9999 FEW030 BKN240 29/24 A2995=
202109161600 METAR MRLM 161600Z 09007KT CAVOK 30/24 A2994=
202109161700 METAR MRLM 161700Z 08008KT CAVOK 30/24 A2993=
202109161800 METAR MRLM 161800Z 07009KT CAVOK 31/25 A2990=
202109161900 METAR MRLM 161900Z 07009KT CAVOK 30/25 A2987=
202109162000 METAR MRLM 162000Z 07009KT 9999 FEW030 BKN250 30/25 A2985=
202109162100 METAR MRLM 162100Z 08007KT 9999 FEW030 BKN240 29/25 A2982=
202109162200 METAR MRLM 162200Z 09004KT 9999 FEW025 BKN240 29/25 A2983=
202109162300 METAR MRLM 162300Z 10004KT 9999 FEW025 BKN240 28/25 A2984=
202109170000 METAR MRLM 170000Z 00000KT 9999 FEW025 BKN230 28/25 A2988=
202109170100 METAR MRLM NIL=
202109170200 METAR MRLM NIL=
202109170300 METAR MRLM NIL=
202109170400 METAR MRLM NIL=
202109170500 METAR MRLM NIL=
202109170600 METAR MRLM NIL=
202109170700 METAR MRLM NIL=
202109170800 METAR MRLM NIL=
202109170900 METAR MRLM NIL=
202109171000 METAR MRLM NIL=
202109171100 METAR MRLM NIL=
202109171200 METAR MRLM 171200Z 23005KT CAVOK 23/23 A2989=
202109171300 METAR MRLM 171300Z 24004KT CAVOK 25/24 A2993=
202109171400 METAR MRLM 171400Z 25003KT CAVOK 29/24 A2993=
202109171500 METAR MRLM 171500Z 02007KT 9999 FEW030 BKN250 30/25 A2995=
202109171600 METAR MRLM 171600Z 01007KT 9999 BKN025 29/24 A2997=
202109171700 METAR MRLM 171700Z 01006KT 9999 BKN025 30/25 A2997=
202109171800 METAR MRLM 171800Z 04005KT 9999 VCTS FEW015CB BKN020 29/25 A2995=
202109171900 METAR MRLM 171900Z 19005KT 9999 VCTS FEW015CB BKN020 25/22 A2995=
202109172000 METAR MRLM 172000Z 00000KT CAVOK 25/21 A2986=
202109172100 METAR MRLM 172100Z 08005KT 9999 FEW020 BKN130 27/21 A2986=
202109172200 METAR MRLM 172200Z 22005KT CAVOK 25/22 A2987=
202109172300 METAR MRLM 172300Z 23004KT 9999 FEW020 BKN120 24/22 A2988=
202109180000 METAR MRLM 180000Z 22003KT 9999 FEW020 BKN110 24/22 A2991=
202109180300 METAR MRLM NIL=
202109180400 METAR MRLM NIL=
202109180500 METAR MRLM NIL=
202109180600 METAR MRLM NIL=
202109180700 METAR MRLM NIL=
202109180800 METAR MRLM NIL=
202109180900 METAR MRLM NIL=
202109181000 METAR MRLM NIL=
202109181100 METAR MRLM NIL=
202109181200 METAR MRLM 181200Z 25005KT 9999 FEW015 SCT100 BKN200 23/21 A2986=
202109181300 METAR MRLM 181300Z 24004KT 9999 VCSH FEW015TCU BKN100 24/22 A2990=
202109181400 METAR MRLM 181400Z 23004KT 9999 FEW020 BKN100 27/24 A2992=
202109181500 METAR MRLM 181500Z 26004KT CAVOK 30/24 A2992=
202109181600 METAR MRLM 181600Z 06004KT 9999 FEW030 BKN250 30/25 A2992=
202109181700 METAR MRLM 181700Z 02006KT 9999 FEW030 SCT130 BKN250 30/25 A2992=
202109181800 METAR MRLM 181800Z 02006KT CAVOK 30/25 A2988=
202109181900 METAR MRLM 181900Z 05006KT CAVOK 30/25 A2987=
202109182000 METAR MRLM 182000Z 03005KT 9999 VCSH FEW020TCU OVC120 29/25 A2984=
202109182100 METAR MRLM 182100Z 02009KT 9999 FEW020TCU SCT120 BKN220 28/25 A2982=
202109182200 METAR MRLM 182200Z 02003KT 9999 FEW020 SCT120 BKN220 29/25 A2982=
202109182300 METAR MRLM 182300Z 00000KT 9999 FEW020 BKN220 29/25 A2984=
202109190000 METAR MRLM 190000Z 00000KT 9999 FEW020 BKN200 27/25 A2987=
202109190100 METAR MRLM NIL=
202109190200 METAR MRLM NIL=
202109190300 METAR MRLM NIL=
202109190400 METAR MRLM NIL=
202109190500 METAR MRLM NIL=
202109190600 METAR MRLM NIL=
202109190700 METAR MRLM NIL=
202109190800 METAR MRLM NIL=
202109190900 METAR MRLM NIL=
202109191000 METAR MRLM NIL=
202109191100 METAR MRLM NIL=
202109191200 METAR MRLM 191200Z 22005KT 9999 FEW015TCU BKN100 24/23 A2988=
202109191300 METAR MRLM 191300Z 22004KT CAVOK 26/24 A2989=
202109191400 METAR MRLM 191400Z 22003KT 9999 FEW020 BKN120 28/24 A2992=
202109191500 METAR MRLM 191500Z 06003KT 9999 VCSH FEW020TCU BKN120 29/24 A2991=
202109191600 METAR MRLM 191600Z 04005KT 9999 FEW020TCU SCT120 30/25 A2992=
202109191700 METAR MRLM 191700Z 03005KT CAVOK 30/25 A2990=
202109191800 METAR MRLM 191800Z 03006KT CAVOK 30/25 A2987=
202109191900 METAR MRLM 191900Z 03006KT 9999 FEW030 BKN240 30/25 A2985=
202109192000 METAR MRLM 192000Z 01007KT 9999 FEW030 BKN240 30/25 A2982=
202109192100 METAR MRLM 192100Z 01006KT 9999 FEW030 BKN240 30/25 A2981=
202109192200 METAR MRLM 192200Z 03005KT 9999 FEW030 BKN240 30/25 A2981=
202109192300 METAR MRLM 192300Z 02003KT 9999 SCT020 BKN220 29/24 A2982=
202109200000 METAR MRLM 200000Z 28002KT 9999 FEW020 BKN220 27/24 A2983=
202109200100 METAR MRLM NIL=
202109200200 METAR MRLM NIL=
202109200300 METAR MRLM NIL=
202109200400 METAR MRLM NIL=
202109200500 METAR MRLM NIL=
202109200600 METAR MRLM NIL=
202109200700 METAR MRLM NIL=
202109200800 METAR MRLM NIL=
202109200900 METAR MRLM NIL=
202109201000 METAR MRLM NIL=
202109201100 METAR MRLM NIL=
202109201200 METAR MRLM 201200Z 24005KT CAVOK 23/22 A2985=
202109201300 METAR MRLM 201300Z 23005KT CAVOK 23/22 A2987=
202109201400 METAR MRLM 201400Z 24004KT CAVOK 24/23 A2989=
202109201500 METAR MRLM 201500Z 25003KT 9999 FEW030 BKN130 27/24 A2990=
202109201600 METAR MRLM 201600Z 00000KT CAVOK 28/25 A2992=
202109201700 METAR MRLM 201700Z 00000KT 9999 DZ FEW020 BKN130 27/25 A2993=
202109201800 METAR MRLM 201800Z 19003KT 9999 +DZ FEW020 BKN130 26/25 A2990=
202109201900 METAR MRLM 201900Z 20003KT 9999 FEW020 BKN130 26/25 A2987 REDZ=
202109202000 METAR MRLM 202000Z 21003KT CAVOK 28/24 A2983=
202109202100 METAR MRLM 202100Z 00000KT CAVOK 28/23 A2981=
202109202200 METAR MRLM 202200Z 13004KT CAVOK 28/24 A2981=
202109202300 METAR MRLM 202300Z 15003KT CAVOK 28/24 A2982=
202109210000 METAR MRLM 210000Z 00000KT CAVOK 27/25 A2983=
202109210100 METAR MRLM NIL=
202109210200 METAR MRLM NIL=
202109210300 METAR MRLM NIL=
202109210400 METAR MRLM NIL=
202109210500 METAR MRLM NIL=
202109210600 METAR MRLM NIL=
202109210700 METAR MRLM NIL=
202109210800 METAR MRLM NIL=
202109210900 METAR MRLM NIL=
202109211000 METAR MRLM NIL=
202109211100 METAR MRLM NIL=
202109211200 METAR MRLM 211200Z 00000KT CAVOK 21/19 A2986=
202109211300 METAR MRLM 211300Z 23003KT CAVOK 25/21 A2988=
202109211400 METAR MRLM 211400Z 00000KT CAVOK 27/22 A2991=
202109211500 METAR MRLM 211500Z 00000KT CAVOK 28/21 A2993=
202109211600 METAR MRLM 211600Z 03004KT CAVOK 29/22 A2992=
202109211700 METAR MRLM 211700Z 04006KT CAVOK 30/24 A2991=
202109211800 METAR MRLM 211800Z 04004KT CAVOK 29/24 A2989=
202109211900 METAR MRLM 211900Z 04005KT CAVOK 29/24 A2986=
202109212000 METAR MRLM 212000Z 05005KT CAVOK 30/25 A2984=
202109212100 METAR MRLM 212100Z 07005KT CAVOK 29/23 A2982=
202109212200 METAR MRLM 212200Z 07005KT CAVOK 30/24 A2981=
202109212300 METAR MRLM 212300Z 04003KT 9999 FEW030 BKN130 29/24 A2981=
202109220000 METAR MRLM 220000Z 00000KT 9999 FEW030 BKN130 28/24 A2987=
202109220100 METAR MRLM NIL=
202109220200 METAR MRLM NIL=
202109220300 METAR MRLM NIL=
202109220400 METAR MRLM NIL=
202109220500 METAR MRLM NIL=
202109220600 METAR MRLM NIL=
202109220700 METAR MRLM NIL=
202109220800 METAR MRLM NIL=
202109220900 METAR MRLM NIL=
202109221000 METAR MRLM NIL=
202109221100 METAR MRLM NIL=
202109221200 METAR MRLM 221200Z 24004KT 9999 VCSH FEW015TCU SCT200 23/22 A2987=
202109221300 METAR MRLM 221300Z 24003KT 9999 VCSH FEW015TCU BKN100 25/23 A2989=
202109221400 METAR MRLM 221400Z 28003KT 9999 VCSH FEW015TCU BKN100 26/23 A2991=
202109221500 METAR MRLM 221500Z 31007KT 9999 FEW020 BKN120 27/23 A2992=
202109221600 METAR MRLM 221600Z 33006KT 9999 -DZ SCT020 BKN120 28/24 A2992=
202109221700 METAR MRLM 221700Z 35008KT 9999 FEW020 SCT120 BKN220 29/25 A2990=
202109221800 METAR MRLM 221800Z 36009KT 9999 FEW020 SCT220 29/25 A2987=
202109221900 METAR MRLM 221900Z 01007KT 9999 FEW025 SCT240 29/24 A2983=
202109222000 METAR MRLM 222000Z 01008KT 9999 FEW025 SCT240 29/24 A2979=
202109222100 METAR MRLM 222100Z 01007KT 9999 FEW025 BKN240 29/24 A2979=
202109222200 METAR MRLM 222200Z 01006KT 9999 FEW025 BKN240 28/24 A2979=
202109222300 METAR MRLM 222300Z 04004KT 9999 FEW020 BKN220 28/24 A2981=
202109230000 METAR MRLM 230000Z 26002KT 9999 FEW020 BKN220 26/24 A2984=
202109230100 METAR MRLM NIL=
202109230200 METAR MRLM NIL=
202109230300 METAR MRLM NIL=
202109230400 METAR MRLM NIL=
202109230500 METAR MRLM NIL=
202109230600 METAR MRLM NIL=
202109230700 METAR MRLM NIL=
202109230800 METAR MRLM NIL=
202109230900 METAR MRLM NIL=
202109231000 METAR MRLM NIL=
202109231100 METAR MRLM NIL=
202109231200 METAR MRLM 231200Z 23004KT 9999 FEW020 23/22 A2984=
202109231300 METAR MRLM 231300Z 24004KT 9999 FEW020 26/23 A2985=
202109231400 METAR MRLM 231400Z 23002KT 9999 FEW020 SCT130 29/23 A2988=
202109231500 METAR MRLM 231500Z 05005KT 9999 FEW030 29/24 A2988=
202109231600 METAR MRLM 231600Z 02007KT 9999 FEW030 30/24 A2989=
202109231700 METAR MRLM 231700Z 03007KT 9999 FEW030 SCT130 30/25 A2986=
202109231800 METAR MRLM 231800Z 04007KT 9999 FEW030 SCT130 30/25 A2984=
202109231900 METAR MRLM 231900Z 06007KT 9999 SCT030 SCT240 30/25 A2981=
202109232000 METAR MRLM 232000Z 06007KT 9999 FEW030 SCT240 30/25 A2979=
202109232100 METAR MRLM 232100Z 08007KT 9999 SCT020 BKN240 30/24 A2979=
202109232200 METAR MRLM 232200Z 07008KT 9999 FEW020TCU BKN220 30/24 A2979=
202109232300 METAR MRLM 232300Z 07006KT 9999 FEW020 BKN220 29/24 A2981=
202109240000 METAR MRLM 240000Z 12003KT 9999 FEW015 SCT110 BKN200 27/24 A2985=
202109240100 METAR MRLM NIL=
202109240200 METAR MRLM NIL=
202109240300 METAR MRLM NIL=
202109240400 METAR MRLM NIL=
202109240500 METAR MRLM NIL=
202109240600 METAR MRLM NIL=
202109240700 METAR MRLM NIL=
202109240800 METAR MRLM NIL=
202109240900 METAR MRLM NIL=
202109241000 METAR MRLM NIL=
202109241100 METAR MRLM NIL=
202109241200 METAR MRLM 241200Z 24005KT 9999 FEW015 BKN100 23/22 A2986=
202109241300 METAR MRLM 241300Z 22004KT 9999 FEW015 BKN100 25/23 A2989=
202109241400 METAR MRLM 241400Z 24003KT CAVOK 27/24 A2990=
202109241500 METAR MRLM 241500Z 09003KT 9999 FEW030 SCT220 30/24 A2991=
202109241600 METAR MRLM 241600Z 07006KT 9999 FEW030 SCT130 30/24 A2990=
202109241700 METAR MRLM 241700Z 06008KT 9999 FEW030 SCT130 30/25 A2988=
202109241800 METAR MRLM 241800Z 08009KT 9999 FEW030 BKN130 30/25 A2987=
202109241900 METAR MRLM 241900Z 05010KT 9999 -DZ FEW020 BKN120 29/24 A2986=
202109242000 METAR MRLM 242000Z 05018KT 9999 VCSH FEW015TCU SCT020 OVC100 28/24 A2983=
202109242100 METAR MRLM 242100Z 07008KT 9999 FEW020 SCT120 OVC220 27/23 A2983=
202109242200 METAR MRLM 242200Z 18003KT 9999 VCSH FEW015TCU FEW020 OVC120 27/22 A2983=
202109242300 METAR MRLM NIL=
202109250000 METAR MRLM NIL=
202109250100 METAR MRLM NIL=
202109250200 METAR MRLM NIL=
202109250300 METAR MRLM NIL=
202109250400 METAR MRLM NIL=
202109250500 METAR MRLM NIL=
202109250600 METAR MRLM NIL=
202109250700 METAR MRLM NIL=
202109250800 METAR MRLM NIL=
202109250900 METAR MRLM NIL=
202109251000 METAR MRLM NIL=
202109251100 METAR MRLM NIL=
202109251200 METAR MRLM 251200Z 24004KT 9999 FEW015 BKN100 22/21 A2987=
202109251300 METAR MRLM 251300Z 24005KT 9999 FEW015 BKN100 24/22 A2988=
202109251400 METAR MRLM 251400Z 24004KT 9999 FEW020 SCT120 28/23 A2990=
202109251500 METAR MRLM 251500Z 06003KT CAVOK 29/23 A2990=
202109251600 METAR MRLM 251600Z 04005KT 9999 FEW030 30/24 A2991=
202109251700 METAR MRLM 251700Z 04007KT 9999 FEW030 30/24 A2990=
202109251800 METAR MRLM 251800Z 02008KT CAVOK 30/24 A2987=
202109251900 METAR MRLM 251900Z 01009KT CAVOK 30/25 A2985=
202109252000 METAR MRLM 252000Z 01008KT 9999 FEW030 SCT240 30/25 A2983=
202109252100 METAR MRLM 252100Z 36009KT 9999 SCT030 SCT240 30/25 A2982=
202109252200 METAR MRLM 252200Z 35008KT 9999 SCT020 SCT220 30/25 A2982=
202109252300 METAR MRLM NIL=
202109260000 METAR MRLM NIL=
202109260100 METAR MRLM NIL=
202109260200 METAR MRLM NIL=
202109260300 METAR MRLM NIL=
202109260400 METAR MRLM NIL=
202109260500 METAR MRLM NIL=
202109260600 METAR MRLM NIL=
202109260700 METAR MRLM NIL=
202109260800 METAR MRLM NIL=
202109260900 METAR MRLM NIL=
202109261000 METAR MRLM NIL=
202109261100 METAR MRLM NIL=
202109261200 METAR MRLM 261200Z 24005KT 9999 VCTS FEW010CB SCT015 OVC100 23/22 A2985=
202109261300 METAR MRLM 261300Z 20006KT 9999 SCT015 OVC100 24/23 A2987=
202109261400 METAR MRLM 261400Z 26004KT 9999 VCTS FEW010CB SCT015 BKN100 26/24 A2992=
202109261500 METAR MRLM 261500Z 31005KT 9999 VCTS VCSH FEW010CB SCT015 OVC100 26/23 A2994=
202109261600 METAR MRLM 261600Z 28002KT 9999 TS +DZ FEW010CB OVC090 26/23 A2993=
202109261700 METAR MRLM 261700Z 31005KT 9999 TS +DZ FEW010CB SCT015 OVC090 24/23 A2996=
202109261800 METAR MRLM 261800Z 30003KT 4000 TSRA FEW008CB SCT010 OVC070 22/21 A2997=
202109261900 METAR MRLM 261900Z 26006KT 8000 +DZ FEW010 OVC070 22/21 A2992 RETSRA=
202109262000 METAR MRLM 262000Z 24006KT 8000 +DZ FEW010 OVC070 22/21 A2990=
202109262100 METAR MRLM 262100Z 23004KT 9999 -DZ FEW015 OVC100 22/21 A2986=
202109262200 METAR MRLM 262200Z 20004KT 9999 FEW015 OVC100 23/22 A2986 REDZ=
202109262300 METAR MRLM NIL=
202109270000 METAR MRLM NIL=
202109270100 METAR MRLM NIL=
202109270200 METAR MRLM NIL=
202109270300 METAR MRLM NIL=
202109270400 METAR MRLM NIL=
202109270500 METAR MRLM NIL=
202109270600 METAR MRLM NIL=
202109270700 METAR MRLM NIL=
202109270800 METAR MRLM NIL=
202109270900 METAR MRLM NIL=
202109271000 METAR MRLM NIL=
202109271100 METAR MRLM NIL=
202109271200 METAR MRLM 271200Z 24005KT CAVOK 22/21 A2987=
202109271300 METAR MRLM 271300Z 25002KT CAVOK 25/22 A2991=
202109271400 METAR MRLM 271400Z 26002KT CAVOK 27/23 A2992=
202109271500 METAR MRLM 271500Z 31005KT 9999 FEW020 BKN100 28/23 A2996=
202109271600 METAR MRLM 271600Z 32006KT 8000 +DZ VCSH FEW010TCU SCT015 OVC100 27/23 A2996=
202109271700 METAR MRLM 271700Z 27003KT 4000 +RA VCTS FEW010CB OVC015 23/22 A2997=
202109271800 METAR MRLM 271800Z 26004KT 6000 +DZ SCT015 OVC070 23/23 A2996 RERA=
202109271900 METAR MRLM 271900Z 25004KT 9999 -DZ VCSH FEW015TCU SCT015 OVC090 24/23 A2993=
202109272000 METAR MRLM 272000Z 26003KT 9999 VCSH FEW015TCU SCT015 OVC090 25/23 A2990 REDZ=
202109272100 METAR MRLM 272100Z 28003KT 9999 -DZ SCT015 OVC080 25/23 A2989=
202109272200 METAR MRLM 272200Z 28003KT 9999 VCSH FEW010TCU SCT015 OVC080 25/24 A2989=
202109272300 METAR MRLM NIL=
202109280000 METAR MRLM NIL=
202109280100 METAR MRLM NIL=
202109280200 METAR MRLM NIL=
202109280300 METAR MRLM NIL=
202109280400 METAR MRLM NIL=
202109280500 METAR MRLM NIL=
202109280600 METAR MRLM NIL=
202109280700 METAR MRLM NIL=
202109280800 METAR MRLM NIL=
202109280900 METAR MRLM NIL=
202109281000 METAR MRLM NIL=
202109281100 METAR MRLM NIL=
202109281200 METAR MRLM 281200Z 24005KT CAVOK 22/21 A2989=
202109281300 METAR MRLM 281300Z 24003KT CAVOK 25/22 A2991=
202109281400 METAR MRLM 281400Z 00000KT 9999 FEW020 SCT120 27/23 A2992=
202109281500 METAR MRLM 281500Z 08003KT 9999 FEW020 BKN120 27/23 A2993=
202109281600 METAR MRLM 281600Z 36004KT 9999 -DZ FEW020 BKN120 27/23 A2993=
202109281700 METAR MRLM 281700Z 03008KT 9999 FEW030 SCT220 29/23 A2990=
202109281800 METAR MRLM 281800Z 02006KT CAVOK 30/23 A2988=
202109281900 METAR MRLM 281900Z 04006KT CAVOK 29/24 A2985=
202109282000 METAR MRLM 282000Z 02006KT CAVOK 30/23 A2982=
202109282100 METAR MRLM 282100Z 03006KT CAVOK 30/24 A2982=
202109282200 METAR MRLM 282200Z 04009KT CAVOK 29/24 A2983=
202109282300 METAR MRLM NIL=
202109290000 METAR MRLM NIL=
202109290100 METAR MRLM NIL=
202109290200 METAR MRLM NIL=
202109290300 METAR MRLM NIL=
202109290400 METAR MRLM NIL=
202109290500 METAR MRLM NIL=
202109290600 METAR MRLM NIL=
202109290700 METAR MRLM NIL=
202109290800 METAR MRLM NIL=
202109290900 METAR MRLM NIL=
202109291000 METAR MRLM NIL=
202109291100 METAR MRLM NIL=
202109291200 METAR MRLM 291200Z 24005KT 9999 FEW020 BKN200 23/22 A2987=
202109291300 METAR MRLM 291300Z 24004KT 9999 FEW020 BKN200 24/23 A2990=
202109291400 METAR MRLM 291400Z 26003KT 9999 FEW020 BKN200 27/24 A2992=
202109291500 METAR MRLM 291500Z 25002KT 9999 FEW025 SCT230 28/24 A2993=
202109291600 METAR MRLM 291600Z 05005KT 9999 FEW025 SCT230 30/24 A2993=
202109291700 METAR MRLM 291700Z 02008KT CAVOK 30/25 A2990=
202109291800 METAR MRLM 291800Z 01009KT 9999 FEW025 SCT250 30/25 A2988=
202109291900 METAR MRLM 291900Z 01009KT 9999 FEW025 BKN250 30/25 A2985=
202109292000 METAR MRLM 292000Z 35006KT 9999 FEW025 BKN250 29/25 A2982=
202109292100 METAR MRLM 292100Z 01005KT 9999 FEW020 SCT120 BKN220 29/24 A2982=
202109292200 METAR MRLM 292200Z 36005KT 9999 FEW020 SCT120 BKN220 28/23 A2982=
202109292300 METAR MRLM NIL=
202109300000 METAR MRLM NIL=
202109300100 METAR MRLM NIL=
202109300200 METAR MRLM NIL=
202109300300 METAR MRLM NIL=
202109300400 METAR MRLM NIL=
202109300500 METAR MRLM NIL=
202109300600 METAR MRLM NIL=
202109300700 METAR MRLM NIL=
202109300800 METAR MRLM NIL=
202109300900 METAR MRLM NIL=
202109301000 METAR MRLM NIL=
202109301100 METAR MRLM NIL=
202109301200 METAR MRLM 301200Z 26002KT 9999 VCSH FEW015TCU SCT100 BKN200 23/21 A2987=
202109301300 METAR MRLM 301300Z 00000KT 9999 VCSH FEW015TCU BKN100 24/22 A2989=
202109301400 METAR MRLM 301400Z 28002KT 9999 FEW020 SCT220 28/24 A2990=
202109301500 METAR MRLM 301500Z 05005KT 9999 FEW020 SCT220 29/24 A2991=
202109301600 METAR MRLM 301600Z 04005KT 9999 FEW020 SCT120 BKN220 29/25 A2991=
202109301700 METAR MRLM 301700Z 05005KT CAVOK 29/24 A2989=
202109301800 METAR MRLM 301800Z 04004KT 9999 FEW030 SCT240 30/24 A2985=
202109301900 METAR MRLM 301900Z 04006KT 9999 FEW030 SCT240 30/24 A2981=
202109302000 METAR MRLM 302000Z 05006KT 9999 FEW030 SCT240 30/24 A2980=
202109302100 METAR MRLM 302100Z 04007KT 9999 FEW030 SCT240 30/24 A2979=
202109302200 METAR MRLM 302200Z 05005KT 9999 FEW030 SCT240 30/24 A2979=
202109302300 METAR MRLM NIL=
202110010000 METAR MRLM NIL=
202110010100 METAR MRLM NIL=
202110010200 METAR MRLM NIL=
202110010300 METAR MRLM NIL=
202110010400 METAR MRLM NIL=
202110010500 METAR MRLM NIL=
202110010600 METAR MRLM NIL=
202110010700 METAR MRLM NIL=
202110010800 METAR MRLM NIL=
202110010900 METAR MRLM NIL=
202110011000 METAR MRLM NIL=
202110011100 METAR MRLM NIL=
202110011200 METAR MRLM 011200Z 24004KT 9999 FEW015 SCT200 23/22 A2986=
202110011300 METAR MRLM 011300Z 23004KT 9999 FEW015 SCT200 26/23 A2988=
202110011400 METAR MRLM 011400Z 23004KT 9999 FEW020 SCT220 29/24 A2989=
202110011500 METAR MRLM 011500Z 08004KT 9999 FEW020 30/23 A2991=
202110011600 METAR MRLM 011600Z 05005KT 9999 FEW030 30/24 A2990=
202110011700 METAR MRLM 011700Z 05005KT CAVOK 30/24 A2988=
202110011800 METAR MRLM 011800Z 05006KT CAVOK 30/24 A2986=
202110011900 METAR MRLM 011900Z 05008KT 9999 FEW030 SCT240 30/24 A2983=
202110012000 METAR MRLM 012000Z 05005KT 9999 SCT030 SCT240 30/25 A2981=
202110012100 METAR MRLM 012100Z 06005KT 9999 BKN030 SCT240 30/24 A2980=
202110012200 METAR MRLM 012200Z 05006KT 9999 BKN020 SCT220 29/24 A2981=
202110012300 METAR MRLM NIL=
202110020000 METAR MRLM NIL=
202110020100 METAR MRLM NIL=
202110020200 METAR MRLM NIL=
202110020300 METAR MRLM NIL=
202110020400 METAR MRLM NIL=
202110020500 METAR MRLM NIL=
202110020600 METAR MRLM NIL=
202110020700 METAR MRLM NIL=
202110020800 METAR MRLM NIL=
202110020900 METAR MRLM NIL=
202110021000 METAR MRLM NIL=
202110021100 METAR MRLM NIL=
202110021200 METAR MRLM 021200Z 24004KT CAVOK 23/21 A2988=
202110021300 METAR MRLM 021300Z 23004KT CAVOK 26/23 A2989=
202110021400 METAR MRLM 021400Z 10003KT CAVOK 28/24 A2991=
202110021500 METAR MRLM 021500Z 09004KT CAVOK 29/24 A2990=
202110021600 METAR MRLM 021600Z 06005KT 9999 FEW030 SCT250 30/25 A2990=
202110021700 METAR MRLM 021700Z 09007KT 9999 FEW030 SCT250 30/25 A2987=
202110021800 METAR MRLM 021800Z 09007KT CAVOK 30/24 A2985=
202110021900 METAR MRLM 021900Z 07006KT CAVOK 30/25 A2981=
202110022000 METAR MRLM 022000Z 07004KT 9999 FEW030 BKN240 30/24 A2978=
202110022100 METAR MRLM 022100Z 07005KT 9999 FEW030 SCT250 30/25 A2977=
202110022200 METAR MRLM 022200Z 07007KT CAVOK 30/24 A2977=
202110022300 METAR MRLM 022300Z 08005KT 9999 FEW025 BKN240 29/24 A2978=
202110030000 METAR MRLM 030000Z 10005KT 9999 SCT025 BKN240 29/24 A2979=
202110030100 METAR MRLM NIL=
202110030200 METAR MRLM NIL=
202110030300 METAR MRLM NIL=
202110030400 METAR MRLM NIL=
202110030500 METAR MRLM NIL=
202110030600 METAR MRLM NIL=
202110030700 METAR MRLM NIL=
202110030800 METAR MRLM NIL=
202110030900 METAR MRLM NIL=
202110031000 METAR MRLM NIL=
202110031100 METAR MRLM NIL=
202110031200 METAR MRLM 031200Z 25005KT CAVOK 23/22 A2979=
202110031300 METAR MRLM 031300Z 21005KT CAVOK 26/23 A2982=
202110031400 METAR MRLM 031400Z 00000KT CAVOK 29/23 A2985=
202110031500 METAR MRLM 031500Z 05004KT CAVOK 29/24 A2986=
202110031600 METAR MRLM 031600Z 36003KT CAVOK 28/24 A2985=
202110031700 METAR MRLM 031700Z 05003KT CAVOK 29/24 A2984=
202110031800 METAR MRLM 031800Z 03004KT CAVOK 30/24 A2981=
202110031900 METAR MRLM 031900Z 02004KT CAVOK 30/24 A2979=
202110032000 METAR MRLM 032000Z 04005KT 9999 FEW030 BKN230 30/23 A2976=
202110032100 METAR MRLM 032100Z 05004KT 9999 FEW030 BKN230 30/24 A2974=
202110032200 METAR MRLM 032200Z 06003KT 9999 FEW030 BKN230 29/24 A2973=
202110032300 METAR MRLM 032300Z 36006KT CAVOK 29/24 A2973=
202110040000 METAR MRLM 040000Z 26005KT 9999 FEW020 BKN230 28/24 A2979=
202110040100 METAR MRLM NIL=
202110040200 METAR MRLM NIL=
202110040300 METAR MRLM NIL=
202110040400 METAR MRLM NIL=
202110040500 METAR MRLM NIL=
202110040600 METAR MRLM NIL=
202110040700 METAR MRLM NIL=
202110040800 METAR MRLM NIL=
202110040900 METAR MRLM NIL=
202110041000 METAR MRLM NIL=
202110041100 METAR MRLM NIL=
202110041200 METAR MRLM 041200Z 31004KT 8000 DZ VCSH FEW010TCU OVC080 25/23 A2983=
202110041300 METAR MRLM 041300Z 26005KT 9999 -DZ FEW010 OVC090 25/23 A2983=
202110041400 METAR MRLM 041400Z 25006KT 9999 FEW015 BKN090 26/24 A2983=
202110041500 METAR MRLM 041500Z 28006KT CAVOK 29/24 A2982=
202110041600 METAR MRLM 041600Z 30007KT 9999 FEW030 SCT220 30/23 A2982=
202110041700 METAR MRLM 041700Z 33010KT CAVOK 30/24 A2981=
202110041800 METAR MRLM 041800Z 35012KT CAVOK 30/24 A2977=
202110041900 METAR MRLM 041900Z 35011KT CAVOK 30/25 A2976=
202110042000 METAR MRLM 042000Z 36009KT 9999 FEW020 BKN240 29/24 A2974=
202110042100 METAR MRLM 042100Z 29004KT 9999 SCT020 BKN220 28/25 A2973=
202110042200 METAR MRLM 042200Z 29004KT 9999 SCT020 BKN220 28/25 A2974=
202110042300 METAR MRLM 042300Z 26003KT 9999 FEW020 BKN220 27/25 A2975=
202110050000 METAR MRLM 050000Z 27002KT 9999 FEW015 BKN200 26/24 A2978=
202110050100 METAR MRLM NIL=
202110050200 METAR MRLM NIL=
202110050300 METAR MRLM NIL=
202110050400 METAR MRLM NIL=
202110050500 METAR MRLM NIL=
202110050600 METAR MRLM NIL=
202110050700 METAR MRLM NIL=
202110050800 METAR MRLM NIL=
202110050900 METAR MRLM NIL=
202110051000 METAR MRLM NIL=
202110051100 METAR MRLM NIL=
202110051200 METAR MRLM 051200Z 26003KT CAVOK 23/22 A2980=
202110051300 METAR MRLM 051300Z 00000KT CAVOK 25/23 A2983=
202110051400 METAR MRLM 051400Z 34004KT CAVOK 29/23 A2984=
202110051500 METAR MRLM 051500Z 33009KT 9999 FEW025 SCT120 30/23 A2985=
202110051600 METAR MRLM 051600Z 32009KT 9999 FEW025 BKN120 30/23 A2984=
202110051700 METAR MRLM 051700Z 01012KT 9999 FEW025 BKN120 31/24 A2982=
202110051800 METAR MRLM 051800Z 36011KT 9999 FEW025 SCT120 BKN240 30/25 A2979=
202110051900 METAR MRLM 051900Z 02009KT CAVOK 30/25 A2976=
202110052000 METAR MRLM 052000Z 36009KT CAVOK 30/25 A2974=
202110052100 METAR MRLM 052100Z 36010KT 9999 FEW025 BKN240 29/25 A2973=
202110052200 METAR MRLM 052200Z 33004KT CAVOK 29/24 A2974=
202110052300 METAR MRLM 052300Z 32003KT CAVOK 28/25 A2976=
202110060000 METAR MRLM 060000Z 29002KT 9999 FEW020 BKN220 27/25 A2977=
202110060100 METAR MRLM NIL=
202110060200 METAR MRLM NIL=
202110060300 METAR MRLM NIL=
202110060400 METAR MRLM NIL=
202110060500 METAR MRLM NIL=
202110060600 METAR MRLM NIL=
202110060700 METAR MRLM NIL=
202110060800 METAR MRLM NIL=
202110060900 METAR MRLM NIL=
202110061000 METAR MRLM NIL=
202110061100 METAR MRLM NIL=
202110061200 METAR MRLM 061200Z 25004KT 9999 FEW015 BKN130 24/22 A2983=
202110061300 METAR MRLM 061300Z 23003KT CAVOK 25/23 A2984=
202110061400 METAR MRLM 061400Z 25004KT CAVOK 27/24 A2985=
202110061500 METAR MRLM 061500Z 22003KT CAVOK 29/24 A2986=
202110061600 METAR MRLM 061600Z 07005KT CAVOK 30/24 A2986=
202110061700 METAR MRLM 061700Z 03006KT CAVOK 30/25 A2983=
202110061800 METAR MRLM 061800Z 03006KT 9999 FEW030 BKN250 31/25 A2981=
202110061900 METAR MRLM 061900Z 02007KT 9999 FEW030 BKN250 30/26 A2977=
202110062000 METAR MRLM 062000Z 02006KT 9999 FEW030 SCT140 BKN240 30/25 A2976=
202110062100 METAR MRLM 062100Z 04006KT 9999 FEW030 BKN140 29/25 A2976=
202110062200 METAR MRLM 062200Z 36006KT 9999 SCT030 BKN140 29/25 A2976=
202110062300 METAR MRLM 062300Z 00000KT 9999 SCT025 BKN130 28/26 A2976=
202110070000 METAR MRLM 070000Z 00000KT 9999 SCT020 BKN130 27/26 A2980=
202110070100 METAR MRLM NIL=
202110070200 METAR MRLM NIL=
202110070300 METAR MRLM NIL=
202110070400 METAR MRLM NIL=
202110070500 METAR MRLM NIL=
202110070600 METAR MRLM NIL=
202110070700 METAR MRLM NIL=
202110070800 METAR MRLM NIL=
202110070900 METAR MRLM NIL=
202110071000 METAR MRLM NIL=
202110071100 METAR MRLM NIL=
202110071200 METAR MRLM 071200Z 22004KT 9999 VCTS FEW015 BKN120 24/23 A2981=
202110071300 METAR MRLM 071300Z 24004KT 9999 VCTS FEW015 BKN120 24/23 A2981=
202110071400 METAR MRLM 071400Z 24003KT CAVOK 25/24 A2986=
202110071500 METAR MRLM 071500Z 00000KT CAVOK 26/24 A2987=
202110071600 METAR MRLM 071600Z 22004KT 9999 VCSH FEW020 BKN130 26/24 A2987=
202110071700 METAR MRLM 071700Z 36007KT 9999 FEW025 BKN130 28/25 A2985=
202110071800 METAR MRLM 071800Z 01004KT CAVOK 27/25 A2983=
202110071900 METAR MRLM 071900Z 03003KT CAVOK 28/25 A2980=
202110072000 METAR MRLM 072000Z 03004KT 9999 FEW030 BKN240 28/25 A2977=
202110072100 METAR MRLM 072100Z 03004KT 9999 FEW030 BKN240 29/25 A2977=
202110072200 METAR MRLM 072200Z 01005KT 9999 BKN025 28/25 A2977=
202110072300 METAR MRLM 072300Z 28003KT 9999 FEW020 BKN130 27/25 A2978=
202110080000 METAR MRLM 080000Z 26003KT 9999 SCT020 BKN130 27/25 A2980=
202110080100 METAR MRLM NIL=
202110080200 METAR MRLM NIL=
202110080300 METAR MRLM NIL=
202110080400 METAR MRLM NIL=
202110080500 METAR MRLM NIL=
202110080600 METAR MRLM NIL=
202110080700 METAR MRLM NIL=
202110080800 METAR MRLM NIL=
202110080900 METAR MRLM NIL=
202110081000 METAR MRLM NIL=
202110081100 METAR MRLM NIL=
202110081200 METAR MRLM 081200Z 24004KT 9999 FEW015TCU BKN200 23/22 A2982=
202110081300 METAR MRLM 081300Z 24003KT 9999 FEW015 BKN200 25/23 A2984=
202110081400 METAR MRLM 081400Z 25002KT 9999 FEW020 BKN200 27/24 A2985=
202110081500 METAR MRLM 081500Z 30003KT 9999 FEW020 OVC200 28/23 A2989=
202110081600 METAR MRLM 081600Z 31006KT 9999 FEW020 SCT120 OVC200 29/24 A2988=
202110081700 METAR MRLM 081700Z 31008KT 9999 FEW020 SCT120 OVC220 29/24 A2986=
202110081800 METAR MRLM 081800Z 31007KT 9999 FEW025 OVC220 30/25 A2983=
202110081900 METAR MRLM 081900Z 34009KT 9999 FEW025 BKN220 30/25 A2981=
202110082000 METAR MRLM 082000Z 33009KT 9999 FEW025 BKN220 29/25 A2979=
202110082100 METAR MRLM 082100Z 33010KT 9999 FEW025 OVC120 28/25 A2977=
202110082200 METAR MRLM 082200Z 33010KT 9999 FEW020TCU SCT120 OVC220 28/24 A2979=
202110082300 METAR MRLM 082300Z 32008KT 9999 FEW020 SCT120 OVC220 27/24 A2979=
202110090000 METAR MRLM 090000Z 30003KT 9999 FEW015 SCT100 OVC200 27/24 A2982=
202110090100 METAR MRLM NIL=
202110090200 METAR MRLM NIL=
202110090300 METAR MRLM NIL=
202110090400 METAR MRLM NIL=
202110090500 METAR MRLM NIL=
202110090600 METAR MRLM NIL=
202110090700 METAR MRLM NIL=
202110090800 METAR MRLM NIL=
202110090900 METAR MRLM NIL=
202110091000 METAR MRLM NIL=
202110091100 METAR MRLM NIL=
202110091200 METAR MRLM 091200Z 22003KT 9999 FEW015TCU SCT200 24/22 A2986=
202110091300 METAR MRLM 091300Z 23003KT 9999 VCSH FEW015TCU SCT100 BKN200 26/24 A2988=
202110091400 METAR MRLM 091400Z 20002KT 9999 VCSH FEW020TCU SCT100 27/24 A2989=
202110091500 METAR MRLM 091500Z 23003KT 9999 VCSH FEW020TCU BKN100 27/24 A2990=
202110091600 METAR MRLM 091600Z 16003KT 9999 FEW020 BKN100 28/25 A2989=
202110091700 METAR MRLM 091700Z 12007KT 9999 DZ SCT020 OVC100 26/24 A2988=
202110091800 METAR MRLM 091800Z 05007KT 9999 +DZ SCT020 OVC100 26/24 A2986=
202110091900 METAR MRLM 091900Z 28003KT 9999 FEW020 BKN120 28/25 A2984=
202110092000 METAR MRLM 092000Z 28005KT 9999 FEW020 BKN120 29/25 A2982=
202110092100 METAR MRLM 092100Z 28004KT 9999 FEW020 BKN120 30/24 A2980=
202110092200 METAR MRLM 092200Z 02005KT 9999 FEW020TCU BKN120 31/23 A2979=
202110092300 METAR MRLM 092300Z 03003KT CAVOK 29/24 A2980=
202110100000 METAR MRLM 100000Z 31002KT CAVOK 28/25 A2982=
202110100100 METAR MRLM NIL=
202110100200 METAR MRLM NIL=
202110100300 METAR MRLM NIL=
202110100400 METAR MRLM NIL=
202110100500 METAR MRLM NIL=
202110100600 METAR MRLM NIL=
202110100700 METAR MRLM NIL=
202110100800 METAR MRLM NIL=
202110100900 METAR MRLM NIL=
202110101000 METAR MRLM NIL=
202110101100 METAR MRLM NIL=
202110101200 METAR MRLM 101200Z 22003KT CAVOK 23/22 A2985=
202110101300 METAR MRLM 101300Z 00000KT CAVOK 25/22 A2987=
202110101400 METAR MRLM 101400Z 00000KT CAVOK 24/23 A2990=
202110101500 METAR MRLM 101500Z 00000KT CAVOK 28/25 A2990=
202110101600 METAR MRLM 101600Z 04004KT CAVOK 28/23 A2990=
202110101700 METAR MRLM 101700Z 01008KT CAVOK 29/24 A2987=
202110101800 METAR MRLM 101800Z 02010KT CAVOK 30/25 A2958=
202110101900 METAR MRLM 101900Z 01009KT CAVOK 30/25 A2981=
202110102000 METAR MRLM 102000Z 03006KT 9999 FEW030 SCT250 30/24 A2980=
202110102100 METAR MRLM 102100Z 04004KT CAVOK 29/25 A2978=
202110102200 METAR MRLM 102200Z 00000KT CAVOK 28/24 A2979=
202110102300 METAR MRLM 102300Z 03003KT 9999 FEW020 SCT130 BKN240 28/24 A2980=
202110110000 METAR MRLM 110000Z 00000KT 9999 FEW020 BKN240 28/25 A2983=
202110110100 METAR MRLM NIL=
202110110200 METAR MRLM NIL=
202110110300 METAR MRLM NIL=
202110110400 METAR MRLM NIL=
202110110500 METAR MRLM NIL=
202110110600 METAR MRLM NIL=
202110110700 METAR MRLM NIL=
202110110800 METAR MRLM NIL=
202110110900 METAR MRLM NIL=
202110111000 METAR MRLM NIL=
202110111100 METAR MRLM NIL=
202110111200 METAR MRLM 111200Z 25003KT 9999 FEW025 SCT130 24/22 A2984=
202110111300 METAR MRLM 111300Z 24003KT CAVOK 27/23 A2986=
202110111400 METAR MRLM 111400Z 29003KT CAVOK 29/24 A2987=
202110111500 METAR MRLM 111500Z 34006KT CAVOK 29/23 A2989=
202110111600 METAR MRLM 111600Z 36008KT 9999 FEW030 30/25 A2989=
202110111700 METAR MRLM 111700Z 01011KT CAVOK 29/25 A2987=
202110111800 METAR MRLM 111800Z 03007KT CAVOK 30/24 A2984=
202110111900 METAR MRLM 111900Z 03007KT CAVOK 30/25 A2981=
202110112000 METAR MRLM 112000Z 04005KT CAVOK 29/24 A2980=
202110112100 METAR MRLM 112100Z 03003KT CAVOK 29/24 A2977=
202110112200 METAR MRLM 112200Z 05004KT 9999 FEW025 SCT140 29/24 A2979=
202110112300 METAR MRLM 112300Z 07004KT 9999 FEW025 SCT140 BKN240 29/24 A2981=
202110120000 METAR MRLM NIL=
202110120100 METAR MRLM NIL=
202110120200 METAR MRLM NIL=
202110120300 METAR MRLM NIL=
202110120400 METAR MRLM NIL=
202110120500 METAR MRLM NIL=
202110120600 METAR MRLM NIL=
202110120700 METAR MRLM NIL=
202110120800 METAR MRLM NIL=
202110120900 METAR MRLM NIL=
202110121000 METAR MRLM NIL=
202110121100 METAR MRLM NIL=
202110121200 METAR MRLM 121200Z 24005KT 9999 FEW015 SCT100 24/22 A2986=
202110121300 METAR MRLM 121300Z 23004KT 9999 FEW015TCU 27/24 A2988=
202110121400 METAR MRLM 121400Z 34002KT 9999 FEW020TCU 29/25 A2988=
202110121500 METAR MRLM 121500Z 02006KT 9999 FEW020TCU 30/25 A2990=
202110121600 METAR MRLM 121600Z 02009KT 9999 FEW025 30/25 A2989=
202110121700 METAR MRLM 121700Z 01009KT 9999 FEW025 SCT130 30/25 A2987=
202110121800 METAR MRLM 121800Z 03008KT 9999 FEW025 30/25 A2985=
202110121900 METAR MRLM 121900Z 02007KT 9999 FEW025 30/25 A2982=
202110122000 METAR MRLM 122000Z 02007KT 9999 FEW025 30/25 A2979=
202110122100 METAR MRLM 122100Z 01005KT 9999 FEW025 SCT240 30/25 A2979=
202110122200 METAR MRLM 122200Z 01005KT 9999 FEW020 SCT240 29/25 A2979=
202110122300 METAR MRLM 122300Z 01002KT 9999 FEW015TCU SCT020 SCT220 29/24 A2981=
202110130000 METAR MRLM 130000Z 25004KT 9999 FEW015TCU SCT220 26/25 A2983=
202110130100 METAR MRLM NIL=
202110130200 METAR MRLM NIL=
202110130300 METAR MRLM NIL=
202110130400 METAR MRLM NIL=
202110130500 METAR MRLM NIL=
202110130600 METAR MRLM NIL=
202110130700 METAR MRLM NIL=
202110130800 METAR MRLM NIL=
202110130900 METAR MRLM NIL=
202110131000 METAR MRLM NIL=
202110131100 METAR MRLM NIL=
202110131200 METAR MRLM 131200Z 24005KT CAVOK 23/22 A2986=
202110131300 METAR MRLM 131300Z 21005KT CAVOK 25/23 A2985=
202110131400 METAR MRLM 131400Z 21002KT CAVOK 29/24 A2985=
202110131500 METAR MRLM 131500Z 10003KT CAVOK 29/24 A2988=
202110131600 METAR MRLM 131600Z 09005KT CAVOK 30/24 A2987=
202110131700 METAR MRLM 131700Z 08005KT CAVOK 30/24 A2985=
202110131800 METAR MRLM 131800Z 06007KT 9999 FEW025 SCT240 30/25 A2982=
202110131900 METAR MRLM 131900Z 05006KT 9999 SCT025 SCT240 30/25 A2980=
202110132000 METAR MRLM 132000Z 02006KT 9999 SCT025 SCT240 30/25 A2977=
202110132100 METAR MRLM 132100Z 01005KT 9999 FEW020TCU BKN240 30/24 A2978=
202110132200 METAR MRLM 132200Z 04004KT 9999 FEW020 BKN220 29/24 A2980=
202110132300 METAR MRLM 132300Z 25004KT 9999 FEW020 BKN220 27/24 A2981=
202110140000 METAR MRLM 140000Z 23004KT 9999 FEW020 OVC200 26/24 A2983=
202110140100 METAR MRLM NIL=
202110140200 METAR MRLM NIL=
202110140300 METAR MRLM NIL=
202110140400 METAR MRLM NIL=
202110140500 METAR MRLM NIL=
202110140600 METAR MRLM NIL=
202110140700 METAR MRLM NIL=
202110140800 METAR MRLM NIL=
202110140900 METAR MRLM NIL=
202110141000 METAR MRLM NIL=
202110141100 METAR MRLM NIL=
202110141200 METAR MRLM 141200Z 22005KT CAVOK 24/22 A2981=
202110141300 METAR MRLM 141300Z 25005KT CAVOK 26/23 A2983=
202110141400 METAR MRLM 141400Z 25005KT CAVOK 26/23 A2983=
202110141500 METAR MRLM 141500Z 28003KT CAVOK 29/24 A2985=
202110141600 METAR MRLM 141600Z 31005KT CAVOK 30/21 A2986=
202110141700 METAR MRLM 141700Z 02007KT CAVOK 30/23 A2983=
202110141800 METAR MRLM 141800Z 03007KT CAVOK 31/21 A2981=
202110141900 METAR MRLM 141900Z 03008KT CAVOK 30/22 A2979=
202110142000 METAR MRLM 142000Z 01009KT CAVOK 31/23 A2978=
202110142100 METAR MRLM 142100Z 36007KT CAVOK 29/23 A2976=
202110142200 METAR MRLM 142200Z 01004KT CAVOK 29/24 A2976=
202110142300 METAR MRLM 142300Z 04005KT CAVOK 29/24 A2978=
202110150000 METAR MRLM 150000Z 02004KT CAVOK 28/24 A2980=
202110150100 METAR MRLM NIL=
202110150200 METAR MRLM NIL=
202110150300 METAR MRLM NIL=
202110150400 METAR MRLM NIL=
202110150500 METAR MRLM NIL=
202110150600 METAR MRLM NIL=
202110150700 METAR MRLM NIL=
202110150800 METAR MRLM NIL=
202110150900 METAR MRLM NIL=
202110151000 METAR MRLM NIL=
202110151100 METAR MRLM NIL=
202110151200 METAR MRLM 151200Z 24005KT CAVOK 23/21 A2983=
202110151300 METAR MRLM 151300Z 24005KT CAVOK 26/23 A2984=
202110151400 METAR MRLM 151400Z 29003KT CAVOK 29/24 A2986=
202110151500 METAR MRLM 151500Z 05004KT CAVOK 30/24 A2987=
202110151600 METAR MRLM 151600Z 02008KT CAVOK 30/24 A2985=
202110151700 METAR MRLM 151700Z 03006KT CAVOK 30/25 A2983=
202110151800 METAR MRLM 151800Z 05007KT CAVOK 30/24 A2981=
202110151900 METAR MRLM 151900Z 04008KT CAVOK 30/24 A2978=
202110152000 METAR MRLM 152000Z 05006KT 9999 FEW030 OVC230 30/25 A2978=
202110152100 METAR MRLM 152100Z 02004KT 9999 FEW025 BKN140 29/24 A2976=
202110152200 METAR MRLM 152200Z 05003KT 9999 BKN025 29/24 A2977=
202110152300 METAR MRLM 152300Z 05003KT 9999 FEW025 BKN130 29/25 A2979=
202110160000 METAR MRLM 160000Z 00000KT 9999 FEW020 OVC130 28/25 A2983=
202110160100 METAR MRLM NIL=
202110160200 METAR MRLM NIL=
202110160300 METAR MRLM NIL=
202110160400 METAR MRLM NIL=
202110160500 METAR MRLM NIL=
202110160600 METAR MRLM NIL=
202110160700 METAR MRLM NIL=
202110160800 METAR MRLM NIL=
202110160900 METAR MRLM NIL=
202110161000 METAR MRLM NIL=
202110161100 METAR MRLM NIL=
202110161200 METAR MRLM 161200Z 25004KT CAVOK 24/22 A2985=
202110161300 METAR MRLM 161300Z 23004KT 9999 FEW015TCU SCT100 BKN200 24/23 A2990=
202110161400 METAR MRLM 161400Z 24003KT 9999 FEW020TCU BKN220 29/24 A2991=
202110161500 METAR MRLM 161500Z 31005KT 9999 FEW020 BKN220 30/25 A2992=
202110161600 METAR MRLM 161600Z 36009KT 9999 FEW025TCU BKN220 30/25 A2992=
202110161700 METAR MRLM 161700Z 01010KT 9999 FEW025TCU SCT220 30/25 A2990=
202110161800 METAR MRLM 161800Z 03008KT 9999 VCTS FEW015CB FEW025 SCT240 29/25 A2988=
202110161900 METAR MRLM 161900Z 07007KT 9999 FEW025 BKN240 29/24 A2985=
202110162000 METAR MRLM 162000Z 09007KT 9999 FEW025 BKN240 29/25 A2984=
202110162100 METAR MRLM 162100Z 10006KT 9999 SCT020 BKN220 28/25 A2983=
202110162200 METAR MRLM 162200Z 10008KT 9999 VCSH FEW015TCU SCT020 BKN220 28/24 A2983=
202110162300 METAR MRLM 162300Z 21005KT 9999 FEW020 SCT100 BKN200 25/23 A2984=
202110170000 METAR MRLM 170000Z 22004KT CAVOK 25/23 A2983=
202110170100 METAR MRLM NIL=
202110170200 METAR MRLM NIL=
202110170300 METAR MRLM NIL=
202110170400 METAR MRLM NIL=
202110170500 METAR MRLM NIL=
202110170600 METAR MRLM NIL=
202110170700 METAR MRLM NIL=
202110170800 METAR MRLM NIL=
202110170900 METAR MRLM NIL=
202110171000 METAR MRLM NIL=
202110171100 METAR MRLM NIL=
202110171200 METAR MRLM 171200Z 24005KT 9999 FEW015TCU SCT200 23/21 A2989=
202110171300 METAR MRLM 171300Z 24005KT 9999 VCSH FEW015TCU SCT200 24/22 A2992=
202110171400 METAR MRLM 171400Z 24003KT 9999 -DZ VCSH FEW020TCU BKN100 24/22 A2992=
202110171500 METAR MRLM 171500Z 26003KT 9999 -DZ FEW020 BKN100 26/24 A2994=
202110171600 METAR MRLM 171600Z 31004KT 9999 FEW020 BKN120 28/23 A2993=
202110171700 METAR MRLM 171700Z 36006KT 9999 SCT020 BKN120 29/24 A2992=
202110171800 METAR MRLM 171800Z 36009KT 9999 FEW020 SCT120 BKN220 29/24 A2988=
202110171900 METAR MRLM 171900Z 01009KT 9999 FEW025 BKN220 30/24 A2985=
202110172000 METAR MRLM 172000Z 01009KT 9999 FEW025 BKN240 29/24 A2983=
202110172100 METAR MRLM 172100Z 03007KT 9999 FEW025 SCT240 29/24 A2982=
202110172200 METAR MRLM 172200Z 03005KT 9999 FEW025 SCT240 28/24 A2983=
202110172300 METAR MRLM 172300Z 06002KT 9999 SCT020 SCT220 28/24 A2985=
202110180000 METAR MRLM 180000Z 22004KT 9999 SCT020 SCT220 26/23 A2987=
202110180100 METAR MRLM NIL=
202110180200 METAR MRLM NIL=
202110180300 METAR MRLM NIL=
202110180400 METAR MRLM NIL=
202110180500 METAR MRLM NIL=
202110180600 METAR MRLM NIL=
202110180700 METAR MRLM NIL=
202110180800 METAR MRLM NIL=
202110180900 METAR MRLM NIL=
202110181000 METAR MRLM NIL=
202110181100 METAR MRLM NIL=
202110181200 METAR MRLM 181200Z 24004KT CAVOK 22/22 A2987=
202110181300 METAR MRLM 181300Z 24003KT CAVOK 24/23 A2989=
202110181400 METAR MRLM 181400Z 26003KT CAVOK 27/23 A2991=
202110181500 METAR MRLM 181500Z 30003KT CAVOK 29/22 A2992=
202110181600 METAR MRLM 181600Z 03007KT CAVOK 30/23 A2992=
202110181700 METAR MRLM 181700Z 01008KT CAVOK 29/24 A2989=
202110181800 METAR MRLM 181800Z 02008KT CAVOK 29/23 A2986=
202110181900 METAR MRLM 181900Z 02007KT CAVOK 29/24 A2982=
202110182000 METAR MRLM 182000Z 03007KT CAVOK 30/24 A2979=
202110182100 METAR MRLM 182100Z 04007KT 9999 FEW030 SCT240 29/24 A2979=
202110182200 METAR MRLM 182200Z 06006KT 9999 FEW030 BKN240 29/24 A2979=
202110182300 METAR MRLM 182300Z 11005KT 9999 FEW020 BKN230 28/24 A2982=
202110190000 METAR MRLM 190000Z 00000KT 9999 SCT020 BKN230 27/24 A2986=
202110190100 METAR MRLM NIL=
202110190200 METAR MRLM NIL=
202110190300 METAR MRLM NIL=
202110190400 METAR MRLM NIL=
202110190500 METAR MRLM NIL=
202110190600 METAR MRLM NIL=
202110190700 METAR MRLM NIL=
202110190800 METAR MRLM NIL=
202110190900 METAR MRLM NIL=
202110191000 METAR MRLM NIL=
202110191100 METAR MRLM NIL=
202110191200 METAR MRLM 191200Z 23004KT CAVOK 23/21 A2987=
202110191300 METAR MRLM 191300Z 22004KT CAVOK 26/23 A2990=
202110191400 METAR MRLM 191400Z 22004KT CAVOK 26/23 A2990=
202110191500 METAR MRLM 191500Z 04004KT 9999 FEW030 SCT140 28/24 A2993=
202110191600 METAR MRLM 191600Z 03004KT 9999 FEW030 BKN140 29/24 A2992=
202110191700 METAR MRLM 191700Z 03006KT 9999 FEW030 SCT140 30/24 A2990=
202110191800 METAR MRLM 191800Z 02009KT 9999 FEW030 SCT250 30/25 A2987=
202110191900 METAR MRLM 191900Z 01011KT 9999 FEW030 SCT250 30/25 A2985=
202110192000 METAR MRLM 192000Z 36009KT 9999 FEW030 SCT250 30/24 A2983=
202110192100 METAR MRLM 192100Z 36008KT 9999 SCT025 BKN240 30/24 A2981=
202110192200 METAR MRLM 192200Z 36007KT 9999 SCT025 29/24 A2982=
202110192300 METAR MRLM 192300Z 33004KT 9999 BKN020 28/24 A2985=
202110200000 METAR MRLM 200000Z 32003KT 9999 BKN020 28/24 A2988=
202110200100 METAR MRLM NIL=
202110200200 METAR MRLM NIL=
202110200300 METAR MRLM NIL=
202110200400 METAR MRLM NIL=
202110200500 METAR MRLM NIL=
202110200600 METAR MRLM NIL=
202110200700 METAR MRLM NIL=
202110200800 METAR MRLM NIL=
202110200900 METAR MRLM NIL=
202110201000 METAR MRLM NIL=
202110201100 METAR MRLM NIL=
202110201200 METAR MRLM 201200Z 22006KT 9999 VCSH FEW015TCU SCT200 23/22 A2992=
202110201300 METAR MRLM 201300Z 24004KT 9999 FEW015TCU SCT200 26/23 A2997=
202110201400 METAR MRLM 201400Z 20002KT 9999 FEW020 SCT220 28/24 A2997=
202110201500 METAR MRLM 201500Z 34006KT 9999 FEW020 BKN120 28/24 A2999=
202110201600 METAR MRLM 201600Z 20002KT 9999 -DZ VCTS FEW010CB SCT020 OVC120 28/25 A3000=
202110201700 METAR MRLM 201700Z 13007KT 9999 DZ VCSH FEW015TCU SCT020 OVC120 28/25 A2998=
202110201800 METAR MRLM 201800Z 15006KT 9999 -DZ VCSH FEW015TCU OVC100 26/24 A2996=
202110201900 METAR MRLM 201900Z 16003KT 9999 -DZ FEW015 OVC100 26/24 A2993=
202110202000 METAR MRLM 202000Z 21003KT 9999 FEW015 OVC100 27/24 A2988 REDZ=
202110202100 METAR MRLM 202100Z 21003KT 9999 FEW020 BKN120 28/25 A2984=
202110202200 METAR MRLM 202200Z 00000KT CAVOK 28/24 A2984=
202110202300 METAR MRLM 202300Z 01006KT CAVOK 28/24 A2985=
202110210000 METAR MRLM 210000Z 30002KT CAVOK 25/24 A2988=
202110210100 METAR MRLM NIL=
202110210200 METAR MRLM NIL=
202110210300 METAR MRLM NIL=
202110210400 METAR MRLM NIL=
202110210500 METAR MRLM NIL=
202110210600 METAR MRLM NIL=
202110210700 METAR MRLM NIL=
202110210800 METAR MRLM NIL=
202110210900 METAR MRLM NIL=
202110211000 METAR MRLM NIL=
202110211100 METAR MRLM NIL=
202110211200 METAR MRLM 211200Z 23005KT CAVOK 23/21 A2992=
202110211300 METAR MRLM 211300Z 24003KT CAVOK 25/22 A2994=
202110211400 METAR MRLM 211400Z 25003KT CAVOK 28/23 A2995=
202110211500 METAR MRLM 211500Z 05004KT 9999 FEW030 BKN250 29/24 A2996=
202110211600 METAR MRLM 211600Z 03007KT 9999 FEW030 BKN250 30/24 A2996=
202110211700 METAR MRLM 211700Z 02006KT CAVOK 30/24 A2994=
202110211800 METAR MRLM 211800Z 02007KT CAVOK 30/24 A2991=
202110211900 METAR MRLM 211900Z 02007KT CAVOK 30/24 A2987=
202110212000 METAR MRLM 212000Z 02008KT 9999 FEW030 BKN250 30/25 A2986=
202110212100 METAR MRLM 212100Z 01007KT 9999 SCT030 BKN250 30/25 A2984=
202110212200 METAR MRLM 212200Z 01006KT 9999 BKN025 SCT250 29/24 A2984=
202110212300 METAR MRLM 212300Z 36006KT 9999 BKN025 SCT250 29/25 A2986=
202110220000 METAR MRLM 220000Z 26002KT 9999 SCT020 SCT220 26/24 A2988=
202110220100 METAR MRLM NIL=
202110220200 METAR MRLM NIL=
202110220300 METAR MRLM NIL=
202110220400 METAR MRLM NIL=
202110220500 METAR MRLM NIL=
202110220600 METAR MRLM NIL=
202110220700 METAR MRLM NIL=
202110220800 METAR MRLM NIL=
202110220900 METAR MRLM NIL=
202110221000 METAR MRLM NIL=
202110221100 METAR MRLM NIL=
202110221200 METAR MRLM 221200Z 23005KT CAVOK 23/21 A2986=
202110221300 METAR MRLM 221300Z 23005KT CAVOK 24/22 A2989=
202110221400 METAR MRLM 221400Z 23004KT CAVOK 26/23 A2991=
202110221500 METAR MRLM 221500Z 26003KT 9999 FEW030 BKN240 30/23 A2993=
202110221600 METAR MRLM 221600Z 27003KT 9999 FEW030 BKN250 30/24 A2992=
202110221700 METAR MRLM 221700Z 02006KT 9999 FEW020 BKN130 29/24 A2990=
202110221800 METAR MRLM 221800Z 02006KT CAVOK 29/24 A2988=
202110221900 METAR MRLM 221900Z 02005KT CAVOK 29/25 A2984=
202110222000 METAR MRLM 222000Z 03006KT CAVOK 30/24 A2980=
202110222100 METAR MRLM 222100Z 03005KT CAVOK 30/24 A2978=
202110222200 METAR MRLM 222200Z 03005KT CAVOK 29/24 A2978=
202110222300 METAR MRLM 222300Z 05005KT CAVOK 29/23 A2980=
202110230000 METAR MRLM 230000Z 00000KT CAVOK 28/23 A2984=
202110230100 METAR MRLM NIL=
202110230200 METAR MRLM NIL=
202110230300 METAR MRLM NIL=
202110230400 METAR MRLM NIL=
202110230500 METAR MRLM NIL=
202110230600 METAR MRLM NIL=
202110230700 METAR MRLM NIL=
202110230800 METAR MRLM NIL=
202110230900 METAR MRLM NIL=
202110231000 METAR MRLM NIL=
202110231100 METAR MRLM NIL=
202110231200 METAR MRLM 231200Z 00000KT 9999 FEW020 BKN120 24/22 A2984=
202110231300 METAR MRLM 231300Z 25003KT CAVOK 25/23 A2986=
202110231400 METAR MRLM 231400Z 27005KT CAVOK 27/24 A2989=
202110231500 METAR MRLM 231500Z 31006KT 9999 FEW020 BKN130 28/24 A2991=
202110231600 METAR MRLM 231600Z 32010KT 9999 SCT020 BKN130 28/24 A2991=
202110231700 METAR MRLM 231700Z 32010KT 9999 FEW020 SCT130 BKN230 28/23 A2989=
202110231800 METAR MRLM 231800Z 32009KT 9999 FEW025 SCT140 BKN240 30/24 A2984=
202110231900 METAR MRLM 231900Z 34010KT 9999 FEW030 BKN250 31/24 A2990=
202110232000 METAR MRLM 232000Z 35013KT CAVOK 30/25 A2977=
202110232100 METAR MRLM 232100Z 35011KT CAVOK 30/24 A2976=
202110232200 METAR MRLM 232200Z 33009KT CAVOK 30/24 A2976=
202110232300 METAR MRLM 232300Z 33009KT CAVOK 29/24 A2980=
202110240000 METAR MRLM 240000Z 33011KT CAVOK 26/24 A2983=
202110240100 METAR MRLM NIL=
202110240200 METAR MRLM NIL=
202110240300 METAR MRLM NIL=
202110240400 METAR MRLM NIL=
202110240500 METAR MRLM NIL=
202110240600 METAR MRLM NIL=
202110240700 METAR MRLM NIL=
202110240800 METAR MRLM NIL=
202110240900 METAR MRLM NIL=
202110241000 METAR MRLM NIL=
202110241100 METAR MRLM NIL=
202110241200 METAR MRLM 241200Z 24003KT 9999 FEW015 SCT100 23/21 A2987=
202110241300 METAR MRLM 241300Z 00000KT 9999 VCSH FEW015TCU BKN100 24/22 A2989=
202110241400 METAR MRLM 241400Z 00000KT 9999 VCSH FEW020TCU BKN120 28/23 A2991=
202110241500 METAR MRLM 241500Z 30004KT 9999 FEW020TCU SCT120 30/23 A2993=
202110241600 METAR MRLM 241600Z 33008KT 9999 FEW020 SCT240 30/24 A2992=
202110241700 METAR MRLM 241700Z 01011KT 9999 FEW030 SCT240 30/25 A2989=
202110241800 METAR MRLM 241800Z 02011KT 9999 FEW030 BKN240 29/24 A2987=
202110241900 METAR MRLM 241900Z 01009KT CAVOK 29/24 A2984=
202110242000 METAR MRLM 242000Z 02008KT CAVOK 29/24 A2983=
202110242100 METAR MRLM 242100Z 02008KT CAVOK 29/24 A2983=
202110242200 METAR MRLM 242200Z 02005KT CAVOK 29/24 A2982=
202110242300 METAR MRLM 242300Z 01006KT CAVOK 29/24 A2984=
202110250000 METAR MRLM 250000Z 01005KT CAVOK 28/25 A2985=
202110250100 METAR MRLM NIL=
202110250200 METAR MRLM NIL=
202110250300 METAR MRLM NIL=
202110250400 METAR MRLM NIL=
202110250500 METAR MRLM NIL=
202110250600 METAR MRLM NIL=
202110250700 METAR MRLM NIL=
202110250800 METAR MRLM NIL=
202110250900 METAR MRLM NIL=
202110251000 METAR MRLM NIL=
202110251100 METAR MRLM NIL=
202110251200 METAR MRLM 251200Z 23004KT 9999 VCSH FEW015TCU SCT200 24/24 A2992=
202110251300 METAR MRLM 251300Z 22003KT 9999 VCSH FEW015TCU SCT200 27/24 A2994=
202110251400 METAR MRLM 251400Z 11003KT 9999 FEW020TCU SCT220 29/24 A2995=
202110251500 METAR MRLM 251500Z 11005KT 9999 FEW020 BKN220 29/25 A2995=
202110251600 METAR MRLM 251600Z 10005KT 9999 FEW020 SCT220 30/25 A2994=
202110251700 METAR MRLM 251700Z 09008KT 9999 FEW025 SCT240 30/25 A2991=
202110251800 METAR MRLM 251800Z 09006KT 9999 FEW025 BKN240 30/25 A2989=
202110251900 METAR MRLM 251900Z 09007KT 9999 FEW025 SCT240 30/25 A2986=
202110252000 METAR MRLM 252000Z 08005KT CAVOK 30/25 A2983=
202110252100 METAR MRLM 252100Z 07005KT 9999 FEW025 30/25 A2982=
202110252200 METAR MRLM 252200Z 07005KT 9999 FEW025 SCT240 30/25 A2983=
202110252300 METAR MRLM 252300Z 07005KT 9999 FEW025 SCT240 29/25 A2985=
202110260000 METAR MRLM 260000Z 20002KT CAVOK 27/24 A2988=
202110260100 METAR MRLM NIL=
202110260200 METAR MRLM NIL=
202110260300 METAR MRLM NIL=
202110260400 METAR MRLM NIL=
202110260500 METAR MRLM NIL=
202110260600 METAR MRLM NIL=
202110260700 METAR MRLM NIL=
202110260800 METAR MRLM NIL=
202110260900 METAR MRLM NIL=
202110261000 METAR MRLM NIL=
202110261100 METAR MRLM NIL=
202110261200 METAR MRLM 261200Z 22005KT 9999 FEW020 BKN110 23/22 A2991=
202110261300 METAR MRLM 261300Z 23004KT CAVOK 24/22 A2991=
202110261400 METAR MRLM 261400Z 22004KT CAVOK 27/24 A2993=
202110261500 METAR MRLM 261500Z 06004KT CAVOK 29/25 A2994=
202110261600 METAR MRLM 261600Z 05004KT 9999 FEW030 BKN250 30/24 A2994=
202110261700 METAR MRLM 261700Z 06005KT 9999 FEW030 BKN250 30/24 A2991=
202110261800 METAR MRLM 261800Z 05006KT CAVOK 30/25 A2988=
202110261900 METAR MRLM 261900Z 06006KT CAVOK 30/25 A2985=
202110262000 METAR MRLM 262000Z 07006KT CAVOK 30/25 A2984=
202110262100 METAR MRLM 262100Z 06005KT CAVOK 30/25 A2981=
202110262200 METAR MRLM 262200Z 05005KT CAVOK 30/25 A2981=
202110262300 METAR MRLM 262300Z 03004KT 9999 FEW025 BKN240 29/24 A2983=
202110270000 METAR MRLM 270000Z 00000KT 9999 SCT020 BKN240 28/25 A2986=
202110270100 METAR MRLM NIL=
202110270200 METAR MRLM NIL=
202110270300 METAR MRLM NIL=
202110270400 METAR MRLM NIL=
202110270500 METAR MRLM NIL=
202110270600 METAR MRLM NIL=
202110270700 METAR MRLM NIL=
202110270800 METAR MRLM NIL=
202110270900 METAR MRLM NIL=
202110271000 METAR MRLM NIL=
202110271100 METAR MRLM NIL=
202110271200 METAR MRLM 271200Z 24005KT CAVOK 23/21 A2987=
202110271300 METAR MRLM 271300Z 23004KT CAVOK 26/23 A2988=
202110271400 METAR MRLM 271400Z 23004KT CAVOK 26/23 A2988=
202110271500 METAR MRLM 271500Z 23003KT 9999 FEW030 BKN250 30/25 A2990=
202110271600 METAR MRLM 271600Z 06004KT 9999 FEW030 BKN250 30/24 A2990=
202110271700 METAR MRLM 271700Z 06005KT 9999 FEW030 BKN240 30/24 A2988=
202110271800 METAR MRLM 271800Z 04005KT 9999 FEW030 OVC240 30/25 A2985=
202110271900 METAR MRLM 271900Z 01007KT 9999 FEW030 OVC240 29/24 A2984=
202110272000 METAR MRLM 272000Z 01006KT 9999 FEW030 OVC230 29/25 A2981=
202110272100 METAR MRLM 272100Z 36005KT 9999 FEW025 OVC220 29/24 A2981=
202110272200 METAR MRLM 272200Z 01004KT 9999 FEW020 OVC220 29/24 A2981=
202110272300 METAR MRLM 272300Z 00000KT 9999 FEW020 BKN220 28/25 A2982=
202110280000 METAR MRLM 280000Z 00000KT 9999 FEW020 BKN220 26/24 A2988=
202110280100 METAR MRLM NIL=
202110280200 METAR MRLM NIL=
202110280300 METAR MRLM NIL=
202110280400 METAR MRLM NIL=
202110280500 METAR MRLM NIL=
202110280600 METAR MRLM NIL=
202110280700 METAR MRLM NIL=
202110280800 METAR MRLM NIL=
202110280900 METAR MRLM NIL=
202110281000 METAR MRLM NIL=
202110281100 METAR MRLM NIL=
202110281200 METAR MRLM 281200Z 23005KT CAVOK 23/22 A2987=
202110281300 METAR MRLM 281300Z 22004KT CAVOK 25/22 A2990=
202110281400 METAR MRLM 281400Z 22003KT CAVOK 27/23 A2991=
202110281500 METAR MRLM 281500Z 05003KT CAVOK 29/24 A2991=
202110281600 METAR MRLM 281600Z 05007KT 9999 FEW025 BKN220 29/24 A2989=
202110281700 METAR MRLM 281700Z 04004KT 9999 FEW025 BKN220 30/24 A2986=
202110281800 METAR MRLM 281800Z 03007KT CAVOK 30/23 A2983=
202110281900 METAR MRLM 281900Z 01007KT CAVOK 30/23 A2981=
202110282000 METAR MRLM 282000Z 02007KT CAVOK 30/24 A2979=
202110282100 METAR MRLM 282100Z 01008KT CAVOK 31/23 A2978=
202110282200 METAR MRLM 282200Z 01006KT CAVOK 30/24 A2980=
202110282300 METAR MRLM 282300Z 36005KT CAVOK 29/24 A2980=
202110290000 METAR MRLM 290000Z 26003KT CAVOK 26/24 A2982=
202110290100 METAR MRLM NIL=
202110290200 METAR MRLM NIL=
202110290300 METAR MRLM NIL=
202110290400 METAR MRLM NIL=
202110290500 METAR MRLM NIL=
202110290600 METAR MRLM NIL=
202110290700 METAR MRLM NIL=
202110290800 METAR MRLM NIL=
202110290900 METAR MRLM NIL=
202110291000 METAR MRLM NIL=
202110291100 METAR MRLM NIL=
202110291200 METAR MRLM 291200Z 24005KT CAVOK 24/22 A2986=
202110291300 METAR MRLM 291300Z 24004KT CAVOK 27/24 A2987=
202110291400 METAR MRLM 291400Z 26003KT CAVOK 30/24 A2988=
202110291500 METAR MRLM 291500Z 31002KT CAVOK 31/24 A2988=
202110291600 METAR MRLM 291600Z 02008KT CAVOK 31/24 A2988=
202110291700 METAR MRLM 291700Z 02009KT CAVOK 31/24 A2986=
202110291800 METAR MRLM 291800Z 02009KT CAVOK 31/24 A2983=
202110291900 METAR MRLM 291900Z 03009KT CAVOK 31/24 A2980=
202110292000 METAR MRLM 292000Z 06007KT CAVOK 31/24 A2978=
202110292100 METAR MRLM 292100Z 06004KT CAVOK 30/23 A2977=
202110292200 METAR MRLM 292200Z 08004KT CAVOK 30/23 A2978=
202110292300 METAR MRLM 292300Z 08003KT CAVOK 30/23 A2980=
202110300000 METAR MRLM 300000Z 09004KT CAVOK 29/24 A2983=
202110300100 METAR MRLM NIL=
202110300200 METAR MRLM NIL=
202110300300 METAR MRLM NIL=
202110300400 METAR MRLM NIL=
202110300500 METAR MRLM NIL=
202110300600 METAR MRLM NIL=
202110300700 METAR MRLM NIL=
202110300800 METAR MRLM NIL=
202110300900 METAR MRLM NIL=
202110301000 METAR MRLM NIL=
202110301100 METAR MRLM NIL=
202110301200 METAR MRLM 301200Z 26004KT CAVOK 23/21 A2986=
202110301300 METAR MRLM 301300Z 22003KT CAVOK 25/22 A2989=
202110301400 METAR MRLM 301400Z 23003KT CAVOK 26/23 A2989=
202110301500 METAR MRLM 301500Z 00000KT CAVOK 28/23 A2990=
202110301600 METAR MRLM 301600Z 32007KT CAVOK 31/23 A2989=
202110301700 METAR MRLM 301700Z 34009KT CAVOK 30/24 A2988=
202110301800 METAR MRLM 301800Z 01011KT CAVOK 30/25 A2985=
202110301900 METAR MRLM 301900Z 36011KT CAVOK 30/25 A2981=
202110302000 METAR MRLM 302000Z 01012KT 9999 BKN030 30/25 A2978=
202110302100 METAR MRLM 302100Z 36011KT 9999 BKN030 29/25 A2978=
202110302200 METAR MRLM 302200Z 33005KT 9999 BKN020 28/24 A2982=
202110302300 METAR MRLM 302300Z 25003KT 9999 BKN010 25/23 A2984=
202110310000 METAR MRLM 310000Z 13004KT 3000 +RA BKN010 23/22 A2988=
202110310100 METAR MRLM NIL=
202110310200 METAR MRLM NIL=
202110310300 METAR MRLM NIL=
202110310400 METAR MRLM NIL=
202110310500 METAR MRLM NIL=
202110310600 METAR MRLM NIL=
202110310700 METAR MRLM NIL=
202110310800 METAR MRLM NIL=
202110310900 METAR MRLM NIL=
202110311000 METAR MRLM NIL=
202110311100 METAR MRLM NIL=
202110311200 METAR MRLM 311200Z 28006KT 9999 FEW015 BKN110 24/22 A2988=
202110311300 METAR MRLM 311300Z 29004KT CAVOK 25/22 A2991=
202110311400 METAR MRLM 311400Z 30005KT CAVOK 26/22 A2994=
202110311500 METAR MRLM 311500Z 30005KT CAVOK 28/23 A2992=
202110311600 METAR MRLM 311600Z 30006KT CAVOK 28/23 A2993=
202110311700 METAR MRLM 311700Z 31006KT CAVOK 28/23 A2993=
202110311800 METAR MRLM 311800Z 35012KT 9999 FEW025 BKN140 30/24 A2990=
202110311900 METAR MRLM 311900Z 34015KT 9999 SCT020 BKN130 27/24 A2988=
202110312000 METAR MRLM 312000Z 32011KT 9999 VCSH FEW020 BKN120 26/24 A2986=
202110312100 METAR MRLM 312100Z 29006KT 9999 VCSH FEW015 BKN120 26/23 A2986=
202110312200 METAR MRLM 312200Z 30005KT 9999 FEW015 BKN110 25/23 A2987=
202110312300 METAR MRLM 312300Z 30006KT 9999 FEW015 BKN110 25/23 A2988=
202111010000 METAR MRLM 010000Z 30006KT 9999 SCT015 BKN110 25/23 A2989=
202111010100 METAR MRLM NIL=
202111010200 METAR MRLM NIL=
202111010300 METAR MRLM NIL=
202111010400 METAR MRLM NIL=
202111010500 METAR MRLM NIL=
202111010600 METAR MRLM NIL=
202111010700 METAR MRLM NIL=
202111010800 METAR MRLM NIL=
202111010900 METAR MRLM NIL=
202111011000 METAR MRLM NIL=
202111011100 METAR MRLM NIL=
202111011200 METAR MRLM 011200Z 27005KT 9999 FEW015 SCT100 25/21 A2990=
202111011300 METAR MRLM 011300Z 29007KT 9999 FEW015 SCT100 26/22 A2992=
202111011400 METAR MRLM 011400Z 29010KT 9999 FEW020 SCT220 28/22 A2992=
202111011500 METAR MRLM 011500Z 30008KT 9999 FEW020 BKN100 28/22 A2994=
202111011600 METAR MRLM 011600Z 29008KT 6000 +DZ SCT010 OVC070 24/23 A2994 RERA=
202111011700 METAR MRLM 011700Z 29002KT 9999 -DZ SCT015 OVC080 25/23 A2993=
202111011800 METAR MRLM 011800Z 30008KT 7000 +DZ FEW015 OVC080 25/23 A2990=
202111011900 METAR MRLM 011900Z 28007KT 8000 +DZ FEW015 OVC080 24/23 A2986=
202111012000 METAR MRLM 012000Z 28009KT 9999 -DZ FEW015 OVC100 25/23 A2983=
202111012100 METAR MRLM 012100Z 29008KT 9999 DZ FEW015 OVC100 25/23 A2982=
202111012200 METAR MRLM 012200Z 29010KT 8000 +DZ FEW010 OVC080 24/22 A2983=
202111012300 METAR MRLM 012300Z 29010KT 9999 DZ FEW010 OVC080 24/22 A2984=
202111020000 METAR MRLM 020000Z 30008KT 9999 -DZ SCT010 OVC080 24/22 A2982=
202111020100 METAR MRLM NIL=
202111020200 METAR MRLM NIL=
202111020300 METAR MRLM NIL=
202111020400 METAR MRLM NIL=
202111020500 METAR MRLM NIL=
202111020600 METAR MRLM NIL=
202111020700 METAR MRLM NIL=
202111020800 METAR MRLM NIL=
202111020900 METAR MRLM NIL=
202111021000 METAR MRLM NIL=
202111021100 METAR MRLM NIL=
202111021200 METAR MRLM 021200Z 27005KT 9999 -DZ VCSH FEW015TCU BKN090 24/22 A2984=
202111021300 METAR MRLM 021300Z 29008KT 9999 -DZ VCSH FEW015TCU BKN090 25/23 A2988=
202111021400 METAR MRLM 021400Z 26006KT 9999 FEW020TCU BKN100 26/23 A2991=
202111021500 METAR MRLM 021500Z 26007KT 9999 VCSH SCT020TCU BKN100 28/24 A2991=
202111021600 METAR MRLM 021600Z 25003KT 8000 DZ VCSH FEW015TCU SCT020 BKN100 28/24 A2991=
202111021700 METAR MRLM 021700Z 02005KT 9999 VCSH FEW015TCU SCT020 BKN100 27/24 A2990=
202111021800 METAR MRLM 021800Z 11012KT 9999 SCT020 BKN120 29/25 A2988=
202111021900 METAR MRLM 021900Z 13011KT 9999 SCT020 BKN120 29/24 A2986=
202111022000 METAR MRLM 022000Z 15006KT 9999 -DZ VCSH FEW015TCU SCT020 BKN120 28/23 A2985=
202111022100 METAR MRLM 022100Z 07010KT 5000 RA FEW010 OVC070 24/23 A2985=
202111022200 METAR MRLM 022200Z 22006KT 9999 DZ FEW010 OVC090 23/22 A2983 RERA=
202111022300 METAR MRLM 022300Z 23004KT 9999 FEW010 BKN090 23/22 A2984 REDZ=
202111030000 METAR MRLM 030000Z 21005KT 9999 FEW010 BKN080 23/22 A2986=
202111030100 METAR MRLM NIL=
202111030200 METAR MRLM NIL=
202111030300 METAR MRLM NIL=
202111030400 METAR MRLM NIL=
202111030500 METAR MRLM NIL=
202111030600 METAR MRLM NIL=
202111030700 METAR MRLM NIL=
202111030800 METAR MRLM NIL=
202111030900 METAR MRLM NIL=
202111031000 METAR MRLM NIL=
202111031100 METAR MRLM NIL=
202111031200 METAR MRLM 031200Z 23004KT CAVOK 21/20 A2987=
202111031300 METAR MRLM 031300Z 22005KT CAVOK 24/21 A2992=
202111031400 METAR MRLM 031400Z 21003KT CAVOK 27/23 A2992=
202111031500 METAR MRLM 031500Z 09003KT CAVOK 27/23 A2993=
202111031600 METAR MRLM 031600Z 08004KT 9999 FEW030 BKN140 28/23 A2993=
202111031700 METAR MRLM 031700Z 10006KT CAVOK 30/23 A2991=
202111031800 METAR MRLM 031800Z 07005KT CAVOK 29/23 A2987=
202111031900 METAR MRLM 031900Z 10004KT CAVOK 29/23 A2995=
202111032000 METAR MRLM 032000Z 05005KT CAVOK 29/23 A2981=
202111032100 METAR MRLM 032100Z 06005KT CAVOK 29/24 A2980=
202111032200 METAR MRLM 032200Z 07005KT 9999 FEW030 BKN250 29/24 A2981=
202111032300 METAR MRLM 032300Z 07005KT 9999 FEW025 BKN240 28/23 A2983=
202111040000 METAR MRLM NIL=
202111040100 METAR MRLM NIL=
202111040200 METAR MRLM NIL=
202111040300 METAR MRLM NIL=
202111040400 METAR MRLM NIL=
202111040500 METAR MRLM NIL=
202111040600 METAR MRLM NIL=
202111040700 METAR MRLM NIL=
202111040800 METAR MRLM NIL=
202111040900 METAR MRLM NIL=
202111041000 METAR MRLM NIL=
202111041100 METAR MRLM NIL=
202111041200 METAR MRLM 041200Z 30005KT CAVOK 22/20 A2988=
202111041300 METAR MRLM 041300Z 23004KT CAVOK 25/22 A2990=
202111041400 METAR MRLM 041400Z 22004KT CAVOK 28/23 A2991=
202111041500 METAR MRLM 041500Z 00000KT 9999 FEW030 BKN250 30/23 A2991=
202111041600 METAR MRLM 041600Z 04006KT 9999 FEW030 BKN250 30/23 A2991=
202111041700 METAR MRLM 041700Z 02008KT CAVOK 30/23 A2988=
202111041800 METAR MRLM 041800Z 01008KT 9999 FEW030 30/24 A2985=
202111041900 METAR MRLM 041900Z 02010KT CAVOK 30/24 A2982=
202111042000 METAR MRLM 042000Z 36009KT 9999 FEW030 30/24 A2979=
202111042100 METAR MRLM 042100Z 36007KT 9999 FEW030 29/23 A2978=
202111042200 METAR MRLM 042200Z 35005KT 9999 SCT030 29/24 A2978=
202111042300 METAR MRLM 042300Z 24003KT 9999 SCT020 26/24 A2979=
202111050000 METAR MRLM 050000Z 23003KT 9999 SCT020 25/23 A2982=
202111050100 METAR MRLM NIL=
202111050200 METAR MRLM NIL=
202111050300 METAR MRLM NIL=
202111050400 METAR MRLM NIL=
202111050500 METAR MRLM NIL=
202111050600 METAR MRLM NIL=
202111050700 METAR MRLM NIL=
202111050800 METAR MRLM NIL=
202111050900 METAR MRLM NIL=
202111051000 METAR MRLM NIL=
202111051100 METAR MRLM NIL=
202111051200 METAR MRLM 051200Z 00000KT CAVOK 22/21 A2986=
202111051300 METAR MRLM 051300Z 00000KT CAVOK 25/21 A2989=
202111051400 METAR MRLM 051400Z 00000KT CAVOK 28/22 A2990=
202111051500 METAR MRLM 051500Z 09004KT CAVOK 28/23 A2990=
202111051600 METAR MRLM 051600Z 35008KT 9999 FEW030 30/23 A2991=
202111051700 METAR MRLM 051700Z 07010KT 9999 FEW030 30/24 A2988=
202111051800 METAR MRLM 051800Z 36013KT 9999 FEW030 30/24 A2986=
202111051900 METAR MRLM 051900Z 35012KT 9999 FEW030 30/25 A2982=
202111052000 METAR MRLM 052000Z COR 35012KT 9999 FEW030 30/24 A2980=
202111052100 METAR MRLM 052100Z 35011KT 9999 FEW030 30/25 A2978=
202111052200 METAR MRLM 052200Z 35009KT 9999 SCT025 28/24 A2978=
202111052300 METAR MRLM NIL=
202111060000 METAR MRLM NIL=
202111060100 METAR MRLM NIL=
202111060200 METAR MRLM NIL=
202111060300 METAR MRLM NIL=
202111060400 METAR MRLM NIL=
202111060500 METAR MRLM NIL=
202111060600 METAR MRLM NIL=
202111060700 METAR MRLM NIL=
202111060800 METAR MRLM NIL=
202111060900 METAR MRLM NIL=
202111061000 METAR MRLM NIL=
202111061100 METAR MRLM NIL=
202111061200 METAR MRLM 061200Z 22003KT CAVOK 23/23 A2987=
202111061300 METAR MRLM 061300Z 25003KT CAVOK 26/23 A2989=
202111061400 METAR MRLM 061400Z 26003KT CAVOK 28/24 A2991=
202111061500 METAR MRLM 061500Z 08004KT 9999 FEW030 29/24 A2990=
202111061600 METAR MRLM 061600Z 06004KT 9999 FEW030 29/24 A2988=
202111061700 METAR MRLM 061700Z 03008KT 9999 FEW030 30/24 A2986=
202111061800 METAR MRLM 061800Z 02007KT CAVOK 30/24 A2984=
202111061900 METAR MRLM 061900Z 02007KT CAVOK 31/25 A2981=
202111062000 METAR MRLM 062000Z 02009KT CAVOK 30/24 A2980=
202111062100 METAR MRLM 062100Z 36010KT 9999 SCT030 30/25 A2979=
202111062200 METAR MRLM 062200Z 32011KT 9999 BKN020 28/25 A2984=
202111062300 METAR MRLM NIL=
202111070000 METAR MRLM NIL=
202111070100 METAR MRLM NIL=
202111070200 METAR MRLM NIL=
202111070300 METAR MRLM NIL=
202111070400 METAR MRLM NIL=
202111070500 METAR MRLM NIL=
202111070600 METAR MRLM NIL=
202111070700 METAR MRLM NIL=
202111070800 METAR MRLM NIL=
202111070900 METAR MRLM NIL=
202111071000 METAR MRLM NIL=
202111071100 METAR MRLM NIL=
202111071200 METAR MRLM 071200Z 29007KT 9999 FEW015 BKN240 25/22 A2988=
202111071300 METAR MRLM 071300Z 29008KT CAVOK 26/23 A2991=
202111071400 METAR MRLM 071400Z 29009KT 9999 FEW025 BKN240 28/23 A2994=
202111071500 METAR MRLM 071500Z 28009KT 9999 BKN020 28/23 A2995=
202111071600 METAR MRLM 071600Z 29009KT 9999 BKN020 28/23 A2996=
202111071700 METAR MRLM 071700Z 31008KT 9999 BKN025 28/23 A2994=
202111071800 METAR MRLM 071800Z 30005KT 9999 SCT025 BKN130 28/23 A2993=
202111071900 METAR MRLM 071900Z 32005KT 9999 SCT025 BKN130 29/22 A2991=
202111072000 METAR MRLM 072000Z 31006KT 9999 BKN015 29/23 A2987=
202111072100 METAR MRLM 072100Z 31004KT 9999 FEW020 BKN120 28/24 A2986=
202111072200 METAR MRLM 072200Z 30006KT 9999 FEW020 BKN120 27/24 A2985=
202111072300 METAR MRLM NIL=
202111080000 METAR MRLM NIL=
202111080100 METAR MRLM NIL=
202111080200 METAR MRLM NIL=
202111080300 METAR MRLM NIL=
202111080400 METAR MRLM NIL=
202111080500 METAR MRLM NIL=
202111080600 METAR MRLM NIL=
202111080700 METAR MRLM NIL=
202111080800 METAR MRLM NIL=
202111080900 METAR MRLM NIL=
202111081000 METAR MRLM NIL=
202111081100 METAR MRLM NIL=
202111081200 METAR MRLM 081200Z 27004KT CAVOK 22/21 A2993=
202111081300 METAR MRLM 081300Z 28005KT CAVOK 25/22 A2995=
202111081400 METAR MRLM 081400Z 27007KT CAVOK 27/22 A2996=
202111081500 METAR MRLM 081500Z 28009KT CAVOK 29/23 A2997=
202111081600 METAR MRLM 081600Z 31008KT 9999 FEW030 SCT250 30/23 A2997=
202111081700 METAR MRLM 081700Z 32011KT 9999 FEW030 SCT250 31/22 A2994=
202111081800 METAR MRLM 081800Z 34009KT 9999 FEW030 SCT140 BKN240 31/23 A2992=
202111081900 METAR MRLM 081900Z 35013KT 9999 FEW030 SCT140 BKN240 30/24 A2990=
202111082000 METAR MRLM 082000Z 35016KT 9999 FEW025 BKN130 29/23 A2989=
202111082100 METAR MRLM 082100Z 36010KT 9999 FEW020 BKN120 27/24 A2991=
202111082200 METAR MRLM 082200Z 32007KT 9999 FEW020 BKN120 26/23 A2992=
202111082300 METAR MRLM NIL=
202111090000 METAR MRLM NIL=
202111090100 METAR MRLM NIL=
202111090200 METAR MRLM NIL=
202111090300 METAR MRLM NIL=
202111090400 METAR MRLM NIL=
202111090500 METAR MRLM NIL=
202111090600 METAR MRLM NIL=
202111090700 METAR MRLM NIL=
202111090800 METAR MRLM NIL=
202111090900 METAR MRLM NIL=
202111091000 METAR MRLM NIL=
202111091100 METAR MRLM NIL=
202111091200 METAR MRLM 091200Z 29006KT 9999 FEW015 BKN110 24/21 A2994=
202111091300 METAR MRLM 091300Z 26008KT 9999 DZ SCT020 BKN100 23/21 A2996=
202111091400 METAR MRLM 091400Z 34005KT 4000 +DZ BKN010 24/22 A3000=
202111091500 METAR MRLM 091500Z 27009KT 9999 -DZ SCT020 BKN120 24/22 A2999 RERA=
202111091600 METAR MRLM 091600Z 29010KT 9999 SCT030 26/23 A2998=
202111091700 METAR MRLM 091700Z 30011KT 9999 FEW030 BKN130 26/22 A2996=
202111091800 METAR MRLM 091800Z 30009KT 9999 FEW030 BKN130 26/22 A2993=
202111091900 METAR MRLM 091900Z 30009KT 9999 FEW030 BKN130 27/22 A2993=
202111092000 METAR MRLM 092000Z 31005KT 5000 DZ SCT015 OVC100 24/22 A2990=
202111092100 METAR MRLM 092100Z 32005KT 5000 SCT015 OVC100 24/22 A2990=
202111092200 METAR MRLM 092200Z 29004KT 9999 SCT015 BKN100 23/22 A2991 REDZ=
202111092300 METAR MRLM NIL=
202111100000 METAR MRLM NIL=
202111100100 METAR MRLM NIL=
202111100200 METAR MRLM NIL=
202111100300 METAR MRLM NIL=
202111100400 METAR MRLM NIL=
202111100500 METAR MRLM NIL=
202111100600 METAR MRLM NIL=
202111100700 METAR MRLM NIL=
202111100800 METAR MRLM NIL=
202111100900 METAR MRLM NIL=
202111101000 METAR MRLM NIL=
202111101100 METAR MRLM NIL=
202111101200 METAR MRLM 101200Z 27005KT CAVOK 23/21 A2992=
202111101300 METAR MRLM 101300Z 28006KT CAVOK 25/21 A2993=
202111101400 METAR MRLM 101400Z 28007KT CAVOK 26/22 A2994=
202111101500 METAR MRLM 101500Z 29003KT CAVOK 27/22 A2995=
202111101600 METAR MRLM 101600Z 30006KT CAVOK 29/23 A2995=
202111101700 METAR MRLM 101700Z 32005KT 9999 FEW030 BKN130 28/22 A2993=
202111101800 METAR MRLM 101800Z 33006KT CAVOK 28/23 A2989=
202111101900 METAR MRLM 101900Z 36008KT 9999 FEW020 BKN130 29/23 A2989=
202111102000 METAR MRLM 102000Z 35010KT 9999 FEW020 BKN130 29/23 A2985=
202111102100 METAR MRLM 102100Z 36010KT 9999 BKN020 28/24 A2985=
202111102200 METAR MRLM 102200Z 05013KT 9999 SCT020 26/23 A2987=
202111102300 METAR MRLM NIL=
202111110000 METAR MRLM NIL=
202111110100 METAR MRLM NIL=
202111110200 METAR MRLM NIL=
202111110300 METAR MRLM NIL=
202111110400 METAR MRLM NIL=
202111110500 METAR MRLM NIL=
202111110600 METAR MRLM NIL=
202111110700 METAR MRLM NIL=
202111110800 METAR MRLM NIL=
202111110900 METAR MRLM NIL=
202111111000 METAR MRLM NIL=
202111111100 METAR MRLM NIL=
202111111200 METAR MRLM 111200Z 25004KT CAVOK 23/21 A2990=
202111111300 METAR MRLM 111300Z 00000KT CAVOK 24/22 A2991=
202111111400 METAR MRLM 111400Z 00000KT CAVOK 27/22 A2993=
202111111500 METAR MRLM 111500Z 04004KT CAVOK 28/21 A2994=
202111111600 METAR MRLM 111600Z 02007KT CAVOK 29/23 A2993=
202111111700 METAR MRLM 111700Z 02006KT 9999 FEW030 29/24 A2990=
202111111800 METAR MRLM 111800Z 02007KT 9999 FEW030 29/24 A2987=
202111111900 METAR MRLM 111900Z 01009KT 9999 FEW030 29/24 A2984=
202111112000 METAR MRLM 112000Z 04007KT 9999 SCT030 29/24 A2982=
202111112100 METAR MRLM 112100Z 09004KT 9999 SCT030 29/24 A2981=
202111112200 METAR MRLM 112200Z 04003KT 9999 FEW025 SCT130 28/24 A2981=
202111112300 METAR MRLM NIL=
202111120000 METAR MRLM NIL=
202111120100 METAR MRLM NIL=
202111120200 METAR MRLM NIL=
202111120300 METAR MRLM NIL=
202111120400 METAR MRLM NIL=
202111120500 METAR MRLM NIL=
202111120600 METAR MRLM NIL=
202111120700 METAR MRLM NIL=
202111120800 METAR MRLM NIL=
202111120900 METAR MRLM NIL=
202111121000 METAR MRLM NIL=
202111121100 METAR MRLM NIL=
202111121200 METAR MRLM 121200Z 23003KT CAVOK 21/20 A2990=
202111121300 METAR MRLM 121300Z 24004KT CAVOK 24/21 A2993=
202111121400 METAR MRLM 121400Z 23004KT CAVOK 28/22 A2995=
202111121500 METAR MRLM 121500Z 06003KT 9999 FEW030 BKN130 29/23 A2995=
202111121600 METAR MRLM 121600Z 04004KT 9999 FEW030 BKN240 28/23 A2994=
202111121700 METAR MRLM 121700Z 03005KT CAVOK 29/23 A2993=
202111121800 METAR MRLM 121800Z 02006KT CAVOK 30/23 A2989=
202111121900 METAR MRLM 121900Z 02006KT CAVOK 30/23 A2990=
202111122000 METAR MRLM 122000Z 02006KT CAVOK 30/23 A2983=
202111122100 METAR MRLM 122100Z 02005KT CAVOK 30/22 A2983=
202111122200 METAR MRLM 122200Z 02005KT CAVOK 29/23 A2984=
202111122300 METAR MRLM NIL=
202111130000 METAR MRLM NIL=
202111130100 METAR MRLM NIL=
202111130200 METAR MRLM NIL=
202111130300 METAR MRLM NIL=
202111130400 METAR MRLM NIL=
202111130500 METAR MRLM NIL=
202111130600 METAR MRLM NIL=
202111130700 METAR MRLM NIL=
202111130800 METAR MRLM NIL=
202111130900 METAR MRLM NIL=
202111131000 METAR MRLM NIL=
202111131100 METAR MRLM NIL=
202111131200 METAR MRLM 131200Z 24005KT 9999 VCSH FEW015TCU BKN100 21/18 A2989=
202111131300 METAR MRLM 131300Z 20003KT 9999 VCSH FEW015TCU BKN100 24/19 A2992=
202111131400 METAR MRLM 131400Z 33002KT 9999 VCSH FEW015TCU BKN100 25/19 A2996=
202111131500 METAR MRLM 131500Z 25005KT 9999 FEW020 BKN120 26/21 A2996=
202111131600 METAR MRLM 131600Z 24005KT 9999 FEW020 SCT120 29/21 A2993 NOSIG=
202111131700 METAR MRLM 131700Z 05007KT CAVOK 30/22 A2991=
202111131800 METAR MRLM 131800Z 02007KT CAVOK 30/22 A2987=
202111131900 METAR MRLM 131900Z 03008KT CAVOK 30/22 A2984=
202111132000 METAR MRLM NIL=
202111132100 METAR MRLM 132100Z 02007KT CAVOK 30/23 A2980=
202111132200 METAR MRLM 132200Z 02007KT CAVOK 30/22 A2981=
202111132300 METAR MRLM 132300Z 01007KT CAVOK 29/23 A2982=
202111140000 METAR MRLM 140000Z 34006KT CAVOK 28/23 A2985=
202111140100 METAR MRLM NIL=
202111140200 METAR MRLM NIL=
202111140300 METAR MRLM NIL=
202111140400 METAR MRLM NIL=
202111140500 METAR MRLM NIL=
202111140600 METAR MRLM NIL=
202111140700 METAR MRLM NIL=
202111140800 METAR MRLM NIL=
202111140900 METAR MRLM NIL=
202111141000 METAR MRLM NIL=
202111141100 METAR MRLM NIL=
202111141200 METAR MRLM 141200Z 23005KT 9999 VCSH FEW015TCU BKN100 22/20 A2988=
202111141300 METAR MRLM 141300Z 24005KT 9999 VCSH FEW015TCU BKN100 23/20 A2989=
202111141400 METAR MRLM 141400Z 24002KT 9999 FEW020 BKN120 26/22 A2990=
202111141500 METAR MRLM 141500Z 29004KT CAVOK 30/23 A2990=
202111141600 METAR MRLM 141600Z 36009KT 9999 FEW035 30/23 A2990=
202111141700 METAR MRLM 141700Z 36009KT 9999 FEW035 30/24 A2987=
202111141800 METAR MRLM 141800Z 01009KT CAVOK 30/24 A2983=
202111141900 METAR MRLM 141900Z 01009KT CAVOK 30/24 A2981=
202111142000 METAR MRLM 142000Z 01009KT CAVOK 29/22 A2978=
202111142100 METAR MRLM 142100Z 01007KT CAVOK 30/23 A2977=
202111142200 METAR MRLM 142200Z 36006KT CAVOK 29/23 A2978=
202111142300 METAR MRLM 142300Z 31004KT CAVOK 28/23 A2980=
202111150000 METAR MRLM 150000Z 26003KT CAVOK 25/23 A2982=
202111150100 METAR MRLM NIL=
202111150200 METAR MRLM NIL=
202111150300 METAR MRLM NIL=
202111150400 METAR MRLM NIL=
202111150500 METAR MRLM NIL=
202111150600 METAR MRLM NIL=
202111150700 METAR MRLM NIL=
202111150800 METAR MRLM NIL=
202111150900 METAR MRLM NIL=
202111151000 METAR MRLM NIL=
202111151100 METAR MRLM NIL=
202111151200 METAR MRLM 151200Z 24005KT 9999 FEW015 SCT130 22/21 A2988=
202111151300 METAR MRLM 151300Z 02005KT 9999 FEW015 SCT130 25/22 A2991=
202111151400 METAR MRLM 151400Z 03005KT CAVOK 24/23 A2992=
202111151500 METAR MRLM 151500Z 04005KT CAVOK 28/24 A2993=
202111151600 METAR MRLM 151600Z 04003KT CAVOK 29/23 A2993=
202111151700 METAR MRLM 151700Z 04006KT CAVOK 29/23 A2991=
202111151800 METAR MRLM 151800Z 06005KT CAVOK 29/24 A2988=
202111151900 METAR MRLM 151900Z 07003KT CAVOK 29/23 A2985=
202111152000 METAR MRLM 152000Z 07003KT CAVOK 29/23 A2985=
202111152100 METAR MRLM 152100Z 05004KT CAVOK 29/24 A2982=
202111152200 METAR MRLM 152200Z 00000KT 9999 FEW025 29/23 A2982=
202111152300 METAR MRLM 152300Z 13009KT 9999 BKN015 27/23 A2983=
202111160000 METAR MRLM 160000Z 00000KT 9999 FEW015 25/22 A2985=
202111160100 METAR MRLM NIL=
202111160200 METAR MRLM NIL=
202111160300 METAR MRLM NIL=
202111160400 METAR MRLM NIL=
202111160500 METAR MRLM NIL=
202111160600 METAR MRLM NIL=
202111160700 METAR MRLM NIL=
202111160800 METAR MRLM NIL=
202111160900 METAR MRLM NIL=
202111161000 METAR MRLM NIL=
202111161100 METAR MRLM NIL=
202111161200 METAR MRLM 161200Z 24005KT CAVOK 21/20 A2986=
202111161300 METAR MRLM 161300Z 23004KT CAVOK 24/21 A2988=
202111161400 METAR MRLM 161400Z 00000KT CAVOK 25/22 A2991=
202111161500 METAR MRLM 161500Z 27004KT CAVOK 28/23 A2991=
202111161600 METAR MRLM 161600Z 28005KT CAVOK 30/23 A2989=
202111161700 METAR MRLM 161700Z 02009KT CAVOK 30/24 A2987=
202111161800 METAR MRLM 161800Z 01010KT CAVOK 30/24 A2984=
202111161900 METAR MRLM 161900Z 01010KT CAVOK 30/24 A2984=
202111162000 METAR MRLM 162000Z 36008KT CAVOK 30/23 A2979=
202111162100 METAR MRLM 162100Z 36009KT CAVOK 29/23 A2978=
202111162200 METAR MRLM 162200Z 34006KT 9999 FEW030 SCT250 29/23 A2980=
202111162300 METAR MRLM 162300Z 35008KT 9999 SCT025 BKN240 28/24 A2980=
202111170000 METAR MRLM 170000Z 31005KT 9999 BKN020 27/23 A2984=
202111170100 METAR MRLM NIL=
202111170200 METAR MRLM NIL=
202111170300 METAR MRLM NIL=
202111170400 METAR MRLM NIL=
202111170500 METAR MRLM NIL=
202111170600 METAR MRLM NIL=
202111170700 METAR MRLM NIL=
202111170800 METAR MRLM NIL=
202111170900 METAR MRLM NIL=
202111171000 METAR MRLM NIL=
202111171100 METAR MRLM NIL=
202111171200 METAR MRLM 171200Z 29003KT 8000 DZ SCT015 BKN090 23/21 A2988=
202111171300 METAR MRLM 171300Z 30008KT 9999 SCT015 BKN090 24/22 A2990 REDZ=
202111171400 METAR MRLM 171400Z 30010KT 9999 FEW015 BKN100 25/22 A2991=
202111171500 METAR MRLM 171500Z 31006KT 9999 SCT015 OVC100 27/23 A2993=
202111171600 METAR MRLM 171600Z 30007KT 9999 SCT015 OVC100 27/23 A2992=
202111171700 METAR MRLM 171700Z 30006KT 9999 SCT015 OVC100 27/23 A2991=
202111171800 METAR MRLM 171800Z 31009KT 9999 SCT020 BKN100 27/23 A2988=
202111171900 METAR MRLM 171900Z 31006KT 9999 SCT020 OVC100 27/23 A2986=
202111172000 METAR MRLM 172000Z 29003KT 8000 -DZ VCSH FEW015TCU OVC100 27/23 A2984=
202111172100 METAR MRLM 172100Z 02005KT 8000 DZ VCSH FEW015TCU OVC100 24/22 A2983=
202111172200 METAR MRLM 172200Z 27004KT 9999 -DZ SCT015 OVC090 24/22 A2982=
202111172300 METAR MRLM 172300Z 21003KT 9999 SCT015 OVC090 24/22 A2984 REDZ=
202111180000 METAR MRLM 180000Z 17002KT 9999 SCT010 OVC080 24/23 A2986=
202111180100 METAR MRLM NIL=
202111180200 METAR MRLM NIL=
202111180300 METAR MRLM NIL=
202111180400 METAR MRLM NIL=
202111180500 METAR MRLM NIL=
202111180600 METAR MRLM NIL=
202111180700 METAR MRLM NIL=
202111180800 METAR MRLM NIL=
202111180900 METAR MRLM NIL=
202111181000 METAR MRLM NIL=
202111181100 METAR MRLM NIL=
202111181200 METAR MRLM 181200Z 24004KT 9999 FEW015 SCT100 BKN200 23/21 A2988=
202111181300 METAR MRLM 181300Z 25004KT 9999 FEW015TCU SCT100 BKN200 24/22 A2988=
202111181400 METAR MRLM 181400Z 21004KT 9999 FEW015TCU BKN100 26/23 A2992=
202111181500 METAR MRLM 181500Z 08002KT 9999 FEW020 OVC100 27/23 A2994=
202111181600 METAR MRLM 181600Z 26003KT 9999 FEW020 OVC100 28/24 A2993=
202111181700 METAR MRLM 181700Z 06004KT 9999 FEW020 BKN120 29/24 A2991=
202111181800 METAR MRLM 181800Z 07003KT CAVOK 29/23 A2988=
202111181900 METAR MRLM 181900Z 05005KT CAVOK 30/24 A2986=
202111182000 METAR MRLM 182000Z 04005KT CAVOK 30/24 A2984=
202111182100 METAR MRLM 182100Z 03004KT CAVOK 30/24 A2982=
202111182200 METAR MRLM 182200Z 02003KT CAVOK 29/24 A2982=
202111182300 METAR MRLM 182300Z 01008KT CAVOK 28/24 A2983=
202111190000 METAR MRLM 190000Z 32002KT 9999 FEW020 BKN200 27/24 A2986=
202111190100 METAR MRLM NIL=
202111190200 METAR MRLM NIL=
202111190300 METAR MRLM NIL=
202111190400 METAR MRLM NIL=
202111190500 METAR MRLM NIL=
202111190600 METAR MRLM NIL=
202111190700 METAR MRLM NIL=
202111190800 METAR MRLM NIL=
202111190900 METAR MRLM NIL=
202111191000 METAR MRLM NIL=
202111191100 METAR MRLM NIL=
202111191200 METAR MRLM 191200Z 00000KT CAVOK 22/20 A2988=
202111191300 METAR MRLM 191300Z 00000KT CAVOK 23/21 A2998=
202111191400 METAR MRLM 191400Z 23003KT CAVOK 27/23 A2992=
202111191500 METAR MRLM 191500Z 10004KT CAVOK 29/24 A2992=
202111191600 METAR MRLM 191600Z 07005KT CAVOK 29/23 A2992=
202111191700 METAR MRLM 191700Z 05005KT CAVOK 30/23 A2992=
202111191800 METAR MRLM 191800Z 06007KT CAVOK 30/24 A2988=
202111191900 METAR MRLM 191900Z 06006KT CAVOK 30/24 A2985=
202111192000 METAR MRLM 192000Z 06007KT CAVOK 30/24 A2983=
202111192100 METAR MRLM 192100Z 07006KT CAVOK 30/24 A2982=
202111192200 METAR MRLM 192200Z 08005KT CAVOK 29/24 A2981=
202111192300 METAR MRLM 192300Z 10005KT CAVOK 29/24 A2982=
202111200000 METAR MRLM 200000Z 00000KT CAVOK 26/23 A2985=
202111200100 METAR MRLM NIL=
202111200200 METAR MRLM NIL=
202111200300 METAR MRLM NIL=
202111200400 METAR MRLM NIL=
202111200500 METAR MRLM NIL=
202111200600 METAR MRLM NIL=
202111200700 METAR MRLM NIL=
202111200800 METAR MRLM NIL=
202111200900 METAR MRLM NIL=
202111201000 METAR MRLM NIL=
202111201100 METAR MRLM NIL=
202111201200 METAR MRLM 201200Z 23005KT CAVOK 22/21 A2985=
202111201300 METAR MRLM 201300Z 23005KT CAVOK 25/22 A2988=
202111201400 METAR MRLM 201400Z 00000KT 9999 FEW030 BKN130 28/24 A2991=
202111201500 METAR MRLM 201500Z 04004KT CAVOK 29/24 A2992=
202111201600 METAR MRLM 201600Z 04004KT 9999 SCT030 BKN140 29/24 A2992=
202111201700 METAR MRLM 201700Z 04004KT 9999 SCT030 BKN140 29/24 A2992=
202111201800 METAR MRLM 201800Z 02008KT CAVOK 30/24 A2984=
202111201900 METAR MRLM 201900Z 01010KT CAVOK 30/24 A2983=
202111202000 METAR MRLM 202000Z 02008KT CAVOK 30/24 A2981=
202111202100 METAR MRLM 202100Z 01007KT CAVOK 29/24 A2980=
202111202200 METAR MRLM 202200Z 01005KT CAVOK 29/23 A2980=
202111202300 METAR MRLM 202300Z 33005KT 9999 SCT025 BKN230 28/24 A2981=
202111210000 METAR MRLM 210000Z 00000KT 9999 FEW020 BKN230 27/24 A2985=
202111210100 METAR MRLM NIL=
202111210200 METAR MRLM NIL=
202111210300 METAR MRLM NIL=
202111210400 METAR MRLM NIL=
202111210500 METAR MRLM NIL=
202111210600 METAR MRLM NIL=
202111210700 METAR MRLM NIL=
202111210800 METAR MRLM NIL=
202111210900 METAR MRLM NIL=
202111211000 METAR MRLM NIL=
202111211100 METAR MRLM NIL=
202111211200 METAR MRLM 211200Z 00000KT CAVOK 23/23 A2986=
202111211300 METAR MRLM 211300Z 00000KT 9999 FEW025 BKN120 24/23 A2989=
202111211400 METAR MRLM 211400Z 27004KT 9999 FEW025 BKN120 25/22 A2990=
202111211500 METAR MRLM 211500Z 23004KT 9999 SCT020 BKN120 25/22 A2992=
202111211600 METAR MRLM 211600Z 27003KT CAVOK 27/23 A2991=
202111211700 METAR MRLM 211700Z 00000KT 9999 FEW030 SCT140 30/23 A2989=
202111211800 METAR MRLM 211800Z 04006KT CAVOK 30/24 A2986=
202111211900 METAR MRLM 211900Z 02009KT CAVOK 30/24 A2983=
202111212000 METAR MRLM 212000Z 36010KT CAVOK 30/25 A2981=
202111212100 METAR MRLM 212100Z 36010KT CAVOK 29/25 A2979=
202111212200 METAR MRLM 212200Z 36009KT CAVOK 29/25 A2979=
202111212300 METAR MRLM 212300Z 34007KT 9999 FEW025 BKN140 28/24 A2982=
202111220000 METAR MRLM 220000Z 01008KT 9999 FEW020 BKN140 27/25 A2985=
202111220100 METAR MRLM NIL=
202111220200 METAR MRLM NIL=
202111220300 METAR MRLM NIL=
202111220400 METAR MRLM NIL=
202111220500 METAR MRLM NIL=
202111220600 METAR MRLM NIL=
202111220700 METAR MRLM NIL=
202111220800 METAR MRLM NIL=
202111220900 METAR MRLM NIL=
202111221000 METAR MRLM NIL=
202111221100 METAR MRLM NIL=
202111221200 METAR MRLM 221200Z 25005KT 9999 FEW015 SCT100 BKN200 23/22 A2986=
202111221300 METAR MRLM 221300Z 27002KT 9999 FEW015 SCT100 BKN200 25/22 A2988=
202111221400 METAR MRLM 221400Z 00000KT 9999 VCSH FEW010TCU SCT015 BKN100 26/23 A2993=
202111221500 METAR MRLM 221500Z 32005KT 5000 +DZ FEW010 OVC080 24/22 A2997=
202111221600 METAR MRLM 221600Z 25005KT 5000 +DZ FEW010 OVC080 23/22 A2996=
202111221700 METAR MRLM 221700Z 25007KT 9999 -DZ SCT015 OVC100 23/22 A2995=
202111221800 METAR MRLM 221800Z 25004KT 9999 SCT015 OVC100 25/22 A2989 REDZ=
202111221900 METAR MRLM 221900Z 24003KT 9999 VCSH FEW015TCU SCT020 OVC100 26/23 A2988=
202111222000 METAR MRLM 222000Z 36011KT 8000 DZ FEW008 OVC070 23/22 A2989 RERA=
202111222100 METAR MRLM 222100Z 24006KT 9999 DZ FEW010 OVC090 22/20 A2985=
202111222200 METAR MRLM 222200Z 25004KT 9999 FEW010 OVC090 22/21 A2985 REDZ=
202111222300 METAR MRLM 222300Z 24004KT CAVOK 23/21 A2985=
202111230000 METAR MRLM 230000Z 22005KT CAVOK 23/21 A2985=
202111230100 METAR MRLM NIL=
202111230200 METAR MRLM NIL=
202111230300 METAR MRLM NIL=
202111230400 METAR MRLM NIL=
202111230500 METAR MRLM NIL=
202111230600 METAR MRLM NIL=
202111230700 METAR MRLM NIL=
202111230800 METAR MRLM NIL=
202111230900 METAR MRLM NIL=
202111231000 METAR MRLM NIL=
202111231100 METAR MRLM NIL=
202111231200 METAR MRLM 231200Z 25003KT CAVOK 22/20 A2987=
202111231300 METAR MRLM 231300Z 23004KT CAVOK 23/21 A2990=
202111231400 METAR MRLM 231400Z 24003KT CAVOK 25/22 A2994=
202111231500 METAR MRLM 231500Z 31005KT CAVOK 26/22 A2995=
202111231600 METAR MRLM 231600Z 28007KT CAVOK 26/22 A2995=
202111231700 METAR MRLM 231700Z 30008KT 9999 FEW020 BKN130 27/22 A2993=
202111231800 METAR MRLM 231800Z 31010KT 9999 FEW020 SCT130 BKN230 27/23 A2991=
202111231900 METAR MRLM NIL=
202111232000 METAR MRLM 232000Z 33010KT 9999 SCT020 BKN120 26/22 A2987=
202111232100 METAR MRLM 232100Z 34010KT 9999 SCT015 BKN110 25/21 A2988=
202111232200 METAR MRLM 232200Z 25003KT 9999 FEW015 SCT120 BKN220 25/22 A2988 NOSIG=
202111232300 METAR MRLM 232300Z 24005KT CAVOK 24/22 A2989=
202111240000 METAR MRLM 240000Z 21005KT 9999 DZ BKN100 24/21 A2989=
202111240100 METAR MRLM NIL=
202111240200 METAR MRLM NIL=
202111240300 METAR MRLM NIL=
202111240400 METAR MRLM NIL=
202111240500 METAR MRLM NIL=
202111240600 METAR MRLM NIL=
202111240700 METAR MRLM NIL=
202111240800 METAR MRLM NIL=
202111240900 METAR MRLM NIL=
202111241000 METAR MRLM NIL=
202111241100 METAR MRLM NIL=
202111241200 METAR MRLM 241200Z 23006KT CAVOK 21/19 A2990=
202111241300 METAR MRLM 241300Z 25003KT CAVOK 24/20 A2993=
202111241400 METAR MRLM 241400Z 00000KT CAVOK 28/22 A2996=
202111241500 METAR MRLM 241500Z 27005KT CAVOK 29/21 A2997=
202111241600 METAR MRLM 241600Z 31007KT CAVOK 30/21 A2996=
202111241700 METAR MRLM 241700Z 33010KT CAVOK 30/21 A2994=
202111241800 METAR MRLM 241800Z 35013KT CAVOK 30/23 A2991=
202111241900 METAR MRLM 241900Z 33013KT CAVOK 30/24 A2989=
202111242000 METAR MRLM 242000Z 31010KT CAVOK 28/22 A2988=
202111242100 METAR MRLM NIL=
202111242200 METAR MRLM 242200Z 34011KT 9999 SCT025 BKN130 29/23 A2987=
202111242300 METAR MRLM 242300Z 01013KT 9999 BKN015 27/23 A2990=
202111250000 METAR MRLM 250000Z 36012KT 9999 FEW015 BKN120 26/24 A2994=
202111250100 METAR MRLM NIL=
202111250200 METAR MRLM NIL=
202111250300 METAR MRLM NIL=
202111250400 METAR MRLM NIL=
202111250500 METAR MRLM NIL=
202111250600 METAR MRLM NIL=
202111250700 METAR MRLM NIL=
202111250800 METAR MRLM NIL=
202111250900 METAR MRLM NIL=
202111251000 METAR MRLM NIL=
202111251100 METAR MRLM NIL=
202111251200 METAR MRLM 251200Z 28003KT 9999 FEW015 BKN100 23/21 A2992=
202111251300 METAR MRLM 251300Z 29005KT 9999 FEW015 BKN100 24/21 A2994=
202111251400 METAR MRLM 251400Z 30009KT CAVOK 26/21 A2996=
202111251500 METAR MRLM 251500Z 31009KT CAVOK 27/22 A2995=
202111251600 METAR MRLM 251600Z 29006KT CAVOK 28/23 A2994=
202111251700 METAR MRLM 251700Z 35008KT 9999 FEW030 BKN120 29/23 A2992=
202111251800 METAR MRLM 251800Z 35011KT 9999 FEW030 BKN120 29/23 A2990=
202111251900 METAR MRLM 251900Z 35010KT 9999 FEW030 SCT120 29/23 A2986=
202111252000 METAR MRLM 252000Z 35011KT 9999 FEW025 SCT120 29/23 A2985=
202111252100 METAR MRLM 252100Z 35008KT 9999 FEW025 SCT120 28/23 A2984=
202111252200 METAR MRLM 252200Z 33010KT 9999 SCT020 SCT120 27/23 A2986=
202111252300 METAR MRLM 252300Z 01005KT 9999 FEW020 SCT120 BKN220 27/23 A2988=
202111260000 METAR MRLM 260000Z 28003KT 9999 FEW020 BKN200 25/23 A2989=
202111260100 METAR MRLM NIL=
202111260200 METAR MRLM NIL=
202111260300 METAR MRLM NIL=
202111260400 METAR MRLM NIL=
202111260500 METAR MRLM NIL=
202111260600 METAR MRLM NIL=
202111260700 METAR MRLM NIL=
202111260800 METAR MRLM NIL=
202111260900 METAR MRLM NIL=
202111261000 METAR MRLM NIL=
202111261100 METAR MRLM NIL=
202111261200 METAR MRLM 261200Z 00000KT CAVOK 21/20 A2991=
202111261300 METAR MRLM 261300Z 25002KT CAVOK 24/21 A2992=
202111261400 METAR MRLM 261400Z 05002KT CAVOK 26/22 A2994=
202111261500 METAR MRLM 261500Z 06002KT 9999 FEW030 SCT240 29/23 A2994=
202111261600 METAR MRLM 261600Z 04006KT 9999 FEW030 SCT240 28/23 A2994=
202111261700 METAR MRLM 261700Z 03006KT 9999 FEW030 SCT240 29/22 A2991=
202111261800 METAR MRLM 261800Z 02006KT CAVOK 29/23 A2989=
202111261900 METAR MRLM 261900Z 02006KT CAVOK 29/23 A2986=
202111262000 METAR MRLM 262000Z 02007KT CAVOK 29/24 A2984=
202111262100 METAR MRLM 262100Z 01006KT 9999 FEW025 SCT240 28/24 A2983=
202111262200 METAR MRLM 262200Z 02004KT 9999 FEW025 SCT120 28/24 A2984=
202111262300 METAR MRLM 262300Z 04003KT 9999 FEW020 BKN120 28/23 A2985=
202111270000 METAR MRLM 270000Z 20003KT 9999 FEW015 BKN100 26/24 A2987=
202111270100 METAR MRLM NIL=
202111270200 METAR MRLM NIL=
202111270300 METAR MRLM NIL=
202111270400 METAR MRLM NIL=
202111270500 METAR MRLM NIL=
202111270600 METAR MRLM NIL=
202111270700 METAR MRLM NIL=
202111270800 METAR MRLM NIL=
202111270900 METAR MRLM NIL=
202111271000 METAR MRLM NIL=
202111271100 METAR MRLM NIL=
202111271200 METAR MRLM 271200Z 00000KT 9999 DZ FEW015 BKN110 23/21 A2992=
202111271300 METAR MRLM 271300Z 34005KT 4000 +DZ FEW015 OVC110 24/22 A2995=
202111271400 METAR MRLM 271400Z 25005KT 9999 FEW020 OVC130 24/22 A2997 REDZ=
202111271500 METAR MRLM 271500Z 24005KT 9999 SCT020 BKN130 24/22 A2997=
202111271600 METAR MRLM 271600Z 23005KT 9999 FEW020 BKN130 26/23 A2996=
202111271700 METAR MRLM 271700Z 25004KT 9999 FEW030 BKN140 29/24 A2993=
202111271800 METAR MRLM 271800Z 04006KT CAVOK 28/23 A2989=
202111271900 METAR MRLM 271900Z 01007KT CAVOK 29/23 A2987=
202111272000 METAR MRLM 272000Z 01009KT CAVOK 29/23 A2985=
202111272100 METAR MRLM 272100Z 36007KT 9999 FEW020 SCT130 28/23 A2984=
202111272200 METAR MRLM 272200Z 36013KT 9999 FEW020 SCT130 27/23 A2984=
202111272300 METAR MRLM 272300Z 24004KT CAVOK 25/22 A2986=
202111280000 METAR MRLM 280000Z 23004KT CAVOK 25/22 A2990=
202111280100 METAR MRLM NIL=
202111280200 METAR MRLM NIL=
202111280300 METAR MRLM NIL=
202111280400 METAR MRLM NIL=
202111280500 METAR MRLM NIL=
202111280600 METAR MRLM NIL=
202111280700 METAR MRLM NIL=
202111280800 METAR MRLM NIL=
202111280900 METAR MRLM NIL=
202111281000 METAR MRLM NIL=
202111281100 METAR MRLM NIL=
202111281200 METAR MRLM 281200Z 26003KT 9999 -DZ FEW015 BKN100 23/22 A2990=
202111281300 METAR MRLM 281300Z 28005KT 9999 FEW015 BKN110 23/23 A2992=
202111281400 METAR MRLM 281400Z 26005KT CAVOK 24/23 A2995=
202111281500 METAR MRLM 281500Z 30003KT 9999 FEW025 BKN120 25/23 A2995=
202111281600 METAR MRLM 281600Z 31007KT 9999 FEW025 BKN130 25/23 A2995=
202111281700 METAR MRLM 281700Z 29007KT 9999 FEW025 BKN130 27/23 A2993=
202111281800 METAR MRLM 281800Z 31007KT 9999 FEW020 BKN130 26/23 A2990=
202111281900 METAR MRLM 281900Z 30007KT 9999 FEW025 BKN130 26/23 A2987=
202111282000 METAR MRLM 282000Z 31007KT 9999 FEW025 BKN130 26/23 A2986=
202111282100 METAR MRLM 282100Z 28006KT CAVOK 27/23 A2984=
202111282200 METAR MRLM 282200Z 28005KT CAVOK 27/23 A2982=
202111282300 METAR MRLM 282300Z 32005KT 9999 FEW020 BKN130 26/22 A2984=
202111290000 METAR MRLM 290000Z 32003KT 9999 FEW020 SCT120 25/23 A2987=
202111290100 METAR MRLM NIL=
202111290200 METAR MRLM NIL=
202111290300 METAR MRLM NIL=
202111290400 METAR MRLM NIL=
202111290500 METAR MRLM NIL=
202111290600 METAR MRLM NIL=
202111290700 METAR MRLM NIL=
202111290800 METAR MRLM NIL=
202111290900 METAR MRLM NIL=
202111291000 METAR MRLM NIL=
202111291100 METAR MRLM NIL=
202111291200 METAR MRLM 291200Z 29005KT 9999 FEW015 BKN100 23/20 A2986=
202111291300 METAR MRLM 291300Z 29007KT 9999 FEW015 BKN100 23/21 A2989=
202111291400 METAR MRLM 291400Z 29008KT 9999 FEW015 BKN100 24/22 A2992=
202111291500 METAR MRLM 291500Z 29008KT 8000 DZ FEW015 OVC090 24/22 A2993=
202111291600 METAR MRLM 291600Z 28006KT 8000 DZ FEW015 OVC090 24/22 A2992=
202111291700 METAR MRLM 291700Z 28005KT 9999 -DZ SCT015 OVC090 25/23 A2990=
202111291800 METAR MRLM 291800Z 30007KT 9999 -DZ SCT015 OVC090 25/23 A2988=
202111291900 METAR MRLM 291900Z 28007KT 9999 DZ SCT015 OVC090 24/22 A2986=
202111292000 METAR MRLM 292000Z 26007KT 9999 -DZ SCT015 OVC090 24/23 A2984=
202111292100 METAR MRLM 292100Z 30005KT 9999 SCT020 OVC100 25/23 A2982 REDZ=
202111292200 METAR MRLM 292200Z 29007KT 9999 SCT020 OVC100 25/22 A2985=
202111292300 METAR MRLM 292300Z 29005KT 9999 VCSH FEW010TCU SCT015 OVC080 25/23 A2987=
202111300000 METAR MRLM 300000Z 01014KT 8000 -DZ SCT010 OVC070 25/23 A2988=
202111300100 METAR MRLM NIL=
202111300200 METAR MRLM NIL=
202111300300 METAR MRLM NIL=
202111300400 METAR MRLM NIL=
202111300500 METAR MRLM NIL=
202111300600 METAR MRLM NIL=
202111300700 METAR MRLM NIL=
202111300800 METAR MRLM NIL=
202111300900 METAR MRLM NIL=
202111301000 METAR MRLM NIL=
202111301100 METAR MRLM NIL=
202111301200 METAR MRLM 301200Z 35005KT 2000 +RA OVC015 24/24 A2992=
202111301300 METAR MRLM 301300Z 22004KT 4000 +DZ FEW008 SCT015 OVC070 23/23 A2993 RERA=
202111301400 METAR MRLM 301400Z 25005KT 4000 +DZ VCSH FEW008TCU SCT015 OVC070 23/23 A2995=
202111301500 METAR MRLM 301500Z 21006KT 4000 +DZ VCSH SCT010TCU OVC070 23/23 A2986=
202111301600 METAR MRLM 301600Z 20003KT 3000 -RA SCT010TCU OVC070 23/23 A2996=
202111301700 METAR MRLM 301700Z 23004KT 6000 DZ VCSH FEW007TCU SCT010 OVC070 23/23 A2995 RERA=
202111301800 METAR MRLM 301800Z 27005KT 9999 SCT015 OVC090 24/24 A2992 REDZ=
202111301900 METAR MRLM 301900Z 28006KT 9999 FEW010TCU SCT015 OVC090 26/23 A2987=
202111302000 METAR MRLM 302000Z 28004KT 9999 SCT015 OVC100 26/23 A2985=
202111302100 METAR MRLM 302100Z 27003KT 9999 VCSH FEW015TCU BKN100 26/23 A2985=
202111302200 METAR MRLM 302200Z 33006KT 9999 -DZ SCT015 OVC100 25/23 A2986=
202111302300 METAR MRLM 302300Z 30004KT 9999 SCT015 BKN100 24/23 A2987=
202112010000 METAR MRLM 010000Z 28002KT 9999 SCT010 BKN090 24/23 A2987=
202112010100 METAR MRLM NIL=
202112010200 METAR MRLM NIL=
202112010300 METAR MRLM NIL=
202112010400 METAR MRLM NIL=
202112010500 METAR MRLM NIL=
202112010600 METAR MRLM NIL=
202112010700 METAR MRLM NIL=
202112010800 METAR MRLM NIL=
202112010900 METAR MRLM NIL=
202112011000 METAR MRLM NIL=
202112011100 METAR MRLM NIL=
202112011200 METAR MRLM 011200Z 31008KT 9999 SCT015 BKN110 23/21 A2993=
202112011300 METAR MRLM 011300Z 28006KT 9999 DZ SCT015 BKN120 23/22 A2997=
202112011400 METAR MRLM 011400Z 29009KT 9999 FEW015 BKN120 24/22 A2999=
202112011500 METAR MRLM 011500Z 27008KT 9999 FEW020 BKN110 25/22 A2999=
202112011600 METAR MRLM 011600Z 29006KT 9999 FEW020 BKN120 26/23 A3000=
202112011700 METAR MRLM 011700Z 00000KT 2000 +RA FEW020 OVC110 24/23 A3000=
202112011800 METAR MRLM 011800Z 26006KT 5000 DZ SCT020 OVC110 24/22 A2997 RERA=
202112011900 METAR MRLM 011900Z 00000KT 7000 DZ SCT020 OVC110 24/23 A2993=
202112012000 METAR MRLM 012000Z 30003KT 9999 -DZ SCT020 OVC120 25/23 A2991=
202112012100 METAR MRLM 012100Z 00000KT 9999 FEW025 OVC130 25/23 A2988=
202112012200 METAR MRLM 012200Z 00000KT CAVOK 25/23 A2987=
202112012300 METAR MRLM 012300Z 31005KT 9999 FEW010 BKN110 24/23 A2989=
202112020000 METAR MRLM 020000Z 31006KT 9999 FEW010 BKN100 24/22 A2992=
202112020100 METAR MRLM NIL=
202112020200 METAR MRLM NIL=
202112020300 METAR MRLM NIL=
202112020400 METAR MRLM NIL=
202112020500 METAR MRLM NIL=
202112020600 METAR MRLM NIL=
202112020700 METAR MRLM NIL=
202112020800 METAR MRLM NIL=
202112020900 METAR MRLM NIL=
202112021000 METAR MRLM NIL=
202112021100 METAR MRLM NIL=
202112021200 METAR MRLM 021200Z 00000KT 9999 FEW010 BKN100 22/21 A2992=
202112021300 METAR MRLM 021300Z 22004KT 9999 FEW010 BKN110 23/22 A2996=
202112021400 METAR MRLM 021400Z 17004KT 9999 SCT020 BKN100 23/22 A2999=
202112021500 METAR MRLM 021500Z 20004KT 9999 DZ FEW020 BKN110 23/22 A2998=
202112021600 METAR MRLM NIL=
202112021700 METAR MRLM 021700Z 21004KT CAVOK 29/23 A2994 REDZ=
202112021800 METAR MRLM 021800Z 04005KT 9999 FEW030 SCT140 BKN240 28/24 A2991=
202112021900 METAR MRLM 021900Z 03005KT CAVOK 28/24 A2988=
202112022000 METAR MRLM 022000Z 04004KT CAVOK 28/23 A2986=
202112022100 METAR MRLM 022100Z 06003KT CAVOK 28/23 A2985=
202112022200 METAR MRLM 022200Z 00000KT CAVOK 28/24 A2985=
202112022300 METAR MRLM 022300Z 00000KT CAVOK 26/24 A2986=
202112030000 METAR MRLM 030000Z 00000KT CAVOK 26/24 A2986=
202112030100 METAR MRLM NIL=
202112030200 METAR MRLM NIL=
202112030300 METAR MRLM NIL=
202112030400 METAR MRLM NIL=
202112030500 METAR MRLM NIL=
202112030600 METAR MRLM NIL=
202112030700 METAR MRLM NIL=
202112030800 METAR MRLM NIL=
202112030900 METAR MRLM NIL=
202112031000 METAR MRLM NIL=
202112031100 METAR MRLM NIL=
202112031200 METAR MRLM 031200Z 24004KT 9999 DZ VCTS VCSH FEW010CB SCT015 BKN090 22/21 A2986=
202112031300 METAR MRLM 031300Z 26002KT 9999 DZ FEW010CB SCT015 OVC090 23/22 A2988=
202112031400 METAR MRLM 031400Z 28004KT 9999 SCT015 BKN090 24/22 A2990 REDZ=
202112031500 METAR MRLM 031500Z 30004KT 9999 FEW015 BKN090 26/23 A2989=
202112031600 METAR MRLM 031600Z 27005KT 9999 FEW020 BKN100 28/24 A2989=
202112031700 METAR MRLM 031700Z 32005KT 9999 FEW020 SCT120 BKN220 30/23 A2985=
202112031800 METAR MRLM 031800Z 01008KT CAVOK 30/24 A2982=
202112031900 METAR MRLM 031900Z 36011KT CAVOK 30/24 A2981=
202112032000 METAR MRLM 032000Z 35008KT CAVOK 29/24 A2978=
202112032100 METAR MRLM 032100Z 32009KT CAVOK 28/24 A2978=
202112032200 METAR MRLM 032200Z 30004KT CAVOK 28/24 A2980=
202112032300 METAR MRLM 032300Z 33005KT 9999 DZ VCSH FEW015TCU SCT020 BKN120 27/24 A2982=
202112040000 METAR MRLM 040000Z 03008KT 5000 RA SCT010TCU OVC090 25/23 A2984=
202112040100 METAR MRLM NIL=
202112040200 METAR MRLM NIL=
202112040300 METAR MRLM NIL=
202112040400 METAR MRLM NIL=
202112040500 METAR MRLM NIL=
202112040600 METAR MRLM NIL=
202112040700 METAR MRLM NIL=
202112040800 METAR MRLM NIL=
202112040900 METAR MRLM NIL=
202112041000 METAR MRLM NIL=
202112041100 METAR MRLM NIL=
202112041200 METAR MRLM 041200Z 19002KT 8000 HZ VCSH FEW010TCU SCT015 BKN090 22/21 A2987=
202112041300 METAR MRLM 041300Z 09006KT 9999 VCSH FEW010TCU SCT015 BKN090 25/23 A2989=
202112041400 METAR MRLM 041400Z 25007KT 9999 FEW015 SCT100 25/23 A2991=
202112041500 METAR MRLM 041500Z 22004KT 9999 FEW030 SCT240 28/22 A2991=
202112041600 METAR MRLM 041600Z 04004KT 9999 FEW030 SCT240 29/23 A2991=
202112041700 METAR MRLM 041700Z 03005KT 9999 FEW025 SCT120 BKN220 29/23 A2988=
202112041800 METAR MRLM 041800Z 05010KT 9999 -DZ SCT020 OVC120 27/23 A2988=
202112041900 METAR MRLM 041900Z 10004KT 9999 SCT020 BKN120 27/23 A2984=
202112042000 METAR MRLM 042000Z 08005KT 9999 VCSH FEW015TCU SCT020 BKN120 28/23 A2982=
202112042100 METAR MRLM 042100Z 35009KT 9999 VCSH FEW015TCU SCT120 BKN220 27/22 A2981=
202112042200 METAR MRLM 042200Z 24004KT 9999 FEW015TCU SCT120 BKN220 27/23 A2982=
202112042300 METAR MRLM 042300Z 23003KT 9999 FEW015 SCT120 BKN220 26/23 A2983=
202112050000 METAR MRLM 050000Z 25003KT 9999 FEW015 SCT100 BKN200 25/23 A2984=
202112050100 METAR MRLM NIL=
202112050200 METAR MRLM NIL=
202112050300 METAR MRLM NIL=
202112050400 METAR MRLM NIL=
202112050500 METAR MRLM NIL=
202112050600 METAR MRLM NIL=
202112050700 METAR MRLM NIL=
202112050800 METAR MRLM NIL=
202112050900 METAR MRLM NIL=
202112051000 METAR MRLM NIL=
202112051100 METAR MRLM NIL=
202112051200 METAR MRLM 051200Z 20004KT 9999 FEW020 BKN100 23/23 A2990=
202112051300 METAR MRLM 051300Z 22003KT 9999 FEW020 BKN110 24/23 A2992=
202112051400 METAR MRLM 051400Z 26004KT 9999 FEW020 BKN110 27/24 A2994=
202112051500 METAR MRLM 051500Z 00000KT 9999 SCT020 27/24 A2995=
202112051600 METAR MRLM 051600Z 18003KT 8000 DZ SCT020 BKN100 25/23 A2996 RERA=
202112051700 METAR MRLM 051700Z 28004KT 9999 SCT025 BKN120 26/24 A2993 REDZ=
202112051800 METAR MRLM 051800Z 00000KT 9999 FEW025 BKN120 29/24 A2990=
202112051900 METAR MRLM 051900Z 09004KT 9999 SCT025 29/24 A2987=
202112052000 METAR MRLM 052000Z 06004KT 9999 SCT030 29/24 A2985=
202112052100 METAR MRLM 052100Z 00000KT 9999 SCT020 29/23 A2985=
202112052200 METAR MRLM 052200Z 04008KT 9999 DZ BKN020 27/24 A2985=
202112052300 METAR MRLM 052300Z 15005KT 9999 FEW020 SCT120 26/23 A2986=
202112060000 METAR MRLM 060000Z 00000KT 9999 DZ SCT015 BKN110 25/23 A2990=
202112060100 METAR MRLM NIL=
202112060200 METAR MRLM NIL=
202112060300 METAR MRLM NIL=
202112060400 METAR MRLM NIL=
202112060500 METAR MRLM NIL=
202112060600 METAR MRLM NIL=
202112060700 METAR MRLM NIL=
202112060800 METAR MRLM NIL=
202112060900 METAR MRLM NIL=
202112061000 METAR MRLM NIL=
202112061100 METAR MRLM NIL=
202112061200 METAR MRLM 061200Z 23004KT CAVOK 23/21 A2991=
202112061300 METAR MRLM 061300Z 23004KT 9999 FEW020 BKN130 24/22 A2993=
202112061400 METAR MRLM 061400Z 27006KT 9999 DZ SCT020 BKN110 25/23 A2995=
202112061500 METAR MRLM 061500Z 16003KT 7000 +DZ SCT015 BKN110 25/32 A2998=
202112061600 METAR MRLM 061600Z 22006KT 9999 BKN015 24/22 A2997 REDZ=
202112061700 METAR MRLM 061700Z 21006KT 6000 RA BKN015 25/23 A2995=
202112061800 METAR MRLM 061800Z 25005KT 9999 SCT020 BKN110 26/23 A2993 RERA=
202112061900 METAR MRLM 061900Z 22004KT 9999 FEW020 BKN130 27/23 A2990=
202112062000 METAR MRLM 062000Z 20003KT CAVOK 29/23 A2987=
202112062100 METAR MRLM 062100Z 00000KT CAVOK 29/24 A2985=
202112062200 METAR MRLM 062200Z 07003KT CAVOK 29/24 A2986=
202112062300 METAR MRLM 062300Z 05003KT CAVOK 28/24 A2986=
202112070000 METAR MRLM 070000Z 00000KT CAVOK 26/23 A2990=
202112070100 METAR MRLM NIL=
202112070200 METAR MRLM NIL=
202112070300 METAR MRLM NIL=
202112070400 METAR MRLM NIL=
202112070500 METAR MRLM NIL=
202112070600 METAR MRLM NIL=
202112070700 METAR MRLM NIL=
202112070800 METAR MRLM NIL=
202112070900 METAR MRLM NIL=
202112071000 METAR MRLM NIL=
202112071100 METAR MRLM NIL=
202112071200 METAR MRLM 071200Z 23004KT 9999 FEW015 BKN090 22/21 A2989=
202112071300 METAR MRLM 071300Z 26004KT CAVOK 24/21 A2990=
202112071400 METAR MRLM 071400Z 24002KT CAVOK 28/23 A2991=
202112071500 METAR MRLM 071500Z 10003KT 9999 FEW020 BKN120 27/23 A2992=
202112071600 METAR MRLM 071600Z 03006KT 9999 FEW020 BKN120 28/23 A2992=
202112071700 METAR MRLM 071700Z 04003KT 9999 FEW020 SCT120 28/24 A2989=
202112071800 METAR MRLM 071800Z 05004KT 9999 FEW025 29/23 A2986=
202112071900 METAR MRLM 071900Z 05006KT CAVOK 29/23 A2984=
202112072000 METAR MRLM 072000Z 05006KT CAVOK 29/23 A2982=
202112072100 METAR MRLM 072100Z 03006KT 9999 FEW020 BKN120 29/24 A2980=
202112072200 METAR MRLM 072200Z 01006KT 9999 FEW020 BKN120 28/24 A2980=
202112072300 METAR MRLM 072300Z 04009KT 9999 FEW020 SCT120 OVC220 28/23 A2982=
202112080000 METAR MRLM 080000Z 03014KT 9999 FEW015 SCT100 OVC200 27/23 A2983=
202112080100 METAR MRLM NIL=
202112080200 METAR MRLM NIL=
202112080300 METAR MRLM NIL=
202112080400 METAR MRLM NIL=
202112080500 METAR MRLM NIL=
202112080600 METAR MRLM NIL=
202112080700 METAR MRLM NIL=
202112080800 METAR MRLM NIL=
202112080900 METAR MRLM NIL=
202112081000 METAR MRLM NIL=
202112081100 METAR MRLM NIL=
202112081200 METAR MRLM 081200Z 24003KT 8000 HZ VCSH SCT015TCU BKN090 23/22 A2990=
202112081300 METAR MRLM 081300Z 28003KT 8000 DZ VCSH SCT015TCU BKN090 23/22 A2995=
202112081400 METAR MRLM 081400Z 21005KT 9999 FEW015TCU BKN090 24/23 A2995 REDZ=
202112081500 METAR MRLM 081500Z 00000KT 8000 DZ VCSH FEW010TCU SCT015 BKN090 26/23 A2996=
202112081600 METAR MRLM 081600Z 21003KT 9999 FEW015TCU BKN090 25/22 A2997 REDZ=
202112081700 METAR MRLM 081700Z 20003KT 9999 SCT020 SCT110 28/24 A2995=
202112081800 METAR MRLM 081800Z 25003KT 9999 FEW030 SCT220 29/23 A2992=
202112081900 METAR MRLM 081900Z 07004KT 9999 FEW020TCU FEW030 SCT220 29/24 A2989=
202112082000 METAR MRLM 082000Z 05005KT 9999 FEW030 SCT220 29/24 A2987=
202112082100 METAR MRLM 082100Z 05005KT CAVOK 29/24 A2986=
202112082200 METAR MRLM 082200Z 04004KT CAVOK 29/23 A2986=
202112082300 METAR MRLM 082300Z 04003KT CAVOK 28/24 A2986=
202112090000 METAR MRLM 090000Z 00000KT CAVOK 25/22 A2988=
202112090100 METAR MRLM NIL=
202112090200 METAR MRLM NIL=
202112090300 METAR MRLM NIL=
202112090400 METAR MRLM NIL=
202112090500 METAR MRLM NIL=
202112090600 METAR MRLM NIL=
202112090700 METAR MRLM NIL=
202112090800 METAR MRLM NIL=
202112090900 METAR MRLM NIL=
202112091000 METAR MRLM NIL=
202112091100 METAR MRLM NIL=
202112091200 METAR MRLM 091200Z 23005KT CAVOK 23/21 A2991=
202112091300 METAR MRLM 091300Z 22004KT CAVOK 24/22 A2993=
202112091400 METAR MRLM 091400Z 22005KT CAVOK 26/23 A2994=
202112091500 METAR MRLM 091500Z 22004KT CAVOK 28/23 A2995=
202112091600 METAR MRLM 091600Z 09005KT CAVOK 29/23 A2995=
202112091700 METAR MRLM 091700Z 09005KT CAVOK 29/23 A2995=
202112091800 METAR MRLM 091800Z 08004KT 9999 FEW030 30/23 A2992=
202112091900 METAR MRLM 091900Z 06005KT 9999 FEW030 30/23 A2988=
202112092000 METAR MRLM 092000Z 07006KT CAVOK 30/22 A2987=
202112092100 METAR MRLM 092100Z 06006KT CAVOK 29/23 A2986=
202112092200 METAR MRLM 092200Z 05007KT CAVOK 29/23 A2986=
202112092300 METAR MRLM 092300Z 06008KT CAVOK 28/23 A2987=
202112100000 METAR MRLM 100000Z 07006KT CAVOK 26/21 A2992=
202112100100 METAR MRLM NIL=
202112100200 METAR MRLM NIL=
202112100300 METAR MRLM NIL=
202112100400 METAR MRLM NIL=
202112100500 METAR MRLM NIL=
202112100600 METAR MRLM NIL=
202112100700 METAR MRLM NIL=
202112100800 METAR MRLM NIL=
202112100900 METAR MRLM NIL=
202112101000 METAR MRLM NIL=
202112101100 METAR MRLM NIL=
202112101200 METAR MRLM 101200Z 23004KT CAVOK 21/19 A2989=
202112101300 METAR MRLM 101300Z 00000KT CAVOK 22/20 A2992=
202112101400 METAR MRLM 101400Z 00000KT CAVOK 25/21 A2993=
202112101500 METAR MRLM 101500Z 19003KT CAVOK 28/20 A2992=
202112101600 METAR MRLM 101600Z 08004KT CAVOK 28/21 A2991=
202112101700 METAR MRLM 101700Z 04007KT CAVOK 28/22 A2989=
202112101800 METAR MRLM 101800Z 04007KT CAVOK 28/22 A2989=
202112101900 METAR MRLM 101900Z 04007KT CAVOK 28/22 A2989=
202112102000 METAR MRLM 102000Z 04003KT CAVOK 28/23 A2982=
202112102100 METAR MRLM 102100Z 07003KT CAVOK 28/22 A2981=
202112102200 METAR MRLM 102200Z 00000KT CAVOK 28/23 A2981=
202112102300 METAR MRLM 102300Z 00000KT CAVOK 25/23 A2981=
202112110000 METAR MRLM 110000Z 00000KT CAVOK 24/23 A2981=
202112110100 METAR MRLM NIL=
202112110200 METAR MRLM NIL=
202112110300 METAR MRLM NIL=
202112110400 METAR MRLM NIL=
202112110500 METAR MRLM NIL=
202112110600 METAR MRLM NIL=
202112110700 METAR MRLM NIL=
202112110800 METAR MRLM NIL=
202112110900 METAR MRLM NIL=
202112111000 METAR MRLM NIL=
202112111100 METAR MRLM NIL=
202112111200 METAR MRLM 111200Z 22005KT 9999 FEW015 SCT100 BKN200 22/20 A2990=
202112111300 METAR MRLM 111300Z 23004KT CAVOK 23/21 A2990=
202112111400 METAR MRLM 111400Z 00000KT CAVOK 27/23 A2991=
202112111500 METAR MRLM 111500Z 06003KT CAVOK 26/22 A2991=
202112111600 METAR MRLM 111600Z 06005KT CAVOK 28/23 A2991=
202112111700 METAR MRLM 111700Z 04008KT CAVOK 29/23 A2989=
202112111800 METAR MRLM 111800Z 06009KT CAVOK 30/22 A2986=
202112111900 METAR MRLM 111900Z 07008KT CAVOK 29/22 A2983=
202112112000 METAR MRLM 112000Z 09005KT CAVOK 29/23 A2981=
202112112100 METAR MRLM 112100Z 10005KT CAVOK 29/23 A2980=
202112112200 METAR MRLM 112200Z 12006KT CAVOK 29/23 A2981=
202112112300 METAR MRLM 112300Z 12007KT CAVOK 28/23 A2982=
202112120000 METAR MRLM 120000Z 12006KT CAVOK 28/23 A2984=
202112120100 METAR MRLM NIL=
202112120200 METAR MRLM NIL=
202112120300 METAR MRLM NIL=
202112120400 METAR MRLM NIL=
202112120500 METAR MRLM NIL=
202112120600 METAR MRLM NIL=
202112120700 METAR MRLM NIL=
202112120800 METAR MRLM NIL=
202112120900 METAR MRLM NIL=
202112121000 METAR MRLM NIL=
202112121100 METAR MRLM NIL=
202112121200 METAR MRLM 121200Z 24003KT 8000 DZ VCSH FEW015TCU BKN100 22/20 A2994=
202112121300 METAR MRLM 121300Z 16002KT 9999 VCSH FEW015TCU SCT100 BKN200 24/21 A2996=
202112121400 METAR MRLM 121400Z 25004KT 9999 FEW020 BKN200 26/23 A2998=
202112121500 METAR MRLM 121500Z 20003KT 9999 FEW020 BKN220 28/22 A2999=
202112121600 METAR MRLM 121600Z 09004KT CAVOK 29/24 A2998=
202112121700 METAR MRLM 121700Z 06004KT 9999 FEW030 BKN240 29/22 A2994=
202112121800 METAR MRLM 121800Z 04007KT 9999 FEW030 SCT130 BKN240 29/24 A2994=
202112121900 METAR MRLM 121900Z 04005KT 9999 FEW030 BKN120 28/24 A2991=
202112122000 METAR MRLM 122000Z 03004KT CAVOK 28/23 A2989=
202112122100 METAR MRLM 122100Z 06002KT 9999 FEW030 BKN240 28/22 A2987=
202112122200 METAR MRLM 122200Z 05003KT CAVOK 28/22 A2988=
202112122300 METAR MRLM 122300Z 03002KT CAVOK 28/22 A2989=
202112130000 METAR MRLM 130000Z 35003KT CAVOK 26/23 A2990=
202112130100 METAR MRLM NIL=
202112130200 METAR MRLM NIL=
202112130300 METAR MRLM NIL=
202112130400 METAR MRLM NIL=
202112130500 METAR MRLM NIL=
202112130600 METAR MRLM NIL=
202112130700 METAR MRLM NIL=
202112130800 METAR MRLM NIL=
202112130900 METAR MRLM NIL=
202112131000 METAR MRLM NIL=
202112131100 METAR MRLM NIL=
202112131200 METAR MRLM 131200Z 21004KT 9999 BKN015 23/22 A2992=
202112131300 METAR MRLM 131300Z 00000KT 9999 SCT020 BKN110 23/22 A2994=
202112131400 METAR MRLM 131400Z 23003KT 9999 FEW020 BKN120 25/22 A2996=
202112131500 METAR MRLM 131500Z 33006KT 2000 RA BKN150 24/22 A3000=
202112131600 METAR MRLM 131600Z 33006KT 2000 +RA BKN020 23/22 A2999=
202112131700 METAR MRLM 131700Z 27004KT 5000 RA SCT020 OVC090 23/22 A2998=
202112131800 METAR MRLM 131800Z 24003KT 8000 +DZ BKN020 23/22 A2996 RERA=
202112131900 METAR MRLM 131900Z 24004KT 9999 SCT020 OVC100 24/23 A2993 REDZ=
202112132000 METAR MRLM 132000Z 24003KT 9999 DZ SCT020 OVC100 25/24 A2989=
202112132100 METAR MRLM 132100Z 26004KT 9999 DZ BKN020 25/23 A2989=
202112132200 METAR MRLM 132200Z 00000KT 9999 BKN020 25/23 A2988=
202112132300 METAR MRLM 132300Z 25003KT 9999 VCTS SCT020 25/23 A2989=
202112140000 METAR MRLM 140000Z 26004KT 9999 SCT015 BKN110 24/23 A2992=
202112140100 METAR MRLM NIL=
202112140200 METAR MRLM NIL=
202112140300 METAR MRLM NIL=
202112140400 METAR MRLM NIL=
202112140500 METAR MRLM NIL=
202112140600 METAR MRLM NIL=
202112140700 METAR MRLM NIL=
202112140800 METAR MRLM NIL=
202112140900 METAR MRLM NIL=
202112141000 METAR MRLM NIL=
202112141100 METAR MRLM NIL=
202112141200 METAR MRLM 141200Z 00000KT 8000 3000N DZ BKN015 23/22 A2995=
202112141300 METAR MRLM 141300Z 28005KT 5000 +DZ SCT015 BKN100 23/22 A2998=
202112141400 METAR MRLM 141400Z 26005KT 9999 DZ SCT015 BKN110 23/22 A3001=
202112141500 METAR MRLM 141500Z 28006KT 9999 FEW020 BKN120 25/22 A2999 REDZ=
202112141600 METAR MRLM 141600Z 25004KT 9999 FEW025 BKN130 26/23 A2999=
202112141700 METAR MRLM 141700Z 00000KT 9999 FEW025 SCT130 28/24 A2996=
202112141800 METAR MRLM 141800Z 02007KT CAVOK 28/24 A2992=
202112141900 METAR MRLM 141900Z 01009KT CAVOK 29/23 A2988=
202112142000 METAR MRLM 142000Z 01007KT CAVOK 28/23 A2986=
202112142100 METAR MRLM 142100Z 36007KT CAVOK 29/23 A2985=
202112142200 METAR MRLM 142200Z 30005KT CAVOK 27/23 A2986=
202112142300 METAR MRLM 142300Z 31004KT CAVOK 26/23 A2987=
202112150000 METAR MRLM 150000Z 27004KT CAVOK 25/23 A2990=
202112150100 METAR MRLM NIL=
202112150200 METAR MRLM NIL=
202112150300 METAR MRLM NIL=
202112150400 METAR MRLM NIL=
202112150500 METAR MRLM NIL=
202112150600 METAR MRLM NIL=
202112150700 METAR MRLM NIL=
202112150800 METAR MRLM NIL=
202112150900 METAR MRLM NIL=
202112151000 METAR MRLM NIL=
202112151100 METAR MRLM NIL=
202112151200 METAR MRLM 151200Z 24004KT CAVOK 22/21 A2989=
202112151300 METAR MRLM 151300Z 00000KT CAVOK 24/21 A2991=
202112151400 METAR MRLM 151400Z 00000KT CAVOK 26/23 A2993=
202112151500 METAR MRLM 151500Z 34002KT CAVOK 27/23 A2993=
202112151600 METAR MRLM 151600Z 09003KT 9999 FEW025 BKN220 27/23 A2993=
202112151700 METAR MRLM 151700Z 03004KT 9999 FEW025 BKN120 28/23 A2991=
202112151800 METAR MRLM 151800Z 01007KT CAVOK 28/23 A2989=
202112151900 METAR MRLM 151900Z 01008KT CAVOK 28/24 A2985=
202112152000 METAR MRLM 152000Z 34005KT CAVOK 28/24 A2982=
202112152100 METAR MRLM 152100Z 36006KT CAVOK 28/23 A2980=
202112152200 METAR MRLM 152200Z 36008KT 9999 FEW020 SCT120 BKN220 28/24 A2983=
202112152300 METAR MRLM 152300Z 04017KT 8000 +DZ VCSH FEW010TCU SCT015 OVC100 25/23 A2984=
202112160000 METAR MRLM 160000Z 23006KT 9999 FEW010 OVC090 24/22 A2985 REDZ=
202112160100 METAR MRLM NIL=
202112160200 METAR MRLM NIL=
202112160300 METAR MRLM NIL=
202112160400 METAR MRLM NIL=
202112160500 METAR MRLM NIL=
202112160600 METAR MRLM NIL=
202112160700 METAR MRLM NIL=
202112160800 METAR MRLM NIL=
202112160900 METAR MRLM NIL=
202112161000 METAR MRLM NIL=
202112161100 METAR MRLM NIL=
202112161200 METAR MRLM 161200Z 22003KT 9999 FEW015 BKN090 23/22 A2985=
202112161300 METAR MRLM 161300Z 21005KT 9999 FEW015 BKN090 23/22 A2987=
202112161400 METAR MRLM 161400Z 27003KT 9999 FEW020 BKN100 27/22 A2986=
202112161500 METAR MRLM 161500Z 28003KT CAVOK 28/23 A2988=
202112161600 METAR MRLM 161600Z 03007KT CAVOK 28/24 A2986=
202112161700 METAR MRLM 161700Z 02010KT CAVOK 28/24 A2986=
202112161800 METAR MRLM 161800Z 01007KT 9999 FEW020 BKN120 28/24 A2983=
202112161900 METAR MRLM 161900Z 02008KT CAVOK 28/24 A2980=
202112162000 METAR MRLM 162000Z 02009KT CAVOK 28/24 A2979=
202112162100 METAR MRLM 162100Z 04009KT 9999 SCT020 BKN110 27/23 A2979=
202112162200 METAR MRLM 162200Z 31002KT 9999 FEW020 BKN110 27/23 A2979=
202112162300 METAR MRLM 162300Z 24003KT 9999 FEW020 BKN110 26/24 A2980=
202112170000 METAR MRLM 170000Z 25004KT 9999 VCSH FEW015TCU SCT100 25/23 A2982=
202112170100 METAR MRLM NIL=
202112170200 METAR MRLM NIL=
202112170300 METAR MRLM NIL=
202112170400 METAR MRLM NIL=
202112170500 METAR MRLM NIL=
202112170600 METAR MRLM NIL=
202112170700 METAR MRLM NIL=
202112170800 METAR MRLM NIL=
202112170900 METAR MRLM NIL=
202112171000 METAR MRLM NIL=
202112171100 METAR MRLM NIL=
202112171200 METAR MRLM NIL=
202112171300 METAR MRLM NIL=
202112171400 METAR MRLM NIL=
202112171500 METAR MRLM NIL=
202112171600 METAR MRLM NIL=
202112171700 METAR MRLM 171700Z 03004KT 9999 FEW020 BKN090 27/24 A2987=
202112171800 METAR MRLM 171800Z 01005KT 9999 FEW020 BKN090 27/24 A2984=
202112171900 METAR MRLM 171900Z 04008KT 9999 FEW020 BKN110 27/24 A2981=
202112172000 METAR MRLM 172000Z 05008KT 9999 VCSH FEW015TCU SCT020 BKN110 27/24 A2982=
202112172100 METAR MRLM 172100Z 12005KT 9999 SCT020 BKN110 27/24 A2981=
202112172200 METAR MRLM 172200Z 22002KT CAVOK 27/24 A2981=
202112172300 METAR MRLM 172300Z 17003KT 9999 FEW020 SCT100 BKN200 26/24 A2982=
202112180000 METAR MRLM 180000Z 19002KT CAVOK 25/23 A2984=
202112180100 METAR MRLM NIL=
202112180200 METAR MRLM NIL=
202112180300 METAR MRLM NIL=
202112180400 METAR MRLM NIL=
202112180500 METAR MRLM NIL=
202112180600 METAR MRLM NIL=
202112180700 METAR MRLM NIL=
202112180800 METAR MRLM NIL=
202112180900 METAR MRLM NIL=
202112181000 METAR MRLM NIL=
202112181100 METAR MRLM NIL=
202112181200 METAR MRLM 181200Z 23005KT 9999 4000N DZ SCT015 24/23 A2988=
202112181300 METAR MRLM 181300Z 25005KT 9999 SCT015 24/23 A2990 REDZ=
202112181400 METAR MRLM 181400Z 24003KT 9999 BKN020 25/24 A2992=
202112181500 METAR MRLM 181500Z 00000KT 9999 FEW020 BKN120 27/23 A2993=
202112181600 METAR MRLM 181600Z 00000KT CAVOK 28/24 A2992=
202112181700 METAR MRLM 181700Z 04004KT 9999 FEW030 BKN130 29/24 A2990=
202112181800 METAR MRLM 181800Z 03004KT 9999 FEW030 BKN140 29/24 A2987=
202112181900 METAR MRLM 181900Z 02007KT 9999 FEW030 29/24 A2984=
202112182000 METAR MRLM 182000Z 02006KT CAVOK 29/24 A2982=
202112182100 METAR MRLM 182100Z 02005KT 9999 FEW030 29/24 A2980=
202112182200 METAR MRLM 182200Z 01006KT 9999 FEW030 28/24 A2980=
202112182300 METAR MRLM 182300Z 00000KT 9999 FEW030 SCT120 28/24 A2981=
202112190000 METAR MRLM 190000Z 00000KT 9999 SCT020 27/23 A2985=
202112190100 METAR MRLM NIL=
202112190200 METAR MRLM NIL=
202112190300 METAR MRLM NIL=
202112190400 METAR MRLM NIL=
202112190500 METAR MRLM NIL=
202112190600 METAR MRLM NIL=
202112190700 METAR MRLM NIL=
202112190800 METAR MRLM NIL=
202112190900 METAR MRLM NIL=
202112191000 METAR MRLM NIL=
202112191100 METAR MRLM NIL=
202112191200 METAR MRLM 191200Z 25005KT 9999 VCSH FEW015 BKN090 23/22 A2987=
202112191300 METAR MRLM 191300Z 26006KT 9999 VCSH FEW015 BKN090 23/21 A2990=
202112191400 METAR MRLM 191400Z 24004KT 9999 FEW020 SCT100 26/23 A2992=
202112191500 METAR MRLM 191500Z 24003KT 9999 FEW020 SCT220 29/24 A2992=
202112191600 METAR MRLM 191600Z 05006KT 9999 FEW025 28/25 A2991=
202112191700 METAR MRLM 191700Z 01009KT 9999 FEW025 29/24 A2989=
202112191800 METAR MRLM 191800Z 01010KT CAVOK 29/24 A2986=
202112191900 METAR MRLM 191900Z 36008KT CAVOK 30/24 A2984=
202112192000 METAR MRLM 192000Z 35008KT CAVOK 29/24 A2981=
202112192100 METAR MRLM 192100Z 36008KT CAVOK 29/24 A2981=
202112192200 METAR MRLM 192200Z 36006KT CAVOK 29/24 A2982=
202112192300 METAR MRLM 192300Z 36007KT 9999 FEW020TCU 28/24 A2984=
202112200000 METAR MRLM 200000Z 01007KT 9999 SCT020TCU 27/23 A2985=
202112200100 METAR MRLM NIL=
202112200200 METAR MRLM NIL=
202112200300 METAR MRLM NIL=
202112200400 METAR MRLM NIL=
202112200500 METAR MRLM NIL=
202112200600 METAR MRLM NIL=
202112200700 METAR MRLM NIL=
202112200800 METAR MRLM NIL=
202112200900 METAR MRLM NIL=
202112201000 METAR MRLM NIL=
202112201100 METAR MRLM NIL=
202112201200 METAR MRLM 201200Z 27002KT 8000 DZ VCSH FEW015TCU BKN080 23/22 A2988=
202112201300 METAR MRLM 201300Z 18006KT 8000 +DZ VCSH FEW015TCU SCT020 BKN080 23/23 A2990=
202112201400 METAR MRLM 201400Z 22005KT 7000 DZ VCSH FEW015TCU SCT020 OVC080 24/23 A2993=
202112201500 METAR MRLM 201500Z 26004KT 9999 FEW015TCU BKN080 25/24 A2994 REDZ=
202112201600 METAR MRLM 201600Z 23006KT 9999 FEW020TCU SCT100 BKN200 27/23 A2992=
202112201700 METAR MRLM 201700Z 25005KT 9999 FEW020 SCT100 BKN200 28/23 A2990=
202112201800 METAR MRLM 201800Z 24002KT 9999 FEW020TCU BKN220 29/23 A2987=
202112201900 METAR MRLM 201900Z 04004KT 9999 FEW020TCU SCT120 BKN220 29/24 A2985=
202112202000 METAR MRLM 202000Z 03004KT 9999 FEW020 BKN220 28/23 A2982=
202112202100 METAR MRLM 202100Z 04005KT 9999 FEW020 SCT220 29/24 A2981=
202112202200 METAR MRLM 202200Z 03005KT CAVOK 28/23 A2982=
202112202300 METAR MRLM 202300Z 36003KT CAVOK 27/24 A2982=
202112210000 METAR MRLM 210000Z 24002KT CAVOK 25/23 A2983=
202112210100 METAR MRLM NIL=
202112210200 METAR MRLM NIL=
202112210300 METAR MRLM NIL=
202112210400 METAR MRLM NIL=
202112210500 METAR MRLM NIL=
202112210600 METAR MRLM NIL=
202112210700 METAR MRLM NIL=
202112210800 METAR MRLM NIL=
202112210900 METAR MRLM NIL=
202112211000 METAR MRLM NIL=
202112211100 METAR MRLM NIL=
202112211200 METAR MRLM 211200Z 25004KT 9999 FEW015 BKN120 23/22 A2986=
202112211300 METAR MRLM 211300Z 24004KT CAVOK 23/22 A2988=
202112211400 METAR MRLM 211400Z 24004KT CAVOK 24/23 A2992=
202112211500 METAR MRLM 211500Z 23003KT 9999 FEW025 BKN120 25/23 A2993=
202112211600 METAR MRLM 211600Z 23003KT 9999 SCT030 BKN130 27/23 A2992=
202112211700 METAR MRLM 211700Z 00000KT 9999 BKN025 28/24 A2991=
202112211800 METAR MRLM 211800Z 03004KT 9999 FEW030 BKN130 27/23 A2989=
202112211900 METAR MRLM 211900Z 00000KT 9999 FEW030 BKN140 28/23 A2986=
202112212000 METAR MRLM 212000Z 01006KT 9999 FEW030 BKN140 28/23 A2982=
202112212100 METAR MRLM 212100Z 02006KT CAVOK 28/23 A2981=
202112212200 METAR MRLM 212200Z 02004KT CAVOK 27/23 A2981=
202112212300 METAR MRLM 212300Z 05003KT 9999 FEW025 BKN120 27/24 A2983=
202112220000 METAR MRLM 220000Z 00000KT 9999 SCT020 BKN120 26/24 A2989=
202112220100 METAR MRLM NIL=
202112220200 METAR MRLM NIL=
202112220300 METAR MRLM NIL=
202112220400 METAR MRLM NIL=
202112220500 METAR MRLM NIL=
202112220600 METAR MRLM NIL=
202112220700 METAR MRLM NIL=
202112220800 METAR MRLM NIL=
202112220900 METAR MRLM NIL=
202112221000 METAR MRLM NIL=
202112221100 METAR MRLM NIL=
202112221200 METAR MRLM 221200Z 00000KT CAVOK 23/23 A2990=
202112221300 METAR MRLM 221300Z 00000KT CAVOK 25/23 A2993=
202112221400 METAR MRLM 221400Z 23003KT CAVOK 27/23 A2996=
202112221500 METAR MRLM 221500Z 27003KT CAVOK 28/24 A2995=
202112221600 METAR MRLM 221600Z 29005KT CAVOK 29/23 A2995=
202112221700 METAR MRLM 221700Z 34006KT CAVOK 29/23 A2993=
202112221800 METAR MRLM 221800Z 02010KT CAVOK 29/23 A2992=
202112221900 METAR MRLM 221900Z 36009KT CAVOK 29/23 A2989=
202112222000 METAR MRLM 222000Z 36009KT 9999 FEW030 29/24 A2988=
202112222100 METAR MRLM 222100Z 35010KT 9999 SCT030 29/24 A2988=
202112222200 METAR MRLM 222200Z 34009KT 9999 BKN025 28/23 A2988=
202112222300 METAR MRLM 222300Z 33008KT 9999 SCT025 27/23 A2989=
202112230000 METAR MRLM 230000Z 31006KT 9999 BKN020 25/22 A2993=
202112230100 METAR MRLM NIL=
202112230200 METAR MRLM NIL=
202112230300 METAR MRLM NIL=
202112230400 METAR MRLM NIL=
202112230500 METAR MRLM NIL=
202112230600 METAR MRLM NIL=
202112230700 METAR MRLM NIL=
202112230800 METAR MRLM NIL=
202112230900 METAR MRLM NIL=
202112231000 METAR MRLM NIL=
202112231100 METAR MRLM NIL=
202112231200 METAR MRLM 231200Z 26006KT 9999 DZ SCT015 OVC100 22/21 A2997=
202112231300 METAR MRLM 231300Z 24004KT 9999 VCSH FEW010TCU SCT015 OVC100 22/21 A2999=
202112231400 METAR MRLM 231400Z 29005KT 9999 -DZ FEW015 OVC100 22/21 A3002=
202112231500 METAR MRLM 231500Z 28006KT 9999 DZ SCT015 OVC090 22/21 A3004=
202112231600 METAR MRLM 231600Z 27010KT 9999 SCT015 BKN090 24/22 A3002 REDZ=
202112231700 METAR MRLM 231700Z 28009KT 9999 FEW020 BKN100 26/22 A3000=
202112231800 METAR MRLM 231800Z 28010KT 9999 FEW020 BKN100 26/22 A2997=
202112231900 METAR MRLM 231900Z 29010KT 9999 FEW020 BKN100 26/23 A2995=
202112232000 METAR MRLM 232000Z 30008KT 9999 FEW020 BKN100 25/22 A2994=
202112232100 METAR MRLM 232100Z 28009KT 9999 FEW020 OVC100 25/22 A2993=
202112232200 METAR MRLM 232200Z 28006KT 8000 DZ FEW015 OVC090 24/22 A2994=
202112232300 METAR MRLM 232300Z 27007KT 9999 -DZ SCT015 OVC090 23/22 A2995=
202112240000 METAR MRLM 240000Z 26007KT 5000 +DZ SCT010 OVC080 23/21 A2996=
202112240100 METAR MRLM NIL=
202112240200 METAR MRLM NIL=
202112240300 METAR MRLM NIL=
202112240400 METAR MRLM NIL=
202112240500 METAR MRLM NIL=
202112240600 METAR MRLM NIL=
202112240700 METAR MRLM NIL=
202112240800 METAR MRLM NIL=
202112240900 METAR MRLM NIL=
202112241000 METAR MRLM NIL=
202112241100 METAR MRLM NIL=
202112241200 METAR MRLM 241200Z 26006KT 5000 +DZ FEW008 OVC070 22/21 A2997=
202112241300 METAR MRLM 241300Z 27004KT 5000 +DZ FEW008 OVC070 22/22 A2999=
202112241400 METAR MRLM 241400Z 28004KT 4000 -RA FEW008 OVC070 23/22 A3002=
202112241500 METAR MRLM 241500Z 28004KT 6000 DZ FEW010 OVC070 23/22 A3002 RERA=
202112241600 METAR MRLM 241600Z 26007KT 9999 -DZ SCT010 OVC090 23/22 A3002=
202112241700 METAR MRLM 241700Z 27005KT 9999 SCT010 OVC090 24/22 A3000=
202112241800 METAR MRLM 241800Z 27005KT 9999 SCT015 BKN090 25/23 A2996=
202112241900 METAR MRLM 241900Z 26006KT 9999 FEW015 BKN100 26/23 A2993=
202112242000 METAR MRLM 242000Z 29004KT 9999 FEW020 BKN100 27/22 A2991=
202112242100 METAR MRLM 242100Z 27005KT 9999 FEW020 BKN100 27/23 A2989=
202112242200 METAR MRLM 242200Z 26004KT 9999 FEW020 BKN110 27/23 A2990=
202112242300 METAR MRLM 242300Z 26004KT 9999 FEW020 SCT110 BKN200 25/22 A2991=
202112250000 METAR MRLM 250000Z 25004KT 9999 VCSH SCT015TCU SCT200 24/22 A2992=
202112250100 METAR MRLM NIL=
202112250200 METAR MRLM NIL=
202112250300 METAR MRLM NIL=
202112250400 METAR MRLM NIL=
202112250500 METAR MRLM NIL=
202112250600 METAR MRLM NIL=
202112250700 METAR MRLM NIL=
202112250800 METAR MRLM NIL=
202112250900 METAR MRLM NIL=
202112251000 METAR MRLM NIL=
202112251100 METAR MRLM NIL=
202112251200 METAR MRLM 251200Z 19004KT 5000 DZ SCT020 OVC100 22/22 A2993=
202112251300 METAR MRLM 251300Z 23005KT 9999 DZ FEW020 OVC100 23/22 A2995=
202112251400 METAR MRLM 251400Z 24004KT 9999 FEW020 BKN110 24/23 A2996=
202112251500 METAR MRLM 251500Z 24003KT 9999 SCT020 BKN110 26/23 A2998=
202112251600 METAR MRLM 251600Z 32004KT 4000 RA SCT015 BKN100 25/23 A2998=
202112251700 METAR MRLM 251700Z 28004KT CAVOK 25/23 A2996 RERA=
202112251800 METAR MRLM 251800Z 29004KT CAVOK 27/24 A2996=
202112251900 METAR MRLM 251900Z 36011KT 9999 SCT020 BKN120 26/23 A2991=
202112252000 METAR MRLM 252000Z 01012KT 9999 FEW025 BKN120 25/22 A2989=
202112252100 METAR MRLM 252100Z 28005KT 9999 FEW025 BKN130 26/23 A2987=
202112252200 METAR MRLM 252200Z 25004KT 9999 FEW030 BKN130 26/23 A2988=
202112252300 METAR MRLM 252300Z 26003KT CAVOK 25/23 A2990=
202112260000 METAR MRLM 260000Z 00000KT CAVOK 25/23 A2994=
202112260100 METAR MRLM NIL=
202112260200 METAR MRLM NIL=
202112260300 METAR MRLM NIL=
202112260400 METAR MRLM NIL=
202112260500 METAR MRLM NIL=
202112260600 METAR MRLM NIL=
202112260700 METAR MRLM NIL=
202112260800 METAR MRLM NIL=
202112260900 METAR MRLM NIL=
202112261000 METAR MRLM NIL=
202112261100 METAR MRLM NIL=
202112261200 METAR MRLM 261200Z 26004KT CAVOK 23/21 A2993=
202112261300 METAR MRLM 261300Z 00000KT CAVOK 23/21 A2996=
202112261400 METAR MRLM 261400Z 00000KT 9999 FEW025 BKN120 24/22 A2998=
202112261500 METAR MRLM 261500Z 29003KT CAVOK 27/22 A2999=
202112261600 METAR MRLM 261600Z 30004KT 9999 FEW030 BKN120 25/22 A2999=
202112261700 METAR MRLM 261700Z 00000KT 9999 FEW030 BKN120 26/22 A2997=
202112261800 METAR MRLM 261800Z 26003KT CAVOK 27/23 A2993=
202112261900 METAR MRLM 261900Z 01008KT 9999 FEW030 BKN130 28/24 A2989=
202112262000 METAR MRLM 262000Z 34005KT CAVOK 28/23 A2987=
202112262100 METAR MRLM 262100Z 01006KT CAVOK 27/23 A2986=
202112262200 METAR MRLM 262200Z 34007KT CAVOK 27/23 A2987=
202112262300 METAR MRLM 262300Z 34006KT CAVOK 26/23 A2989=
202112270000 METAR MRLM 270000Z 32003KT 9999 FEW025 BKN120 25/22 A2993=
202112270100 METAR MRLM NIL=
202112270200 METAR MRLM NIL=
202112270300 METAR MRLM NIL=
202112270400 METAR MRLM NIL=
202112270500 METAR MRLM NIL=
202112270600 METAR MRLM NIL=
202112270700 METAR MRLM NIL=
202112270800 METAR MRLM NIL=
202112270900 METAR MRLM NIL=
202112271000 METAR MRLM NIL=
202112271100 METAR MRLM NIL=
202112271200 METAR MRLM 271200Z 25003KT 9999 FEW015 21/21 A2993=
202112271300 METAR MRLM 271300Z 23004KT CAVOK 22/22 A2995=
202112271400 METAR MRLM 271400Z 20003KT CAVOK 24/23 A2997=
202112271500 METAR MRLM 271500Z 25002KT CAVOK 27/23 A2996=
202112271600 METAR MRLM 271600Z 06004KT CAVOK 28/23 A2995=
202112271700 METAR MRLM 271700Z 04006KT CAVOK 27/23 A2994=
202112271800 METAR MRLM 271800Z 05006KT 9999 FEW025TCU BKN120 28/23 A2992=
202112271900 METAR MRLM 271900Z 07006KT 9999 FEW025 BKN120 28/24 A2988=
202112272000 METAR MRLM 272000Z 11004KT 9999 FEW025 BKN120 27/24 A2986=
202112272100 METAR MRLM 272100Z 11004KT CAVOK 28/23 A2985=
202112272200 METAR MRLM 272200Z 11004KT CAVOK 28/22 A2985=
202112272300 METAR MRLM 272300Z 12002KT CAVOK 28/23 A2986=
202112280000 METAR MRLM 280000Z 19003KT CAVOK 25/23 A2987=
202112280100 METAR MRLM NIL=
202112280200 METAR MRLM NIL=
202112280300 METAR MRLM NIL=
202112280400 METAR MRLM NIL=
202112280500 METAR MRLM NIL=
202112280600 METAR MRLM NIL=
202112280700 METAR MRLM NIL=
202112280800 METAR MRLM NIL=
202112280900 METAR MRLM NIL=
202112281000 METAR MRLM NIL=
202112281100 METAR MRLM NIL=
202112281200 METAR MRLM 281200Z 24002KT CAVOK 21/20 A2990=
202112281300 METAR MRLM 281300Z 23004KT CAVOK 22/21 A2992=
202112281400 METAR MRLM 281400Z 22003KT CAVOK 26/22 A2994=
202112281500 METAR MRLM 281500Z 08003KT 9999 FEW020TCU 27/22 A2995=
202112281600 METAR MRLM 281600Z 06005KT 9999 FEW020TCU 28/22 A2995=
202112281700 METAR MRLM 281700Z 08007KT 9999 FEW030 SCT220 28/22 A2993=
202112281800 METAR MRLM 281800Z 11006KT CAVOK 29/22 A2991=
202112281900 METAR MRLM 281900Z 12008KT CAVOK 29/21 A2988=
202112282000 METAR MRLM 282000Z 10008KT CAVOK 29/23 A2987=
202112282100 METAR MRLM 282100Z 12008KT CAVOK 28/23 A2986=
202112282200 METAR MRLM 282200Z 12007KT CAVOK 28/23 A2986=
202112282300 METAR MRLM 282300Z 17003KT 9999 FEW020 SCT120 BKN220 26/23 A2987=
202112290000 METAR MRLM 290000Z 19002KT 9999 FEW015 SCT100 BKN200 24/22 A2988=
202112290100 METAR MRLM NIL=
202112290200 METAR MRLM NIL=
202112290300 METAR MRLM NIL=
202112290400 METAR MRLM NIL=
202112290500 METAR MRLM NIL=
202112290600 METAR MRLM NIL=
202112290700 METAR MRLM NIL=
202112290800 METAR MRLM NIL=
202112290900 METAR MRLM NIL=
202112291000 METAR MRLM NIL=
202112291100 METAR MRLM NIL=
202112291200 METAR MRLM 291200Z 23004KT CAVOK 20/19 A2992=
202112291300 METAR MRLM 291300Z 24003KT CAVOK 22/20 A2993=
202112291400 METAR MRLM 291400Z 21005KT CAVOK 27/22 A2996=
202112291500 METAR MRLM NIL=
202112291600 METAR MRLM 291600Z 07004KT CAVOK 28/22 A2996=
202112291700 METAR MRLM 291700Z 06007KT CAVOK 29/22 A2994=
202112291800 METAR MRLM 291800Z 05007KT CAVOK 29/23 A2992=
202112291900 METAR MRLM 291900Z 05006KT CAVOK 29/23 A2989=
202112292000 METAR MRLM 292000Z 05009KT CAVOK 29/23 A2987=
202112292100 METAR MRLM 292100Z 04008KT CAVOK 28/21 A2987=
202112292200 METAR MRLM 292200Z 03004KT CAVOK 28/20 A2987=
202112292300 METAR MRLM 292300Z 07004KT CAVOK 27/20 A2989=
202112300000 METAR MRLM 300000Z 06004KT CAVOK 25/19 A2992=
202112300100 METAR MRLM NIL=
202112300200 METAR MRLM NIL=
202112300300 METAR MRLM NIL=
202112300400 METAR MRLM NIL=
202112300500 METAR MRLM NIL=
202112300600 METAR MRLM NIL=
202112300700 METAR MRLM NIL=
202112300800 METAR MRLM NIL=
202112300900 METAR MRLM NIL=
202112301000 METAR MRLM NIL=
202112301100 METAR MRLM NIL=
202112301200 METAR MRLM 301200Z 24005KT CAVOK 19/18 A2991=
202112301300 METAR MRLM 301300Z 23004KT CAVOK 21/19 A2994=
202112301400 METAR MRLM 301400Z 22004KT CAVOK 24/20 A2996=
202112301500 METAR MRLM 301500Z 00000KT CAVOK 28/20 A2996=
202112301600 METAR MRLM 301600Z 05004KT 9999 FEW030 SCT140 28/20 A2995=
202112301700 METAR MRLM 301700Z 05005KT CAVOK 28/22 A2994=
202112301800 METAR MRLM 301800Z 05009KT CAVOK 28/23 A2992=
202112301900 METAR MRLM 301900Z 05009KT CAVOK 28/23 A2992=
202112302000 METAR MRLM 302000Z 05005KT CAVOK 28/22 A2986=
202112302100 METAR MRLM 302100Z 04003KT CAVOK 27/21 A2986=
202112302200 METAR MRLM 302200Z 00000KT CAVOK 28/21 A2985=
202112302300 METAR MRLM 302300Z 02005KT CAVOK 27/21 A2987=
202112310000 METAR MRLM 310000Z 01005KT CAVOK 26/20 A2991=
202112310100 METAR MRLM NIL=
202112310200 METAR MRLM NIL=
202112310300 METAR MRLM NIL=
202112310400 METAR MRLM NIL=
202112310500 METAR MRLM NIL=
202112310600 METAR MRLM NIL=
202112310700 METAR MRLM NIL=
202112310800 METAR MRLM NIL=
202112310900 METAR MRLM NIL=
202112311000 METAR MRLM NIL=
202112311100 METAR MRLM NIL=
202112311200 METAR MRLM 311200Z 26002KT 9999 FEW015TCU BKN090 21/20 A2987=
202112311300 METAR MRLM 311300Z 20004KT 9999 VCSH FEW015TCU BKN090 22/19 A2990=
202112311400 METAR MRLM 311400Z 23004KT 9999 FEW020 BKN100 24/20 A2994=
202112311500 METAR MRLM 311500Z 23002KT CAVOK 26/21 A2994=
202112311600 METAR MRLM 311600Z 04003KT CAVOK 28/21 A2994=
202112311700 METAR MRLM 311700Z 03007KT 9999 FEW030 SCT220 28/21 A2993=
202112311800 METAR MRLM 311800Z 03006KT CAVOK 28/22 A2991=
202112311900 METAR MRLM 311900Z 03004KT CAVOK 28/22 A2988=
202112312000 METAR MRLM 312000Z 03004KT CAVOK 28/23 A2986=
202112312100 METAR MRLM 312100Z 07007KT 9999 SCT025 28/23 A2984=
202112312200 METAR MRLM 312200Z 07007KT 9999 FEW020TCU SCT025 28/23 A2985=
202112312300 METAR MRLM 312300Z 11012KT 9999 RA VCSH SCT015TCU SCT020 26/22 A2986=
