202201010000 METAR MRLM 010000Z 19005KT 9999 VCSH SCT015TCU SCT020 24/22 A2987 RERA=
202201010100 METAR MRLM NIL=
202201010200 METAR MRLM NIL=
202201010300 METAR MRLM NIL=
202201010400 METAR MRLM NIL=
202201010500 METAR MRLM NIL=
202201010600 METAR MRLM NIL=
202201010700 METAR MRLM NIL=
202201010800 METAR MRLM NIL=
202201010900 METAR MRLM NIL=
202201011000 METAR MRLM NIL=
202201011100 METAR MRLM NIL=
202201011200 METAR MRLM 011200Z 23004KT CAVOK 21/20 A2990=
202201011300 METAR MRLM 011300Z 23004KT CAVOK 22/20 A2992=
202201011400 METAR MRLM 011400Z 21003KT CAVOK 24/21 A2993=
202201011500 METAR MRLM 011500Z 00000KT CAVOK 27/22 A2994=
202201011600 METAR MRLM 011600Z 06003KT CAVOK 28/22 A2994=
202201011700 METAR MRLM 011700Z 07004KT CAVOK 28/20 A2993=
202201011800 METAR MRLM 011800Z 07005KT CAVOK 28/20 A2990=
202201011900 METAR MRLM 011900Z 06005KT CAVOK 28/20 A2986=
202201012000 METAR MRLM 012000Z 04005KT CAVOK 28/21 A2985=
202201012100 METAR MRLM 012100Z 06003KT CAVOK 28/21 A2984=
202201012200 METAR MRLM 012200Z 00000KT CAVOK 28/21 A2984=
202201012300 METAR MRLM 012300Z 06002KT CAVOK 27/22 A2985=
202201020000 METAR MRLM 020000Z 00000KT 9999 FEW020 24/21 A2987=
202201020100 METAR MRLM NIL=
202201020200 METAR MRLM NIL=
202201020300 METAR MRLM NIL=
202201020400 METAR MRLM NIL=
202201020500 METAR MRLM NIL=
202201020600 METAR MRLM NIL=
202201020700 METAR MRLM NIL=
202201020800 METAR MRLM NIL=
202201020900 METAR MRLM NIL=
202201021000 METAR MRLM NIL=
202201021100 METAR MRLM NIL=
202201021200 METAR MRLM 021200Z 00000KT 9999 FEW015 BKN120 20/18 A2990=
202201021300 METAR MRLM 021300Z 00000KT 9999 BKN020 24/21 A2994=
202201021400 METAR MRLM 021400Z 22004KT 9999 SCT020 BKN120 23/19 A2995=
202201021500 METAR MRLM 021500Z 23005KT CAVOK 23/22 A2995=
202201021600 METAR MRLM 021600Z 00000KT CAVOK 27/21 A2996=
202201021700 METAR MRLM 021700Z 36007KT CAVOK 28/20 A2994=
202201021800 METAR MRLM 021800Z 01007KT 9999 FEW030 SCT130 28/20 A2992=
202201021900 METAR MRLM 021900Z 02007KT 9999 FEW030 SCT130 28/20 A2991=
202201022000 METAR MRLM 022000Z 03006KT CAVOK 28/23 A2986=
202201022100 METAR MRLM 022100Z 02009KT CAVOK 28/21 A2987=
202201022200 METAR MRLM 022200Z 03005KT CAVOK 28/22 A2987=
202201022300 METAR MRLM 022300Z 01003KT CAVOK 27/22 A2989=
202201030000 METAR MRLM 030000Z 02005KT CAVOK 26/21 A2993=
202201030100 METAR MRLM NIL=
202201030200 METAR MRLM NIL=
202201030300 METAR MRLM NIL=
202201030400 METAR MRLM NIL=
202201030500 METAR MRLM NIL=
202201030600 METAR MRLM NIL=
202201030700 METAR MRLM NIL=
202201030800 METAR MRLM NIL=
202201030900 METAR MRLM NIL=
202201031000 METAR MRLM NIL=
202201031100 METAR MRLM NIL=
202201031200 METAR MRLM 031200Z 00000KT CAVOK 22/21 A2994=
202201031300 METAR MRLM 031300Z 24003KT CAVOK 23/21 A2996=
202201031400 METAR MRLM 031400Z 00000KT 9999 FEW015 BKN120 24/21 A2999=
202201031500 METAR MRLM 031500Z 32004KT 2000 RA BKN015 24/22 A3000=
202201031600 METAR MRLM 031600Z 00000KT 9999 SCT015 BKN110 25/23 A3002=
202201031700 METAR MRLM 031700Z 02008KT 3000 RA BKN015 25/23 A2999=
202201031800 METAR MRLM 031800Z 24006KT 6000 +DZ SCT015 OVC100 23/21 A2997 RERA=
202201031900 METAR MRLM 031900Z 24004KT 9999 SCT020 BKN120 26/22 A2991 REDZ=
202201032000 METAR MRLM 032000Z 25004KT 9999 FEW020 BKN120 27/22 A2990=
202201032100 METAR MRLM 032100Z 27003KT 9999 BKN020 27/23 A2988=
202201032200 METAR MRLM 032200Z 00000KT 9999 SCT020 27/22 A2989=
202201032300 METAR MRLM 032300Z 00000KT 9999 DZ BKN020 27/23 A2990=
202201040000 METAR MRLM 040000Z 35006KT 9999 DZ BKN015 25/23 A2995=
202201040100 METAR MRLM NIL=
202201040200 METAR MRLM NIL=
202201040300 METAR MRLM NIL=
202201040400 METAR MRLM NIL=
202201040500 METAR MRLM NIL=
202201040600 METAR MRLM NIL=
202201040700 METAR MRLM NIL=
202201040800 METAR MRLM NIL=
202201040900 METAR MRLM NIL=
202201041000 METAR MRLM NIL=
202201041100 METAR MRLM NIL=
202201041200 METAR MRLM 041200Z 23004KT 8000 HZ VCSH SCT015TCU SCT090 22/22 A2996=
202201041300 METAR MRLM 041300Z 26003KT 8000 DZ VCSH SCT015TCU SCT090 23/22 A2999=
202201041400 METAR MRLM 041400Z 00000KT 9999 VCSH FEW015TCU SCT100 24/23 A3001 REDZ=
202201041500 METAR MRLM 041500Z 21002KT 9999 SCT020 SCT100 27/23 A3002=
202201041600 METAR MRLM 041600Z 11002KT 9999 FEW020TCU 28/22 A3001=
202201041700 METAR MRLM 041700Z 06002KT 9999 FEW020TCU SCT030 29/21 A2998=
202201041800 METAR MRLM 041800Z 04002KT 9999 SCT030 29/22 A2996=
202201041900 METAR MRLM 041900Z 04005KT 9999 FEW030 29/22 A2993=
202201042000 METAR MRLM 042000Z 04004KT 9999 FEW030 29/21 A2990=
202201042100 METAR MRLM 042100Z 03007KT 9999 FEW030TCU 28/21 A2989=
202201042200 METAR MRLM 042200Z 04004KT 9999 FEW030 28/21 A2990=
202201042300 METAR MRLM 042300Z 04005KT 9999 SCT020 27/21 A2990=
202201050000 METAR MRLM 050000Z 23002KT 9999 -DZ FEW020TCU 25/22 A2991=
202201050100 METAR MRLM NIL=
202201050200 METAR MRLM NIL=
202201050300 METAR MRLM NIL=
202201050400 METAR MRLM NIL=
202201050500 METAR MRLM NIL=
202201050600 METAR MRLM NIL=
202201050700 METAR MRLM NIL=
202201050800 METAR MRLM NIL=
202201050900 METAR MRLM NIL=
202201051000 METAR MRLM NIL=
202201051100 METAR MRLM NIL=
202201051200 METAR MRLM 051200Z 21006KT 9999 FEW015TCU 20/18 A2990=
202201051300 METAR MRLM 051300Z 00000KT 9999 VCSH FEW015TCU SCT100 20/18 A2992=
202201051400 METAR MRLM 051400Z 26002KT 9999 FEW020 BKN100 21/19 A2995=
202201051500 METAR MRLM 051500Z 22005KT CAVOK 24/20 A2994=
202201051600 METAR MRLM 051600Z 04002KT 9999 FEW020 SCT120 27/21 A2993=
202201051700 METAR MRLM 051700Z 05004KT CAVOK 27/20 A2992=
202201051800 METAR MRLM 051800Z 08005KT CAVOK 28/19 A2990=
202201051900 METAR MRLM 051900Z 07005KT CAVOK 28/19 A2987=
202201052000 METAR MRLM NIL=
202201052100 METAR MRLM 052100Z 07002KT CAVOK 27/20 A2984=
202201052200 METAR MRLM 052200Z 10004KT CAVOK 28/22 A2982=
202201052300 METAR MRLM 052300Z 12003KT CAVOK 26/20 A2984=
202201060000 METAR MRLM 060000Z 14003KT CAVOK 23/20 A2985=
202201060100 METAR MRLM NIL=
202201060200 METAR MRLM NIL=
202201060300 METAR MRLM NIL=
202201060400 METAR MRLM NIL=
202201060500 METAR MRLM NIL=
202201060600 METAR MRLM NIL=
202201060700 METAR MRLM NIL=
202201060800 METAR MRLM NIL=
202201060900 METAR MRLM NIL=
202201061000 METAR MRLM NIL=
202201061100 METAR MRLM NIL=
202201061200 METAR MRLM 061200Z 23005KT CAVOK 19/17 A2989=
202201061300 METAR MRLM 061300Z 23004KT CAVOK 20/18 A2990=
202201061400 METAR MRLM 061400Z 23004KT CAVOK 22/19 A2993=
202201061500 METAR MRLM 061500Z 23004KT 9999 FEW030 BKN130 26/20 A2995=
202201061600 METAR MRLM 061600Z 00000KT 9999 FEW030 27/20 A2995=
202201061700 METAR MRLM 061700Z 05004KT CAVOK 27/20 A2993=
202201061800 METAR MRLM 061800Z 04005KT 9999 FEW030 28/20 A2992=
202201061900 METAR MRLM 061900Z 06004KT 9999 FEW030 28/20 A2989=
202201062000 METAR MRLM 062000Z 04004KT 9999 FEW030 28/20 A2987=
202201062100 METAR MRLM 062100Z 05005KT 9999 FEW035 28/18 A2986=
202201062200 METAR MRLM 062200Z 05004KT CAVOK 27/18 A2985=
202201062300 METAR MRLM 062300Z 00000KT CAVOK 24/20 A2987=
202201070000 METAR MRLM 070000Z 00000KT CAVOK 23/22 A2992=
202201070100 METAR MRLM NIL=
202201070200 METAR MRLM NIL=
202201070300 METAR MRLM NIL=
202201070400 METAR MRLM NIL=
202201070500 METAR MRLM NIL=
202201070600 METAR MRLM NIL=
202201070700 METAR MRLM NIL=
202201070800 METAR MRLM NIL=
202201070900 METAR MRLM NIL=
202201071000 METAR MRLM NIL=
202201071100 METAR MRLM NIL=
202201071200 METAR MRLM 071200Z 22005KT 9999 SCT020 BKN110 20/18 A2993=
202201071300 METAR MRLM 071300Z 23005KT CAVOK 21/18 A2995=
202201071400 METAR MRLM 071400Z 24004KT CAVOK 25/20 A2997=
202201071500 METAR MRLM 071500Z 25003KT CAVOK 27/18 A2998=
202201071600 METAR MRLM 071600Z 30005KT CAVOK 28/18 A2999=
202201071700 METAR MRLM 071700Z 01007KT 9999 FEW030 SCT130 28/20 A2998=
202201071800 METAR MRLM 071800Z 02006KT CAVOK 28/20 A2996=
202201071900 METAR MRLM 071900Z 02006KT CAVOK 28/20 A2993=
202201072000 METAR MRLM 072000Z 02005KT CAVOK 28/20 A2991=
202201072100 METAR MRLM 072100Z 02004KT CAVOK 28/20 A2991=
202201072200 METAR MRLM 072200Z 02004KT CAVOK 27/20 A2991=
202201072300 METAR MRLM 072300Z 00000KT 9999 FEW025 SCT240 26/21 A2993=
202201080000 METAR MRLM 080000Z 00000KT 9999 FEW020 SCT240 24/21 A2995=
202201080100 METAR MRLM NIL=
202201080200 METAR MRLM NIL=
202201080300 METAR MRLM NIL=
202201080400 METAR MRLM NIL=
202201080500 METAR MRLM NIL=
202201080600 METAR MRLM NIL=
202201080700 METAR MRLM NIL=
202201080800 METAR MRLM NIL=
202201080900 METAR MRLM NIL=
202201081000 METAR MRLM NIL=
202201081100 METAR MRLM NIL=
202201081200 METAR MRLM 081200Z 23003KT CAVOK 21/19 A2998=
202201081300 METAR MRLM 081300Z 23004KT CAVOK 21/19 A3000=
202201081400 METAR MRLM 081400Z 22005KT CAVOK 24/19 A3002=
202201081500 METAR MRLM 081500Z 00000KT CAVOK 27/19 A3003=
202201081600 METAR MRLM 081600Z 02004KT CAVOK 27/20 A3005=
202201081700 METAR MRLM 081700Z 02005KT CAVOK 27/20 A3003=
202201081800 METAR MRLM 081800Z 04004KT CAVOK 27/20 A3000=
202201081900 METAR MRLM 081900Z 03005KT CAVOK 28/20 A2998=
202201082000 METAR MRLM 082000Z 05005KT CAVOK 28/21 A2996=
202201082100 METAR MRLM 082100Z 04009KT CAVOK 28/21 A2995=
202201082200 METAR MRLM 082200Z 06008KT CAVOK 28/21 A2995=
202201082300 METAR MRLM 082300Z 05008KT 9999 FEW020 SCT120 27/21 A2998=
202201090000 METAR MRLM 090000Z 06015KT 9999 SCT020 BKN120 26/21 A2999=
202201090100 METAR MRLM NIL=
202201090200 METAR MRLM NIL=
202201090300 METAR MRLM NIL=
202201090400 METAR MRLM NIL=
202201090500 METAR MRLM NIL=
202201090600 METAR MRLM NIL=
202201090700 METAR MRLM NIL=
202201090800 METAR MRLM NIL=
202201090900 METAR MRLM NIL=
202201091000 METAR MRLM NIL=
202201091100 METAR MRLM NIL=
202201091200 METAR MRLM 091200Z 22003KT 9999 FEW015 20/18 A3001=
202201091300 METAR MRLM 091300Z 23003KT CAVOK 21/19 A3003=
202201091400 METAR MRLM 091400Z 21004KT CAVOK 24/19 A3005=
202201091500 METAR MRLM 091500Z 11002KT 9999 FEW020TCU 28/20 A3005=
202201091600 METAR MRLM 091600Z 03008KT 9999 FEW020 SCT120 27/20 A3005=
202201091700 METAR MRLM 091700Z 02006KT 9999 FEW020 BKN120 27/21 A3003=
202201091800 METAR MRLM 091800Z 02010KT 9999 FEW020 BKN120 27/20 A3001=
202201091900 METAR MRLM 091900Z 36012KT 9999 FEW020 BKN120 26/20 A2998=
202201092000 METAR MRLM 092000Z 00000KT CAVOK 28/18 A2995=
202201092100 METAR MRLM 092100Z 19002KT CAVOK 28/19 A2993=
202201092200 METAR MRLM 092200Z 04003KT CAVOK 27/20 A2993=
202201092300 METAR MRLM 092300Z 07002KT CAVOK 27/20 A2994=
202201100000 METAR MRLM 100000Z 00000KT CAVOK 24/21 A2995=
202201100100 METAR MRLM NIL=
202201100200 METAR MRLM NIL=
202201100300 METAR MRLM NIL=
202201100400 METAR MRLM NIL=
202201100500 METAR MRLM NIL=
202201100600 METAR MRLM NIL=
202201100700 METAR MRLM NIL=
202201100800 METAR MRLM NIL=
202201100900 METAR MRLM NIL=
202201101000 METAR MRLM NIL=
202201101100 METAR MRLM NIL=
202201101200 METAR MRLM 101200Z 23004KT CAVOK 19/17 A2997=
202201101300 METAR MRLM 101300Z 23004KT CAVOK 21/18 A3002=
202201101400 METAR MRLM 101400Z 00000KT 9999 FEW020 BKN130 22/19 A3003=
202201101500 METAR MRLM 101500Z 00000KT CAVOK 24/20 A3004=
202201101600 METAR MRLM 101600Z 00000KT CAVOK 27/21 A3003=
202201101700 METAR MRLM 101700Z 02006KT 9999 FEW030 BKN140 27/20 A3002=
202201101800 METAR MRLM 101800Z 01003KT 9999 FEW030 BKN140 27/19 A2999=
202201101900 METAR MRLM 101900Z 04005KT 9999 FEW030 BKN130 28/21 A2996=
202201102000 METAR MRLM 102000Z 03004KT CAVOK 27/20 A2993=
202201102100 METAR MRLM 102100Z 02003KT CAVOK 28/20 A2992=
202201102200 METAR MRLM 102200Z 05003KT CAVOK 28/20 A2993=
202201102300 METAR MRLM 102300Z 00000KT CAVOK 26/21 A2995=
202201110000 METAR MRLM 110000Z 00000KT CAVOK 24/22 A2996=
202201110100 METAR MRLM NIL=
202201110200 METAR MRLM NIL=
202201110300 METAR MRLM NIL=
202201110400 METAR MRLM NIL=
202201110500 METAR MRLM NIL=
202201110600 METAR MRLM NIL=
202201110700 METAR MRLM NIL=
202201110800 METAR MRLM NIL=
202201110900 METAR MRLM NIL=
202201111000 METAR MRLM NIL=
202201111100 METAR MRLM NIL=
202201111200 METAR MRLM 111200Z 22006KT 9999 SCT015 BKN100 20/19 A3000=
202201111300 METAR MRLM 111300Z 21004KT 9999 SCT020 21/19 A3002=
202201111400 METAR MRLM 111400Z 31004KT 9999 4000N +DZ BKN020 22/20 A3006=
202201111500 METAR MRLM 111500Z 23005KT 9999 FEW020 BKN120 22/21 A3007 REDZ=
202201111600 METAR MRLM 111600Z 25003KT 9999 SCT020 BKN120 23/20 A3006=
202201111700 METAR MRLM 111700Z 21005KT 9999 FEW020 BKN130 25/20 A3003=
202201111800 METAR MRLM 111800Z 30005KT 9999 FEW020 BKN130 25/21 A3001=
202201111900 METAR MRLM 111900Z 27004KT CAVOK 27/22 A2997=
202201112000 METAR MRLM 112000Z 00000KT CAVOK 29/21 A2994=
202201112100 METAR MRLM 112100Z 09004KT 9999 FEW030 SCT130 29/21 A2993=
202201112200 METAR MRLM 112200Z 13003KT 9999 SCT020 BKN120 27/21 A2993=
202201112300 METAR MRLM 112300Z 00000KT CAVOK 25/23 A2994=
202201120000 METAR MRLM 120000Z 00000KT CAVOK 24/22 A2998=
202201120100 METAR MRLM NIL=
202201120200 METAR MRLM NIL=
202201120300 METAR MRLM NIL=
202201120400 METAR MRLM NIL=
202201120500 METAR MRLM NIL=
202201120600 METAR MRLM NIL=
202201120700 METAR MRLM NIL=
202201120800 METAR MRLM NIL=
202201120900 METAR MRLM NIL=
202201121000 METAR MRLM NIL=
202201121100 METAR MRLM NIL=
202201121200 METAR MRLM 121200Z 25002KT CAVOK 20/19 A2995=
202201121300 METAR MRLM 121300Z 23003KT CAVOK 22/20 A2997=
202201121400 METAR MRLM 121400Z 23002KT CAVOK 25/21 A2998=
202201121500 METAR MRLM 121500Z 07004KT CAVOK 26/22 A2998=
202201121600 METAR MRLM 121600Z 10004KT CAVOK 27/22 A2998=
202201121700 METAR MRLM 121700Z 10006KT CAVOK 28/21 A2996=
202201121800 METAR MRLM 121800Z 09006KT CAVOK 29/21 A2995=
202201121900 METAR MRLM 121900Z 04005KT CAVOK 28/21 A2993=
202201122000 METAR MRLM 122000Z 03004KT 9999 FEW030 SCT140 28/22 A2992=
202201122100 METAR MRLM 122100Z 03004KT 9999 FEW030 SCT140 28/23 A2991=
202201122200 METAR MRLM 122200Z 03005KT 9999 SCT020 SCT120 28/24 A2992=
202201122300 METAR MRLM 122300Z 02006KT 9999 FEW020 SCT120 27/23 A2993=
202201130000 METAR MRLM 130000Z 04003KT 9999 FEW020 27/22 A2995=
202201130100 METAR MRLM NIL=
202201130200 METAR MRLM NIL=
202201130300 METAR MRLM NIL=
202201130400 METAR MRLM NIL=
202201130500 METAR MRLM NIL=
202201130600 METAR MRLM NIL=
202201130700 METAR MRLM NIL=
202201130800 METAR MRLM NIL=
202201130900 METAR MRLM NIL=
202201131000 METAR MRLM NIL=
202201131100 METAR MRLM NIL=
202201131200 METAR MRLM 131200Z 23004KT 9999 FEW015 20/19 A2999=
202201131300 METAR MRLM 131300Z 23004KT CAVOK 22/21 A3001=
202201131400 METAR MRLM 131400Z 23005KT CAVOK 25/22 A3003=
202201131500 METAR MRLM 131500Z 30002KT 9999 FEW030 28/22 A3003=
202201131600 METAR MRLM 131600Z 02007KT 9999 FEW030 28/23 A3003=
202201131700 METAR MRLM 131700Z 02007KT 9999 FEW030 28/23 A3003=
202201131800 METAR MRLM 131800Z 36010KT 9999 FEW030 28/23 A2999=
202201131900 METAR MRLM 131900Z 35011KT 9999 FEW030 28/22 A2997=
202201132000 METAR MRLM 132000Z 35010KT 9999 FEW030 28/23 A2993=
202201132100 METAR MRLM 132100Z 35010KT 9999 FEW030 28/22 A2992=
202201132200 METAR MRLM 132200Z 35011KT 9999 FEW020 27/22 A2992=
202201132300 METAR MRLM 132300Z 33006KT 9999 SCT020 26/22 A2993=
202201140000 METAR MRLM 140000Z 30003KT 9999 SCT020 25/21 A2996=
202201140100 METAR MRLM NIL=
202201140200 METAR MRLM NIL=
202201140300 METAR MRLM NIL=
202201140400 METAR MRLM NIL=
202201140500 METAR MRLM NIL=
202201140600 METAR MRLM NIL=
202201140700 METAR MRLM NIL=
202201140800 METAR MRLM NIL=
202201140900 METAR MRLM NIL=
202201141000 METAR MRLM NIL=
202201141100 METAR MRLM NIL=
202201141200 METAR MRLM 141200Z 00000KT CAVOK 19/18 A2996=
202201141300 METAR MRLM 141300Z 00000KT CAVOK 20/18 A2998=
202201141400 METAR MRLM 141400Z 23005KT CAVOK 23/20 A3000=
202201141500 METAR MRLM 141500Z 03005KT CAVOK 26/21 A3002=
202201141600 METAR MRLM 141600Z 04006KT CAVOK 28/21 A3002=
202201141700 METAR MRLM 141700Z 01005KT CAVOK 27/22 A3001=
202201141800 METAR MRLM 141800Z 04004KT CAVOK 27/22 A2998=
202201141900 METAR MRLM 141900Z 03003KT CAVOK 27/22 A2994=
202201142000 METAR MRLM 142000Z 03004KT CAVOK 28/22 A2993=
202201142100 METAR MRLM 142100Z 02007KT CAVOK 28/22 A2992=
202201142200 METAR MRLM 142200Z 01005KT CAVOK 27/22 A2992=
202201142300 METAR MRLM 142300Z 03004KT 9999 FEW025 27/22 A2993=
202201150000 METAR MRLM 150000Z 00000KT 9999 FEW020 26/22 A2996=
202201150100 METAR MRLM NIL=
202201150200 METAR MRLM NIL=
202201150300 METAR MRLM NIL=
202201150400 METAR MRLM NIL=
202201150500 METAR MRLM NIL=
202201150600 METAR MRLM NIL=
202201150700 METAR MRLM NIL=
202201150800 METAR MRLM NIL=
202201150900 METAR MRLM NIL=
202201151000 METAR MRLM NIL=
202201151100 METAR MRLM NIL=
202201151200 METAR MRLM 151200Z 00000KT 9999 FEW015 BKN110 22/20 A2995=
202201151300 METAR MRLM 151300Z 28005KT CAVOK 22/21 A2998=
202201151400 METAR MRLM 151400Z 27005KT CAVOK 24/21 A3002=
202201151500 METAR MRLM 151500Z 29005KT 9999 FEW015 BKN130 26/21 A3002=
202201151600 METAR MRLM 151600Z 08003KT CAVOK 26/22 A3000=
202201151700 METAR MRLM 151700Z 06005KT CAVOK 26/23 A2999=
202201151800 METAR MRLM 151800Z 08006KT CAVOK 28/22 A2997=
202201151900 METAR MRLM 151900Z 08007KT CAVOK 28/22 A2994=
202201152000 METAR MRLM 152000Z 08008KT CAVOK 28/22 A2992=
202201152100 METAR MRLM 152100Z 08008KT CAVOK 28/22 A2990=
202201152200 METAR MRLM 152200Z 08006KT CAVOK 28/22 A2990=
202201152300 METAR MRLM 152300Z 09005KT 9999 FEW030 27/21 A2990=
202201160000 METAR MRLM 160000Z 09005KT 9999 FEW020 26/22 A2994=
202201160100 METAR MRLM NIL=
202201160200 METAR MRLM NIL=
202201160300 METAR MRLM NIL=
202201160400 METAR MRLM NIL=
202201160500 METAR MRLM NIL=
202201160600 METAR MRLM NIL=
202201160700 METAR MRLM NIL=
202201160800 METAR MRLM NIL=
202201160900 METAR MRLM NIL=
202201161000 METAR MRLM NIL=
202201161100 METAR MRLM NIL=
202201161200 METAR MRLM 161200Z 25003KT 9999 VCSH FEW015TCU BKN100 21/20 A2995=
202201161300 METAR MRLM 161300Z 24005KT 9999 VCSH FEW015TCU BKN100 22/21 A2997=
202201161400 METAR MRLM 161400Z 23004KT 9999 FEW015 BKN100 24/22 A2999=
202201161500 METAR MRLM 161500Z 26004KT 9999 FEW020 SCT120 27/22 A2999=
202201161600 METAR MRLM 161600Z 08003KT 9999 FEW020 SCT120 28/22 A2998=
202201161700 METAR MRLM 161700Z 08005KT 9999 FEW020 SCT220 28/22 A2997=
202201161800 METAR MRLM 161800Z 07006KT 9999 FEW020 SCT220 28/22 A2995=
202201161900 METAR MRLM 161900Z 06006KT 9999 FEW025 28/22 A2991=
202201162000 METAR MRLM 162000Z 07005KT 9999 FEW025 28/23 A2989=
202201162100 METAR MRLM 162100Z 05004KT 9999 FEW025 28/22 A2988=
202201162200 METAR MRLM 162200Z 05005KT 9999 FEW025 28/21 A2988=
202201162300 METAR MRLM 162300Z 06006KT 9999 FEW020 27/22 A2991=
202201170000 METAR MRLM 170000Z 06004KT 9999 FEW020 SCT200 27/21 A2992=
202201170100 METAR MRLM NIL=
202201170200 METAR MRLM NIL=
202201170300 METAR MRLM NIL=
202201170400 METAR MRLM NIL=
202201170500 METAR MRLM NIL=
202201170600 METAR MRLM NIL=
202201170700 METAR MRLM NIL=
202201170800 METAR MRLM NIL=
202201170900 METAR MRLM NIL=
202201171000 METAR MRLM NIL=
202201171100 METAR MRLM NIL=
202201171200 METAR MRLM 171200Z 24005KT 9999 FEW015 SCT200 21/20 A2996=
202201171300 METAR MRLM 171300Z 23005KT 9999 VCSH FEW015TCU SCT200 23/21 A2999=
202201171400 METAR MRLM 171400Z 22004KT 9999 VCSH FEW020TCU BKN120 24/21 A3001=
202201171500 METAR MRLM 171500Z 23003KT 9999 FEW020 SCT120 27/22 A3001=
202201171600 METAR MRLM 171600Z 04004KT 9999 FEW030 SCT220 28/22 A3001=
202201171700 METAR MRLM 171700Z 03006KT CAVOK 28/21 A2999=
202201171800 METAR MRLM 171800Z 02008KT CAVOK 29/21 A2996=
202201171900 METAR MRLM 171900Z 02007KT CAVOK 29/22 A2994=
202201172000 METAR MRLM 172000Z 02007KT CAVOK 29/22 A2991=
202201172100 METAR MRLM 172100Z 02006KT CAVOK 29/21 A2990=
202201172200 METAR MRLM 172200Z 01009KT 9999 FEW020 SCT220 28/22 A2989=
202201172300 METAR MRLM 172300Z 36009KT 9999 FEW020 28/22 A2992=
202201180000 METAR MRLM 180000Z 31003KT 9999 FEW020 25/21 A2993=
202201180100 METAR MRLM NIL=
202201180200 METAR MRLM NIL=
202201180300 METAR MRLM NIL=
202201180400 METAR MRLM NIL=
202201180500 METAR MRLM NIL=
202201180600 METAR MRLM NIL=
202201180700 METAR MRLM NIL=
202201180800 METAR MRLM NIL=
202201180900 METAR MRLM NIL=
202201181000 METAR MRLM NIL=
202201181100 METAR MRLM NIL=
202201181200 METAR MRLM 181200Z 23005KT 9999 FEW015 SCT110 20/19 A2997=
202201181300 METAR MRLM 181300Z 24005KT CAVOK 21/19 A2999=
202201181400 METAR MRLM 181400Z 25004KT CAVOK 23/20 A3000=
202201181500 METAR MRLM 181500Z 21003KT CAVOK 25/21 A3001=
202201181600 METAR MRLM 181600Z 32003KT 9999 FEW025 BKN130 26/20 A3002=
202201181700 METAR MRLM 181700Z 33007KT 9999 FEW020 BKN120 24/22 A3001 REDZ=
202201181800 METAR MRLM 181800Z 28005KT CAVOK 26/23 A2998=
202201181900 METAR MRLM 181900Z 32005KT 9999 FEW020 BKN110 27/22 A2997=
202201182000 METAR MRLM 182000Z 34005KT 9999 FEW020 BKN130 26/21 A2994=
202201182100 METAR MRLM 182100Z 00000KT 9999 SCT025 BKN130 26/22 A2992=
202201182200 METAR MRLM 182200Z 27003KT 9999 BKN020 25/22 A2992=
202201182300 METAR MRLM 182300Z 30005KT 9999 DZ SCT020 BKN110 24/22 A2993=
202201190000 METAR MRLM 190000Z 23004KT 9999 DZ SCT015 BKN100 23/21 A2993=
202201190100 METAR MRLM NIL=
202201190200 METAR MRLM NIL=
202201190300 METAR MRLM NIL=
202201190400 METAR MRLM NIL=
202201190500 METAR MRLM NIL=
202201190600 METAR MRLM NIL=
202201190700 METAR MRLM NIL=
202201190800 METAR MRLM NIL=
202201190900 METAR MRLM NIL=
202201191000 METAR MRLM NIL=
202201191100 METAR MRLM NIL=
202201191200 METAR MRLM 191200Z 26003KT CAVOK 21/20 A2993=
202201191300 METAR MRLM 191300Z 00000KT CAVOK 22/20 A2995=
202201191400 METAR MRLM 191400Z 23003KT CAVOK 25/21 A2997=
202201191500 METAR MRLM 191500Z 00000KT CAVOK 27/22 A2998=
202201191600 METAR MRLM 191600Z 03005KT 9999 FEW030 SCT140 28/22 A2998=
202201191700 METAR MRLM 191700Z 02008KT 9999 FEW030 SCT140 28/22 A2997=
202201191800 METAR MRLM 191800Z 36007KT CAVOK 28/22 A2994=
202201191900 METAR MRLM 191900Z 36007KT CAVOK 28/22 A2994=
202201192000 METAR MRLM 192000Z 02007KT 9999 FEW025 BKN130 28/22 A2990=
202201192100 METAR MRLM 192100Z 05005KT CAVOK 27/23 A2988=
202201192200 METAR MRLM 192200Z 01004KT CAVOK 27/22 A2988=
202201192300 METAR MRLM 192300Z 00000KT CAVOK 26/22 A2989=
202201200000 METAR MRLM 200000Z 00000KT 9999 BKN015 25/23 A2992=
202201200100 METAR MRLM NIL=
202201200200 METAR MRLM NIL=
202201200300 METAR MRLM NIL=
202201200400 METAR MRLM NIL=
202201200500 METAR MRLM NIL=
202201200600 METAR MRLM NIL=
202201200700 METAR MRLM NIL=
202201200800 METAR MRLM NIL=
202201200900 METAR MRLM NIL=
202201201000 METAR MRLM NIL=
202201201100 METAR MRLM NIL=
202201201200 METAR MRLM 201200Z 23004KT CAVOK 20/19 A2987=
202201201300 METAR MRLM 201300Z 24003KT CAVOK 21/20 A2993=
202201201400 METAR MRLM 201400Z 23003KT CAVOK 25/22 A2993=
202201201500 METAR MRLM 201500Z 05002KT CAVOK 28/22 A2994=
202201201600 METAR MRLM 201600Z 00000KT CAVOK 29/22 A2993=
202201201700 METAR MRLM 201700Z 03006KT 9999 FEW030 29/22 A2992=
202201201800 METAR MRLM 201800Z 03007KT 9999 FEW030 SCT130 29/22 A2991=
202201201900 METAR MRLM 201900Z 04007KT CAVOK 29/22 A2989=
202201202000 METAR MRLM 202000Z 03005KT CAVOK 28/23 A2986=
202201202100 METAR MRLM 202100Z 02006KT CAVOK 28/23 A2984=
202201202200 METAR MRLM 202200Z 02005KT CAVOK 28/23 A2984=
202201202300 METAR MRLM 202300Z 02005KT 9999 FEW020 SCT120 27/24 A2986=
202201210000 METAR MRLM 210000Z 31003KT CAVOK 26/23 A2988=
202201210100 METAR MRLM NIL=
202201210200 METAR MRLM NIL=
202201210300 METAR MRLM NIL=
202201210400 METAR MRLM NIL=
202201210500 METAR MRLM NIL=
202201210600 METAR MRLM NIL=
202201210700 METAR MRLM NIL=
202201210800 METAR MRLM NIL=
202201210900 METAR MRLM NIL=
202201211000 METAR MRLM NIL=
202201211100 METAR MRLM NIL=
202201211200 METAR MRLM 211200Z 33002KT 9999 VCSH FEW015TCU BKN100 22/20 A2990=
202201211300 METAR MRLM 211300Z 00000KT 9999 FEW015 BKN100 22/21 A2992=
202201211400 METAR MRLM 211400Z 24003KT CAVOK 24/22 A2994=
202201211500 METAR MRLM 211500Z 23003KT 9999 FEW020 SCT120 28/23 A2994=
202201211600 METAR MRLM 211600Z 07003KT 9999 FEW020 SCT220 29/24 A2993=
202201211700 METAR MRLM 211700Z 05005KT 9999 FEW025 SCT220 29/24 A2991=
202201211800 METAR MRLM 211800Z 03006KT CAVOK 29/24 A2990=
202201211900 METAR MRLM 211900Z 05005KT CAVOK 28/24 A2989=
202201212000 METAR MRLM 212000Z 07005KT CAVOK 28/24 A2986=
202201212100 METAR MRLM 212100Z 05004KT CAVOK 28/24 A2985=
202201212200 METAR MRLM 212200Z 02005KT 9999 FEW020TCU SCT120 28/24 A2985=
202201212300 METAR MRLM 212300Z 04007KT 9999 FEW020TCU SCT120 27/24 A2987=
202201220000 METAR MRLM 220000Z 05005KT 9999 SCT020 SCT120 27/24 A2988=
202201220100 METAR MRLM NIL=
202201220200 METAR MRLM NIL=
202201220300 METAR MRLM NIL=
202201220400 METAR MRLM NIL=
202201220500 METAR MRLM NIL=
202201220600 METAR MRLM NIL=
202201220700 METAR MRLM NIL=
202201220800 METAR MRLM NIL=
202201220900 METAR MRLM NIL=
202201221000 METAR MRLM NIL=
202201221100 METAR MRLM NIL=
202201221200 METAR MRLM 221200Z 23004KT 9999 VCSH FEW015TCU SCT100 23/22 A2993=
202201221300 METAR MRLM 221300Z 25004KT 9999 FEW015TCU SCT100 23/23 A2995=
202201221400 METAR MRLM 221400Z 25003KT 9999 VCSH FEW015TCU SCT100 27/23 A2997=
202201221500 METAR MRLM 221500Z 06003KT 9999 DZ VCSH FEW015TCU BKN090 27/24 A2997=
202201221600 METAR MRLM 221600Z 35008KT 9999 SCT015 BKN090 27/24 A2996 REDZ=
202201221700 METAR MRLM 221700Z 03006KT 9999 -DZ FEW015 OVC090 25/23 A2995=
202201221800 METAR MRLM 221800Z 09004KT 9999 SCT015 OVC090 25/22 A2994=
202201221900 METAR MRLM 221900Z 23002KT 9999 FEW020 BKN100 27/23 A2991=
202201222000 METAR MRLM 222000Z 04002KT 9999 FEW020 BKN100 28/23 A2989=
202201222100 METAR MRLM 222100Z 01002KT 9999 FEW020TCU BKN100 28/23 A2988=
202201222200 METAR MRLM 222200Z 03002KT 9999 VCSH FEW020TCU BKN110 27/23 A2988=
202201222300 METAR MRLM NIL=
202201230000 METAR MRLM NIL=
202201230100 METAR MRLM NIL=
202201230200 METAR MRLM NIL=
202201230300 METAR MRLM NIL=
202201230400 METAR MRLM NIL=
202201230500 METAR MRLM NIL=
202201230600 METAR MRLM NIL=
202201230700 METAR MRLM NIL=
202201230800 METAR MRLM NIL=
202201230900 METAR MRLM NIL=
202201231000 METAR MRLM NIL=
202201231100 METAR MRLM NIL=
202201231200 METAR MRLM 231200Z 22005KT 9999 VCSH SCT015TCU SCT090 23/22 A2992=
202201231300 METAR MRLM 231300Z 23004KT 9999 VCSH SCT015TCU SCT090 23/22 A2992=
202201231400 METAR MRLM 231400Z 21005KT 9999 FEW015TCU SCT100 24/22 A2995=
202201231500 METAR MRLM 231500Z 22004KT 9999 FEW020TCU SCT100 26/22 A2996=
202201231600 METAR MRLM 231600Z 20004KT 9999 FEW020 28/22 A2995=
202201231700 METAR MRLM 231700Z 12004KT 9999 FEW030 29/22 A2993=
202201231800 METAR MRLM 231800Z 08006KT 9999 FEW030 29/22 A2990=
202201231900 METAR MRLM 231900Z 06006KT 9999 FEW030 29/22 A2987=
202201232000 METAR MRLM 232000Z 05017KT 9999 FEW030 27/23 A2986=
202201232100 METAR MRLM 232100Z 05008KT CAVOK 27/22 A2984=
202201232200 METAR MRLM 232200Z 07004KT CAVOK 28/21 A2984=
202201232300 METAR MRLM NIL=
202201240000 METAR MRLM NIL=
202201240100 METAR MRLM NIL=
202201240200 METAR MRLM NIL=
202201240300 METAR MRLM NIL=
202201240400 METAR MRLM NIL=
202201240500 METAR MRLM NIL=
202201240600 METAR MRLM NIL=
202201240700 METAR MRLM NIL=
202201240800 METAR MRLM NIL=
202201240900 METAR MRLM NIL=
202201241000 METAR MRLM NIL=
202201241100 METAR MRLM NIL=
202201241200 METAR MRLM 241200Z 23004KT 9999 FEW015 SCT090 20/18 A2988=
202201241300 METAR MRLM 241300Z 24002KT 9999 FEW015 SCT090 22/19 A2991=
202201241400 METAR MRLM 241400Z 24003KT CAVOK 24/20 A2993=
202201241500 METAR MRLM 241500Z 12003KT CAVOK 27/21 A2994=
202201241600 METAR MRLM 241600Z 10005KT CAVOK 28/22 A2993=
202201241700 METAR MRLM 241700Z 09006KT CAVOK 29/21 A2992=
202201241800 METAR MRLM 241800Z 08007KT CAVOK 29/21 A2990=
202201241900 METAR MRLM 241900Z 11009KT CAVOK 29/21 A2988=
202201242000 METAR MRLM 242000Z 10010KT CAVOK 29/21 A2985=
202201242100 METAR MRLM 242100Z 10009KT CAVOK 28/22 A2984=
202201242200 METAR MRLM 242200Z 09007KT CAVOK 28/22 A2984=
202201242300 METAR MRLM NIL=
202201250000 METAR MRLM NIL=
202201250100 METAR MRLM NIL=
202201250200 METAR MRLM NIL=
202201250300 METAR MRLM NIL=
202201250400 METAR MRLM NIL=
202201250500 METAR MRLM NIL=
202201250600 METAR MRLM NIL=
202201250700 METAR MRLM NIL=
202201250800 METAR MRLM NIL=
202201250900 METAR MRLM NIL=
202201251000 METAR MRLM NIL=
202201251100 METAR MRLM NIL=
202201251200 METAR MRLM 251200Z 29002KT 9999 FEW015 SCT200 18/16 A2990=
202201251300 METAR MRLM 251300Z 24003KT 9999 FEW015 SCT200 19/17 A2993=
202201251400 METAR MRLM 251400Z 23004KT CAVOK 24/20 A2996=
202201251500 METAR MRLM 251500Z 25004KT CAVOK 26/20 A2996=
202201251600 METAR MRLM 251600Z 07005KT CAVOK 27/21 A2996=
202201251700 METAR MRLM 251700Z 06004KT CAVOK 28/20 A2994=
202201251800 METAR MRLM 251800Z 07005KT CAVOK 28/20 A2992=
202201251900 METAR MRLM 251900Z 08005KT CAVOK 28/20 A2990=
202201252000 METAR MRLM 252000Z 07007KT CAVOK 29/21 A2987=
202201252100 METAR MRLM 252100Z 07006KT CAVOK 28/21 A2986=
202201252200 METAR MRLM 252200Z 07005KT CAVOK 28/21 A2986=
202201252300 METAR MRLM NIL=
202201260000 METAR MRLM NIL=
202201260100 METAR MRLM NIL=
202201260200 METAR MRLM NIL=
202201260300 METAR MRLM NIL=
202201260400 METAR MRLM NIL=
202201260500 METAR MRLM NIL=
202201260600 METAR MRLM NIL=
202201260700 METAR MRLM NIL=
202201260800 METAR MRLM NIL=
202201260900 METAR MRLM NIL=
202201261000 METAR MRLM NIL=
202201261100 METAR MRLM NIL=
202201261200 METAR MRLM 261200Z 23004KT 9999 FEW015TCU SCT200 19/18 A2992=
202201261300 METAR MRLM 261300Z 22005KT 9999 FEW015 21/19 A2995=
202201261400 METAR MRLM 261400Z 22003KT 9999 FEW020 25/21 A2997=
202201261500 METAR MRLM 261500Z 12003KT 9999 FEW020 28/21 A2997=
202201261600 METAR MRLM 261600Z 11006KT 9999 FEW030 28/21 A2997=
202201261700 METAR MRLM 261700Z 08007KT 9999 FEW030 29/21 A2995=
202201261800 METAR MRLM 261800Z 07008KT 9999 FEW030 28/22 A2993=
202201261900 METAR MRLM 261900Z 07007KT 9999 FEW030 28/22 A2990=
202201262000 METAR MRLM 262000Z 07007KT CAVOK 28/22 A2988=
202201262100 METAR MRLM 262100Z 08006KT CAVOK 28/21 A2986=
202201262200 METAR MRLM 262200Z 07005KT 9999 FEW030 SCT240 28/22 A2987=
202201262300 METAR MRLM NIL=
202201270000 METAR MRLM NIL=
202201270100 METAR MRLM NIL=
202201270200 METAR MRLM NIL=
202201270300 METAR MRLM NIL=
202201270400 METAR MRLM NIL=
202201270500 METAR MRLM NIL=
202201270600 METAR MRLM NIL=
202201270700 METAR MRLM NIL=
202201270800 METAR MRLM NIL=
202201270900 METAR MRLM NIL=
202201271000 METAR MRLM NIL=
202201271100 METAR MRLM NIL=
202201271200 METAR MRLM 271200Z 23005KT 9999 FEW015 SCT200 19/18 A2995=
202201271300 METAR MRLM 271300Z 23005KT 9999 VCSH FEW015TCU SCT100 21/19 A2998=
202201271400 METAR MRLM 271400Z 22004KT 9999 VCSH FEW015TCU BKN100 23/20 A3001=
202201271500 METAR MRLM 271500Z 17002KT 9999 FEW020 BKN120 25/21 A3002=
202201271600 METAR MRLM 271600Z 18003KT CAVOK 27/22 A3001=
202201271700 METAR MRLM 271700Z 11004KT 9999 FEW020 BKN120 29/19 A2999=
202201271800 METAR MRLM 271800Z 09004KT CAVOK 29/20 A2997=
202201271900 METAR MRLM 271900Z 07004KT CAVOK 29/21 A2995=
202201272000 METAR MRLM 272000Z 06005KT CAVOK 28/21 A2992=
202201272100 METAR MRLM 272100Z 05003KT CAVOK 28/21 A2990=
202201272200 METAR MRLM 272200Z 05003KT CAVOK 28/21 A2990=
202201272300 METAR MRLM NIL=
202201280000 METAR MRLM NIL=
202201280100 METAR MRLM NIL=
202201280200 METAR MRLM NIL=
202201280300 METAR MRLM NIL=
202201280400 METAR MRLM NIL=
202201280500 METAR MRLM NIL=
202201280600 METAR MRLM NIL=
202201280700 METAR MRLM NIL=
202201280800 METAR MRLM NIL=
202201280900 METAR MRLM NIL=
202201281000 METAR MRLM NIL=
202201281100 METAR MRLM NIL=
202201281200 METAR MRLM 281200Z 23006KT 9999 FEW015TCU 19/18 A2994=
202201281300 METAR MRLM 281300Z 23004KT 9999 FEW015TCU 21/19 A2996=
202201281400 METAR MRLM 281400Z 22005KT 9999 FEW020TCU 24/21 A2998=
202201281500 METAR MRLM 281500Z 25003KT 9999 FEW020TCU 28/22 A2999=
202201281600 METAR MRLM 281600Z 07004KT 9999 FEW030 28/22 A2998=
202201281700 METAR MRLM 281700Z 04006KT 9999 FEW030 28/22 A2998=
202201281800 METAR MRLM 281800Z 02007KT CAVOK 28/22 A2996=
202201281900 METAR MRLM 281900Z 02006KT CAVOK 28/23 A2993=
202201282000 METAR MRLM 282000Z 02007KT 9999 FEW030 28/23 A2991=
202201282100 METAR MRLM 282100Z 02007KT 9999 SCT030 28/23 A2989=
202201282200 METAR MRLM 282200Z 02007KT 9999 FEW020TCU SCT025 27/23 A2989=
202201282300 METAR MRLM NIL=
202201290000 METAR MRLM NIL=
202201290100 METAR MRLM NIL=
202201290200 METAR MRLM NIL=
202201290300 METAR MRLM NIL=
202201290400 METAR MRLM NIL=
202201290500 METAR MRLM NIL=
202201290600 METAR MRLM NIL=
202201290700 METAR MRLM NIL=
202201290800 METAR MRLM NIL=
202201290900 METAR MRLM NIL=
202201291000 METAR MRLM NIL=
202201291100 METAR MRLM NIL=
202201291200 METAR MRLM 291200Z 00000KT 9999 VCSH FEW015TCU BKN090 22/20 A2997=
202201291300 METAR MRLM 291300Z 22004KT 9999 VCSH FEW015TCU BKN090 22/21 A2999=
202201291400 METAR MRLM 291400Z 25003KT 9999 FEW015 BKN090 24/21 A3002=
202201291500 METAR MRLM 291500Z 24003KT 9999 FEW020 BKN100 25/22 A3003=
202201291600 METAR MRLM 291600Z 26002KT 9999 FEW020 BKN100 28/20 A3003=
202201291700 METAR MRLM 291700Z 06006KT 9999 FEW030 SCT120 28/22 A3001=
202201291800 METAR MRLM 291800Z 05006KT 9999 FEW030 SCT120 29/22 A2998=
202201291900 METAR MRLM 291900Z 04006KT CAVOK 28/22 A2995=
202201292000 METAR MRLM 292000Z 06005KT CAVOK 28/22 A2992=
202201292100 METAR MRLM 292100Z 07006KT CAVOK 28/22 A2991=
202201292200 METAR MRLM 292200Z 06008KT CAVOK 28/22 A2990=
202201292300 METAR MRLM NIL=
202201300000 METAR MRLM NIL=
202201300100 METAR MRLM NIL=
202201300200 METAR MRLM NIL=
202201300300 METAR MRLM NIL=
202201300400 METAR MRLM NIL=
202201300500 METAR MRLM NIL=
202201300600 METAR MRLM NIL=
202201300700 METAR MRLM NIL=
202201300800 METAR MRLM NIL=
202201300900 METAR MRLM NIL=
202201301000 METAR MRLM NIL=
202201301100 METAR MRLM NIL=
202201301200 METAR MRLM 301200Z 00000KT 9999 FEW015 BKN120 22/21 A2997=
202201301300 METAR MRLM 301300Z 00000KT CAVOK 23/21 A3000=
202201301400 METAR MRLM 301400Z 00000KT CAVOK 26/22 A3002=
202201301500 METAR MRLM 301500Z 10004KT 9999 FEW030 28/21 A3004=
202201301600 METAR MRLM 301600Z 10005KT 9999 FEW030 28/21 A3004=
202201301700 METAR MRLM 301700Z 09006KT 9999 FEW030 29/22 A3002=
202201301800 METAR MRLM 301800Z 06006KT CAVOK 28/22 A3000=
202201301900 METAR MRLM 301900Z 06008KT CAVOK 29/23 A2997=
202201302000 METAR MRLM 302000Z 07005KT CAVOK 29/21 A2994=
202201302100 METAR MRLM 302100Z 05008KT CAVOK 29/20 A2992=
202201302200 METAR MRLM 302200Z 07007KT CAVOK 29/18 A2992=
202201302300 METAR MRLM 302300Z 08005KT CAVOK 28/20 A2994=
202201310000 METAR MRLM 310000Z 09003KT CAVOK 25/19 A2997=
202201310100 METAR MRLM NIL=
202201310200 METAR MRLM NIL=
202201310300 METAR MRLM NIL=
202201310400 METAR MRLM NIL=
202201310500 METAR MRLM NIL=
202201310600 METAR MRLM NIL=
202201310700 METAR MRLM NIL=
202201310800 METAR MRLM NIL=
202201310900 METAR MRLM NIL=
202201311000 METAR MRLM NIL=
202201311100 METAR MRLM NIL=
202201311200 METAR MRLM 311200Z 00000KT 9999 FEW015 BKN120 22/20 A2996=
202201311300 METAR MRLM 311300Z 24003KT CAVOK 22/21 A2998=
202201311400 METAR MRLM 311400Z 28005KT CAVOK 23/21 A3001=
202201311500 METAR MRLM 311500Z 30005KT CAVOK 25/21 A3001=
202201311600 METAR MRLM 311600Z 28004KT CAVOK 27/21 A3000=
202201311700 METAR MRLM 311700Z 02009KT 9999 FEW030 28/22 A2998=
202201311800 METAR MRLM 311800Z 01009KT 9999 FEW030 27/22 A2995=
202201311900 METAR MRLM 311900Z 02008KT CAVOK 28/22 A2992=
202201312000 METAR MRLM 312000Z 36008KT 9999 FEW030 27/22 A2990=
202201312100 METAR MRLM 312100Z 35009KT 9999 SCT030 27/22 A2987=
202201312200 METAR MRLM 312200Z 01007KT 9999 BKN025 27/22 A2988=
202201312300 METAR MRLM 312300Z 36007KT 9999 SCT025 26/22 A2989=
202202010000 METAR MRLM 010000Z 36006KT 9999 SCT020 26/21 A2992=
202202010100 METAR MRLM NIL=
202202010200 METAR MRLM NIL=
202202010300 METAR MRLM NIL=
202202010400 METAR MRLM NIL=
202202010500 METAR MRLM NIL=
202202010600 METAR MRLM NIL=
202202010700 METAR MRLM NIL=
202202010800 METAR MRLM NIL=
202202010900 METAR MRLM NIL=
202202011000 METAR MRLM NIL=
202202011100 METAR MRLM NIL=
202202011200 METAR MRLM 011200Z 27002KT CAVOK 20/19 A2990=
202202011300 METAR MRLM 011300Z 22005KT CAVOK 21/20 A2992=
202202011400 METAR MRLM 011400Z 21003KT CAVOK 24/21 A2994=
202202011500 METAR MRLM 011500Z 09003KT CAVOK 26/21 A2995=
202202011600 METAR MRLM 011600Z 07006KT CAVOK 27/21 A2994=
202202011700 METAR MRLM 011700Z 08006KT CAVOK 27/21 A2993=
202202011800 METAR MRLM 011800Z 06006KT 9999 FEW030 27/22 A2990=
202202011900 METAR MRLM 011900Z 05007KT 9999 FEW030 28/23 A2988=
202202012000 METAR MRLM 012000Z 05008KT 9999 FEW030 28/22 A2986=
202202012100 METAR MRLM 012100Z 05006KT 9999 FEW030 28/22 A2984=
202202012200 METAR MRLM 012200Z 04005KT 9999 SCT030 28/22 A2984=
202202012300 METAR MRLM 012300Z 07004KT 9999 SCT020 27/21 A2984=
202202020000 METAR MRLM 020000Z 07004KT 9999 SCT020 27/21 A2986=
202202020100 METAR MRLM NIL=
202202020200 METAR MRLM NIL=
202202020300 METAR MRLM NIL=
202202020400 METAR MRLM NIL=
202202020500 METAR MRLM NIL=
202202020600 METAR MRLM NIL=
202202020700 METAR MRLM NIL=
202202020800 METAR MRLM NIL=
202202020900 METAR MRLM NIL=
202202021000 METAR MRLM NIL=
202202021100 METAR MRLM NIL=
202202021200 METAR MRLM 021200Z 22005KT 9999 FEW015TCU 19/18 A2988=
202202021300 METAR MRLM 021300Z 23006KT 9999 FEW015TCU SCT100 19/19 A2990=
202202021400 METAR MRLM 021400Z 22004KT 9999 FEW015TCU SCT100 24/21 A2992=
202202021500 METAR MRLM 021500Z 21002KT 9999 FEW020 BKN100 25/21 A2994=
202202021600 METAR MRLM 021600Z 10005KT 9999 FEW020 SCT120 28/20 A2994=
202202021700 METAR MRLM 021700Z 12006KT 9999 FEW020 BKN120 28/21 A2992=
202202021800 METAR MRLM 021800Z 12007KT 9999 FEW030 SCT120 28/21 A2990=
202202021900 METAR MRLM 021900Z 12008KT 9999 FEW030 28/21 A2987=
202202022000 METAR MRLM 022000Z 09007KT CAVOK 28/21 A2984=
202202022100 METAR MRLM 022100Z 10007KT CAVOK 28/22 A2983=
202202022200 METAR MRLM 022200Z 09007KT 9999 FEW030 28/22 A2983=
202202022300 METAR MRLM 022300Z 07005KT 9999 FEW020 27/22 A2984=
202202030000 METAR MRLM 030000Z 11002KT 9999 FEW020 25/22 A2985=
202202030100 METAR MRLM NIL=
202202030200 METAR MRLM NIL=
202202030300 METAR MRLM NIL=
202202030400 METAR MRLM NIL=
202202030500 METAR MRLM NIL=
202202030600 METAR MRLM NIL=
202202030700 METAR MRLM NIL=
202202030800 METAR MRLM NIL=
202202030900 METAR MRLM NIL=
202202031000 METAR MRLM NIL=
202202031100 METAR MRLM NIL=
202202031200 METAR MRLM 031200Z 23005KT CAVOK 20/19 A2990=
202202031300 METAR MRLM 031300Z 23005KT 9999 FEW020 BKN130 20/19 A2992=
202202031400 METAR MRLM 031400Z 23005KT 9999 FEW020 SCT130 22/20 A2994=
202202031500 METAR MRLM 031500Z 25003KT 9999 FEW020 BKN130 23/21 A2996=
202202031600 METAR MRLM 031600Z 19003KT 9999 FEW020 BKN130 25/22 A2997=
202202031700 METAR MRLM 031700Z 21003KT 9999 FEW020 BKN130 77/22 A2997=
202202031800 METAR MRLM 031800Z 07019KT 9999 DZ SCT020 BKN120 25/22 A2994=
202202031900 METAR MRLM 031900Z 03008KT 9999 FEW020 BKN130 26/21 A2993 REDZ=
202202032000 METAR MRLM 032000Z 24004KT CAVOK 27/21 A2989=
202202032100 METAR MRLM 032100Z 23003KT CAVOK 27/22 A2988=
202202032200 METAR MRLM 032200Z 00000KT CAVOK 27/22 A2988=
202202032300 METAR MRLM 032300Z 00000KT CAVOK 27/23 A2988=
202202040000 METAR MRLM 040000Z 00000KT CAVOK 26/23 A2991=
202202040100 METAR MRLM NIL=
202202040200 METAR MRLM NIL=
202202040300 METAR MRLM NIL=
202202040400 METAR MRLM NIL=
202202040500 METAR MRLM NIL=
202202040600 METAR MRLM NIL=
202202040700 METAR MRLM NIL=
202202040800 METAR MRLM NIL=
202202040900 METAR MRLM NIL=
202202041000 METAR MRLM NIL=
202202041100 METAR MRLM NIL=
202202041200 METAR MRLM 041200Z 24004KT 9999 FEW015 BKN120 22/21 A2995=
202202041300 METAR MRLM 041300Z 23005KT 9999 FEW015 BKN120 23/21 A2997=
202202041400 METAR MRLM 041400Z 00000KT 9999 SCT020 BKN120 24/22 A3000=
202202041500 METAR MRLM 041500Z 11011KT 9999 DZ SCT020 BKN120 25/23 A3003=
202202041600 METAR MRLM 041600Z 10008KT 6000 +DZ SCT020 BKN110 24/22 A3003=
202202041700 METAR MRLM 041700Z 20004KT 9999 FEW020 BKN120 24/22 A3002 REDZ=
202202041800 METAR MRLM 041800Z 14007KT CAVOK 26/23 A2999=
202202041900 METAR MRLM 041900Z 20004KT CAVOK 28/23 A2996=
202202042000 METAR MRLM 042000Z 00000KT 9999 FEW030 BKN140 28/22 A2993=
202202042100 METAR MRLM 042100Z 03003KT 9999 FEW030 BKN140 28/22 A2992=
202202042200 METAR MRLM 042200Z 00000KT 9999 FEW030 BKN130 27/22 A2993=
202202042300 METAR MRLM 042300Z 03004KT 9999 SCT020 BKN120 27/22 A2993=
202202050000 METAR MRLM 050000Z 00000KT 9999 SCT020 BKN110 22/22 A2995=
202202050100 METAR MRLM NIL=
202202050200 METAR MRLM NIL=
202202050300 METAR MRLM NIL=
202202050400 METAR MRLM NIL=
202202050500 METAR MRLM NIL=
202202050600 METAR MRLM NIL=
202202050700 METAR MRLM NIL=
202202050800 METAR MRLM NIL=
202202050900 METAR MRLM NIL=
202202051000 METAR MRLM NIL=
202202051100 METAR MRLM NIL=
202202051200 METAR MRLM 051200Z 23004KT CAVOK 20/20 A2998=
202202051300 METAR MRLM 051300Z 23004KT CAVOK 22/21 A3000=
202202051400 METAR MRLM 051400Z 24004KT CAVOK 26/22 A3001=
202202051500 METAR MRLM 051500Z 00000KT 9999 FEW030 28/22 A3002=
202202051600 METAR MRLM 051600Z 04004KT 9999 FEW030 28/22 A3002=
202202051700 METAR MRLM 051700Z 04007KT 9999 FEW030 28/23 A2999=
202202051800 METAR MRLM 051800Z 04007KT CAVOK 28/22 A2997=
202202051900 METAR MRLM 051900Z 03008KT CAVOK 28/22 A2994=
202202052000 METAR MRLM 052000Z 04009KT CAVOK 29/22 A2992=
202202052100 METAR MRLM 052100Z 03009KT CAVOK 28/22 A2990=
202202052200 METAR MRLM 052200Z 03007KT CAVOK 28/22 A2988=
202202052300 METAR MRLM NIL=
202202060000 METAR MRLM NIL=
202202060100 METAR MRLM NIL=
202202060200 METAR MRLM NIL=
202202060300 METAR MRLM NIL=
202202060400 METAR MRLM NIL=
202202060500 METAR MRLM NIL=
202202060600 METAR MRLM NIL=
202202060700 METAR MRLM NIL=
202202060800 METAR MRLM NIL=
202202060900 METAR MRLM NIL=
202202061000 METAR MRLM NIL=
202202061100 METAR MRLM NIL=
202202061200 METAR MRLM 061200Z 22003KT CAVOK 20/19 A2993=
202202061300 METAR MRLM 061300Z 24004KT CAVOK 22/20 A2995=
202202061400 METAR MRLM 061400Z 24005KT CAVOK 24/21 A2998=
202202061500 METAR MRLM 061500Z 25004KT CAVOK 27/21 A2999=
202202061600 METAR MRLM 061600Z 05003KT 9999 FEW030 28/22 A2998=
202202061700 METAR MRLM 061700Z 05004KT 9999 FEW030 28/22 A2997=
202202061800 METAR MRLM 061800Z 05004KT 9999 FEW030 28/22 A2994=
202202061900 METAR MRLM 061900Z 05006KT 9999 FEW030 28/23 A2993=
202202062000 METAR MRLM 062000Z 05007KT 9999 FEW030 28/23 A2990=
202202062100 METAR MRLM 062100Z 04009KT 9999 SCT030 28/23 A2988=
202202062200 METAR MRLM 062200Z 05006KT 9999 FEW030 28/22 A2988=
202202062300 METAR MRLM NIL=
202202070000 METAR MRLM NIL=
202202070100 METAR MRLM NIL=
202202070200 METAR MRLM NIL=
202202070300 METAR MRLM NIL=
202202070400 METAR MRLM NIL=
202202070500 METAR MRLM NIL=
202202070600 METAR MRLM NIL=
202202070700 METAR MRLM NIL=
202202070800 METAR MRLM NIL=
202202070900 METAR MRLM NIL=
202202071000 METAR MRLM NIL=
202202071100 METAR MRLM NIL=
202202071200 METAR MRLM 071200Z 23004KT 9999 FEW015 20/19 A2995=
202202071300 METAR MRLM 071300Z 23005KT CAVOK 22/20 A2997=
202202071400 METAR MRLM 071400Z 21004KT CAVOK 26/21 A2999=
202202071500 METAR MRLM 071500Z 00000KT 9999 FEW030 28/21 A2999=
202202071600 METAR MRLM 071600Z 07004KT 9999 FEW030 28/21 A2999=
202202071700 METAR MRLM 071700Z 06004KT 9999 FEW030 28/21 A2997=
202202071800 METAR MRLM 071800Z 04008KT CAVOK 29/22 A2994=
202202071900 METAR MRLM 071900Z 04008KT CAVOK 29/22 A2991=
202202072000 METAR MRLM 072000Z 03008KT CAVOK 28/22 A2988=
202202072100 METAR MRLM 072100Z 02007KT CAVOK 28/22 A2986=
202202072200 METAR MRLM 072200Z 02006KT CAVOK 28/21 A2986=
202202072300 METAR MRLM NIL=
202202080000 METAR MRLM NIL=
202202080100 METAR MRLM NIL=
202202080200 METAR MRLM NIL=
202202080300 METAR MRLM NIL=
202202080400 METAR MRLM NIL=
202202080500 METAR MRLM NIL=
202202080600 METAR MRLM NIL=
202202080700 METAR MRLM NIL=
202202080800 METAR MRLM NIL=
202202080900 METAR MRLM NIL=
202202081000 METAR MRLM NIL=
202202081100 METAR MRLM NIL=
202202081200 METAR MRLM 081200Z 00000KT CAVOK 21/20 A2992=
202202081300 METAR MRLM 081300Z 25004KT CAVOK 21/20 A2994=
202202081400 METAR MRLM 081400Z 22004KT CAVOK 23/21 A2999=
202202081500 METAR MRLM 081500Z 23004KT CAVOK 26/22 A2998=
202202081600 METAR MRLM 081600Z 05003KT 9999 FEW025 SCT130 28/22 A2998=
202202081700 METAR MRLM 081700Z 05003KT 9999 FEW025 SCT130 28/22 A2998=
202202081800 METAR MRLM 081800Z 02008KT 9999 FEW030 SCT130 28/22 A2993=
202202081900 METAR MRLM 081900Z 01008KT CAVOK 28/22 A2991=
202202082000 METAR MRLM 082000Z 01009KT CAVOK 28/22 A2988=
202202082100 METAR MRLM 082100Z 36010KT 9999 FEW030 28/22 A2987=
202202082200 METAR MRLM 082200Z 36008KT 9999 SCT025 27/22 A2987=
202202082300 METAR MRLM NIL=
202202090000 METAR MRLM NIL=
202202090100 METAR MRLM NIL=
202202090200 METAR MRLM NIL=
202202090300 METAR MRLM NIL=
202202090400 METAR MRLM NIL=
202202090500 METAR MRLM NIL=
202202090600 METAR MRLM NIL=
202202090700 METAR MRLM NIL=
202202090800 METAR MRLM NIL=
202202090900 METAR MRLM NIL=
202202091000 METAR MRLM NIL=
202202091100 METAR MRLM NIL=
202202091200 METAR MRLM 091200Z 22005KT 9999 FEW015 SCT130 20/19 A2992=
202202091300 METAR MRLM 091300Z 23005KT CAVOK 21/20 A2995=
202202091400 METAR MRLM 091400Z 24004KT CAVOK 25/21 A2996=
202202091500 METAR MRLM 091500Z 00000KT CAVOK 28/22 A2997=
202202091600 METAR MRLM 091600Z 01008KT CAVOK 28/22 A2997=
202202091700 METAR MRLM 091700Z 02004KT CAVOK 28/22 A2995=
202202091800 METAR MRLM 091800Z 05005KT CAVOK 28/22 A2992=
202202091900 METAR MRLM 091900Z 04008KT CAVOK 28/22 A2989=
202202092000 METAR MRLM 092000Z 03008KT CAVOK 29/22 A2986=
202202092100 METAR MRLM 092100Z 03008KT CAVOK 28/22 A2985=
202202092200 METAR MRLM 092200Z 03006KT CAVOK 28/22 A2985=
202202092300 METAR MRLM NIL=
202202100000 METAR MRLM NIL=
202202100100 METAR MRLM NIL=
202202100200 METAR MRLM NIL=
202202100300 METAR MRLM NIL=
202202100400 METAR MRLM NIL=
202202100500 METAR MRLM NIL=
202202100600 METAR MRLM NIL=
202202100700 METAR MRLM NIL=
202202100800 METAR MRLM NIL=
202202100900 METAR MRLM NIL=
202202101000 METAR MRLM NIL=
202202101100 METAR MRLM NIL=
202202101200 METAR MRLM 101200Z 24005KT 9999 VCSH FEW010 SCT230 20/19 A2991=
202202101300 METAR MRLM 101300Z 24005KT 9999 FEW010 SCT130 22/20 A2993=
202202101400 METAR MRLM 101400Z 30006KT CAVOK 24/21 A2995=
202202101500 METAR MRLM 101500Z 25005KT CAVOK 27/22 A2996=
202202101600 METAR MRLM 101600Z 31004KT 9999 FEW030 BKN130 29/21 A2995=
202202101700 METAR MRLM 101700Z 01009KT 9999 FEW030 SCT130 29/21 A2992=
202202101800 METAR MRLM 101800Z 01009KT CAVOK 29/22 A2989=
202202101900 METAR MRLM 101900Z 01010KT CAVOK 29/22 A2987=
202202102000 METAR MRLM 102000Z 01010KT 9999 FEW030 BKN130 29/22 A2984=
202202102100 METAR MRLM 102100Z 36009KT CAVOK 28/22 A2983=
202202102200 METAR MRLM 102200Z 36009KT 9999 FEW020 BKN130 27/23 A2983=
202202102300 METAR MRLM NIL=
202202110000 METAR MRLM NIL=
202202110100 METAR MRLM NIL=
202202110200 METAR MRLM NIL=
202202110300 METAR MRLM NIL=
202202110400 METAR MRLM NIL=
202202110500 METAR MRLM NIL=
202202110600 METAR MRLM NIL=
202202110700 METAR MRLM NIL=
202202110800 METAR MRLM NIL=
202202110900 METAR MRLM NIL=
202202111000 METAR MRLM NIL=
202202111100 METAR MRLM NIL=
202202111200 METAR MRLM 111200Z 27003KT 9999 FEW020 BKN110 22/22 A2987=
202202111300 METAR MRLM 111300Z 23003KT 9999 FEW020 BKN120 23/22 A2989=
202202111400 METAR MRLM 111400Z 24003KT 9999 FEW020 BKN130 25/22 A2991=
202202111500 METAR MRLM 111500Z 29003KT 9999 SCT020 BKN130 26/23 A2993=
202202111600 METAR MRLM 111600Z 36010KT 5000 +DZ BKN015 25/23 A2994=
202202111700 METAR MRLM 111700Z 26006KT 9999 FEW020 BKN120 24/23 A2992 REDZ=
202202111800 METAR MRLM 111800Z 23007KT CAVOK 27/23 A2990=
202202111900 METAR MRLM 111900Z 21003KT CAVOK 28/23 A2987=
202202112000 METAR MRLM 112000Z 11006KT CAVOK 29/22 A2983=
202202112100 METAR MRLM 112100Z 10007KT CAVOK 29/23 A2981=
202202112200 METAR MRLM 112200Z 10008KT CAVOK 29/22 A2982=
202202112300 METAR MRLM NIL=
202202120000 METAR MRLM NIL=
202202120100 METAR MRLM NIL=
202202120200 METAR MRLM NIL=
202202120300 METAR MRLM NIL=
202202120400 METAR MRLM NIL=
202202120500 METAR MRLM NIL=
202202120600 METAR MRLM NIL=
202202120700 METAR MRLM NIL=
202202120800 METAR MRLM NIL=
202202120900 METAR MRLM NIL=
202202121000 METAR MRLM NIL=
202202121100 METAR MRLM NIL=
202202121200 METAR MRLM 121200Z 23004KT CAVOK 20/19 A2989=
202202121300 METAR MRLM 121300Z 23005KT CAVOK 22/20 A2990=
202202121400 METAR MRLM 121400Z 22003KT CAVOK 26/22 A2992=
202202121500 METAR MRLM 121500Z 00000KT CAVOK 28/22 A2993=
202202121600 METAR MRLM 121600Z 05006KT 9999 FEW030 SCT140 28/23 A2993=
202202121700 METAR MRLM 121700Z 03005KT 9999 FEW020 BKN130 28/23 A2992=
202202121800 METAR MRLM 121800Z 02007KT 9999 FEW020 BKN130 28/23 A2990=
202202121900 METAR MRLM 121900Z 04004KT CAVOK 29/23 A2987=
202202122000 METAR MRLM 122000Z 04007KT CAVOK 29/22 A2985=
202202122100 METAR MRLM 122100Z 05009KT CAVOK 29/22 A2984=
202202122200 METAR MRLM 122200Z 08013KT 9999 FEW030 SCT130 27/24 A2984=
202202122300 METAR MRLM NIL=
202202130000 METAR MRLM NIL=
202202130100 METAR MRLM NIL=
202202130200 METAR MRLM NIL=
202202130300 METAR MRLM NIL=
202202130400 METAR MRLM NIL=
202202130500 METAR MRLM NIL=
202202130600 METAR MRLM NIL=
202202130700 METAR MRLM NIL=
202202130800 METAR MRLM NIL=
202202130900 METAR MRLM NIL=
202202131000 METAR MRLM NIL=
202202131100 METAR MRLM NIL=
202202131200 METAR MRLM 131200Z 24004KT CAVOK 20/19 A2988=
202202131300 METAR MRLM 131300Z 00000KT CAVOK 22/20 A2990=
202202131400 METAR MRLM 131400Z 23003KT CAVOK 25/22 A2992=
202202131500 METAR MRLM 131500Z 04003KT CAVOK 27/22 A2994=
202202131600 METAR MRLM 131600Z 02004KT CAVOK 28/22 A2994=
202202131700 METAR MRLM 131700Z 01004KT CAVOK 28/22 A2993=
202202131800 METAR MRLM 131800Z COR 32007KT CAVOK 28/23 A2991=
202202131900 METAR MRLM 131900Z 34008KT CAVOK 28/23 A2989=
202202132000 METAR MRLM 132000Z 36011KT 9999 SCT025 BKN120 28/23 A2987=
202202132100 METAR MRLM 132100Z 35010KT CAVOK 28/22 A2985=
202202132200 METAR MRLM 132200Z 33007KT 9999 FEW030 BKN120 28/22 A2985=
202202132300 METAR MRLM NIL=
202202140000 METAR MRLM NIL=
202202140100 METAR MRLM NIL=
202202140200 METAR MRLM NIL=
202202140300 METAR MRLM NIL=
202202140400 METAR MRLM NIL=
202202140500 METAR MRLM NIL=
202202140600 METAR MRLM NIL=
202202140700 METAR MRLM NIL=
202202140800 METAR MRLM NIL=
202202140900 METAR MRLM NIL=
202202141000 METAR MRLM NIL=
202202141100 METAR MRLM NIL=
202202141200 METAR MRLM 141200Z 22003KT 9999 SCT015 BKN100 22/21 A2995=
202202141300 METAR MRLM 141300Z 21005KT 9999 FEW020 BKN130 23/21 A2998=
202202141400 METAR MRLM 141400Z 29004KT CAVOK 24/22 A2999=
202202141500 METAR MRLM 141500Z 29004KT CAVOK 24/22 A2999=
202202141600 METAR MRLM 141600Z 32010KT 9999 DZ SCT020 BKN120 24/22 A3001=
202202141700 METAR MRLM 141700Z 30004KT 4000 RA SCT020 BKN120 24/22 A2999=
202202141800 METAR MRLM 141800Z 26004KT 9999 DZ BKN020 24/22 A2996 RERA=
202202141900 METAR MRLM 141900Z 34004KT 3000 RA SCT020 BKN110 25/22 A2994=
202202142000 METAR MRLM 142000Z 30007KT 9999 DZ FEW020 BKN120 25/22 A2994=
202202142100 METAR MRLM 142100Z 27004KT 8000 +DZ SCT020 OVC120 23/22 A2990=
202202142200 METAR MRLM 142200Z 24006KT 8000 DZ FEW020 OVC110 23/22 A2989=
202202142300 METAR MRLM NIL=
202202150000 METAR MRLM NIL=
202202150100 METAR MRLM NIL=
202202150200 METAR MRLM NIL=
202202150300 METAR MRLM NIL=
202202150400 METAR MRLM NIL=
202202150500 METAR MRLM NIL=
202202150600 METAR MRLM NIL=
202202150700 METAR MRLM NIL=
202202150800 METAR MRLM NIL=
202202150900 METAR MRLM NIL=
202202151000 METAR MRLM NIL=
202202151100 METAR MRLM NIL=
202202151200 METAR MRLM 151200Z 00000KT 9999 SCT015 BKN110 22/21 A2996=
202202151300 METAR MRLM 151300Z 00000KT 9999 BKN020 22/21 A2998=
202202151400 METAR MRLM 151400Z 29003KT 9999 SCT020 BKN120 25/23 A3001=
202202151500 METAR MRLM 151500Z 29004KT 9999 DZ SCT020 BKN120 25/23 A3003=
202202151600 METAR MRLM 151600Z 29004KT 9999 DZ SCT025 BKN130 25/22 A3003=
202202151700 METAR MRLM 151700Z 00000KT 9999 DZ BKN025 27/23 A3001=
202202151800 METAR MRLM 151800Z 06012KT 9999 FEW030 BKN130 24/22 A2999=
202202151900 METAR MRLM NIL=
202202152000 METAR MRLM 152000Z 03007KT 9999 FEW020 BKN130 24/22 A2994=
202202152100 METAR MRLM 152100Z 04014KT 9999 DZ FEW020 BKN120 25/21 A2993=
202202152200 METAR MRLM 152200Z 05006KT 9999 FEW025 BKN130 25/21 A2993=
202202152300 METAR MRLM NIL=
202202160000 METAR MRLM NIL=
202202160100 METAR MRLM NIL=
202202160200 METAR MRLM NIL=
202202160300 METAR MRLM NIL=
202202160400 METAR MRLM NIL=
202202160500 METAR MRLM NIL=
202202160600 METAR MRLM NIL=
202202160700 METAR MRLM NIL=
202202160800 METAR MRLM NIL=
202202160900 METAR MRLM NIL=
202202161000 METAR MRLM NIL=
202202161100 METAR MRLM NIL=
202202161200 METAR MRLM 161200Z 23004KT CAVOK 22/20 A2998=
202202161300 METAR MRLM 161300Z 22005KT CAVOK 23/20 A3000=
202202161400 METAR MRLM 161400Z 23005KT CAVOK 26/22 A3002=
202202161500 METAR MRLM 161500Z 22004KT CAVOK 28/22 A3003=
202202161600 METAR MRLM 161600Z 07004KT 9999 VCSH SCT020 BKN120 28/21 A3004=
202202161700 METAR MRLM 161700Z 31006KT CAVOK 26/21 A3001=
202202161800 METAR MRLM 161800Z 28004KT CAVOK 28/18 A3001=
202202161900 METAR MRLM 161900Z 30004KT CAVOK 28/18 A2998=
202202162000 METAR MRLM 162000Z 01005KT CAVOK 29/20 A2994=
202202162100 METAR MRLM 162100Z 01006KT CAVOK 29/22 A2993=
202202162200 METAR MRLM 162200Z 03006KT CAVOK 28/21 A2992=
202202162300 METAR MRLM NIL=
202202170000 METAR MRLM NIL=
202202170100 METAR MRLM NIL=
202202170200 METAR MRLM NIL=
202202170300 METAR MRLM NIL=
202202170400 METAR MRLM NIL=
202202170500 METAR MRLM NIL=
202202170600 METAR MRLM NIL=
202202170700 METAR MRLM NIL=
202202170800 METAR MRLM NIL=
202202170900 METAR MRLM NIL=
202202171000 METAR MRLM NIL=
202202171100 METAR MRLM NIL=
202202171200 METAR MRLM 171200Z 00000KT CAVOK 19/18 A2993=
202202171300 METAR MRLM 171300Z 24005KT 9999 FEW015TCU SCT200 21/19 A2995=
202202171400 METAR MRLM 171400Z 22003KT 9999 FEW015TCU SCT200 25/20 A2998=
202202171500 METAR MRLM 171500Z 20004KT 9999 FEW020 SCT120 27/20 A2999=
202202171600 METAR MRLM 171600Z 11006KT CAVOK 28/22 A2998=
202202171700 METAR MRLM 171700Z 10006KT CAVOK 28/22 A2996=
202202171800 METAR MRLM 171800Z 08005KT CAVOK 28/21 A2993=
202202171900 METAR MRLM 171900Z 07005KT CAVOK 28/21 A2990=
202202172000 METAR MRLM 172000Z 05007KT CAVOK 29/22 A2987=
202202172100 METAR MRLM 172100Z 03010KT CAVOK 28/23 A2985=
202202172200 METAR MRLM 172200Z 03011KT CAVOK 28/23 A2985=
202202172300 METAR MRLM 172300Z 02005KT CAVOK 28/21 A2987=
202202180000 METAR MRLM 180000Z 03006KT CAVOK 27/22 A2988=
202202180100 METAR MRLM NIL=
202202180200 METAR MRLM NIL=
202202180300 METAR MRLM NIL=
202202180400 METAR MRLM NIL=
202202180500 METAR MRLM NIL=
202202180600 METAR MRLM NIL=
202202180700 METAR MRLM NIL=
202202180800 METAR MRLM NIL=
202202180900 METAR MRLM NIL=
202202181000 METAR MRLM NIL=
202202181100 METAR MRLM NIL=
202202181200 METAR MRLM 181200Z 00000KT 9999 FEW015 BKN100 22/21 A2990=
202202181300 METAR MRLM 181300Z 27002KT 9999 FEW015 BKN100 23/21 A2992=
202202181400 METAR MRLM 181400Z 00000KT 9999 VCSH FEW015TCU BKN100 24/22 A2995=
202202181500 METAR MRLM 181500Z 04007KT 5000 +DZ SCT010 OVC090 25/22 A2998=
202202181600 METAR MRLM 181600Z 31003KT 8000 HZ VCSH FEW010TCU SCT015 OVC090 26/22 A2998 REDZ=
202202181700 METAR MRLM 181700Z 24005KT 9999 VCSH FEW010TCU SCT015 OVC090 25/22 A2997=
202202181800 METAR MRLM 181800Z 34005KT 9999 SCT015 OVC090 26/22 A2995=
202202181900 METAR MRLM 181900Z 01004KT 9999 -DZ SCT015 OVC090 26/22 A2992=
202202182000 METAR MRLM 182000Z 27004KT 9999 -DZ SCT015 OVC090 26/23 A2989=
202202182100 METAR MRLM 182100Z 26004KT 9999 FEW015 OVC100 26/23 A2988=
202202182200 METAR MRLM 182200Z 32003KT 9999 FEW015 OVC100 25/22 A2988=
202202182300 METAR MRLM 182300Z 00000KT 9999 FEW015 BKN100 25/22 A2988=
202202190000 METAR MRLM 190000Z 23005KT 9999 FEW015 BKN100 24/22 A2990=
202202190100 METAR MRLM NIL=
202202190200 METAR MRLM NIL=
202202190300 METAR MRLM NIL=
202202190400 METAR MRLM NIL=
202202190500 METAR MRLM NIL=
202202190600 METAR MRLM NIL=
202202190700 METAR MRLM NIL=
202202190800 METAR MRLM NIL=
202202190900 METAR MRLM NIL=
202202191000 METAR MRLM NIL=
202202191100 METAR MRLM NIL=
202202191200 METAR MRLM 191200Z 30003KT 9999 FEW010 BKN120 21/20 A2995=
202202191300 METAR MRLM 191300Z 26005KT CAVOK 22/20 A2997=
202202191400 METAR MRLM 191400Z 23004KT CAVOK 24/21 A2998=
202202191500 METAR MRLM 191500Z 00000KT CAVOK 27/21 A3000=
202202191600 METAR MRLM 191600Z 05004KT CAVOK 28/22 A3000=
202202191700 METAR MRLM 191700Z 03007KT CAVOK 28/22 A2998=
202202191800 METAR MRLM 191800Z 05010KT CAVOK 28/22 A2997=
202202191900 METAR MRLM 191900Z 06011KT CAVOK 29/21 A2993=
202202192000 METAR MRLM 192000Z 06013KT CAVOK 28/22 A2992=
202202192100 METAR MRLM 192100Z 04012KT 9999 FEW030 BKN130 28/23 A2991=
202202192200 METAR MRLM 192200Z 02008KT CAVOK 27/22 A2991=
202202192300 METAR MRLM 192300Z 03003KT 9999 FEW030 BKN120 27/21 A2992=
202202200000 METAR MRLM 200000Z 02005KT 9999 FEW020 BKN110 26/21 A2993=
202202200100 METAR MRLM NIL=
202202200200 METAR MRLM NIL=
202202200300 METAR MRLM NIL=
202202200400 METAR MRLM NIL=
202202200500 METAR MRLM NIL=
202202200600 METAR MRLM NIL=
202202200700 METAR MRLM NIL=
202202200800 METAR MRLM NIL=
202202200900 METAR MRLM NIL=
202202201000 METAR MRLM NIL=
202202201100 METAR MRLM NIL=
202202201200 METAR MRLM 201200Z 24004KT CAVOK 18/17 A2997=
202202201300 METAR MRLM 201300Z 25004KT CAVOK 21/18 A2999=
202202201400 METAR MRLM 201400Z 23005KT CAVOK 24/20 A3000=
202202201500 METAR MRLM 201500Z 07003KT CAVOK 27/21 A3002=
202202201600 METAR MRLM 201600Z 11005KT 9999 FEW030 28/21 A3002=
202202201700 METAR MRLM 201700Z 09005KT 9999 FEW030 28/21 A3000=
202202201800 METAR MRLM 201800Z 07005KT 9999 FEW030 28/21 A2999=
202202201900 METAR MRLM 201900Z 04006KT CAVOK 29/22 A2996=
202202202000 METAR MRLM 202000Z 05007KT CAVOK 29/22 A2992=
202202202100 METAR MRLM 202100Z 05006KT CAVOK 29/21 A2991=
202202202200 METAR MRLM 202200Z 05004KT CAVOK 28/22 A2991=
202202202300 METAR MRLM 202300Z 05006KT CAVOK 28/21 A2992=
202202210000 METAR MRLM 210000Z 06006KT 9999 FEW030 SCT130 26/22 A2996=
202202210100 METAR MRLM NIL=
202202210200 METAR MRLM NIL=
202202210300 METAR MRLM NIL=
202202210400 METAR MRLM NIL=
202202210500 METAR MRLM NIL=
202202210600 METAR MRLM NIL=
202202210700 METAR MRLM NIL=
202202210800 METAR MRLM NIL=
202202210900 METAR MRLM NIL=
202202211000 METAR MRLM NIL=
202202211100 METAR MRLM NIL=
202202211200 METAR MRLM 211200Z 22002KT 9999 FEW015 SCT100 19/17 A2995=
202202211300 METAR MRLM 211300Z 24002KT CAVOK 21/18 A2997=
202202211400 METAR MRLM 211400Z 18002KT CAVOK 25/19 A2999=
202202211500 METAR MRLM 211500Z 09002KT CAVOK 26/20 A3001=
202202211600 METAR MRLM 211600Z 10005KT CAVOK 29/20 A2999=
202202211700 METAR MRLM 211700Z 06009KT CAVOK 29/21 A2998=
202202211800 METAR MRLM 211800Z 09009KT CAVOK 29/21 A2997=
202202211900 METAR MRLM 211900Z 07009KT 9999 FEW025 BKN120 28/22 A2994=
202202212000 METAR MRLM 212000Z 07010KT 9999 FEW025 BKN120 28/21 A2992=
202202212100 METAR MRLM 212100Z 07010KT CAVOK 29/22 A2991=
202202212200 METAR MRLM 212200Z 15005KT CAVOK 28/21 A2991=
202202212300 METAR MRLM 212300Z 10009KT CAVOK 28/21 A2991=
202202220000 METAR MRLM 220000Z 04012KT CAVOK 27/22 A2993=
202202220100 METAR MRLM NIL=
202202220200 METAR MRLM NIL=
202202220300 METAR MRLM NIL=
202202220400 METAR MRLM NIL=
202202220500 METAR MRLM NIL=
202202220600 METAR MRLM NIL=
202202220700 METAR MRLM NIL=
202202220800 METAR MRLM NIL=
202202220900 METAR MRLM NIL=
202202221000 METAR MRLM NIL=
202202221100 METAR MRLM NIL=
202202221200 METAR MRLM 221200Z 21005KT CAVOK 19/18 A2996=
202202221300 METAR MRLM 221300Z 23004KT CAVOK 21/19 A2996=
202202221400 METAR MRLM 221400Z 26002KT 9999 VCSH FEW020TCU SCT120 26/19 A2999=
202202221500 METAR MRLM 221500Z 03004KT 9999 VCSH FEW020TCU BKN120 27/20 A3000=
202202221600 METAR MRLM 221600Z 09003KT 9999 FEW020 BKN120 26/21 A3000=
202202221700 METAR MRLM 221700Z 10005KT 9999 FEW020 BKN120 28/22 A2999=
202202221800 METAR MRLM 221800Z 05005KT 9999 FEW020 BKN120 29/22 A2996=
202202221900 METAR MRLM 221900Z 07006KT CAVOK 28/21 A2993=
202202222000 METAR MRLM 222000Z 06006KT CAVOK 29/21 A2991=
202202222100 METAR MRLM 222100Z 05007KT CAVOK 29/21 A2989=
202202222200 METAR MRLM 222200Z 06007KT CAVOK 28/21 A2990=
202202222300 METAR MRLM 222300Z 04008KT CAVOK 28/21 A2992=
202202230000 METAR MRLM 230000Z 07007KT CAVOK 28/22 A2993=
202202230100 METAR MRLM NIL=
202202230200 METAR MRLM NIL=
202202230300 METAR MRLM NIL=
202202230400 METAR MRLM NIL=
202202230500 METAR MRLM NIL=
202202230600 METAR MRLM NIL=
202202230700 METAR MRLM NIL=
202202230800 METAR MRLM NIL=
202202230900 METAR MRLM NIL=
202202231000 METAR MRLM NIL=
202202231100 METAR MRLM NIL=
202202231200 METAR MRLM 231200Z 23007KT 9999 FEW020 BKN120 22/20 A2986=
202202231300 METAR MRLM 231300Z 00000KT 9999 FEW020 BKN120 24/20 A2998=
202202231400 METAR MRLM 231400Z 07016KT 8000 DZ SCT020 OVC110 24/22 A3001=
202202231500 METAR MRLM 231500Z 22008KT 9999 FEW020 OVC110 23/21 A3002 REDZ=
202202231600 METAR MRLM 231600Z 20007KT CAVOK 24/20 A3001=
202202231700 METAR MRLM 231700Z 23007KT CAVOK 27/20 A2998=
202202231800 METAR MRLM 231800Z 16003KT 9999 FEW030 OVC110 28/19 A2997=
202202231900 METAR MRLM 231900Z 13011KT 9999 FEW030 OVC130 27/21 A2996=
202202232000 METAR MRLM 232000Z 16005KT CAVOK 27/20 A2993=
202202232100 METAR MRLM 232100Z 22005KT 9999 FEW020 BKN120 27/20 A2991=
202202232200 METAR MRLM 232200Z 14009KT 9999 SCT020 BKN120 26/20 A2992=
202202232300 METAR MRLM 232300Z 19004KT CAVOK 25/20 A2992=
202202240000 METAR MRLM 240000Z 00000KT CAVOK 25/20 A2993=
202202240100 METAR MRLM NIL=
202202240200 METAR MRLM NIL=
202202240300 METAR MRLM NIL=
202202240400 METAR MRLM NIL=
202202240500 METAR MRLM NIL=
202202240600 METAR MRLM NIL=
202202240700 METAR MRLM NIL=
202202240800 METAR MRLM NIL=
202202240900 METAR MRLM NIL=
202202241000 METAR MRLM NIL=
202202241100 METAR MRLM NIL=
202202241200 METAR MRLM 241200Z 00000KT CAVOK 20/18 A2993=
202202241300 METAR MRLM 241300Z 27003KT CAVOK 22/19 A2996=
202202241400 METAR MRLM 241400Z 00000KT CAVOK 25/20 A2999=
202202241500 METAR MRLM 241500Z 06004KT CAVOK 27/21 A2999=
202202241600 METAR MRLM 241600Z 06004KT CAVOK 27/21 A2999=
202202241700 METAR MRLM 241700Z 03005KT CAVOK 28/21 A2997=
202202241800 METAR MRLM 241800Z 02007KT CAVOK 28/21 A2995=
202202241900 METAR MRLM 241900Z 02007KT CAVOK 29/22 A2992=
202202242000 METAR MRLM 242000Z 04004KT CAVOK 29/21 A2989=
202202242100 METAR MRLM 242100Z 04004KT CAVOK 29/22 A2987=
202202242200 METAR MRLM 242200Z 05007KT CAVOK 28/22 A2987=
202202242300 METAR MRLM 242300Z 07005KT CAVOK 28/21 A2988=
202202250000 METAR MRLM 250000Z 07005KT CAVOK 26/21 A2992=
202202250100 METAR MRLM NIL=
202202250200 METAR MRLM NIL=
202202250300 METAR MRLM NIL=
202202250400 METAR MRLM NIL=
202202250500 METAR MRLM NIL=
202202250600 METAR MRLM NIL=
202202250700 METAR MRLM NIL=
202202250800 METAR MRLM NIL=
202202250900 METAR MRLM NIL=
202202251000 METAR MRLM NIL=
202202251100 METAR MRLM NIL=
202202251200 METAR MRLM 251200Z 24008KT 9999 FEW015 BKN090 22/21 A2996=
202202251300 METAR MRLM 251300Z 25003KT 9999 FEW015 BKN090 24/21 A2999=
202202251400 METAR MRLM 251400Z 23003KT 9999 FEW020 BKN120 27/21 A3001=
202202251500 METAR MRLM 251500Z 09003KT 9999 VCSH FEW020TCU SCT120 28/20 A3003=
202202251600 METAR MRLM 251600Z 12007KT 9999 VCSH FEW020TCU BKN120 28/22 A3002=
202202251700 METAR MRLM 251700Z 12007KT 9999 FEW020 BKN120 29/20 A3001=
202202251800 METAR MRLM 251800Z 12009KT 9999 FEW030 SCT130 29/21 A2997=
202202251900 METAR MRLM 251900Z 08006KT 9999 FEW030 SCT130 29/20 A2995=
202202252000 METAR MRLM 252000Z 08008KT 9999 FEW025 BKN120 28/21 A2993=
202202252100 METAR MRLM 252100Z 08006KT 9999 VCSH FEW025TCU SCT120 28/21 A2991=
202202252200 METAR MRLM 252200Z 06008KT 9999 VCSH FEW025TCU SCT120 28/22 A2992=
202202252300 METAR MRLM 252300Z 08007KT CAVOK 27/21 A2992=
202202260000 METAR MRLM 260000Z 03003KT CAVOK 26/21 A2993=
202202260100 METAR MRLM NIL=
202202260200 METAR MRLM NIL=
202202260300 METAR MRLM NIL=
202202260400 METAR MRLM NIL=
202202260500 METAR MRLM NIL=
202202260600 METAR MRLM NIL=
202202260700 METAR MRLM NIL=
202202260800 METAR MRLM NIL=
202202260900 METAR MRLM NIL=
202202261000 METAR MRLM NIL=
202202261100 METAR MRLM NIL=
202202261200 METAR MRLM 261200Z 07012KT 5000 +DZ FEW010 OVC070 22/21 A3002=
202202261300 METAR MRLM 261300Z 21002KT 4000 +DZ FEW010 OVC070 21/20 A3006=
202202261400 METAR MRLM 261400Z 21006KT 8000 -DZ SCT015 OVC080 21/20 A3005=
202202261500 METAR MRLM 261500Z 22008KT 9999 SCT015 OVC080 23/20 A3007 REDZ=
202202261600 METAR MRLM 261600Z 22006KT 9999 SCT015 OVC090 25/20 A3006=
202202261700 METAR MRLM 261700Z 23006KT 9999 FEW015 OVC090 27/21 A3004=
202202261800 METAR MRLM 261800Z 26003KT 9999 FEW020 BKN110 28/20 A3001=
202202261900 METAR MRLM 261900Z 07004KT 9999 FEW020 BKN110 29/19 A2998=
202202262000 METAR MRLM 262000Z 10004KT 9999 FEW020 BKN120 29/20 A2995=
202202262100 METAR MRLM 262100Z 06006KT 9999 FEW020 BKN120 29/21 A2993=
202202262200 METAR MRLM 262200Z 04006KT CAVOK 28/21 A2994=
202202262300 METAR MRLM 262300Z 04008KT CAVOK 28/20 A2995=
202202270000 METAR MRLM 270000Z 03004KT CAVOK 27/20 A2996=
202202270100 METAR MRLM NIL=
202202270200 METAR MRLM NIL=
202202270300 METAR MRLM NIL=
202202270400 METAR MRLM NIL=
202202270500 METAR MRLM NIL=
202202270600 METAR MRLM NIL=
202202270700 METAR MRLM NIL=
202202270800 METAR MRLM NIL=
202202270900 METAR MRLM NIL=
202202271000 METAR MRLM NIL=
202202271100 METAR MRLM NIL=
202202271200 METAR MRLM NIL=
202202271300 METAR MRLM NIL=
202202271400 METAR MRLM NIL=
202202271500 METAR MRLM NIL=
202202271600 METAR MRLM NIL=
202202271700 METAR MRLM 271700Z 24004KT CAVOK 28/21 A3000=
202202271800 METAR MRLM 271800Z 06006KT CAVOK 29/21 A2997=
202202271900 METAR MRLM 271900Z 01009KT CAVOK 29/20 A2994=
202202272000 METAR MRLM 272000Z 36012KT 9999 FEW025 SCT130 28/21 A2992=
202202272100 METAR MRLM 272100Z 02007KT CAVOK 28/20 A2990=
202202272200 METAR MRLM 272200Z 05005KT CAVOK 28/20 A2990=
202202272300 METAR MRLM 272300Z 05004KT CAVOK 27/21 A2990=
202202280000 METAR MRLM 280000Z 03004KT CAVOK 27/21 A2991=
202202280100 METAR MRLM NIL=
202202280200 METAR MRLM NIL=
202202280300 METAR MRLM NIL=
202202280400 METAR MRLM NIL=
202202280500 METAR MRLM NIL=
202202280600 METAR MRLM NIL=
202202280700 METAR MRLM NIL=
202202280800 METAR MRLM NIL=
202202280900 METAR MRLM NIL=
202202281000 METAR MRLM NIL=
202202281100 METAR MRLM NIL=
202202281200 METAR MRLM 281200Z 24005KT CAVOK 20/19 A2996=
202202281300 METAR MRLM 281300Z 24005KT CAVOK 22/20 A2998=
202202281400 METAR MRLM 281400Z 24005KT CAVOK 25/21 A3000=
202202281500 METAR MRLM 281500Z 23004KT 9999 FEW025 SCT130 27/21 A3001=
202202281600 METAR MRLM 281600Z 12008KT 9999 SCT030 SCT130 27/22 A3002=
202202281700 METAR MRLM 281700Z 09014KT 9999 VCSH SCT025 BKN130 26/22 A3000=
202202281800 METAR MRLM 281800Z 09009KT 9999 FEW025 BKN130 27/21 A2998=
202202281900 METAR MRLM 281900Z 12006KT CAVOK 28/21 A2995=
202202282000 METAR MRLM 282000Z 09006KT CAVOK 28/19 A2992=
202202282100 METAR MRLM 282100Z 11004KT CAVOK 28/19 A2990=
202202282200 METAR MRLM 282200Z 08004KT CAVOK 28/19 A2989=
202202282300 METAR MRLM 282300Z 06003KT CAVOK 27/19 A2990=
202203010000 METAR MRLM 010000Z 00000KT CAVOK 25/21 A2993=
202203010100 METAR MRLM NIL=
202203010200 METAR MRLM NIL=
202203010300 METAR MRLM NIL=
202203010400 METAR MRLM NIL=
202203010500 METAR MRLM NIL=
202203010600 METAR MRLM NIL=
202203010700 METAR MRLM NIL=
202203010800 METAR MRLM NIL=
202203010900 METAR MRLM NIL=
202203011000 METAR MRLM NIL=
202203011100 METAR MRLM NIL=
202203011200 METAR MRLM 011200Z 23005KT 9999 FEW015 SCT100 19/18 A2994=
202203011300 METAR MRLM 011300Z 23005KT 9999 FEW015 SCT100 21/19 A2996=
202203011400 METAR MRLM 011400Z 24004KT 9999 FEW020 BKN120 25/20 A2997=
202203011500 METAR MRLM 011500Z 28003KT CAVOK 28/20 A2999=
202203011600 METAR MRLM 011600Z 32005KT CAVOK 29/19 A2998=
202203011700 METAR MRLM 011700Z 32006KT 9999 FEW030 SCT130 30/20 A2997=
202203011800 METAR MRLM 011800Z 35012KT 9999 FEW030 BKN130 29/22 A2995=
202203011900 METAR MRLM 011900Z 36010KT 9999 FEW030 BKN130 28/21 A2993=
202203012000 METAR MRLM 012000Z 02006KT 9999 FEW020 BKN120 28/21 A2991=
202203012100 METAR MRLM 012100Z 09004KT 9999 FEW020 BKN120 27/21 A2989=
202203012200 METAR MRLM 012200Z 22004KT 9999 FEW020 BKN120 26/21 A2988=
202203012300 METAR MRLM 012300Z 00000KT 9999 FEW020 BKN120 26/21 A2990=
202203020000 METAR MRLM 020000Z 24002KT 9999 FEW020 SCT120 BKN220 24/21 A2991=
202203020100 METAR MRLM NIL=
202203020200 METAR MRLM NIL=
202203020300 METAR MRLM NIL=
202203020400 METAR MRLM NIL=
202203020500 METAR MRLM NIL=
202203020600 METAR MRLM NIL=
202203020700 METAR MRLM NIL=
202203020800 METAR MRLM NIL=
202203020900 METAR MRLM NIL=
202203021000 METAR MRLM NIL=
202203021100 METAR MRLM NIL=
202203021200 METAR MRLM 021200Z 27003KT 9999 FEW015TCU BKN090 21/19 A2996=
202203021300 METAR MRLM 021300Z 24004KT 9999 FEW015 BKN090 22/20 A2998=
202203021400 METAR MRLM 021400Z 28005KT 9999 FEW020 BKN110 25/21 A3000=
202203021500 METAR MRLM 021500Z 26006KT CAVOK 28/21 A3001=
202203021600 METAR MRLM 021600Z 27004KT CAVOK 30/20 A3001=
202203021700 METAR MRLM 021700Z 01008KT 9999 FEW025 BKN130 30/19 A2998=
202203021800 METAR MRLM 021800Z 01008KT CAVOK 29/21 A2996=
202203021900 METAR MRLM 021900Z 01010KT 9999 FEW020 BKN120 29/22 A2994=
202203022000 METAR MRLM 022000Z 01008KT 9999 FEW020 OVC110 29/22 A2991=
202203022100 METAR MRLM 022100Z 02010KT 9999 VCSH FEW020TCU OVC110 27/23 A2990=
202203022200 METAR MRLM 022200Z 35011KT 9999 VCSH FEW015TCU OVC100 28/23 A2989=
202203022300 METAR MRLM 022300Z 04015KT 9999 VCSH FEW015TCU OVC100 25/22 A2992=
202203030000 METAR MRLM 030000Z 34010KT 9999 SCT010 OVC090 26/20 A2994=
202203030100 METAR MRLM NIL=
202203030200 METAR MRLM NIL=
202203030300 METAR MRLM NIL=
202203030400 METAR MRLM NIL=
202203030500 METAR MRLM NIL=
202203030600 METAR MRLM NIL=
202203030700 METAR MRLM NIL=
202203030800 METAR MRLM NIL=
202203030900 METAR MRLM NIL=
202203031000 METAR MRLM NIL=
202203031100 METAR MRLM NIL=
202203031200 METAR MRLM 031200Z 25008KT 9999 FEW020 BKN100 22/20 A2996=
202203031300 METAR MRLM 031300Z 25005KT 9999 SCT020 BKN100 22/21 A2998=
202203031400 METAR MRLM 031400Z 25005KT 9999 DZ SCT020 BKN100 23/21 A3000=
202203031500 METAR MRLM 031500Z 21004KT 9999 -DZ FEW020 BKN110 23/22 A3003=
202203031600 METAR MRLM 031600Z 00000KT 8000 DZ SCT020 OVC120 24/23 A3001=
202203031700 METAR MRLM 031700Z 00000KT 9999 -DZ BKN020 24/23 A3000=
202203031800 METAR MRLM 031800Z 00000KT 9999 DZ FEW020 OVC120 25/23 A2998=
202203031900 METAR MRLM 031900Z 28003KT 4000 +DZ SCT020 OVC110 25/23 A2994=
202203032000 METAR MRLM 032000Z 24006KT 9999 SCT020 BKN120 24/23 A2990 REDZ=
202203032100 METAR MRLM 032100Z 00000KT 9999 BKN020 25/23 A2989=
202203032200 METAR MRLM 032200Z 28003KT 8000 DZ SCT010 BKN080 24/23 A2989=
202203032300 METAR MRLM 032300Z 25005KT 9999 FEW010 BKN120 24/22 A2988 REDZ=
202203040000 METAR MRLM 040000Z 25005KT CAVOK 23/22 A2990=
202203040100 METAR MRLM NIL=
202203040200 METAR MRLM NIL=
202203040300 METAR MRLM NIL=
202203040400 METAR MRLM NIL=
202203040500 METAR MRLM NIL=
202203040600 METAR MRLM NIL=
202203040700 METAR MRLM NIL=
202203040800 METAR MRLM NIL=
202203040900 METAR MRLM NIL=
202203041000 METAR MRLM NIL=
202203041100 METAR MRLM NIL=
202203041200 METAR MRLM 041200Z 24005KT 9999 BKN015 23/23 A2998=
202203041300 METAR MRLM 041300Z 24004KT 9999 BKN020 24/23 A3002=
202203041400 METAR MRLM 041400Z 23003KT 9999 BKN030 26/24 A3002=
202203041500 METAR MRLM 041500Z 00000KT 9999 +DZ BKN025 27/24 A3003=
202203041600 METAR MRLM 041600Z 05005KT 9999 FEW030 SCT230 28/25 A3004=
202203041700 METAR MRLM 041700Z 05005KT 9999 SCT030 28/24 A3002=
202203041800 METAR MRLM 041800Z 05006KT 9999 FEW030 SCT230 29/24 A3000=
202203041900 METAR MRLM 041900Z 05008KT 9999 FEW030 SCT230 29/24 A2997=
202203042000 METAR MRLM 042000Z 09005KT 9999 FEW030 BKN240 29/24 A2993=
202203042100 METAR MRLM 042100Z 06008KT 9999 FEW030 BKN240 29/23 A2992=
202203042200 METAR MRLM 042200Z 06005KT 9999 FEW030 BKN240 28/23 A2991=
202203042300 METAR MRLM 042300Z 05004KT 9999 BKN020 28/24 A2992=
202203050000 METAR MRLM 050000Z 06006KT 6000 DZ BKN010 27/24 A2996=
202203050100 METAR MRLM NIL=
202203050200 METAR MRLM NIL=
202203050300 METAR MRLM NIL=
202203050400 METAR MRLM NIL=
202203050500 METAR MRLM NIL=
202203050600 METAR MRLM NIL=
202203050700 METAR MRLM NIL=
202203050800 METAR MRLM NIL=
202203050900 METAR MRLM NIL=
202203051000 METAR MRLM NIL=
202203051100 METAR MRLM NIL=
202203051200 METAR MRLM 051200Z 18004KT 9999 SCT020 OVC100 22/21 A2996=
202203051300 METAR MRLM 051300Z 18005KT 9999 DZ SCT020 BKN110 23/20 A2999=
202203051400 METAR MRLM 051400Z 23005KT 9999 FEW025 SCT130 24/21 A2999=
202203051500 METAR MRLM 051500Z 00000KT 9999 FEW020 BKN130 24/21 A2999=
202203051600 METAR MRLM 051600Z 10005KT CAVOK 27/22 A3001=
202203051700 METAR MRLM 051700Z 10005KT CAVOK 28/22 A2999=
202203051800 METAR MRLM 051800Z 08004KT CAVOK 28/22 A2996=
202203051900 METAR MRLM 051900Z 08005KT CAVOK 30/22 A2994=
202203052000 METAR MRLM 052000Z 03005KT CAVOK 30/21 A2990=
202203052100 METAR MRLM 052100Z 03010KT CAVOK 30/21 A2989=
202203052200 METAR MRLM 052200Z 03008KT CAVOK 30/21 A2988=
202203052300 METAR MRLM NIL=
202203060000 METAR MRLM NIL=
202203060100 METAR MRLM NIL=
202203060200 METAR MRLM NIL=
202203060300 METAR MRLM NIL=
202203060400 METAR MRLM NIL=
202203060500 METAR MRLM NIL=
202203060600 METAR MRLM NIL=
202203060700 METAR MRLM NIL=
202203060800 METAR MRLM NIL=
202203060900 METAR MRLM NIL=
202203061000 METAR MRLM NIL=
202203061100 METAR MRLM NIL=
202203061200 METAR MRLM 061200Z 00000KT 9999 VCSH FEW015TCU BKN100 21/20 A2994=
202203061300 METAR MRLM 061300Z 00000KT 9999 VCSH FEW015TCU BKN100 22/20 A2997=
202203061400 METAR MRLM 061400Z 25003KT 9999 FEW015 BKN100 24/21 A2998=
202203061500 METAR MRLM 061500Z 29004KT 9999 FEW020 BKN120 27/22 A2999=
202203061600 METAR MRLM 061600Z 05006KT 9999 FEW020 SCT120 27/22 A2999=
202203061700 METAR MRLM 061700Z 03006KT 9999 FEW020 SCT120 27/23 A2997=
202203061800 METAR MRLM 061800Z 04006KT CAVOK 27/23 A2995=
202203061900 METAR MRLM 061900Z 04007KT CAVOK 28/22 A2992=
202203062000 METAR MRLM 062000Z 04006KT CAVOK 28/22 A2989=
202203062100 METAR MRLM 062100Z 04005KT CAVOK 28/22 A2988=
202203062200 METAR MRLM 062200Z 05004KT CAVOK 28/23 A2987=
202203062300 METAR MRLM 062300Z 05004KT CAVOK 28/22 A2988=
202203070000 METAR MRLM 070000Z 05004KT CAVOK 27/23 A2990=
202203070100 METAR MRLM NIL=
202203070200 METAR MRLM NIL=
202203070300 METAR MRLM NIL=
202203070400 METAR MRLM NIL=
202203070500 METAR MRLM NIL=
202203070600 METAR MRLM NIL=
202203070700 METAR MRLM NIL=
202203070800 METAR MRLM NIL=
202203070900 METAR MRLM NIL=
202203071000 METAR MRLM NIL=
202203071100 METAR MRLM NIL=
202203071200 METAR MRLM 071200Z 23005KT CAVOK 20/19 A2991=
202203071300 METAR MRLM 071300Z 24004KT CAVOK 22/20 A2995=
202203071400 METAR MRLM 071400Z 00000KT CAVOK 26/22 A2996=
202203071500 METAR MRLM 071500Z 06003KT CAVOK 27/23 A2997=
202203071600 METAR MRLM 071600Z 05005KT 9999 FEW030 28/23 A2997=
202203071700 METAR MRLM 071700Z 04006KT CAVOK 28/24 A2995=
202203071800 METAR MRLM 071800Z 04008KT CAVOK 29/24 A2993=
202203071900 METAR MRLM 071900Z 05007KT CAVOK 29/23 A2991=
202203072000 METAR MRLM 072000Z 03007KT 9999 FEW030 29/23 A2988=
202203072100 METAR MRLM 072100Z 05006KT 9999 FEW030 29/23 A2986=
202203072200 METAR MRLM NIL=
202203072300 METAR MRLM 072300Z 04004KT 9999 SCT025 28/23 A2986=
202203080000 METAR MRLM 080000Z 06003KT 9999 SCT020 26/24 A2986=
202203080100 METAR MRLM NIL=
202203080200 METAR MRLM NIL=
202203080300 METAR MRLM NIL=
202203080400 METAR MRLM NIL=
202203080500 METAR MRLM NIL=
202203080600 METAR MRLM NIL=
202203080700 METAR MRLM NIL=
202203080800 METAR MRLM NIL=
202203080900 METAR MRLM NIL=
202203081000 METAR MRLM NIL=
202203081100 METAR MRLM NIL=
202203081200 METAR MRLM 081200Z 22005KT 9999 FEW020 21/19 A2990=
202203081300 METAR MRLM 081300Z 22005KT 9999 FEW025 23/20 A2992=
202203081400 METAR MRLM 081400Z 22003KT CAVOK 26/22 A2994=
202203081500 METAR MRLM 081500Z 09003KT CAVOK 28/23 A2995=
202203081600 METAR MRLM 081600Z 07004KT 9999 FEW030 28/23 A2995=
202203081700 METAR MRLM 081700Z 07005KT 9999 FEW030 28/23 A2994=
202203081800 METAR MRLM 081800Z 09006KT 9999 FEW030 29/23 A2991=
202203081900 METAR MRLM 081900Z 07006KT 9999 FEW030 29/23 A2989=
202203082000 METAR MRLM 082000Z 07007KT 9999 FEW030 29/23 A2985=
202203082100 METAR MRLM 082100Z 07008KT 9999 FEW025 29/22 A2984=
202203082200 METAR MRLM 082200Z 08009KT 9999 SCT025 28/22 A2984=
202203082300 METAR MRLM 082300Z 09007KT 9999 BKN020 28/22 A2984=
202203090000 METAR MRLM 090000Z 08006KT 9999 BKN020 27/21 A2989=
202203090100 METAR MRLM NIL=
202203090200 METAR MRLM NIL=
202203090300 METAR MRLM NIL=
202203090400 METAR MRLM NIL=
202203090500 METAR MRLM NIL=
202203090600 METAR MRLM NIL=
202203090700 METAR MRLM NIL=
202203090800 METAR MRLM NIL=
202203090900 METAR MRLM NIL=
202203091000 METAR MRLM NIL=
202203091100 METAR MRLM NIL=
202203091200 METAR MRLM 091200Z 23004KT 9999 FEW015 20/18 A2990=
202203091300 METAR MRLM 091300Z 23004KT 9999 FEW015 22/19 A2992=
202203091400 METAR MRLM 091400Z 24004KT CAVOK 26/22 A2993=
202203091500 METAR MRLM 091500Z 09005KT CAVOK 28/22 A2995=
202203091600 METAR MRLM 091600Z 09006KT CAVOK 29/21 A2994=
202203091700 METAR MRLM 091700Z 09007KT CAVOK 29/21 A2993=
202203091800 METAR MRLM 091800Z 08007KT CAVOK 29/22 A2990=
202203091900 METAR MRLM 091900Z 08007KT CAVOK 29/22 A2987=
202203092000 METAR MRLM 092000Z 07007KT CAVOK 29/22 A2984=
202203092100 METAR MRLM 092100Z 06006KT CAVOK 29/23 A2983=
202203092200 METAR MRLM 092200Z 06005KT 9999 FEW030 29/22 A2983=
202203092300 METAR MRLM 092300Z 06004KT 9999 FEW030 28/23 A2984=
202203100000 METAR MRLM 100000Z 08005KT 9999 SCT020 28/23 A2985=
202203100100 METAR MRLM NIL=
202203100200 METAR MRLM NIL=
202203100300 METAR MRLM NIL=
202203100400 METAR MRLM NIL=
202203100500 METAR MRLM NIL=
202203100600 METAR MRLM NIL=
202203100700 METAR MRLM NIL=
202203100800 METAR MRLM NIL=
202203100900 METAR MRLM NIL=
202203101000 METAR MRLM NIL=
202203101100 METAR MRLM NIL=
202203101200 METAR MRLM 101200Z 23004KT 9999 VCSH SCT015TCU BKN100 21/20 A2992=
202203101300 METAR MRLM 101300Z 23004KT 9999 VCSH FEW015TCU SCT100 22/20 A2994=
202203101400 METAR MRLM 101400Z 20004KT 9999 VCSH FEW015TCU SCT100 24/21 A2996=
202203101500 METAR MRLM 101500Z 03006G17KT 6000 DZ VCSH SCT010TCU OVC090 25/22 A2999=
202203101600 METAR MRLM 101600Z 13009KT 8000 DZ FEW010 OVC090 23/22 A3000=
202203101700 METAR MRLM 101700Z 17006KT 9999 FEW015 OVC090 24/22 A2998 REDZ=
202203101800 METAR MRLM 101800Z 25007KT 9999 FEW015 OVC100 25/22 A2995=
202203101900 METAR MRLM 101900Z 23005KT 9999 FEW020 BKN100 26/22 A2992=
202203102000 METAR MRLM 102000Z 22004KT CAVOK 27/22 A2988=
202203102100 METAR MRLM 102100Z 25002KT CAVOK 29/21 A2987=
202203102200 METAR MRLM 102200Z 04003KT CAVOK 28/22 A2986=
202203102300 METAR MRLM 102300Z 04004KT CAVOK 28/23 A2987=
202203110000 METAR MRLM 110000Z 03003KT CAVOK 26/22 A2988=
202203110100 METAR MRLM NIL=
202203110200 METAR MRLM NIL=
202203110300 METAR MRLM NIL=
202203110400 METAR MRLM NIL=
202203110500 METAR MRLM NIL=
202203110600 METAR MRLM NIL=
202203110700 METAR MRLM NIL=
202203110800 METAR MRLM NIL=
202203110900 METAR MRLM NIL=
202203111000 METAR MRLM NIL=
202203111100 METAR MRLM NIL=
202203111200 METAR MRLM 111200Z 23005KT CAVOK 20/19 A2992=
202203111300 METAR MRLM 111300Z 22004KT CAVOK 23/21 A2994=
202203111400 METAR MRLM 111400Z 00000KT 9999 FEW020 26/22 A2996=
202203111500 METAR MRLM 111500Z 07005KT CAVOK 27/23 A2998=
202203111600 METAR MRLM 111600Z 08005KT CAVOK 28/23 A2997=
202203111700 METAR MRLM 111700Z 09005KT CAVOK 28/22 A2994=
202203111800 METAR MRLM 111800Z 09008KT CAVOK 28/23 A2992=
202203111900 METAR MRLM 111900Z 09009KT CAVOK 28/23 A2990=
202203112000 METAR MRLM 112000Z 09005KT CAVOK 29/22 A2987=
202203112100 METAR MRLM 112100Z 08006KT CAVOK 29/22 A2985=
202203112200 METAR MRLM 112200Z 08006KT 9999 FEW025 SCT130 28/23 A2985=
202203112300 METAR MRLM 112300Z 08005KT 9999 SCT020 28/23 A2985=
202203120000 METAR MRLM 120000Z 00000KT 9999 BKN020 27/23 A2989=
202203120100 METAR MRLM NIL=
202203120200 METAR MRLM NIL=
202203120300 METAR MRLM NIL=
202203120400 METAR MRLM NIL=
202203120500 METAR MRLM NIL=
202203120600 METAR MRLM NIL=
202203120700 METAR MRLM NIL=
202203120800 METAR MRLM NIL=
202203120900 METAR MRLM NIL=
202203121000 METAR MRLM NIL=
202203121100 METAR MRLM NIL=
202203121200 METAR MRLM 121200Z 24003KT CAVOK 21/20 A2990=
202203121300 METAR MRLM 121300Z 24004KT CAVOK 23/21 A2993=
202203121400 METAR MRLM 121400Z 24003KT CAVOK 27/21 A2995=
202203121500 METAR MRLM 121500Z 06003KT CAVOK 25/22 A2996=
202203121600 METAR MRLM 121600Z 06004KT CAVOK 28/22 A2996=
202203121700 METAR MRLM 121700Z 05005KT 9999 FEW030 29/23 A2994=
202203121800 METAR MRLM 121800Z 05006KT 9999 FEW030 29/23 A2991=
202203121900 METAR MRLM 121900Z 05007KT CAVOK 29/23 A2989=
202203122000 METAR MRLM 122000Z 03007KT CAVOK 29/24 A2986=
202203122100 METAR MRLM 122100Z 03008KT 9999 FEW030 29/24 A2985=
202203122200 METAR MRLM 122200Z 03007KT 9999 FEW030 29/24 A2985=
202203122300 METAR MRLM 122300Z 03007KT 9999 BKN020 28/24 A2986=
202203130000 METAR MRLM 130000Z 04005KT 9999 BKN020 27/25 A2990=
202203130100 METAR MRLM NIL=
202203130200 METAR MRLM NIL=
202203130300 METAR MRLM NIL=
202203130400 METAR MRLM NIL=
202203130500 METAR MRLM NIL=
202203130600 METAR MRLM NIL=
202203130700 METAR MRLM NIL=
202203130800 METAR MRLM NIL=
202203130900 METAR MRLM NIL=
202203131000 METAR MRLM NIL=
202203131100 METAR MRLM NIL=
202203131200 METAR MRLM 131200Z 25005KT 9999 FEW015TCU SCT100 22/21 A2995=
202203131300 METAR MRLM 131300Z 22004KT 9999 FEW015TCU SCT100 24/22 A2997=
202203131400 METAR MRLM 131400Z 23004KT 9999 FEW020 27/22 A2999=
202203131500 METAR MRLM 131500Z 04004KT 9999 FEW020 28/23 A2999=
202203131600 METAR MRLM 131600Z 02008KT 9999 FEW020 SCT120 28/23 A2999=
202203131700 METAR MRLM 131700Z 02010KT 9999 VCSH FEW020TCU BKN120 29/23 A2998=
202203131800 METAR MRLM 131800Z 36019KT 8000 +DZ SCT015 OVC100 25/22 A2996=
202203131900 METAR MRLM 131900Z 28005KT 9999 FEW020 BKN100 27/23 A2993 REDZ=
202203132000 METAR MRLM 132000Z 36006KT 9999 FEW020 BKN100 27/23 A2991=
202203132100 METAR MRLM 132100Z 35007KT 9999 FEW020 BKN100 27/23 A2989=
202203132200 METAR MRLM 132200Z 30002KT 9999 FEW020TCU BKN100 27/23 A2989=
202203132300 METAR MRLM 132300Z 36004KT 9999 VCSH FEW020TCU BKN100 26/22 A2991=
202203140000 METAR MRLM 140000Z 02006KT 9999 FEW015 BKN100 26/22 A2991=
202203140100 METAR MRLM NIL=
202203140200 METAR MRLM NIL=
202203140300 METAR MRLM NIL=
202203140400 METAR MRLM NIL=
202203140500 METAR MRLM NIL=
202203140600 METAR MRLM NIL=
202203140700 METAR MRLM NIL=
202203140800 METAR MRLM NIL=
202203140900 METAR MRLM NIL=
202203141000 METAR MRLM NIL=
202203141100 METAR MRLM NIL=
202203141200 METAR MRLM 141200Z 23002KT 9999 VCSH FEW010CB BKN100 22/21 A2996=
202203141300 METAR MRLM 141300Z 22005KT 9999 VCSH FEW015TCU SCT100 23/21 A2997=
202203141400 METAR MRLM 141400Z 21004KT 9999 FEW020 SCT120 26/22 A2999=
202203141500 METAR MRLM 141500Z 09003KT CAVOK 27/22 A3000=
202203141600 METAR MRLM 141600Z 05006KT 9999 FEW025 BKN120 28/23 A3000=
202203141700 METAR MRLM 141700Z 03008KT CAVOK 29/24 A2997=
202203141800 METAR MRLM 141800Z 03009KT CAVOK 29/23 A2995=
202203141900 METAR MRLM 141900Z 03010KT CAVOK 29/24 A2991=
202203142000 METAR MRLM 142000Z 03010KT CAVOK 29/23 A2988=
202203142100 METAR MRLM 142100Z 06008KT CAVOK 29/23 A2987=
202203142200 METAR MRLM 142200Z 06006KT CAVOK 29/23 A2989=
202203142300 METAR MRLM 142300Z 04008KT 9999 FEW020 SCT220 28/23 A2990=
202203150000 METAR MRLM 150000Z 03010KT 9999 FEW020TCU SCT220 27/24 A2992=
202203150100 METAR MRLM NIL=
202203150200 METAR MRLM NIL=
202203150300 METAR MRLM NIL=
202203150400 METAR MRLM NIL=
202203150500 METAR MRLM NIL=
202203150600 METAR MRLM NIL=
202203150700 METAR MRLM NIL=
202203150800 METAR MRLM NIL=
202203150900 METAR MRLM NIL=
202203151000 METAR MRLM NIL=
202203151100 METAR MRLM NIL=
202203151200 METAR MRLM 151200Z 24003KT CAVOK 21/19 A2992=
202203151300 METAR MRLM NIL=
202203151400 METAR MRLM NIL=
202203151500 METAR MRLM NIL=
202203151600 METAR MRLM NIL=
202203151700 METAR MRLM NIL=
202203151800 METAR MRLM NIL=
202203151900 METAR MRLM NIL=
202203152000 METAR MRLM NIL=
202203152100 METAR MRLM NIL=
202203152200 METAR MRLM NIL=
202203152300 METAR MRLM NIL=
202203160000 METAR MRLM NIL=
202203160100 METAR MRLM NIL=
202203160200 METAR MRLM NIL=
202203160300 METAR MRLM NIL=
202203160400 METAR MRLM NIL=
202203160500 METAR MRLM NIL=
202203160600 METAR MRLM NIL=
202203160700 METAR MRLM NIL=
202203160800 METAR MRLM NIL=
202203160900 METAR MRLM NIL=
202203161000 METAR MRLM NIL=
202203161100 METAR MRLM NIL=
202203161200 METAR MRLM 161200Z 24003KT CAVOK 21/19 A2992=
202203161300 METAR MRLM 161300Z 23004KT CAVOK 23/21 A2993=
202203161400 METAR MRLM 161400Z 22003KT CAVOK 27/22 A2996=
202203161500 METAR MRLM 161500Z 03003KT 9999 FEW030 SCT140 28/23 A2997=
202203161600 METAR MRLM 161600Z 03004KT 9999 FEW030 BKN130 28/24 A2997=
202203161700 METAR MRLM 161700Z 03004KT 9999 FEW030 BKN130 28/24 A2995=
202203161800 METAR MRLM 161800Z 05006KT 9999 FEW030 29/24 A2993=
202203161900 METAR MRLM 161900Z 04005KT CAVOK 29/24 A2991=
202203162000 METAR MRLM 162000Z 04007KT 9999 FEW030 29/24 A2988=
202203162100 METAR MRLM 162100Z 03008KT 9999 SCT030 29/23 A2986=
202203162200 METAR MRLM 162200Z 04006KT 9999 BKN030 29/24 A2985=
202203162300 METAR MRLM 162300Z 03005KT 9999 FEW030 28/23 A2986=
202203170000 METAR MRLM 170000Z 06003KT 9999 FEW020 26/23 A2990=
202203170100 METAR MRLM NIL=
202203170200 METAR MRLM NIL=
202203170300 METAR MRLM NIL=
202203170400 METAR MRLM NIL=
202203170500 METAR MRLM NIL=
202203170600 METAR MRLM NIL=
202203170700 METAR MRLM NIL=
202203170800 METAR MRLM NIL=
202203170900 METAR MRLM NIL=
202203171000 METAR MRLM NIL=
202203171100 METAR MRLM NIL=
202203171200 METAR MRLM 171200Z 23005KT 9999 FEW015 21/20 A2990=
202203171300 METAR MRLM 171300Z 23004KT 9999 FEW015TCU 23/21 A2992=
202203171400 METAR MRLM 171400Z 22003KT 9999 FEW020 SCT120 26/22 A2993=
202203171500 METAR MRLM 171500Z 07003KT 9999 FEW020TCU 28/23 A2994=
202203171600 METAR MRLM 171600Z 07004KT 9999 FEW020 28/23 A2994=
202203171700 METAR MRLM 171700Z 06006KT 9999 FEW020 29/24 A2992 NOSIG=
202203171800 METAR MRLM 171800Z 05006KT 9999 FEW025 29/24 A2989=
202203171900 METAR MRLM 171900Z 05008KT 9999 FEW025 29/24 A2986=
202203172000 METAR MRLM 172000Z 06009KT 9999 FEW025 29/24 A2983=
202203172100 METAR MRLM 172100Z 07007KT 9999 FEW025 29/23 A2981=
202203172200 METAR MRLM 172200Z 08005KT 9999 FEW025 28/23 A2981=
202203172300 METAR MRLM 172300Z 09006KT CAVOK 28/23 A2982=
202203180000 METAR MRLM 180000Z 07005KT CAVOK 28/23 A2983=
202203180100 METAR MRLM NIL=
202203180200 METAR MRLM NIL=
202203180300 METAR MRLM NIL=
202203180400 METAR MRLM NIL=
202203180500 METAR MRLM NIL=
202203180600 METAR MRLM NIL=
202203180700 METAR MRLM NIL=
202203180800 METAR MRLM NIL=
202203180900 METAR MRLM NIL=
202203181000 METAR MRLM NIL=
202203181100 METAR MRLM NIL=
202203181200 METAR MRLM 181200Z 24002KT 9999 VCSH FEW010CB SCT090 22/20 A2989=
202203181300 METAR MRLM 181300Z 23004KT 9999 VCSH FEW015TCU BKN090 22/21 A2992=
202203181400 METAR MRLM 181400Z 22004KT 9999 VCSH FEW015 BKN100 25/22 A2993=
202203181500 METAR MRLM 181500Z 06003KT 9999 FEW020 SCT220 28/23 A2994=
202203181600 METAR MRLM 181600Z 06004KT 9999 FEW020 BKN220 29/23 A2993=
202203181700 METAR MRLM 181700Z 06005KT 9999 FEW025 BKN220 29/24 A2991=
202203181800 METAR MRLM 181800Z 08006KT 9999 FEW025 BKN220 29/24 A2990=
202203181900 METAR MRLM 181900Z 07007KT 9999 FEW025 SCT220 29/24 A2987=
202203182000 METAR MRLM 182000Z 08008KT 9999 FEW025 SCT220 30/24 A2984=
202203182100 METAR MRLM 182100Z 09007KT CAVOK 29/23 A2982=
202203182200 METAR MRLM 182200Z 09008KT 9999 FEW020 BKN220 29/24 A2982=
202203182300 METAR MRLM 182300Z 10007KT 9999 SCT020 BKN220 28/24 A2983=
202203190000 METAR MRLM 190000Z 10005KT 9999 SCT020 BKN200 28/24 A2984=
202203190100 METAR MRLM NIL=
202203190200 METAR MRLM NIL=
202203190300 METAR MRLM NIL=
202203190400 METAR MRLM NIL=
202203190500 METAR MRLM NIL=
202203190600 METAR MRLM NIL=
202203190700 METAR MRLM NIL=
202203190800 METAR MRLM NIL=
202203190900 METAR MRLM NIL=
202203191000 METAR MRLM NIL=
202203191100 METAR MRLM NIL=
202203191200 METAR MRLM 191200Z 21004KT 9999 SCT015 BKN100 23/22 A2989=
202203191300 METAR MRLM 191300Z 00000KT 9999 SCT020 BKN100 23/22 A2992=
202203191400 METAR MRLM 191400Z 00000KT 9999 DZ FEW020 BKN100 24/22 A2996=
202203191500 METAR MRLM 191500Z 25003KT 9999 DZ BKN020 24/22 A2997=
202203191600 METAR MRLM 191600Z 23006KT 9999 BKN025 28/24 A2997 REDZ=
202203191700 METAR MRLM 191700Z 22006KT 9999 SCT030 BKN120 28/24 A2995=
202203191800 METAR MRLM 191800Z 21003KT 9999 FEW030 BKN130 29/23 A2994=
202203191900 METAR MRLM 191900Z 31004KT 9999 FEW030 SCT130 29/23 A2992=
202203192000 METAR MRLM 192000Z 09005KT 9999 FEW030 SCT130 29/23 A2989=
202203192100 METAR MRLM 192100Z 08004KT 9999 FEW030 SCT130 28/24 A2987=
202203192200 METAR MRLM 192200Z 09003KT 9999 FEW030 SCT250 28/23 A2986=
202203192300 METAR MRLM 192300Z 12003KT 9999 FEW030 SCT250 28/23 A2987=
202203200000 METAR MRLM 200000Z 00000KT 9999 SCT020 26/24 A2990=
202203200100 METAR MRLM NIL=
202203200200 METAR MRLM NIL=
202203200300 METAR MRLM NIL=
202203200400 METAR MRLM NIL=
202203200500 METAR MRLM NIL=
202203200600 METAR MRLM NIL=
202203200700 METAR MRLM NIL=
202203200800 METAR MRLM NIL=
202203200900 METAR MRLM NIL=
202203201000 METAR MRLM NIL=
202203201100 METAR MRLM NIL=
202203201200 METAR MRLM 201200Z 00000KT 9999 FEW015 SCT120 22/21 A2991=
202203201300 METAR MRLM 201300Z 00000KT 9999 SCT015 BKN120 23/21 A2995=
202203201400 METAR MRLM 201400Z 00000KT 9999 SCT020 OVC120 23/22 A2998=
202203201500 METAR MRLM 201500Z 22006KT 9999 FEW020 BKN130 25/23 A2998=
202203201600 METAR MRLM 201600Z 23006KT 9999 VCSH FEW020 SCT130 28/24 A2998=
202203201700 METAR MRLM 201700Z 36010KT 9999 DZ SCT020 BKN110 25/22 A2997 RERA=
202203201800 METAR MRLM 201800Z 29004KT 9999 FEW025 BKN120 27/23 A2994=
202203201900 METAR MRLM 201900Z 05015KT 9999 4000N DZ BKN020 26/23 A2992=
202203202000 METAR MRLM 202000Z 09004KT 9999 FEW030 BKN130 26/23 A2990 REDZ=
202203202100 METAR MRLM 202100Z 20005KT 9999 FEW020 BKN120 26/23 A2989=
202203202200 METAR MRLM 202200Z 21004KT CAVOK 26/22 A2988=
202203202300 METAR MRLM 202300Z 21003KT 9999 FEW020 BKN120 26/23 A2988=
202203210000 METAR MRLM 210000Z 00000KT 9999 SCT020 BKN110 26/23 A2991=
202203210100 METAR MRLM NIL=
202203210200 METAR MRLM NIL=
202203210300 METAR MRLM NIL=
202203210400 METAR MRLM NIL=
202203210500 METAR MRLM NIL=
202203210600 METAR MRLM NIL=
202203210700 METAR MRLM NIL=
202203210800 METAR MRLM NIL=
202203210900 METAR MRLM NIL=
202203211000 METAR MRLM NIL=
202203211100 METAR MRLM NIL=
202203211200 METAR MRLM 211200Z 22004KT CAVOK 21/20 A2989=
202203211300 METAR MRLM 211300Z 26002KT CAVOK 22/21 A2990=
202203211400 METAR MRLM 211400Z 00000KT 9999 FEW020 BKN100 25/23 A2993=
202203211500 METAR MRLM 211500Z 06007KT 8000 DZ VCSH FEW015TCU OVC090 26/24 A2996=
202203211600 METAR MRLM 211600Z 36006KT 9999 FEW015 BKN090 26/23 A2995 REDZ=
202203211700 METAR MRLM 211700Z 32005KT 9999 FEW015 BKN090 26/22 A2994=
202203211800 METAR MRLM 211800Z 24005KT CAVOK 27/23 A2991=
202203211900 METAR MRLM 211900Z 27002KT CAVOK 29/22 A2987=
202203212000 METAR MRLM 212000Z 08004KT CAVOK 29/21 A2984=
202203212100 METAR MRLM 212100Z 05005KT CAVOK 29/21 A2983=
202203212200 METAR MRLM 212200Z 07003KT CAVOK 28/21 A2982=
202203212300 METAR MRLM 212300Z 04007KT CAVOK 29/22 A2983=
202203220000 METAR MRLM 220000Z 04007KT CAVOK 28/23 A2985=
202203220100 METAR MRLM NIL=
202203220200 METAR MRLM NIL=
202203220300 METAR MRLM NIL=
202203220400 METAR MRLM NIL=
202203220500 METAR MRLM NIL=
202203220600 METAR MRLM NIL=
202203220700 METAR MRLM NIL=
202203220800 METAR MRLM NIL=
202203220900 METAR MRLM NIL=
202203221000 METAR MRLM NIL=
202203221100 METAR MRLM NIL=
202203221200 METAR MRLM 221200Z 24004KT 9999 FEW015 SCT100 22/20 A2986=
202203221300 METAR MRLM 221300Z 00000KT 9999 FEW015 BKN100 23/21 A2989=
202203221400 METAR MRLM 221400Z 17002KT 9999 FEW020 SCT120 27/23 A2989=
202203221500 METAR MRLM 221500Z 08010KT 9999 FEW020 BKN120 27/23 A2991=
202203221600 METAR MRLM 221600Z 10015KT 9999 VCSH FEW020TCU BKN120 27/23 A2991=
202203221700 METAR MRLM 221700Z 09011KT 9999 FEW020 BKN120 28/23 A2989=
202203221800 METAR MRLM 221800Z 08012KT 9999 FEW020 BKN120 28/23 A2986=
202203221900 METAR MRLM 221900Z 06011KT CAVOK 28/23 A2984=
202203222000 METAR MRLM 222000Z 07010KT CAVOK 29/22 A2981=
202203222100 METAR MRLM 222100Z 11006KT CAVOK 29/22 A2979=
202203222200 METAR MRLM 222200Z 09007KT 9999 FEW020 BKN120 28/22 A2980=
202203222300 METAR MRLM 222300Z 07013KT 9999 FEW020 BKN120 27/23 A2981=
202203230000 METAR MRLM 230000Z 10010KT 9999 FEW015 BKN100 27/23 A2982=
202203230100 METAR MRLM NIL=
202203230200 METAR MRLM NIL=
202203230300 METAR MRLM NIL=
202203230400 METAR MRLM NIL=
202203230500 METAR MRLM NIL=
202203230600 METAR MRLM NIL=
202203230700 METAR MRLM NIL=
202203230800 METAR MRLM NIL=
202203230900 METAR MRLM NIL=
202203231000 METAR MRLM NIL=
202203231100 METAR MRLM NIL=
202203231200 METAR MRLM 231200Z 28004KT 9999 SCT020 OVC110 23/22 A2987=
202203231300 METAR MRLM 231300Z 03009KT 9999 FEW020 OVC130 24/23 A2990=
202203231400 METAR MRLM 231400Z 04007KT 9999 BKN020 25/23 A2992=
202203231500 METAR MRLM 231500Z 06011KT 9999 FEW025 OVC130 25/22 A2993=
202203231600 METAR MRLM 231600Z COR 12005KT 9999 BKN015 25/23 A2994=
202203231700 METAR MRLM 231700Z 14011KT 9999 SCT020 OVC120 25/22 A2991=
202203231800 METAR MRLM 231800Z 20005KT CAVOK 26/23 A2989=
202203231900 METAR MRLM 231900Z 14005KT CAVOK 28/22 A2986=
202203232000 METAR MRLM 232000Z 15006KT CAVOK 28/22 A2983=
202203232100 METAR MRLM 232100Z 11005KT 9999 FEW030 BKN130 28/23 A2980=
202203232200 METAR MRLM 232200Z 00000KT 9999 FEW030 BKN130 28/23 A2980=
202203232300 METAR MRLM 232300Z 00000KT 9999 FEW030 BKN120 27/23 A2981=
202203240000 METAR MRLM 240000Z 00000KT 9999 FEW030 BKN120 27/23 A2981=
202203240100 METAR MRLM NIL=
202203240200 METAR MRLM NIL=
202203240300 METAR MRLM NIL=
202203240400 METAR MRLM NIL=
202203240500 METAR MRLM NIL=
202203240600 METAR MRLM NIL=
202203240700 METAR MRLM NIL=
202203240800 METAR MRLM NIL=
202203240900 METAR MRLM NIL=
202203241000 METAR MRLM NIL=
202203241100 METAR MRLM NIL=
202203241200 METAR MRLM 241200Z 01006KT 4000 +DZ BKN020 24/23 A2990=
202203241300 METAR MRLM 241300Z 23005KT 9999 SCT020 OVC100 23/22 A2992 REDZ=
202203241400 METAR MRLM 241400Z 23006KT 9999 SCT020 OVC100 24/23 A2995=
202203241500 METAR MRLM 241500Z 24007KT 9999 FEW025 BKN110 25/22 A2994=
202203241600 METAR MRLM 241600Z 22005KT 9999 BKN020 26/22 A2995=
202203241700 METAR MRLM 241700Z 22005KT 9999 BKN020 26/22 A2995=
202203241800 METAR MRLM 241800Z 22005KT 9999 4000N DZ BKN020 24/22 A2993=
202203241900 METAR MRLM 241900Z 21006KT CAVOK 25/23 A2989 REDZ=
202203242000 METAR MRLM 242000Z 24008KT CAVOK 27/22 A2986=
202203242100 METAR MRLM 242100Z 24004KT CAVOK 27/23 A2983=
202203242200 METAR MRLM 242200Z 00000KT CAVOK 28/23 A2983=
202203242300 METAR MRLM 242300Z 00000KT CAVOK 27/24 A2983=
202203250000 METAR MRLM 250000Z 00000KT CAVOK 27/25 A2987=
202203250100 METAR MRLM NIL=
202203250200 METAR MRLM NIL=
202203250300 METAR MRLM NIL=
202203250400 METAR MRLM NIL=
202203250500 METAR MRLM NIL=
202203250600 METAR MRLM NIL=
202203250700 METAR MRLM NIL=
202203250800 METAR MRLM NIL=
202203250900 METAR MRLM NIL=
202203251000 METAR MRLM NIL=
202203251100 METAR MRLM NIL=
202203251200 METAR MRLM 251200Z 22006KT 8000 HZ SCT015 BKN090 22/21 A2990=
202203251300 METAR MRLM 251300Z 22005KT 7000 DZ VCSH SCT015TCU OVC090 22/21 A2993=
202203251400 METAR MRLM 251400Z 21005KT 9000 DZ VCSH FEW015TCU OVC090 23/21 A2995=
202203251500 METAR MRLM 251500Z 20006KT 9999 FEW015 OVC090 25/22 A2997=
202203251600 METAR MRLM 251600Z 23007KT 9999 FEW020 OVC100 27/21 A2996=
202203251700 METAR MRLM 251700Z 21004KT 9999 VCSH FEW020TCU OVC100 28/21 A2994=
202203251800 METAR MRLM 251800Z 07006KT 9999 SCT020 OVC100 27/22 A2992=
202203251900 METAR MRLM 251900Z 06003KT 9999 FEW020 BKN100 28/20 A2989=
202203252000 METAR MRLM 252000Z 07004KT CAVOK 28/21 A2986=
202203252100 METAR MRLM 252100Z 08003KT CAVOK 28/22 A2984=
202203252200 METAR MRLM 252200Z 06002KT CAVOK 28/22 A2983=
202203252300 METAR MRLM 252300Z 07002KT CAVOK 27/22 A2984=
202203260000 METAR MRLM 260000Z 22002KT CAVOK 25/23 A2985=
202203260100 METAR MRLM NIL=
202203260200 METAR MRLM NIL=
202203260300 METAR MRLM NIL=
202203260400 METAR MRLM NIL=
202203260500 METAR MRLM NIL=
202203260600 METAR MRLM NIL=
202203260700 METAR MRLM NIL=
202203260800 METAR MRLM NIL=
202203260900 METAR MRLM NIL=
202203261000 METAR MRLM NIL=
202203261100 METAR MRLM NIL=
202203261200 METAR MRLM 261200Z 24006KT 9999 VCSH FEW015TCU BKN200 20/18 A2990=
202203261300 METAR MRLM 261300Z 23005KT 9999 VCSH FEW015TCU SCT100 22/19 A2992=
202203261400 METAR MRLM 261400Z 25005KT 9999 VCSH FEW015TCU SCT100 25/21 A2994=
202203261500 METAR MRLM 261500Z 22003KT 9999 FEW020 BKN120 28/22 A2995=
202203261600 METAR MRLM 261600Z 07003KT 9999 FEW020 SCT120 29/21 A2995=
202203261700 METAR MRLM 261700Z 06005KT 9999 FEW030 SCT220 29/22 A2993=
202203261800 METAR MRLM 261800Z 05005KT CAVOK 29/23 A2991=
202203261900 METAR MRLM 261900Z 05007KT CAVOK 29/22 A2988=
202203262000 METAR MRLM 262000Z 05007KT CAVOK 29/22 A2986=
202203262100 METAR MRLM 262100Z 06004KT CAVOK 29/22 A2984=
202203262200 METAR MRLM 262200Z 04003KT 9999 FEW030 SCT240 28/22 A2984=
202203262300 METAR MRLM 262300Z 03003KT 9999 FEW020 SCT220 28/21 A2985=
202203270000 METAR MRLM 270000Z 00000KT CAVOK 26/22 A2987=
202203270100 METAR MRLM NIL=
202203270200 METAR MRLM NIL=
202203270300 METAR MRLM NIL=
202203270400 METAR MRLM NIL=
202203270500 METAR MRLM NIL=
202203270600 METAR MRLM NIL=
202203270700 METAR MRLM NIL=
202203270800 METAR MRLM NIL=
202203270900 METAR MRLM NIL=
202203271000 METAR MRLM NIL=
202203271100 METAR MRLM NIL=
202203271200 METAR MRLM 271200Z 23004KT 9999 FEW015 SCT240 20/19 A2991=
202203271300 METAR MRLM 271300Z 24004KT CAVOK 23/20 A2983=
202203271400 METAR MRLM 271400Z 22005KT CAVOK 26/20 A2995=
202203271500 METAR MRLM 271500Z 25003KT 9999 FEW030 BKN240 28/21 A2996=
202203271600 METAR MRLM 271600Z 04006KT 9999 FEW030 BKN250 28/22 A2996=
202203271700 METAR MRLM 271700Z 03008KT 9999 FEW030 BKN250 29/22 A2993=
202203271800 METAR MRLM 271800Z 02007KT CAVOK 29/22 A2992=
202203271900 METAR MRLM 271900Z 02010KT CAVOK 29/22 A2988=
202203272000 METAR MRLM 272000Z 03009KT CAVOK 29/23 A2986=
202203272100 METAR MRLM 272100Z 03009KT CAVOK 29/22 A2986=
202203272200 METAR MRLM 272200Z 03008KT 9999 FEW030 28/22 A2985=
202203272300 METAR MRLM 272300Z 04005KT 9999 FEW030 28/21 A2987=
202203280000 METAR MRLM 280000Z 00000KT 9999 FEW020 BKN120 27/21 A2990=
202203280100 METAR MRLM NIL=
202203280200 METAR MRLM NIL=
202203280300 METAR MRLM NIL=
202203280400 METAR MRLM NIL=
202203280500 METAR MRLM NIL=
202203280600 METAR MRLM NIL=
202203280700 METAR MRLM NIL=
202203280800 METAR MRLM NIL=
202203280900 METAR MRLM NIL=
202203281000 METAR MRLM NIL=
202203281100 METAR MRLM NIL=
202203281200 METAR MRLM 281200Z 23005KT 9999 FEW015 SCT120 21/19 A2992=
202203281300 METAR MRLM 281300Z 23005KT CAVOK 24/20 A2994=
202203281400 METAR MRLM 281400Z 24004KT CAVOK 26/21 A2995=
202203281500 METAR MRLM 281500Z 08010KT 9999 SCT020 BKN120 27/22 A2998=
202203281600 METAR MRLM 281600Z 03005KT 9999 FEW020 BKN130 27/21 A2998=
202203281700 METAR MRLM 281700Z 09003KT 9999 FEW020 BKN130 28/20 A2997=
202203281800 METAR MRLM 281800Z 00000KT CAVOK 28/21 A2995=
202203281900 METAR MRLM 281900Z 09009KT CAVOK 27/23 A2993=
202203282000 METAR MRLM 282000Z 13007KT 9999 FEW020 OVC130 27/21 A2991=
202203282100 METAR MRLM 282100Z 04005KT 9999 SCT020 OVC130 26/21 A2990=
202203282200 METAR MRLM 282200Z 08011KT 9999 FEW020 OVC120 25/22 A2991=
202203282300 METAR MRLM 282300Z 24003KT CAVOK 24/22 A2990=
202203290000 METAR MRLM 290000Z 23004KT CAVOK 24/22 A2995=
202203290100 METAR MRLM NIL=
202203290200 METAR MRLM NIL=
202203290300 METAR MRLM NIL=
202203290400 METAR MRLM NIL=
202203290500 METAR MRLM NIL=
202203290600 METAR MRLM NIL=
202203290700 METAR MRLM NIL=
202203290800 METAR MRLM NIL=
202203290900 METAR MRLM NIL=
202203291000 METAR MRLM NIL=
202203291100 METAR MRLM NIL=
202203291200 METAR MRLM 291200Z 00000KT 8000 HZ FEW015 BKN090 23/21 A2996=
202203291300 METAR MRLM 291300Z 24004KT 9999 FEW015 BKN090 23/21 A2995=
202203291400 METAR MRLM 291400Z 22003KT 9999 FEW015 BKN090 25/22 A2998=
202203291500 METAR MRLM 291500Z 21002KT 9999 FEW020 BKN100 28/23 A2998=
202203291600 METAR MRLM 291600Z 06004KT 9999 FEW020 BKN100 29/23 A2997=
202203291700 METAR MRLM 291700Z 08006KT CAVOK 29/22 A2995=
202203291800 METAR MRLM 291800Z 06007KT CAVOK 30/22 A2992=
202203291900 METAR MRLM 291900Z 06008KT CAVOK 30/23 A2989=
202203292000 METAR MRLM 292000Z 06009KT CAVOK 29/23 A2986=
202203292100 METAR MRLM 292100Z 07010KT 9999 FEW025 SCT120 29/24 A2985=
202203292200 METAR MRLM 292200Z 06011KT 9999 FEW025 SCT120 27/24 A2985=
202203292300 METAR MRLM 292300Z 05006KT 9999 FEW020TCU SCT120 27/23 A2985=
202203300000 METAR MRLM 300000Z 06007KT 9999 SCT020 SCT100 27/23 A2987=
202203300100 METAR MRLM NIL=
202203300200 METAR MRLM NIL=
202203300300 METAR MRLM NIL=
202203300400 METAR MRLM NIL=
202203300500 METAR MRLM NIL=
202203300600 METAR MRLM NIL=
202203300700 METAR MRLM NIL=
202203300800 METAR MRLM NIL=
202203300900 METAR MRLM NIL=
202203301000 METAR MRLM NIL=
202203301100 METAR MRLM NIL=
202203301200 METAR MRLM 301200Z 23004KT 9000 HZ FEW015TCU BKN100 23/22 A2989=
202203301300 METAR MRLM 301300Z 23003KT 9999 FEW015TCU SCT100 25/23 A2991=
202203301400 METAR MRLM 301400Z 21004KT 9999 FEW020 SCT100 26/23 A2992=
202203301500 METAR MRLM 301500Z 05003KT 9999 FEW020 SCT120 BKN220 29/23 A2993=
202203301600 METAR MRLM 301600Z 08004KT 9999 FEW020 BKN220 29/23 A2993=
202203301700 METAR MRLM 301700Z 05006KT 9999 FEW020 BKN220 29/24 A2992=
202203301800 METAR MRLM 301800Z 06005KT 9999 FEW025 BKN220 29/24 A2988=
202203301900 METAR MRLM 301900Z 05006KT CAVOK 29/23 A2985=
202203302000 METAR MRLM 302000Z 05007KT 9999 FEW025 SCT240 29/23 A2983=
202203302100 METAR MRLM 302100Z 06006KT 9999 FEW025 SCT240 29/24 A2980=
202203302200 METAR MRLM 302200Z 06006KT 9999 SCT020 SCT240 29/24 A2980=
202203302300 METAR MRLM 302300Z 06006KT 9999 SCT020 SCT220 28/23 A2980=
202203310000 METAR MRLM 310000Z 04008KT 9999 SCT015 SCT200 28/24 A2981=
202203310100 METAR MRLM NIL=
202203310200 METAR MRLM NIL=
202203310300 METAR MRLM NIL=
202203310400 METAR MRLM NIL=
202203310500 METAR MRLM NIL=
202203310600 METAR MRLM NIL=
202203310700 METAR MRLM NIL=
202203310800 METAR MRLM NIL=
202203310900 METAR MRLM NIL=
202203311000 METAR MRLM NIL=
202203311100 METAR MRLM NIL=
202203311200 METAR MRLM 311200Z 24003KT CAVOK 23/22 A2984=
202203311300 METAR MRLM 311300Z 21004KT CAVOK 24/23 A2985=
202203311400 METAR MRLM 311400Z 00000KT CAVOK 27/24 A2986=
202203311500 METAR MRLM 311500Z 07004KT CAVOK 28/24 A2987=
202203311600 METAR MRLM 311600Z 06005KT CAVOK 29/23 A2988=
202203311700 METAR MRLM 311700Z 08006KT CAVOK 29/23 A2987=
202203311800 METAR MRLM 311800Z 08007KT CAVOK 29/24 A2985=
202203311900 METAR MRLM 311900Z 06008KT CAVOK 30/24 A2981=
202203312000 METAR MRLM 312000Z 05007KT CAVOK 30/24 A2979=
202203312100 METAR MRLM 312100Z 05007KT CAVOK 30/24 A2979=
202203312200 METAR MRLM 312200Z 07006KT 9999 FEW025 BKN230 29/24 A2977=
202203312300 METAR MRLM 312300Z 05003KT 9999 VCSH FEW020 BKN230 28/24 A2978=
202204010000 METAR MRLM 010000Z 06010KT 9999 DZ BKN020 27/25 A2985=
202204010100 METAR MRLM NIL=
202204010200 METAR MRLM NIL=
202204010300 METAR MRLM NIL=
202204010400 METAR MRLM NIL=
202204010500 METAR MRLM NIL=
202204010600 METAR MRLM NIL=
202204010700 METAR MRLM NIL=
202204010800 METAR MRLM NIL=
202204010900 METAR MRLM NIL=
202204011000 METAR MRLM NIL=
202204011100 METAR MRLM NIL=
202204011200 METAR MRLM 011200Z 26004KT 9999 DZ SCT020 BKN110 23/23 A2989=
202204011300 METAR MRLM 011300Z 00000KT 9999 SCT020 BKN120 24/23 A2991 REDZ=
202204011400 METAR MRLM 011400Z 00000KT 9999 FEW020 BKN120 25/24 A2993=
202204011500 METAR MRLM 011500Z COR 00000KT 9999 SCT020 BKN130 27/24 A2994=
202204011600 METAR MRLM 011600Z 06005KT 9999 FEW020 BKN130 28/24 A2994=
202204011700 METAR MRLM 011700Z 09005KT 9999 FEW020 SCT130 29/24 A2992=
202204011800 METAR MRLM 011800Z 08006KT 9999 FEW030 SCT140 29/25 A2990=
202204011900 METAR MRLM 011900Z 08008KT 9999 FEW030 SCT140 29/24 A2987=
202204012000 METAR MRLM 012000Z 07008KT 9999 SCT030 30/24 A2984=
202204012100 METAR MRLM 012100Z 07008KT 9999 BKN025 29/24 A2983=
202204012200 METAR MRLM 012200Z 07007KT 9999 BKN025 29/24 A2982=
202204012300 METAR MRLM 012300Z 07010KT 9999 BKN020 28/24 A2983=
202204020000 METAR MRLM 020000Z 06009KT 9999 BKN020 28/23 A2989=
202204020100 METAR MRLM NIL=
202204020200 METAR MRLM NIL=
202204020300 METAR MRLM NIL=
202204020400 METAR MRLM NIL=
202204020500 METAR MRLM NIL=
202204020600 METAR MRLM NIL=
202204020700 METAR MRLM NIL=
202204020800 METAR MRLM NIL=
202204020900 METAR MRLM NIL=
202204021000 METAR MRLM NIL=
202204021100 METAR MRLM NIL=
202204021200 METAR MRLM 021200Z 22003KT 9999 VCSH SCT015TCU BKN090 23/22 A2991=
202204021300 METAR MRLM 021300Z 22005KT 9999 VCSH SCT015TCU BKN090 23/22 A2993=
202204021400 METAR MRLM 021400Z 23005KT 9999 VCSH SCT015TCU SCT100 25/23 A2995=
202204021500 METAR MRLM 021500Z 22003KT 9999 FEW020 SCT100 27/23 A2996=
202204021600 METAR MRLM 021600Z 10003KT 9999 FEW020 29/24 A2995=
202204021700 METAR MRLM 021700Z 09006KT 9999 FEW020 29/24 A2994=
202204021800 METAR MRLM 021800Z 09006KT 9999 FEW025 29/24 A2991=
202204021900 METAR MRLM 021900Z 09005KT 9999 SCT025 29/24 A2988=
202204022000 METAR MRLM 022000Z 08006KT 9999 SCT025 29/24 A2985=
202204022100 METAR MRLM 022100Z 09006KT 9999 SCT025 29/23 A2982=
202204022200 METAR MRLM 022200Z 07005KT 9999 FEW025 29/22 A2982=
202204022300 METAR MRLM 022300Z 09006KT 9999 SCT020 28/23 A2982=
202204030000 METAR MRLM 030000Z 07005KT 9999 SCT020 28/23 A2983=
202204030100 METAR MRLM NIL=
202204030200 METAR MRLM NIL=
202204030300 METAR MRLM NIL=
202204030400 METAR MRLM NIL=
202204030500 METAR MRLM NIL=
202204030600 METAR MRLM NIL=
202204030700 METAR MRLM NIL=
202204030800 METAR MRLM NIL=
202204030900 METAR MRLM NIL=
202204031000 METAR MRLM NIL=
202204031100 METAR MRLM NIL=
202204031200 METAR MRLM 031200Z 05008KT 9999 DZ VCSH FEW015TCU BKN090 25/22 A2988=
202204031300 METAR MRLM 031300Z 24004KT 9999 VCSH FEW015TCU BKN090 23/21 A2989=
202204031400 METAR MRLM 031400Z 24006KT 9999 FEW015 BKN090 24/22 A2990=
202204031500 METAR MRLM 031500Z 25004KT 9999 FEW020 BKN100 26/23 A2990=
202204031600 METAR MRLM 031600Z 23002KT 9999 FEW020 BKN100 29/22 A2990=
202204031700 METAR MRLM 031700Z 01008KT 9999 FEW025 SCT120 30/23 A2989=
202204031800 METAR MRLM 031800Z 01010KT 9999 FEW025 SCT120 29/24 A2987=
202204031900 METAR MRLM 031900Z 05006KT 9999 FEW025 SCT120 29/24 A2984=
202204032000 METAR MRLM 032000Z 02008KT 9999 FEW025 29/23 A2982=
202204032100 METAR MRLM 032100Z 01006KT 9999 SCT020 SCT120 29/24 A2980=
202204032200 METAR MRLM 032200Z 04007KT 9999 FEW020 SCT120 29/24 A2980=
202204032300 METAR MRLM 032300Z 05005KT 9999 FEW020 SCT120 BKN220 28/24 A2980=
202204040000 METAR MRLM 040000Z 17002KT 9999 FEW015 SCT100 BKN200 27/24 A2982=
202204040100 METAR MRLM NIL=
202204040200 METAR MRLM NIL=
202204040300 METAR MRLM NIL=
202204040400 METAR MRLM NIL=
202204040500 METAR MRLM NIL=
202204040600 METAR MRLM NIL=
202204040700 METAR MRLM NIL=
202204040800 METAR MRLM NIL=
202204040900 METAR MRLM NIL=
202204041000 METAR MRLM NIL=
202204041100 METAR MRLM NIL=
202204041200 METAR MRLM 041200Z 20003KT 9999 FEW030 BKN120 23/22 A2984=
202204041300 METAR MRLM 041300Z 00000KT CAVOK 24/23 A2986=
202204041400 METAR MRLM 041400Z 21004KT CAVOK 26/23 A2987=
202204041500 METAR MRLM 041500Z 04005KT CAVOK 28/23 A2989=
202204041600 METAR MRLM NIL=
202204041700 METAR MRLM 041700Z COR 02009KT CAVOK 29/24 A2988=
202204041800 METAR MRLM 041800Z 02010KT CAVOK 29/25 A2987=
202204041900 METAR MRLM 041900Z 04008KT CAVOK 29/24 A2983=
202204042000 METAR MRLM 042000Z 02004KT 9999 FEW030 SCT140 BKN240 28/24 A2981=
202204042100 METAR MRLM 042100Z COR 04004KT 9999 SCT025 BKN130 28/23 A2980=
202204042200 METAR MRLM 042200Z 04006KT 9999 BKN020 28/24 A2979=
202204042300 METAR MRLM 042300Z 07007KT 9999 BKN020 28/24 A2980=
202204050000 METAR MRLM 050000Z 04007KT 9999 BKN020 27/25 A2987=
202204050100 METAR MRLM NIL=
202204050200 METAR MRLM NIL=
202204050300 METAR MRLM NIL=
202204050400 METAR MRLM NIL=
202204050500 METAR MRLM NIL=
202204050600 METAR MRLM NIL=
202204050700 METAR MRLM NIL=
202204050800 METAR MRLM NIL=
202204050900 METAR MRLM NIL=
202204051000 METAR MRLM NIL=
202204051100 METAR MRLM NIL=
202204051200 METAR MRLM 051200Z 20004KT 4000 DZ BKN015 24/24 A2984=
202204051300 METAR MRLM 051300Z 23005KT 8000 DZ BKN020 24/24 A2987=
202204051400 METAR MRLM 051400Z 28005KT 5000 DZ BKN020 24/24 A2990=
202204051500 METAR MRLM 051500Z 21004KT 9999 SCT020 BKN110 24/24 A2991 REDZ=
202204051600 METAR MRLM 051600Z 21006KT 9999 SCT020 BKN110 26/24 A2990=
202204051700 METAR MRLM 051700Z 21006KT 8000 DZ SCT020 BKN110 27/24 A2989=
202204051800 METAR MRLM 051800Z 20005KT 9999 FEW025 BKN120 28/25 A2987 REDZ=
202204051900 METAR MRLM 051900Z 06003KT 9999 FEW025 BKN130 28/24 A2983=
202204052000 METAR MRLM 052000Z 05005KT 9999 FEW030 SCT230 29/25 A2980=
202204052100 METAR MRLM 052100Z 05005KT CAVOK 29/24 A2978=
202204052200 METAR MRLM 052200Z 05005KT CAVOK 29/24 A2978=
202204052300 METAR MRLM 052300Z 05007KT CAVOK 28/24 A2979=
202204060000 METAR MRLM 060000Z 05007KT CAVOK 28/24 A2979=
202204060100 METAR MRLM NIL=
202204060200 METAR MRLM NIL=
202204060300 METAR MRLM NIL=
202204060400 METAR MRLM NIL=
202204060500 METAR MRLM NIL=
202204060600 METAR MRLM NIL=
202204060700 METAR MRLM NIL=
202204060800 METAR MRLM NIL=
202204060900 METAR MRLM NIL=
202204061000 METAR MRLM NIL=
202204061100 METAR MRLM NIL=
202204061200 METAR MRLM 061200Z 24003KT CAVOK 22/22 A2983=
202204061300 METAR MRLM 061300Z 25002KT CAVOK 24/23 A2986=
202204061400 METAR MRLM 061400Z 17002KT CAVOK 27/24 A2988=
202204061500 METAR MRLM 061500Z 11004KT 9999 FEW025 SCT240 28/23 A2989=
202204061600 METAR MRLM 061600Z 11005KT 9999 FEW025 SCT240 29/24 A2988=
202204061700 METAR MRLM 061700Z 06006KT 9999 FEW025 SCT240 29/25 A2987=
202204061800 METAR MRLM 061800Z 06007KT 9999 FEW025 SCT240 30/25 A2984=
202204061900 METAR MRLM 061900Z 06007KT 9999 FEW025 SCT240 30/26 A2981=
202204062000 METAR MRLM 062000Z 07008KT 9999 SCT025 SCT240 30/25 A2979=
202204062100 METAR MRLM 062100Z 06009KT 9999 SCT020 SCT240 30/25 A2978=
202204062200 METAR MRLM 062200Z 06008KT 9999 BKN020 SCT220 29/25 A2978=
202204062300 METAR MRLM 062300Z 05008KT 9999 SCT020 SCT220 28/25 A2979=
202204070000 METAR MRLM 070000Z 05007KT 9999 SCT015 BKN200 28/25 A2981=
202204070100 METAR MRLM NIL=
202204070200 METAR MRLM NIL=
202204070300 METAR MRLM NIL=
202204070400 METAR MRLM NIL=
202204070500 METAR MRLM NIL=
202204070600 METAR MRLM NIL=
202204070700 METAR MRLM NIL=
202204070800 METAR MRLM NIL=
202204070900 METAR MRLM NIL=
202204071000 METAR MRLM NIL=
202204071100 METAR MRLM NIL=
202204071200 METAR MRLM 071200Z 24005KT 9999 FEW015TCU SCT200 22/22 A2985=
202204071300 METAR MRLM 071300Z 22004KT 9999 FEW015 SCT200 24/23 A2986=
202204071400 METAR MRLM 071400Z 21003KT CAVOK 28/23 A2988=
202204071500 METAR MRLM 071500Z 10006KT 9999 FEW025 SCT240 29/24 A2988=
202204071600 METAR MRLM 071600Z 07007KT 9999 FEW025 SCT240 29/24 A2988=
202204071700 METAR MRLM 071700Z 06007KT 9999 FEW025 SCT240 30/24 A2986=
202204071800 METAR MRLM 071800Z 06008KT CAVOK 30/24 A2984=
202204071900 METAR MRLM 071900Z 06007KT CAVOK 30/24 A2981=
202204072000 METAR MRLM 072000Z 05007KT 9999 FEW025 BKN240 30/24 A2979=
202204072100 METAR MRLM 072100Z 05006KT 9999 FEW025 BKN240 29/25 A2978=
202204072200 METAR MRLM 072200Z 04004KT 9999 FEW020 BKN220 29/24 A2978=
202204072300 METAR MRLM 072300Z 03003KT 9999 SCT020 BKN220 28/25 A2979=
202204080000 METAR MRLM 080000Z 04006KT 9999 FEW015 BKN200 28/24 A2981=
202204080100 METAR MRLM NIL=
202204080200 METAR MRLM NIL=
202204080300 METAR MRLM NIL=
202204080400 METAR MRLM NIL=
202204080500 METAR MRLM NIL=
202204080600 METAR MRLM NIL=
202204080700 METAR MRLM NIL=
202204080800 METAR MRLM NIL=
202204080900 METAR MRLM NIL=
202204081000 METAR MRLM NIL=
202204081100 METAR MRLM NIL=
202204081200 METAR MRLM 081200Z 24006KT 9999 DZ SCT015 BKN110 23/22 A2987=
202204081300 METAR MRLM 081300Z 24006KT 9999 DZ SCT015 BKN120 23/22 A2987=
202204081400 METAR MRLM 081400Z 21004KT 9999 BKN020 24/22 A2993=
202204081500 METAR MRLM 081500Z 23004KT 9999 SCT020 BKN110 25/23 A2993=
202204081600 METAR MRLM 081600Z 00000KT 9999 SCT020 BKN120 27/23 A2992=
202204081700 METAR MRLM 081700Z 00000KT 9999 FEW020 BKN130 28/24 A2992=
202204081800 METAR MRLM 081800Z 06003KT 9999 FEW030 BKN130 29/24 A2988=
202204081900 METAR MRLM 081900Z 07003KT 9999 FEW030 BKN130 29/24 A2986=
202204082000 METAR MRLM 082000Z 02006KT 9999 FEW030 BKN130 29/24 A2983=
202204082100 METAR MRLM 082100Z 02008KT CAVOK 29/25 A2981=
202204082200 METAR MRLM 082200Z 02008KT 9999 FEW030 BKN240 29/25 A2981=
202204082300 METAR MRLM 082300Z 03008KT 9999 BKN030 28/25 A2982=
202204090000 METAR MRLM 090000Z 03007KT 9999 SCT020 BKN240 28/24 A2980=
202204090100 METAR MRLM NIL=
202204090200 METAR MRLM NIL=
202204090300 METAR MRLM NIL=
202204090400 METAR MRLM NIL=
202204090500 METAR MRLM NIL=
202204090600 METAR MRLM NIL=
202204090700 METAR MRLM NIL=
202204090800 METAR MRLM NIL=
202204090900 METAR MRLM NIL=
202204091000 METAR MRLM NIL=
202204091100 METAR MRLM NIL=
202204091200 METAR MRLM 091200Z 27006KT 2000 RA BKN015 23/23 A2991=
202204091300 METAR MRLM 091300Z 15007KT 3000 RA BKN015 23/23 A2993=
202204091400 METAR MRLM 091400Z 20005KT 3000 RA BKN010 23/23 A2994=
202204091500 METAR MRLM 091500Z 19005KT 5000 -RA BKN015 23/23 A2996=
202204091600 METAR MRLM 091600Z 28006KT 4000 +RA BKN010 23/23 A2997=
202204091700 METAR MRLM 091700Z 25007KT 5000 +RA BKN015 23/22 A2997=
202204091800 METAR MRLM 091800Z 22006KT 3000 +RA BKN010 23/23 A2996=
202204091900 METAR MRLM 091900Z 21010KT 3000 +RA BKN007 23/23 A2994=
202204092000 METAR MRLM 092000Z 22007KT 5000 +DZ BKN010 23/22 A2991 RERA=
202204092100 METAR MRLM 092100Z 27007KT 3000 RA BKN010 22/22 A2989=
202204092200 METAR MRLM 092200Z 25005KT 5000 DZ BKN015 24/23 A2989 RERA=
202204092300 METAR MRLM 092300Z 28005KT 9999 DZ BKN010 24/24 A2990=
202204100000 METAR MRLM 100000Z 25006KT 5000 DZ BKN010 24/23 A2990=
202204100100 METAR MRLM NIL=
202204100200 METAR MRLM NIL=
202204100300 METAR MRLM NIL=
202204100400 METAR MRLM NIL=
202204100500 METAR MRLM NIL=
202204100600 METAR MRLM NIL=
202204100700 METAR MRLM NIL=
202204100800 METAR MRLM NIL=
202204100900 METAR MRLM NIL=
202204101000 METAR MRLM NIL=
202204101100 METAR MRLM NIL=
202204101200 METAR MRLM 101200Z 32002KT 9999 VCSH SCT015TCU BKN090 25/23 A2991=
202204101300 METAR MRLM 101300Z 27003KT 9999 VCSH SCT015TCU BKN090 25/23 A2993=
202204101400 METAR MRLM 101400Z 30003KT 9999 VCSH SCT015TCU BKN090 26/24 A2995=
202204101500 METAR MRLM 101500Z 02014KT 9999 VCSH FEW015TCU BKN090 27/24 A2996=
202204101600 METAR MRLM 101600Z 35010KT 9999 FEW020TCU BKN100 27/24 A2997=
202204101700 METAR MRLM 101700Z 04016KT 8000 DZ FEW020TCU OVC100 25/22 A2996=
202204101800 METAR MRLM 101800Z 21005KT 9999 VCSH FEW020TCU BKN100 26/23 A2993 REDZ=
202204101900 METAR MRLM 101900Z 29005KT 9999 VCSH FEW020TCU BKN100 28/23 A2990=
202204102000 METAR MRLM 102000Z 08003KT 9999 FEW020 BKN100 26/24 A2988=
202204102100 METAR MRLM 102100Z 10003KT 9999 FEW020 SCT120 BKN220 28/23 A2986=
202204102200 METAR MRLM 102200Z 09003KT 9999 FEW020 BKN220 28/23 A2985=
202204102300 METAR MRLM 102300Z 17003KT 9999 FEW020 SCT220 27/24 A2986=
202204110000 METAR MRLM 110000Z 21003KT 9999 FEW015 SCT200 25/23 A2987=
202204110100 METAR MRLM NIL=
202204110200 METAR MRLM NIL=
202204110300 METAR MRLM NIL=
202204110400 METAR MRLM NIL=
202204110500 METAR MRLM NIL=
202204110600 METAR MRLM NIL=
202204110700 METAR MRLM NIL=
202204110800 METAR MRLM NIL=
202204110900 METAR MRLM NIL=
202204111000 METAR MRLM NIL=
202204111100 METAR MRLM NIL=
202204111200 METAR MRLM 111200Z 22005KT 9999 FEW015 SCT100 BKN200 23/22 A2991=
202204111300 METAR MRLM 111300Z 22005KT 9999 FEW015TCU BKN200 25/22 A2993=
202204111400 METAR MRLM 111400Z 21004KT 9999 FEW015TCU SCT220 27/23 A2994=
202204111500 METAR MRLM 111500Z 16004KT 9999 FEW020 SCT220 29/22 A2994=
202204111600 METAR MRLM 111600Z 08008KT 9999 FEW020 SCT120 29/22 A2994=
202204111700 METAR MRLM 111700Z 05010KT 9999 FEW020 BKN120 28/23 A2993=
202204111800 METAR MRLM 111800Z 08006KT CAVOK 28/22 A2989=
202204111900 METAR MRLM 111900Z 09008KT CAVOK 29/23 A2986=
202204112000 METAR MRLM 112000Z 08007KT CAVOK 29/23 A2984=
202204112100 METAR MRLM 112100Z 09009KT CAVOK 29/23 A2983=
202204112200 METAR MRLM 112200Z 08008KT CAVOK 28/23 A2983=
202204112300 METAR MRLM 112300Z 08007KT CAVOK 28/22 A2984=
202204120000 METAR MRLM 120000Z 08004KT 9999 FEW015 27/22 A2985=
202204120100 METAR MRLM NIL=
202204120200 METAR MRLM NIL=
202204120300 METAR MRLM NIL=
202204120400 METAR MRLM NIL=
202204120500 METAR MRLM NIL=
202204120600 METAR MRLM NIL=
202204120700 METAR MRLM NIL=
202204120800 METAR MRLM NIL=
202204120900 METAR MRLM NIL=
202204121000 METAR MRLM NIL=
202204121100 METAR MRLM NIL=
202204121200 METAR MRLM 121200Z 23005KT 9999 -DZ FEW020 BKN110 21/20 A2988=
202204121300 METAR MRLM 121300Z 22004KT CAVOK 22/21 A2990=
202204121400 METAR MRLM 121400Z 22003KT CAVOK 25/22 A2992=
202204121500 METAR MRLM 121500Z 00000KT CAVOK 28/22 A2992=
202204121600 METAR MRLM 121600Z 05003KT 9999 FEW030 SCT140 29/23 A2992=
202204121700 METAR MRLM 121700Z 04007KT CAVOK 29/23 A2991=
202204121800 METAR MRLM 121800Z 05006KT CAVOK 29/23 A2989=
202204121900 METAR MRLM NIL=
202204122000 METAR MRLM 122000Z 03005KT 9999 FEW030 BKN130 29/24 A2984=
202204122100 METAR MRLM 122100Z 05008KT 9999 DZ SCT025 BKN120 28/24 A2982=
202204122200 METAR MRLM 122200Z 05011KT 9999 SCT025 BKN120 27/23 A2982 REDZ=
202204122300 METAR MRLM 122300Z 05011KT 9999 FEW025 BKN120 27/22 A2983=
202204130000 METAR MRLM 130000Z 04010KT 9999 FEW020 BKN110 26/22 A2988=
202204130100 METAR MRLM NIL=
202204130200 METAR MRLM NIL=
202204130300 METAR MRLM NIL=
202204130400 METAR MRLM NIL=
202204130500 METAR MRLM NIL=
202204130600 METAR MRLM NIL=
202204130700 METAR MRLM NIL=
202204130800 METAR MRLM NIL=
202204130900 METAR MRLM NIL=
202204131000 METAR MRLM NIL=
202204131100 METAR MRLM NIL=
202204131200 METAR MRLM 131200Z 23004KT 9999 FEW020 BKN120 23/22 A2985=
202204131300 METAR MRLM 131300Z 23004KT 9999 FEW020 BKN120 24/22 A2989=
202204131400 METAR MRLM 131400Z 23005KT 9999 SCT020 BKN120 26/23 A2990=
202204131500 METAR MRLM 131500Z 28004KT 9999 SCT025 BKN130 28/24 A2990=
202204131600 METAR MRLM 131600Z 00000KT 9999 FEW025 BKN130 28/23 A2989=
202204131700 METAR MRLM 131700Z 36009KT 9999 DZ BKN020 26/24 A2989=
202204131800 METAR MRLM 131800Z 27005KT CAVOK 26/24 A2987 REDZ=
202204131900 METAR MRLM 131900Z 28005KT CAVOK 27/24 A2984=
202204132000 METAR MRLM 132000Z 28004KT CAVOK 28/24 A2982=
202204132100 METAR MRLM 132100Z 26005KT CAVOK 28/24 A2980=
202204132200 METAR MRLM 132200Z 27004KT CAVOK 28/24 A2979=
202204132300 METAR MRLM 132300Z 00000KT CAVOK 27/23 A2980=
202204140000 METAR MRLM 140000Z 00000KT CAVOK 27/23 A2985=
202204140100 METAR MRLM NIL=
202204140200 METAR MRLM NIL=
202204140300 METAR MRLM NIL=
202204140400 METAR MRLM NIL=
202204140500 METAR MRLM NIL=
202204140600 METAR MRLM NIL=
202204140700 METAR MRLM NIL=
202204140800 METAR MRLM NIL=
202204140900 METAR MRLM NIL=
202204141000 METAR MRLM NIL=
202204141100 METAR MRLM NIL=
202204141200 METAR MRLM 141200Z 25004KT 9999 FEW015 BKN090 24/22 A2981=
202204141300 METAR MRLM 141300Z 25004KT CAVOK 25/23 A2984=
202204141400 METAR MRLM 141400Z 29004KT CAVOK 28/23 A2986=
202204141500 METAR MRLM 141500Z 32002KT 9999 FEW025 BKN220 29/24 A2987=
202204141600 METAR MRLM 141600Z 36009KT 9999 FEW020TCU BKN220 29/24 A2988=
202204141700 METAR MRLM 141700Z 36012KT 9999 FEW020TCU BKN220 29/24 A2988=
202204141800 METAR MRLM 141800Z 36010KT 9999 FEW025 BKN120 29/25 A2985=
202204141900 METAR MRLM 141900Z 36011KT 9999 FEW025 BKN120 29/24 A2983=
202204142000 METAR MRLM 142000Z 29006KT 9999 FEW020 BKN120 28/24 A2980=
202204142100 METAR MRLM 142100Z 25004KT 9999 SCT020 BKN120 27/24 A2978=
202204142200 METAR MRLM 142200Z 28004KT 9999 VCSH SCT020TCU BKN100 28/24 A2978=
202204142300 METAR MRLM 142300Z 31003KT 9999 VCSH FEW020TCU BKN100 27/23 A2979=
202204150000 METAR MRLM 150000Z 28002KT 9999 SCT015 BKN090 27/24 A2981=
202204150100 METAR MRLM NIL=
202204150200 METAR MRLM NIL=
202204150300 METAR MRLM NIL=
202204150400 METAR MRLM NIL=
202204150500 METAR MRLM NIL=
202204150600 METAR MRLM NIL=
202204150700 METAR MRLM NIL=
202204150800 METAR MRLM NIL=
202204150900 METAR MRLM NIL=
202204151000 METAR MRLM NIL=
202204151100 METAR MRLM NIL=
202204151200 METAR MRLM 151200Z 23003KT 9999 VCSH FEW015TCU BKN100 23/23 A2987=
202204151300 METAR MRLM 151300Z 21004KT 9999 VCSH FEW015TCU BKN100 25/23 A2990=
202204151400 METAR MRLM 151400Z 23003KT 9999 FEW015 SCT100 BKN200 27/24 A2990=
202204151500 METAR MRLM 151500Z 03003KT 9999 FEW020 BKN220 28/24 A2990=
202204151600 METAR MRLM 151600Z 03006KT 9999 FEW020 BKN220 29/24 A2989=
202204151700 METAR MRLM 151700Z 01006KT 9999 FEW020 BKN220 29/24 A2988=
202204151800 METAR MRLM 151800Z 01007KT 9999 FEW025 BKN220 29/25 A2986=
202204151900 METAR MRLM 151900Z 02009KT 9999 FEW025 BKN220 29/24 A2983=
202204152000 METAR MRLM 152000Z 05009KT 9999 SCT020 BKN220 29/25 A2982=
202204152100 METAR MRLM 152100Z 05009KT 9999 SCT020 BKN220 29/25 A2980=
202204152200 METAR MRLM 152200Z 05009KT 9999 SCT020 SCT220 29/24 A2979=
202204152300 METAR MRLM 152300Z 04009KT 9999 SCT020 SCT200 28/24 A2981=
202204160000 METAR MRLM 160000Z 05009KT 9999 SCT015 SCT200 28/24 A2982=
202204160100 METAR MRLM NIL=
202204160200 METAR MRLM NIL=
202204160300 METAR MRLM NIL=
202204160400 METAR MRLM NIL=
202204160500 METAR MRLM NIL=
202204160600 METAR MRLM NIL=
202204160700 METAR MRLM NIL=
202204160800 METAR MRLM NIL=
202204160900 METAR MRLM NIL=
202204161000 METAR MRLM NIL=
202204161100 METAR MRLM NIL=
202204161200 METAR MRLM 161200Z 02008KT 9999 SCT025 BKN120 27/24 A2987=
202204161300 METAR MRLM 161300Z 02006KT 9999 BKN025 28/24 A2989=
202204161400 METAR MRLM 161400Z 02006KT 9999 SCT030 BKN130 28/23 A2991=
202204161500 METAR MRLM 161500Z 02006KT 9999 SCT030 BKN130 28/24 A2991=
202204161600 METAR MRLM 161600Z 04005KT 9999 FEW030 BKN130 29/24 A2991=
202204161700 METAR MRLM 161700Z 04005KT 9999 FEW030 BKN130 28/24 A2991=
202204161800 METAR MRLM 161800Z 05006KT 9999 SCT030 OVC230 28/24 A2988=
202204161900 METAR MRLM 161900Z 05004KT 9999 BKN030 29/24 A2987=
202204162000 METAR MRLM 162000Z 26005KT 9999 BKN020 26/23 A2984=
202204162100 METAR MRLM 162100Z 24003KT 9999 BKN025 28/24 A2982=
202204162200 METAR MRLM 162200Z 24005KT 9999 SCT015 BKN130 27/23 A2982=
202204162300 METAR MRLM 162300Z 00000KT 9999 FEW015 BKN130 27/23 A2983=
202204170000 METAR MRLM 170000Z 00000KT 9999 FEW015 BKN130 27/24 A2985=
202204170100 METAR MRLM NIL=
202204170200 METAR MRLM NIL=
202204170300 METAR MRLM NIL=
202204170400 METAR MRLM NIL=
202204170500 METAR MRLM NIL=
202204170600 METAR MRLM NIL=
202204170700 METAR MRLM NIL=
202204170800 METAR MRLM NIL=
202204170900 METAR MRLM NIL=
202204171000 METAR MRLM NIL=
202204171100 METAR MRLM NIL=
202204171200 METAR MRLM 171200Z 23004KT CAVOK 22/20 A2985=
202204171300 METAR MRLM 171300Z 23005KT CAVOK 24/21 A2987=
202204171400 METAR MRLM 171400Z 24003KT CAVOK 27/23 A2989=
202204171500 METAR MRLM 171500Z 08003KT 9999 FEW030 BKN230 28/23 A2990=
202204171600 METAR MRLM 171600Z 03005KT 9999 FEW030 BKN230 28/23 A2988=
202204171700 METAR MRLM 171700Z 03007KT 9999 FEW030 BKN240 29/24 A2987=
202204171800 METAR MRLM 171800Z 02008KT CAVOK 29/24 A2986=
202204171900 METAR MRLM 171900Z 02007KT CAVOK 28/23 A2983=
202204172000 METAR MRLM 172000Z 01006KT CAVOK 28/23 A2981=
202204172100 METAR MRLM 172100Z 03005KT CAVOK 28/23 A2979=
202204172200 METAR MRLM 172200Z 36005KT CAVOK 28/22 A2978=
202204172300 METAR MRLM 172300Z 00000KT CAVOK 28/22 A2978=
202204180000 METAR MRLM 180000Z 00000KT CAVOK 27/22 A2984=
202204180100 METAR MRLM NIL=
202204180200 METAR MRLM NIL=
202204180300 METAR MRLM NIL=
202204180400 METAR MRLM NIL=
202204180500 METAR MRLM NIL=
202204180600 METAR MRLM NIL=
202204180700 METAR MRLM NIL=
202204180800 METAR MRLM NIL=
202204180900 METAR MRLM NIL=
202204181000 METAR MRLM NIL=
202204181100 METAR MRLM NIL=
202204181200 METAR MRLM 181200Z 22004KT 9999 FEW015 OVC100 23/21 A2986=
202204181300 METAR MRLM 181300Z 25002KT 9999 FEW015 OVC100 25/22 A2988=
202204181400 METAR MRLM 181400Z 24004KT 9999 FEW015 BKN100 26/22 A2990=
202204181500 METAR MRLM 181500Z 00000KT 9999 FEW020TCU BKN100 28/21 A2991=
202204181600 METAR MRLM 181600Z 09003KT 9999 FEW020 BKN120 29/22 A2990=
202204181700 METAR MRLM 181700Z 03007KT 9999 FEW020 BKN120 30/23 A2989=
202204181800 METAR MRLM 181800Z 03008KT CAVOK 30/24 A2986=
202204181900 METAR MRLM 181900Z 02008KT CAVOK 30/24 A2984=
202204182000 METAR MRLM 182000Z 02008KT CAVOK 30/24 A2982=
202204182100 METAR MRLM 182100Z 02007KT CAVOK 29/24 A2980=
202204182200 METAR MRLM 182200Z 02006KT 9999 SCT020 BKN220 29/24 A2980=
202204182300 METAR MRLM 182300Z 01005KT 9999 FEW020 BKN220 28/24 A2981=
202204190000 METAR MRLM 190000Z 03004KT 9999 FEW020 SCT120 BKN220 28/23 A2983=
202204190100 METAR MRLM NIL=
202204190200 METAR MRLM NIL=
202204190300 METAR MRLM NIL=
202204190400 METAR MRLM NIL=
202204190500 METAR MRLM NIL=
202204190600 METAR MRLM NIL=
202204190700 METAR MRLM NIL=
202204190800 METAR MRLM NIL=
202204190900 METAR MRLM NIL=
202204191000 METAR MRLM NIL=
202204191100 METAR MRLM NIL=
202204191200 METAR MRLM 191200Z 24004KT 9999 FEW015 SCT200 23/22 A2989=
202204191300 METAR MRLM 191300Z 24004KT 9999 FEW015 SCT200 25/23 A2991=
202204191400 METAR MRLM 191400Z 27003KT 9999 FEW020 SCT220 28/24 A2994=
202204191500 METAR MRLM 191500Z 04005KT 9999 FEW020 SCT220 29/23 A2994=
202204191600 METAR MRLM 191600Z 03007KT 9999 FEW030 SCT220 30/24 A2993=
202204191700 METAR MRLM 191700Z 03008KT 9999 FEW030 SCT240 29/24 A2993=
202204191800 METAR MRLM 191800Z 02009KT 9999 FEW020TCU BKN240 30/24 A2991=
202204191900 METAR MRLM 191900Z 02008KT 9999 FEW030 BKN240 30/24 A2988=
202204192000 METAR MRLM 192000Z 05006KT 9999 FEW030 BKN240 30/24 A2987=
202204192100 METAR MRLM 192100Z 03007KT 9999 FEW030 BKN240 29/24 A2986=
202204192200 METAR MRLM 192200Z 03007KT 9999 FEW020 BKN220 29/24 A2986=
202204192300 METAR MRLM 192300Z 02006KT 9999 FEW020 BKN220 29/24 A2987=
202204200000 METAR MRLM 200000Z 01006KT 9999 FEW015 BKN200 28/23 A2989=
202204200100 METAR MRLM NIL=
202204200200 METAR MRLM NIL=
202204200300 METAR MRLM NIL=
202204200400 METAR MRLM NIL=
202204200500 METAR MRLM NIL=
202204200600 METAR MRLM NIL=
202204200700 METAR MRLM NIL=
202204200800 METAR MRLM NIL=
202204200900 METAR MRLM NIL=
202204201000 METAR MRLM NIL=
202204201100 METAR MRLM NIL=
202204201200 METAR MRLM 201200Z COR 23006KT CAVOK 21/19 A2991=
202204201300 METAR MRLM 201300Z COR 23006KT CAVOK 23/20 A2993=
202204201400 METAR MRLM 201400Z 24005KT CAVOK 27/22 A2995=
202204201500 METAR MRLM 201500Z 36006KT CAVOK 30/22 A2996=
202204201600 METAR MRLM 201600Z 02009KT CAVOK 30/23 A2995=
202204201700 METAR MRLM 201700Z 02009KT CAVOK 30/23 A2995=
202204201800 METAR MRLM 201800Z 02008KT CAVOK 30/23 A2993=
202204201900 METAR MRLM 201900Z 02009KT CAVOK 30/23 A2991=
202204202000 METAR MRLM 202000Z 02009KT CAVOK 30/23 A2988=
202204202100 METAR MRLM 202100Z 03006KT 9999 FEW030 SCT250 29/23 A2987=
202204202200 METAR MRLM 202200Z 04005KT 9999 BKN030 29/23 A2987=
202204202300 METAR MRLM 202300Z 02005KT 9999 FEW030 BKN240 28/23 A2987=
202204210000 METAR MRLM 210000Z 23003KT 9999 FEW020 BKN230 28/22 A2992=
202204210100 METAR MRLM NIL=
202204210200 METAR MRLM NIL=
202204210300 METAR MRLM NIL=
202204210400 METAR MRLM NIL=
202204210500 METAR MRLM NIL=
202204210600 METAR MRLM NIL=
202204210700 METAR MRLM NIL=
202204210800 METAR MRLM NIL=
202204210900 METAR MRLM NIL=
202204211000 METAR MRLM NIL=
202204211100 METAR MRLM NIL=
202204211200 METAR MRLM 211200Z 23005KT CAVOK 21/19 A2991=
202204211300 METAR MRLM 211300Z 23005KT CAVOK 24/21 A2993=
202204211400 METAR MRLM 211400Z 23003KT 9999 FEW030 SCT250 27/23 A2995=
202204211500 METAR MRLM 211500Z 05004KT 9999 FEW030 SCT250 29/23 A2996=
202204211600 METAR MRLM 211600Z 36007KT CAVOK 30/22 A2996=
202204211700 METAR MRLM 211700Z 02010KT CAVOK 30/24 A2993=
202204211800 METAR MRLM 211800Z 02010KT CAVOK 30/24 A2991=
202204211900 METAR MRLM 211900Z 01011KT CAVOK 30/24 A2989=
202204212000 METAR MRLM 212000Z 01010KT CAVOK 30/23 A2986=
202204212100 METAR MRLM 212100Z 36011KT 9999 FEW030 SCT250 30/23 A2985=
202204212200 METAR MRLM 212200Z 01007KT 9999 FEW030 BKN230 29/24 A2984=
202204212300 METAR MRLM 212300Z 01004KT 9999 FEW030 BKN230 28/23 A2985=
202204220000 METAR MRLM 220000Z 26003KT 9999 FEW020 BKN230 27/23 A2987=
202204220100 METAR MRLM NIL=
202204220200 METAR MRLM NIL=
202204220300 METAR MRLM NIL=
202204220400 METAR MRLM NIL=
202204220500 METAR MRLM NIL=
202204220600 METAR MRLM NIL=
202204220700 METAR MRLM NIL=
202204220800 METAR MRLM NIL=
202204220900 METAR MRLM NIL=
202204221000 METAR MRLM NIL=
202204221100 METAR MRLM NIL=
202204221200 METAR MRLM 221200Z 29004KT 9999 FEW015TCU SCT100 23/21 A2991=
202204221300 METAR MRLM 221300Z 30006KT 9999 FEW015TCU SCT100 25/22 A2992=
202204221400 METAR MRLM 221400Z 31008KT 9999 FEW020 SCT120 27/23 A2993=
202204221500 METAR MRLM 221500Z 31010KT CAVOK 29/23 A2994=
202204221600 METAR MRLM 221600Z 32011KT 9999 FEW020 SCT240 30/23 A2994=
202204221700 METAR MRLM 221700Z 34014KT 9999 FEW030 SCT240 30/23 A2993=
202204221800 METAR MRLM 221800Z 34014KT 9999 FEW030 SCT240 31/24 A2989=
202204221900 METAR MRLM 221900Z 35013KT 9999 FEW030 SCT240 30/24 A2986=
202204222000 METAR MRLM 222000Z 34012KT 9999 FEW030 SCT240 28/24 A2983=
202204222100 METAR MRLM 222100Z 35013KT 9999 SCT020 SCT220 30/24 A2982=
202204222200 METAR MRLM 222200Z 34011KT 9999 SCT020 SCT220 29/24 A2982=
202204222300 METAR MRLM 222300Z 33008KT 9999 SCT020 SCT220 28/24 A2984=
202204230000 METAR MRLM 230000Z 31004KT 9999 FEW015 BKN200 27/23 A2986=
202204230100 METAR MRLM NIL=
202204230200 METAR MRLM NIL=
202204230300 METAR MRLM NIL=
202204230400 METAR MRLM NIL=
202204230500 METAR MRLM NIL=
202204230600 METAR MRLM NIL=
202204230700 METAR MRLM NIL=
202204230800 METAR MRLM NIL=
202204230900 METAR MRLM NIL=
202204231000 METAR MRLM NIL=
202204231100 METAR MRLM NIL=
202204231200 METAR MRLM 231200Z 24003KT 9999 FEW015TCU SCT100 23/22 A2987=
202204231300 METAR MRLM 231300Z 23004KT 9999 FEW015TCU 25/23 A2988=
202204231400 METAR MRLM 231400Z 31002KT 9999 FEW020TCU 28/24 A2989=
202204231500 METAR MRLM 231500Z 02007KT 9999 FEW025 29/23 A2990=
202204231600 METAR MRLM 231600Z 03007KT 9999 FEW025 29/23 A2989=
202204231700 METAR MRLM 231700Z 04008KT CAVOK 30/24 A2987=
202204231800 METAR MRLM 231800Z 03007KT 9999 FEW025 29/24 A2984=
202204231900 METAR MRLM 231900Z 04008KT 9999 FEW025 SCT240 30/24 A2981=
202204232000 METAR MRLM 232000Z 04007KT 9999 FEW025 SCT240 29/24 A2978=
202204232100 METAR MRLM 232100Z 03006KT 9999 SCT025 SCT240 29/24 A2976=
202204232200 METAR MRLM 232200Z 03006KT 9999 SCT020 SCT220 29/24 A2976=
202204232300 METAR MRLM 232300Z 07006KT 9999 BKN020 SCT220 29/24 A2977=
202204240000 METAR MRLM 240000Z 05006KT 9999 BKN015 SCT200 28/23 A2980=
202204240100 METAR MRLM NIL=
202204240200 METAR MRLM NIL=
202204240300 METAR MRLM NIL=
202204240400 METAR MRLM NIL=
202204240500 METAR MRLM NIL=
202204240600 METAR MRLM NIL=
202204240700 METAR MRLM NIL=
202204240800 METAR MRLM NIL=
202204240900 METAR MRLM NIL=
202204241000 METAR MRLM NIL=
202204241100 METAR MRLM NIL=
202204241200 METAR MRLM 241200Z 23004KT 9999 FEW010 SCT130 22/21 A2984=
202204241300 METAR MRLM 241300Z 23003KT 9999 FEW020 SCT240 24/22 A2986=
202204241400 METAR MRLM 241400Z 25004KT CAVOK 27/23 A2986=
202204241500 METAR MRLM 241500Z 32004KT 9999 FEW030 29/23 A2985=
202204241600 METAR MRLM 241600Z 02009KT CAVOK 30/24 A2985=
202204241700 METAR MRLM 241700Z 01012KT CAVOK 29/24 A2984=
202204241800 METAR MRLM 241800Z 01010KT CAVOK 29/24 A2983=
202204241900 METAR MRLM 241900Z 01011KT CAVOK 29/24 A2979=
202204242000 METAR MRLM 242000Z 01009KT CAVOK 30/24 A2978=
202204242100 METAR MRLM 242100Z 01008KT 9999 FEW030 29/24 A2976=
202204242200 METAR MRLM 242200Z 02008KT 9999 SCT030 29/24 A2976=
202204242300 METAR MRLM 242300Z 02006KT 9999 BKN020 28/24 A2978=
202204250000 METAR MRLM 250000Z 24005KT 9999 BKN020 27/24 A2982=
202204250100 METAR MRLM NIL=
202204250200 METAR MRLM NIL=
202204250300 METAR MRLM NIL=
202204250400 METAR MRLM NIL=
202204250500 METAR MRLM NIL=
202204250600 METAR MRLM NIL=
202204250700 METAR MRLM NIL=
202204250800 METAR MRLM NIL=
202204250900 METAR MRLM NIL=
202204251000 METAR MRLM NIL=
202204251100 METAR MRLM NIL=
202204251200 METAR MRLM 251200Z 23004KT CAVOK 23/22 A2984=
202204251300 METAR MRLM 251300Z 23005KT 9999 FEW020 SCT240 25/23 A2986=
202204251400 METAR MRLM 251400Z 24005KT 9999 FEW030 28/24 A2987=
202204251500 METAR MRLM 251500Z 01014KT 9999 VCSH BKN020 26/24 A2989 RETS=
202204251600 METAR MRLM 251600Z 03006KT 9999 FEW020 SCT130 27/24 A2988=
202204251700 METAR MRLM 251700Z 02007KT 9999 FEW030 SCT240 29/25 A2987=
202204251800 METAR MRLM 251800Z 04011KT CAVOK 29/25 A2984=
202204251900 METAR MRLM 251900Z 04011KT CAVOK 29/25 A2984=
202204252000 METAR MRLM 252000Z 06006KT 9999 FEW025 SCT130 BKN230 28/24 A2979=
202204252100 METAR MRLM 252100Z 08006KT 9999 FEW020 BKN230 28/24 A2977=
202204252200 METAR MRLM 252200Z 11003KT 9999 SCT020 BKN230 28/24 A2977=
202204252300 METAR MRLM 252300Z 00000KT 9999 BKN020 28/24 A2979=
202204260000 METAR MRLM 260000Z 09005KT 9999 BKN015 27/24 A2983=
202204260100 METAR MRLM NIL=
202204260200 METAR MRLM NIL=
202204260300 METAR MRLM NIL=
202204260400 METAR MRLM NIL=
202204260500 METAR MRLM NIL=
202204260600 METAR MRLM NIL=
202204260700 METAR MRLM NIL=
202204260800 METAR MRLM NIL=
202204260900 METAR MRLM NIL=
202204261000 METAR MRLM NIL=
202204261100 METAR MRLM NIL=
202204261200 METAR MRLM 261200Z 25006KT 9999 VCSH FEW015TCU BKN090 24/23 A2985=
202204261300 METAR MRLM 261300Z 24005KT 9999 VCSH SCT015TCU BKN090 24/23 A2988=
202204261400 METAR MRLM 261400Z 24004KT 9999 VCSH FEW015TCU BKN100 26/24 A2989=
202204261500 METAR MRLM 261500Z 26004KT 9999 FEW020TCU BKN100 29/24 A2989=
202204261600 METAR MRLM 261600Z 02008KT 9999 VCSH FEW020TCU BKN100 29/25 A2989=
202204261700 METAR MRLM 261700Z 02013KT 9999 FEW020 BKN120 28/25 A2988=
202204261800 METAR MRLM 261800Z 02012KT 9999 FEW020 BKN120 27/25 A2987=
202204261900 METAR MRLM 261900Z 30005KT 9999 FEW020 BKN100 27/24 A2985=
202204262000 METAR MRLM 262000Z 30006KT 9999 SCT020 BKN100 27/24 A2983=
202204262100 METAR MRLM 262100Z 32007KT 9999 SCT020 BKN120 28/24 A2980=
202204262200 METAR MRLM 262200Z 33009KT 9999 FEW020 BKN120 27/24 A2982=
202204262300 METAR MRLM 262300Z 29003KT 9999 FEW015 BKN100 27/24 A2982=
202204270000 METAR MRLM 270000Z 19003KT 9999 FEW015 BKN090 26/24 A2985=
202204270100 METAR MRLM NIL=
202204270200 METAR MRLM NIL=
202204270300 METAR MRLM NIL=
202204270400 METAR MRLM NIL=
202204270500 METAR MRLM NIL=
202204270600 METAR MRLM NIL=
202204270700 METAR MRLM NIL=
202204270800 METAR MRLM NIL=
202204270900 METAR MRLM NIL=
202204271000 METAR MRLM NIL=
202204271100 METAR MRLM NIL=
202204271200 METAR MRLM 271200Z 25004KT 9999 VCSH FEW010CB SCT200 23/22 A2983=
202204271300 METAR MRLM 271300Z 00000KT 9999 VCSH SCT015TCU BKN200 25/23 A2985=
202204271400 METAR MRLM 271400Z 32006KT 9999 VCSH FEW015TCU BKN100 27/24 A2988=
202204271500 METAR MRLM 271500Z 31008KT 9999 VCSH FEW015TCU BKN100 28/24 A2989=
202204271600 METAR MRLM 271600Z 32008KT 9999 FEW020 OVC100 28/24 A2989=
202204271700 METAR MRLM 271700Z 35003KT 9999 FEW020 OVC100 28/24 A2988=
202204271800 METAR MRLM 271800Z 04012KT 9999 FEW020 BKN100 26/24 A2986=
202204271900 METAR MRLM 271900Z 35004KT 9999 FEW020 BKN100 26/23 A2983=
202204272000 METAR MRLM 272000Z 03006KT 9999 FEW020 BKN120 27/24 A2981=
202204272100 METAR MRLM 272100Z 06004KT 9999 FEW020 BKN120 27/24 A2980=
202204272200 METAR MRLM 272200Z 08005KT 9999 FEW020 SCT120 BKN220 27/24 A2979=
202204272300 METAR MRLM 272300Z 11003KT 9999 SCT020 BKN120 27/24 A2982=
202204280000 METAR MRLM 280000Z 19002KT 9999 SCT015 OVC100 26/24 A2983=
202204280100 METAR MRLM NIL=
202204280200 METAR MRLM NIL=
202204280300 METAR MRLM NIL=
202204280400 METAR MRLM NIL=
202204280500 METAR MRLM NIL=
202204280600 METAR MRLM NIL=
202204280700 METAR MRLM NIL=
202204280800 METAR MRLM NIL=
202204280900 METAR MRLM NIL=
202204281000 METAR MRLM NIL=
202204281100 METAR MRLM NIL=
202204281200 METAR MRLM 281200Z 23002KT 9999 FEW015 SCT090 23/23 A2983=
202204281300 METAR MRLM 281300Z 23003KT 9999 FEW015 BKN090 24/23 A2986=
202204281400 METAR MRLM 281400Z 23002KT 9999 FEW015 BKN090 26/24 A2989=
202204281500 METAR MRLM 281500Z 34004KT 9999 -DZ FEW015 BKN090 27/24 A2990=
202204281600 METAR MRLM 281600Z 35007KT 9999 SCT015 BKN100 28/24 A2989=
202204281700 METAR MRLM 281700Z 32008KT 9999 SCT015 BKN100 28/24 A2988=
202204281800 METAR MRLM 281800Z 36010KT 9999 VCSH FEW020TCU BKN120 27/24 A2987=
202204281900 METAR MRLM 281900Z 01012KT 8000 -DZ VCSH SCT015TCU OVC100 26/24 A2985=
202204282000 METAR MRLM 282000Z 08015KT 6000 DZ SCT010 OVC080 25/24 A2984=
202204282100 METAR MRLM 282100Z 07006KT 8000 -DZ SCT015 OVC090 25/23 A2983=
202204282200 METAR MRLM 282200Z 25004KT 9000 DZ VCSH FEW010TCU SCT015 OVC090 25/23 A2982=
202204282300 METAR MRLM NIL=
202204290000 METAR MRLM NIL=
202204290100 METAR MRLM NIL=
202204290200 METAR MRLM NIL=
202204290300 METAR MRLM NIL=
202204290400 METAR MRLM NIL=
202204290500 METAR MRLM NIL=
202204290600 METAR MRLM NIL=
202204290700 METAR MRLM NIL=
202204290800 METAR MRLM NIL=
202204290900 METAR MRLM NIL=
202204291000 METAR MRLM NIL=
202204291100 METAR MRLM NIL=
202204291200 METAR MRLM 291200Z 00000KT 9999 VCSH FEW015TCU BKN090 23/23 A2981=
202204291300 METAR MRLM 291300Z 29004KT 9999 VCSH FEW015TCU BKN090 24/23 A2987=
202204291400 METAR MRLM 291400Z 30007KT 9999 FEW015 BKN090 25/23 A2988=
202204291500 METAR MRLM 291500Z 31006KT 9999 VCSH SCT015TCU OVC090 26/23 A2989=
202204291600 METAR MRLM 291600Z 35011KT 5000 +DZ FEW010 OVC070 24/23 A2990 RERA=
202204291700 METAR MRLM 291700Z 20002KT 8000 -DZ FEW010 OVC070 24/23 A2988=
202204291800 METAR MRLM 291800Z 18003KT 6000 DZ FEW010 OVC070 24/23 A2987=
202204291900 METAR MRLM 291900Z 22006KT 7000 DZ FEW010 OVC070 24/23 A2985=
202204292000 METAR MRLM 292000Z 21004KT 8000 -DZ FEW015 OVC080 24/23 A2984=
202204292100 METAR MRLM 292100Z 24006KT 8000 DZ FEW015 OVC080 24/23 A2982=
202204292200 METAR MRLM 292200Z 24003KT 9999 FEW015 OVC100 25/23 A2981 REDZ=
202204292300 METAR MRLM NIL=
202204300000 METAR MRLM NIL=
202204300100 METAR MRLM NIL=
202204300200 METAR MRLM NIL=
202204300300 METAR MRLM NIL=
202204300400 METAR MRLM NIL=
202204300500 METAR MRLM NIL=
202204300600 METAR MRLM NIL=
202204300700 METAR MRLM NIL=
202204300800 METAR MRLM NIL=
202204300900 METAR MRLM NIL=
202204301000 METAR MRLM NIL=
202204301100 METAR MRLM NIL=
202204301200 METAR MRLM 301200Z 28003KT 9999 FEW010 OVC080 23/22 A2981=
202204301300 METAR MRLM 301300Z 26002KT 9999 FEW010 BKN080 24/22 A2983=
202204301400 METAR MRLM 301400Z 29002KT 9999 VCSH FEW010TCU OVC080 25/23 A2986=
202204301500 METAR MRLM 301500Z 16003KT 8000 -DZ VCSH SCT010TCU OVC080 24/23 A2988=
202204301600 METAR MRLM 301600Z 26005KT 6000 +DZ FEW010 OVC080 24/23 A2987=
202204301700 METAR MRLM 301700Z 27003KT 7000 DZ FEW010 OVC080 24/24 A2986=
202204301800 METAR MRLM 301800Z 25004KT 9999 -DZ FEW015 OVC090 24/24 A2982=
202204301900 METAR MRLM 301900Z 19002KT 9999 -DZ SCT015 OVC090 25/24 A2981=
202204302000 METAR MRLM 302000Z 00000KT 9999 SCT015 OVC090 25/24 A2982 REDZ=
202204302100 METAR MRLM 302100Z 23003KT 9999 FEW015 BKN100 26/24 A2978=
202204302200 METAR MRLM 302200Z 00000KT 9999 FEW020 SCT100 OVC200 27/24 A2979=
202204302300 METAR MRLM NIL=
202205010000 METAR MRLM NIL=
202205010100 METAR MRLM NIL=
202205010200 METAR MRLM NIL=
202205010300 METAR MRLM NIL=
202205010400 METAR MRLM NIL=
202205010500 METAR MRLM NIL=
202205010600 METAR MRLM NIL=
202205010700 METAR MRLM NIL=
202205010800 METAR MRLM NIL=
202205010900 METAR MRLM NIL=
202205011000 METAR MRLM NIL=
202205011100 METAR MRLM NIL=
202205011200 METAR MRLM 011200Z 25003KT 9999 FEW015 SCT200 23/23 A2983=
202205011300 METAR MRLM 011300Z 31003KT 9999 FEW015 SCT200 26/24 A2986=
202205011400 METAR MRLM 011400Z 06002KT 9999 FEW020 SCT220 28/24 A2987=
202205011500 METAR MRLM 011500Z 03006KT 9999 FEW020 SCT220 28/24 A2987=
202205011600 METAR MRLM 011600Z 08002KT CAVOK 29/23 A2985=
202205011700 METAR MRLM 011700Z 03007KT CAVOK 30/24 A2983=
202205011800 METAR MRLM 011800Z 02009KT CAVOK 30/24 A2982=
202205011900 METAR MRLM 011900Z 01009KT CAVOK 30/24 A2980=
202205012000 METAR MRLM 012000Z 36010KT CAVOK 30/25 A2978=
202205012100 METAR MRLM 012100Z 34012KT 9999 FEW025 BKN220 29/25 A2978=
202205012200 METAR MRLM 012200Z 34007KT 9999 FEW020 BKN220 28/25 A2979=
202205012300 METAR MRLM NIL=
202205020000 METAR MRLM NIL=
202205020100 METAR MRLM NIL=
202205020200 METAR MRLM NIL=
202205020300 METAR MRLM NIL=
202205020400 METAR MRLM NIL=
202205020500 METAR MRLM NIL=
202205020600 METAR MRLM NIL=
202205020700 METAR MRLM NIL=
202205020800 METAR MRLM NIL=
202205020900 METAR MRLM NIL=
202205021000 METAR MRLM NIL=
202205021100 METAR MRLM NIL=
202205021200 METAR MRLM 021200Z 00000KT 9999 FEW020 SCT120 BKN230 24/23 A2985=
202205021300 METAR MRLM 021300Z 00000KT 9999 FEW020 BKN120 25/23 A2987=
202205021400 METAR MRLM 021400Z 29004KT 9999 FEW025 BKN120 26/24 A2988=
202205021500 METAR MRLM 021500Z 30005KT CAVOK 29/25 A2988=
202205021600 METAR MRLM 021600Z 32007KT CAVOK 29/24 A2986=
202205021700 METAR MRLM 021700Z 01010KT CAVOK 30/25 A2986=
202205021800 METAR MRLM 021800Z 02009KT CAVOK 30/25 A2984=
202205021900 METAR MRLM 021900Z 03008KT CAVOK 30/25 A2982=
202205022000 METAR MRLM 022000Z 03008KT CAVOK 29/25 A2979=
202205022100 METAR MRLM 022100Z 04008KT 9999 FEW030 BKN250 30/25 A2978=
202205022200 METAR MRLM 022200Z 04004KT 9999 FEW030 BKN250 29/25 A2978=
202205022300 METAR MRLM 022300Z 04004KT 9999 FEW030 SCT140 28/25 A2978=
202205030000 METAR MRLM 030000Z 00000KT CAVOK 27/25 A2983=
202205030100 METAR MRLM NIL=
202205030200 METAR MRLM NIL=
202205030300 METAR MRLM NIL=
202205030400 METAR MRLM NIL=
202205030500 METAR MRLM NIL=
202205030600 METAR MRLM NIL=
202205030700 METAR MRLM NIL=
202205030800 METAR MRLM NIL=
202205030900 METAR MRLM NIL=
202205031000 METAR MRLM NIL=
202205031100 METAR MRLM NIL=
202205031200 METAR MRLM 031200Z 23003KT 9999 DZ SCT020 BKN110 25/25 A2984=
202205031300 METAR MRLM 031300Z 23003KT 9999 FEW020 BKN110 25/25 A2986 REDZ=
202205031400 METAR MRLM 031400Z 00000KT 9999 BKN025 26/24 A2988=
202205031500 METAR MRLM 031500Z 00000KT 9999 FEW025 BKN120 26/24 A2988=
202205031600 METAR MRLM 031600Z 09003KT CAVOK 28/25 A2988=
202205031700 METAR MRLM 031700Z 05005KT CAVOK 29/25 A2988=
202205031800 METAR MRLM 031800Z 04005KT CAVOK 29/24 A2985=
202205031900 METAR MRLM 031900Z 05007KT 9999 FEW030 SCT140 29/25 A2981=
202205032000 METAR MRLM 032000Z 09004KT CAVOK 30/25 A2979=
202205032100 METAR MRLM 032100Z 04007KT CAVOK 29/25 A2977=
202205032200 METAR MRLM 032200Z 04005KT CAVOK 29/25 A2978=
202205032300 METAR MRLM 032300Z 08004KT CAVOK 28/25 A2979=
202205040000 METAR MRLM 040000Z 08004KT CAVOK 28/25 A2979=
202205040100 METAR MRLM NIL=
202205040200 METAR MRLM NIL=
202205040300 METAR MRLM NIL=
202205040400 METAR MRLM NIL=
202205040500 METAR MRLM NIL=
202205040600 METAR MRLM NIL=
202205040700 METAR MRLM NIL=
202205040800 METAR MRLM NIL=
202205040900 METAR MRLM NIL=
202205041000 METAR MRLM NIL=
202205041100 METAR MRLM NIL=
202205041200 METAR MRLM 041200Z 23005KT 9999 FEW015TCU 24/22 A2984=
202205041300 METAR MRLM 041300Z 24004KT 9999 FEW015TCU 26/24 A2985=
202205041400 METAR MRLM 041400Z 31003KT 9999 FEW020 SCT120 29/25 A2985=
202205041500 METAR MRLM 041500Z 03006KT 9999 VCSH FEW020TCU SCT120 29/25 A2986=
202205041600 METAR MRLM 041600Z 03005KT 9999 FEW020 BKN120 29/25 A2986=
202205041700 METAR MRLM 041700Z 04009KT 9999 FEW020 BKN120 29/25 A2986=
202205041800 METAR MRLM 041800Z 06008KT 9999 FEW020 BKN120 29/25 A2986=
202205041900 METAR MRLM 041900Z 07005KT 9999 FEW025 BKN120 29/25 A2983=
202205042000 METAR MRLM 042000Z 07007KT 9999 FEW025 BKN120 30/25 A2980=
202205042100 METAR MRLM 042100Z 10007KT 9999 SCT020 BKN120 29/25 A2981=
202205042200 METAR MRLM 042200Z 09004KT 9999 SCT020 OVC120 29/25 A2980=
202205042300 METAR MRLM 042300Z 14003KT 9999 SCT020 OVC120 28/25 A2981=
202205050000 METAR MRLM 050000Z 07003KT 9999 SCT015 OVC100 28/25 A2983=
202205050100 METAR MRLM NIL=
202205050200 METAR MRLM NIL=
202205050300 METAR MRLM NIL=
202205050400 METAR MRLM NIL=
202205050500 METAR MRLM NIL=
202205050600 METAR MRLM NIL=
202205050700 METAR MRLM NIL=
202205050800 METAR MRLM NIL=
202205050900 METAR MRLM NIL=
202205051000 METAR MRLM NIL=
202205051100 METAR MRLM NIL=
202205051200 METAR MRLM 051200Z 25003KT 9999 SCT015 BKN090 25/24 A2986=
202205051300 METAR MRLM 051300Z 25004KT 9999 VCSH FEW015TCU BKN090 25/24 A2989=
202205051400 METAR MRLM 051400Z 28005KT 9999 FEW015 BKN100 27/24 A2991=
202205051500 METAR MRLM 051500Z 31007KT 9999 FEW015 BKN100 27/24 A2993=
202205051600 METAR MRLM 051600Z 30007KT 9999 SCT015 OVC100 27/24 A2992=
202205051700 METAR MRLM 051700Z 30005KT 9999 SCT020 OVC100 29/24 A2992=
202205051800 METAR MRLM 051800Z 01006KT 9999 FEW020 OVC110 29/24 A2990=
202205051900 METAR MRLM 051900Z 01005KT CAVOK 29/24 A2987=
202205052000 METAR MRLM 052000Z 30004KT CAVOK 29/24 A2985=
202205052100 METAR MRLM 052100Z 31003KT CAVOK 29/24 A2983=
202205052200 METAR MRLM 052200Z 02006KT CAVOK 29/24 A2983=
202205052300 METAR MRLM 052300Z 01006KT CAVOK 29/24 A2985=
202205060000 METAR MRLM 060000Z 05003KT CAVOK 28/24 A2986=
202205060100 METAR MRLM NIL=
202205060200 METAR MRLM NIL=
202205060300 METAR MRLM NIL=
202205060400 METAR MRLM NIL=
202205060500 METAR MRLM NIL=
202205060600 METAR MRLM NIL=
202205060700 METAR MRLM NIL=
202205060800 METAR MRLM NIL=
202205060900 METAR MRLM NIL=
202205061000 METAR MRLM NIL=
202205061100 METAR MRLM NIL=
202205061200 METAR MRLM 061200Z 23003KT CAVOK 24/24 A2990=
202205061300 METAR MRLM 061300Z 25003KT CAVOK 26/24 A2993=
202205061400 METAR MRLM 061400Z 02003KT 9999 FEW030 OVC240 29/25 A2995=
202205061500 METAR MRLM 061500Z 02003KT 9999 FEW030 OVC240 30/25 A2995=
202205061600 METAR MRLM 061600Z 02003KT 9999 FEW030 OVC240 30/25 A2995=
202205061700 METAR MRLM 061700Z 02010KT 9999 FEW030 OVC250 30/26 A2992=
202205061800 METAR MRLM 061800Z 02010KT CAVOK 30/25 A2991=
202205061900 METAR MRLM 061900Z 02007KT CAVOK 30/25 A2988=
202205062000 METAR MRLM 062000Z 02008KT CAVOK 30/26 A2985=
202205062100 METAR MRLM 062100Z 02006KT 9999 FEW030 BKN250 29/25 A2984=
202205062200 METAR MRLM 062200Z 05004KT 9999 FEW030 BKN240 29/25 A2983=
202205062300 METAR MRLM 062300Z 06003KT 9999 FEW030 BKN240 29/25 A2985=
202205070000 METAR MRLM 070000Z 00000KT 9999 FEW030 BKN230 28/26 A2988=
202205070100 METAR MRLM NIL=
202205070200 METAR MRLM NIL=
202205070300 METAR MRLM NIL=
202205070400 METAR MRLM NIL=
202205070500 METAR MRLM NIL=
202205070600 METAR MRLM NIL=
202205070700 METAR MRLM NIL=
202205070800 METAR MRLM NIL=
202205070900 METAR MRLM NIL=
202205071000 METAR MRLM NIL=
202205071100 METAR MRLM NIL=
202205071200 METAR MRLM 071200Z 24004KT 9999 FEW020 BKN230 24/23 A2989=
202205071300 METAR MRLM 071300Z 22004KT 9999 FEW025 BKN240 26/24 A2991=
202205071400 METAR MRLM 071400Z 08003KT 9999 FEW030 29/25 A2992=
202205071500 METAR MRLM 071500Z 04004KT 9999 FEW030 29/25 A2991=
202205071600 METAR MRLM 071600Z 04006KT 9999 FEW030 30/25 A2991=
202205071700 METAR MRLM 071700Z 04006KT 9999 FEW030 30/25 A2990=
202205071800 METAR MRLM 071800Z 05007KT 9999 FEW030 30/25 A2988=
202205071900 METAR MRLM 071900Z 06007KT 9999 FEW030 30/25 A2985=
202205072000 METAR MRLM 072000Z 06006KT 9999 FEW030 30/25 A2982=
202205072100 METAR MRLM 072100Z 05005KT 9999 SCT030 30/26 A2980=
202205072200 METAR MRLM 072200Z 06006KT 9999 FEW025 29/25 A2981=
202205072300 METAR MRLM 072300Z 08006KT 9999 SCT025 29/25 A2982=
202205080000 METAR MRLM 080000Z 08006KT 9999 BKN020 29/24 A2985=
202205080100 METAR MRLM NIL=
202205080200 METAR MRLM NIL=
202205080300 METAR MRLM NIL=
202205080400 METAR MRLM NIL=
202205080500 METAR MRLM NIL=
202205080600 METAR MRLM NIL=
202205080700 METAR MRLM NIL=
202205080800 METAR MRLM NIL=
202205080900 METAR MRLM NIL=
202205081000 METAR MRLM NIL=
202205081100 METAR MRLM NIL=
202205081200 METAR MRLM 081200Z 25002KT 9999 FEW015TCU 24/23 A2984=
202205081300 METAR MRLM 081300Z 21003KT 9999 FEW015TCU 26/24 A2986=
202205081400 METAR MRLM 081400Z 07002KT 9999 FEW020TCU 29/25 A2987=
202205081500 METAR MRLM 081500Z 10005KT 9999 FEW020TCU 30/25 A2989=
202205081600 METAR MRLM 081600Z 09006KT 9999 FEW030 30/25 A2988=
202205081700 METAR MRLM 081700Z 08006KT 9999 FEW030 30/25 A2987=
202205081800 METAR MRLM 081800Z 07007KT 9999 FEW030 30/26 A2984=
202205081900 METAR MRLM 081900Z 06008KT 9999 SCT030 31/26 A2981=
202205082000 METAR MRLM 082000Z 07008KT 9999 SCT030 31/26 A2979=
202205082100 METAR MRLM 082100Z 07007KT 9999 SCT030 30/26 A2977=
202205082200 METAR MRLM 082200Z 06006KT 9999 SCT030 30/25 A2976=
202205082300 METAR MRLM 082300Z 05006KT 9999 BKN020 29/25 A2977=
202205090000 METAR MRLM 090000Z 07006KT 9999 BKN020 29/25 A2978=
202205090100 METAR MRLM NIL=
202205090200 METAR MRLM NIL=
202205090300 METAR MRLM NIL=
202205090400 METAR MRLM NIL=
202205090500 METAR MRLM NIL=
202205090600 METAR MRLM NIL=
202205090700 METAR MRLM NIL=
202205090800 METAR MRLM NIL=
202205090900 METAR MRLM NIL=
202205091000 METAR MRLM NIL=
202205091100 METAR MRLM NIL=
202205091200 METAR MRLM 091200Z 17002KT 9999 VCSH SCT015TCU SCT090 25/25 A2985=
202205091300 METAR MRLM 091300Z 22002KT 9999 FEW015TCU 27/25 A2985=
202205091400 METAR MRLM 091400Z 11004KT 9999 FEW020TCU 29/25 A2986=
202205091500 METAR MRLM 091500Z 11005KT 9999 FEW020TCU SCT220 30/25 A2987=
202205091600 METAR MRLM 091600Z 09007KT 9999 FEW020 SCT220 30/26 A2988=
202205091700 METAR MRLM 091700Z 06007KT 9999 FEW020 SCT220 30/25 A2986=
202205091800 METAR MRLM 091800Z 06006KT 9999 FEW025 SCT220 30/26 A2984=
202205091900 METAR MRLM 091900Z 06007KT 9999 FEW025 BKN220 31/26 A2981=
202205092000 METAR MRLM 092000Z 07007KT 9999 FEW025 BKN220 30/25 A2980=
202205092100 METAR MRLM 092100Z 06007KT 9999 FEW025 BKN220 30/25 A2979=
202205092200 METAR MRLM 092200Z 06006KT 9999 SCT020 BKN220 30/25 A2979=
202205092300 METAR MRLM 092300Z 06006KT 9999 SCT020 SCT220 30/25 A2980=
202205100000 METAR MRLM 100000Z 06004KT 9999 FEW020 SCT220 29/24 A2981=
202205100100 METAR MRLM NIL=
202205100200 METAR MRLM NIL=
202205100300 METAR MRLM NIL=
202205100400 METAR MRLM NIL=
202205100500 METAR MRLM NIL=
202205100600 METAR MRLM NIL=
202205100700 METAR MRLM NIL=
202205100800 METAR MRLM NIL=
202205100900 METAR MRLM NIL=
202205101000 METAR MRLM NIL=
202205101100 METAR MRLM NIL=
202205101200 METAR MRLM 101200Z 24004KT 9999 FEW015 24/23 A2985=
202205101300 METAR MRLM 101300Z 24004KT 9999 FEW025 26/24 A2987=
202205101400 METAR MRLM 101400Z 00000KT 9999 FEW030 SCT140 29/25 A2989=
202205101500 METAR MRLM 101500Z 02007KT 9999 FEW030 SCT240 30/25 A2990=
202205101600 METAR MRLM 101600Z 02007KT 9999 FEW030 30/25 A2989=
202205101700 METAR MRLM 101700Z 02008KT 9999 FEW030 30/25 A2988=
202205101800 METAR MRLM 101800Z 03009KT 9999 FEW030 SCT240 30/25 A2986=
202205101900 METAR MRLM 101900Z 02007KT 9999 FEW030 30/24 A2984=
202205102000 METAR MRLM 102000Z 01007KT CAVOK 30/23 A2981=
202205102100 METAR MRLM 102100Z 01007KT CAVOK 30/23 A2980=
202205102200 METAR MRLM 102200Z 02006KT CAVOK 30/24 A2980=
202205102300 METAR MRLM 102300Z 01005KT CAVOK 29/23 A2981=
202205110000 METAR MRLM 110000Z 02005KT CAVOK 29/23 A2984=
202205110100 METAR MRLM NIL=
202205110200 METAR MRLM NIL=
202205110300 METAR MRLM NIL=
202205110400 METAR MRLM NIL=
202205110500 METAR MRLM NIL=
202205110600 METAR MRLM NIL=
202205110700 METAR MRLM NIL=
202205110800 METAR MRLM NIL=
202205110900 METAR MRLM NIL=
202205111000 METAR MRLM NIL=
202205111100 METAR MRLM NIL=
202205111200 METAR MRLM 111200Z 23004KT CAVOK 23/21 A2984=
202205111300 METAR MRLM 111300Z 23004KT CAVOK 25/23 A2986=
202205111400 METAR MRLM 111400Z 27003KT CAVOK 28/23 A2988=
202205111500 METAR MRLM 111500Z 05006KT CAVOK 30/24 A2987=
202205111600 METAR MRLM 111600Z 02010KT CAVOK 30/24 A2986=
202205111700 METAR MRLM 111700Z 02009KT CAVOK 31/23 A2985=
202205111800 METAR MRLM 111800Z 02010KT CAVOK 31/24 A2982=
202205111900 METAR MRLM 111900Z 01010KT CAVOK 31/25 A2979=
202205112000 METAR MRLM 112000Z 36011KT CAVOK 31/25 A2976=
202205112100 METAR MRLM 112100Z 36011KT CAVOK 30/25 A2974=
202205112200 METAR MRLM 112200Z 36009KT 9999 FEW030 SCT230 30/25 A2975=
202205112300 METAR MRLM 112300Z 01007KT 9999 FEW030 SCT140 29/25 A2977=
202205120000 METAR MRLM 120000Z 36007KT 9999 FEW025 SCT130 29/25 A2980=
202205120100 METAR MRLM NIL=
202205120200 METAR MRLM NIL=
202205120300 METAR MRLM NIL=
202205120400 METAR MRLM NIL=
202205120500 METAR MRLM NIL=
202205120600 METAR MRLM NIL=
202205120700 METAR MRLM NIL=
202205120800 METAR MRLM NIL=
202205120900 METAR MRLM NIL=
202205121000 METAR MRLM NIL=
202205121100 METAR MRLM NIL=
202205121200 METAR MRLM 121200Z 29006KT 9999 VCSH FEW015TCU BKN100 25/23 A2982=
202205121300 METAR MRLM 121300Z 30005KT 9999 VCSH FEW015TCU BKN100 26/24 A2984=
202205121400 METAR MRLM 121400Z 28005KT 6000 +DZ FEW010 OVC090 26/25 A2985=
202205121500 METAR MRLM 121500Z 29007KT 9999 FEW015 BKN100 27/24 A2985=
202205121600 METAR MRLM 121600Z 32007KT 9999 FEW020 SCT120 30/24 A2984=
202205121700 METAR MRLM 121700Z 35013KT 9999 FEW020 BKN120 28/25 A2983=
202205121800 METAR MRLM 121800Z 35011KT 9999 FEW020 SCT120 29/24 A2981=
202205121900 METAR MRLM 121900Z 36010KT 9999 FEW020 SCT120 29/24 A2978=
202205122000 METAR MRLM 122000Z 32009KT 9999 FEW020 BKN120 29/24 A2976=
202205122100 METAR MRLM 122100Z 30009KT 9999 SCT020 SCT120 28/24 A2974=
202205122200 METAR MRLM 122200Z 31009KT 9999 SCT020 BKN120 27/24 A2975=
202205122300 METAR MRLM 122300Z 31006KT 9999 VCSH FEW015TCU SCT020 BKN120 27/24 A2977=
202205130000 METAR MRLM 130000Z 27005KT 8000 +DZ VCSH SCT015TCU OVC100 26/24 A2979=
202205130100 METAR MRLM NIL=
202205130200 METAR MRLM NIL=
202205130300 METAR MRLM NIL=
202205130400 METAR MRLM NIL=
202205130500 METAR MRLM NIL=
202205130600 METAR MRLM NIL=
202205130700 METAR MRLM NIL=
202205130800 METAR MRLM NIL=
202205130900 METAR MRLM NIL=
202205131000 METAR MRLM NIL=
202205131100 METAR MRLM NIL=
202205131200 METAR MRLM 131200Z 28006KT 9999 FEW015 BKN100 24/22 A2984=
202205131300 METAR MRLM 131300Z 26007KT 9999 FEW015 BKN100 25/22 A2985=
202205131400 METAR MRLM 131400Z 26005KT 9999 FEW020 BKN100 26/23 A2986=
202205131500 METAR MRLM 131500Z 29006KT CAVOK 28/23 A2986=
202205131600 METAR MRLM 131600Z 30007KT 9999 FEW020 SCT120 30/24 A2986=
202205131700 METAR MRLM 131700Z 31007KT 9999 FEW020 SCT120 BKN220 30/23 A2984=
202205131800 METAR MRLM 131800Z 36013KT 9999 FEW020 BKN120 30/24 A2983=
202205131900 METAR MRLM 131900Z 35017KT 9999 FEW020 BKN120 29/24 A2981=
202205132000 METAR MRLM 132000Z 33012KT 9999 -DZ SCT015 BKN100 27/24 A2980=
202205132100 METAR MRLM 132100Z 32007KT 9999 +DZ SCT015 OVC100 26/24 A2980=
202205132200 METAR MRLM 132200Z 28006KT 8000 +DZ VCSH FEW010TCU SCT015 OVC100 25/24 A2980=
202205132300 METAR MRLM 132300Z 27005KT 9999 SCT015 OVC100 24/23 A2981 REDZ=
202205140000 METAR MRLM 140000Z 26006KT 8000 +DZ VCSH SCT010TCU OVC080 24/23 A2984=
202205140100 METAR MRLM NIL=
202205140200 METAR MRLM NIL=
202205140300 METAR MRLM NIL=
202205140400 METAR MRLM NIL=
202205140500 METAR MRLM NIL=
202205140600 METAR MRLM NIL=
202205140700 METAR MRLM NIL=
202205140800 METAR MRLM NIL=
202205140900 METAR MRLM NIL=
202205141000 METAR MRLM NIL=
202205141100 METAR MRLM NIL=
202205141200 METAR MRLM 141200Z 00000KT 9999 FEW020 BKN090 23/23 A2985=
202205141300 METAR MRLM 141300Z 21003KT CAVOK 24/23 A2987=
202205141400 METAR MRLM 141400Z 22007KT CAVOK 26/24 A2987=
202205141500 METAR MRLM 141500Z 33003KT 9999 FEW030 SCT140 29/24 A2987=
202205141600 METAR MRLM 141600Z 01010KT 9999 FEW030 SCT140 29/24 A2988=
202205141700 METAR MRLM 141700Z 01011KT CAVOK 29/25 A2988=
202205141800 METAR MRLM 141800Z 01011KT 9999 FEW030 SCT130 29/25 A2986=
202205141900 METAR MRLM 141900Z 02008KT 9999 FEW025 SCT130 BKN230 27/24 A2984=
202205142000 METAR MRLM 142000Z 28004KT CAVOK 27/24 A2981=
202205142100 METAR MRLM 142100Z 28004KT 9999 -DZ SCT025 BKN120 27/24 A2980=
202205142200 METAR MRLM 142200Z 27003KT 9999 FEW020 BKN130 26/25 A2980=
202205142300 METAR MRLM 142300Z 00000KT 9999 -DZ FEW020 BKN130 26/25 A2982=
202205150000 METAR MRLM 150000Z 23003KT 9999 DZ FEW015 BKN130 26/24 A2986=
202205150100 METAR MRLM NIL=
202205150200 METAR MRLM NIL=
202205150300 METAR MRLM NIL=
202205150400 METAR MRLM NIL=
202205150500 METAR MRLM NIL=
202205150600 METAR MRLM NIL=
202205150700 METAR MRLM NIL=
202205150800 METAR MRLM NIL=
202205150900 METAR MRLM NIL=
202205151000 METAR MRLM NIL=
202205151100 METAR MRLM NIL=
202205151200 METAR MRLM 151200Z 24005KT CAVOK 23/22 A2985=
202205151300 METAR MRLM 151300Z 24004KT CAVOK 25/24 A2987=
202205151400 METAR MRLM 151400Z 30003KT CAVOK 27/24 A2988=
202205151500 METAR MRLM 151500Z 32004KT CAVOK 29/23 A2990=
202205151600 METAR MRLM 151600Z 30005KT 9999 FEW030 BKN140 30/23 A2988=
202205151700 METAR MRLM 151700Z 02012KT 9999 FEW030 SCT140 BKN250 30/25 A2988=
202205151800 METAR MRLM 151800Z 01011KT 9999 FEW030 BKN250 30/25 A2986=
202205151900 METAR MRLM 151900Z 02012KT 9999 FEW030 SCT140 BKN250 30/25 A2983=
202205152000 METAR MRLM 152000Z 03012KT 9999 FEW030 BKN250 28/25 A2981=
202205152100 METAR MRLM 152100Z 03004KT 9999 SCT025 28/25 A2980=
202205152200 METAR MRLM 152200Z 30004KT 9999 FEW025 SCT130 28/25 A2978=
202205152300 METAR MRLM 152300Z 32005KT CAVOK 27/25 A2979=
202205160000 METAR MRLM 160000Z 00000KT CAVOK 27/24 A2983=
202205160100 METAR MRLM NIL=
202205160200 METAR MRLM NIL=
202205160300 METAR MRLM NIL=
202205160400 METAR MRLM NIL=
202205160500 METAR MRLM NIL=
202205160600 METAR MRLM NIL=
202205160700 METAR MRLM NIL=
202205160800 METAR MRLM NIL=
202205160900 METAR MRLM NIL=
202205161000 METAR MRLM NIL=
202205161100 METAR MRLM NIL=
202205161200 METAR MRLM 161200Z 23002KT CAVOK 24/23 A2986=
202205161300 METAR MRLM 161300Z 25004KT CAVOK 26/23 A2988=
202205161400 METAR MRLM 161400Z 29005KT 9999 FEW025 SCT220 29/24 A2991=
202205161500 METAR MRLM 161500Z 32008KT 9999 FEW025 SCT220 30/25 A2993=
202205161600 METAR MRLM 161600Z 34010KT 9999 FEW020TCU FEW025 SCT220 31/25 A2990=
202205161700 METAR MRLM 161700Z 32009KT 9999 FEW025 SCT240 31/25 A2990=
202205161800 METAR MRLM 161800Z 36013KT 9999 FEW025 BKN240 30/26 A2988=
202205161900 METAR MRLM 161900Z 01013KT 9999 FEW025 BKN240 30/26 A2985=
202205162000 METAR MRLM 162000Z 35014KT 9999 FEW020 BKN220 29/25 A2984=
202205162100 METAR MRLM 162100Z 35014KT 9999 SCT020 BKN120 28/25 A2984=
202205162200 METAR MRLM 162200Z 35011KT 9999 SCT020 OVC120 28/24 A2984=
202205162300 METAR MRLM 162300Z 31002KT 9999 -DZ SCT020 OVC100 27/24 A2986=
202205170000 METAR MRLM 170000Z 26004KT 9999 DZ VCSH SCT015TCU OVC090 26/24 A2987=
202205170100 METAR MRLM NIL=
202205170200 METAR MRLM NIL=
202205170300 METAR MRLM NIL=
202205170400 METAR MRLM NIL=
202205170500 METAR MRLM NIL=
202205170600 METAR MRLM NIL=
202205170700 METAR MRLM NIL=
202205170800 METAR MRLM NIL=
202205170900 METAR MRLM NIL=
202205171000 METAR MRLM NIL=
202205171100 METAR MRLM NIL=
202205171200 METAR MRLM 171200Z 27004KT 9999 FEW015 SCT100 OVC200 25/23 A2993=
202205171300 METAR MRLM 171300Z 25002KT 9999 FEW015 SCT100 OVC200 26/24 A2996=
202205171400 METAR MRLM 171400Z 24004KT 9999 SCT015 OVC100 27/24 A2997=
202205171500 METAR MRLM 171500Z 27003KT 9999 -DZ SCT015 OVC100 27/24 A2999=
202205171600 METAR MRLM 171600Z 31003KT 9999 SCT015 OVC100 27/24 A3000=
202205171700 METAR MRLM 171700Z 32006KT 9999 -DZ SCT015 OVC100 28/24 A2998=
202205171800 METAR MRLM 171800Z 32007KT 9999 -DZ FEW015 OVC100 27/25 A2997=
202205171900 METAR MRLM 171900Z 32008KT 9999 FEW020 OVC120 27/24 A2994=
202205172000 METAR MRLM 172000Z 33012KT 9999 FEW020 BKN120 28/24 A2990=
202205172100 METAR MRLM 172100Z 34010KT 9999 FEW020 BKN120 28/24 A2989=
202205172200 METAR MRLM 172200Z 32008KT 9999 FEW020 BKN120 28/24 A2990=
202205172300 METAR MRLM 172300Z 30006KT 9999 FEW020 BKN120 27/24 A2990=
202205180000 METAR MRLM 180000Z 31005KT 9999 FEW015 BKN100 27/24 A2993=
202205180100 METAR MRLM NIL=
202205180200 METAR MRLM NIL=
202205180300 METAR MRLM NIL=
202205180400 METAR MRLM NIL=
202205180500 METAR MRLM NIL=
202205180600 METAR MRLM NIL=
202205180700 METAR MRLM NIL=
202205180800 METAR MRLM NIL=
202205180900 METAR MRLM NIL=
202205181000 METAR MRLM NIL=
202205181100 METAR MRLM NIL=
202205181200 METAR MRLM 181200Z 23004KT CAVOK 24/23 A2994=
202205181300 METAR MRLM 181300Z 00000KT 9999 SCT020 BKN100 24/24 A2996=
202205181400 METAR MRLM 181400Z 23004KT 9999 SCT025 BKN110 25/24 A2998=
202205181500 METAR MRLM 181500Z 00000KT 9999 FEW025 BKN110 26/24 A2999=
202205181600 METAR MRLM 181600Z 15003KT 9999 FEW025 BKN120 27/24 A2999=
202205181700 METAR MRLM 181700Z 11005KT 9999 FEW030 BKN120 28/25 A2997=
202205181800 METAR MRLM 181800Z 10004KT 9999 FEW030 BKN130 28/24 A2995=
202205181900 METAR MRLM 181900Z 00000KT 9999 FEW030 OVC130 28/24 A2992=
202205182000 METAR MRLM 182000Z 02006KT 9999 FEW030 OVC130 28/25 A2989=
202205182100 METAR MRLM 182100Z 03006KT 9999 FEW030 OVC140 28/25 A2987=
202205182200 METAR MRLM 182200Z 03003KT CAVOK 28/24 A2987=
202205182300 METAR MRLM 182300Z 04003KT CAVOK 28/25 A2989=
202205190000 METAR MRLM 190000Z 00000KT CAVOK 27/24 A2991=
202205190100 METAR MRLM NIL=
202205190200 METAR MRLM NIL=
202205190300 METAR MRLM NIL=
202205190400 METAR MRLM NIL=
202205190500 METAR MRLM NIL=
202205190600 METAR MRLM NIL=
202205190700 METAR MRLM NIL=
202205190800 METAR MRLM NIL=
202205190900 METAR MRLM NIL=
202205191000 METAR MRLM NIL=
202205191100 METAR MRLM NIL=
202205191200 METAR MRLM 191200Z 23003KT CAVOK 23/22 A2988=
202205191300 METAR MRLM 191300Z 21005KT 9999 FEW020 BKN130 24/22 A2991=
202205191400 METAR MRLM 191400Z 22003KT 9999 FEW030 BKN140 27/23 A2992=
202205191500 METAR MRLM 191500Z 06004KT CAVOK 28/22 A2993=
202205191600 METAR MRLM 191600Z 05004KT CAVOK 29/23 A2992=
202205191700 METAR MRLM 191700Z 05006KT CAVOK 29/24 A2991=
202205191800 METAR MRLM 191800Z 05007KT CAVOK 30/24 A2988=
202205191900 METAR MRLM 191900Z 04005KT 9999 FEW030 SCT230 29/24 A2986=
202205192000 METAR MRLM 192000Z 03005KT 9999 FEW030 SCT230 29/24 A2983=
202205192100 METAR MRLM 192100Z 05005KT 9999 FEW030 SCT140 BKN230 29/24 A2983=
202205192200 METAR MRLM 192200Z 05004KT 9999 BKN025 28/24 A2984=
202205192300 METAR MRLM 192300Z 22003KT 9999 DZ SCT020 BKN130 26/25 A2986=
202205200000 METAR MRLM 200000Z 22005KT 9999 -DZ SCT020 BKN120 25/24 A2990=
202205200100 METAR MRLM NIL=
202205200200 METAR MRLM NIL=
202205200300 METAR MRLM NIL=
202205200400 METAR MRLM NIL=
202205200500 METAR MRLM NIL=
202205200600 METAR MRLM NIL=
202205200700 METAR MRLM NIL=
202205200800 METAR MRLM NIL=
202205200900 METAR MRLM NIL=
202205201000 METAR MRLM NIL=
202205201100 METAR MRLM NIL=
202205201200 METAR MRLM 201200Z 23003KT 9999 FEW015TCU BKN200 23/22 A2990=
202205201300 METAR MRLM 201300Z 24003KT CAVOK 24/23 A2992=
202205201400 METAR MRLM 201400Z 22002KT CAVOK 27/24 A2993=
202205201500 METAR MRLM 201500Z 18003KT CAVOK 29/24 A2993=
202205201600 METAR MRLM 201600Z 03006KT CAVOK 29/24 A2993=
202205201700 METAR MRLM 201700Z 02007KT CAVOK 29/23 A2993=
202205201800 METAR MRLM 201800Z 04007KT CAVOK 30/24 A2991=
202205201900 METAR MRLM 201900Z 04006KT 9999 FEW025 SCT130 BKN240 30/24 A2989=
202205202000 METAR MRLM 202000Z 07007KT 9999 SCT025 SCT240 29/25 A2988=
202205202100 METAR MRLM 202100Z 10005KT 9999 SCT020 BKN120 29/25 A2987=
202205202200 METAR MRLM 202200Z 12006KT 9999 FEW020 BKN120 28/25 A2986=
202205202300 METAR MRLM 202300Z 18003KT 9999 SCT020 BKN120 27/24 A2987=
202205210000 METAR MRLM 210000Z 20002KT 9999 FEW015 BKN100 27/24 A2989=
202205210100 METAR MRLM NIL=
202205210200 METAR MRLM NIL=
202205210300 METAR MRLM NIL=
202205210400 METAR MRLM NIL=
202205210500 METAR MRLM NIL=
202205210600 METAR MRLM NIL=
202205210700 METAR MRLM NIL=
202205210800 METAR MRLM NIL=
202205210900 METAR MRLM NIL=
202205211000 METAR MRLM NIL=
202205211100 METAR MRLM NIL=
202205211200 METAR MRLM 211200Z 23003KT 9999 FEW015TCU BKN100 23/22 A2994=
202205211300 METAR MRLM 211300Z 23004KT 9999 FEW015TCU BKN100 24/23 A2996=
202205211400 METAR MRLM 211400Z 27003KT 9999 FEW015 OVC100 25/23 A2997=
202205211500 METAR MRLM 211500Z 00000KT 9999 FEW020 OVC100 26/24 A2998=
202205211600 METAR MRLM 211600Z 28003KT 9999 FEW020 OVC120 27/24 A2997=
202205211700 METAR MRLM 211700Z 30006KT 9999 FEW020 BKN120 28/23 A2996=
202205211800 METAR MRLM 211800Z 33008KT 9999 FEW020 BKN120 28/24 A2993=
202205211900 METAR MRLM 211900Z 32007KT 9999 FEW020 OVC120 28/24 A2992=
202205212000 METAR MRLM 212000Z 35009KT 9999 SCT020 OVC120 28/24 A2990=
202205212100 METAR MRLM 212100Z 36008KT 9999 FEW020 BKN120 27/24 A2988=
202205212200 METAR MRLM 212200Z 34008KT 9999 FEW020 SCT120 BKN220 27/23 A2988=
202205212300 METAR MRLM 212300Z 33005KT 9999 FEW020 SCT120 BKN220 27/24 A2991=
202205220000 METAR MRLM 220000Z 34006KT 9999 SCT015 BKN200 27/24 A2994=
202205220100 METAR MRLM NIL=
202205220200 METAR MRLM NIL=
202205220300 METAR MRLM NIL=
202205220400 METAR MRLM NIL=
202205220500 METAR MRLM NIL=
202205220600 METAR MRLM NIL=
202205220700 METAR MRLM NIL=
202205220800 METAR MRLM NIL=
202205220900 METAR MRLM NIL=
202205221000 METAR MRLM NIL=
202205221100 METAR MRLM NIL=
202205221200 METAR MRLM 221200Z 24002KT CAVOK 23/23 A2995=
202205221300 METAR MRLM 221300Z 21005KT CAVOK 26/24 A2996=
202205221400 METAR MRLM 221400Z 00000KT CAVOK 28/24 A2997=
202205221500 METAR MRLM 221500Z 05006KT 9999 FEW030 29/24 A2998=
202205221600 METAR MRLM 221600Z 03006KT 9999 FEW030 SCT250 29/24 A2996=
202205221700 METAR MRLM 221700Z 02007KT CAVOK 29/25 A2995=
202205221800 METAR MRLM 221800Z 03007KT CAVOK 30/25 A2993=
202205221900 METAR MRLM 221900Z 03007KT CAVOK 30/25 A2991=
202205222000 METAR MRLM 222000Z 02008KT CAVOK 30/25 A2989=
202205222100 METAR MRLM 222100Z 02007KT CAVOK 30/25 A2987=
202205222200 METAR MRLM 222200Z 02005KT CAVOK 29/25 A2987=
202205222300 METAR MRLM 222300Z 03004KT 9999 FEW025 SCT240 29/25 A2988=
202205230000 METAR MRLM 230000Z 04003KT 9999 SCT020 28/25 A2991=
202205230100 METAR MRLM NIL=
202205230200 METAR MRLM NIL=
202205230300 METAR MRLM NIL=
202205230400 METAR MRLM NIL=
202205230500 METAR MRLM NIL=
202205230600 METAR MRLM NIL=
202205230700 METAR MRLM NIL=
202205230800 METAR MRLM NIL=
202205230900 METAR MRLM NIL=
202205231000 METAR MRLM NIL=
202205231100 METAR MRLM NIL=
202205231200 METAR MRLM 231200Z 23004KT CAVOK 23/22 A2987=
202205231300 METAR MRLM 231300Z 23004KT 9999 FEW020 SCT130 BKN240 25/23 A2990=
202205231400 METAR MRLM 231400Z 00000KT 9999 FEW020 SCT130 BKN240 27/25 A2991=
202205231500 METAR MRLM 231500Z 00000KT 9999 BKN030 28/24 A2992=
202205231600 METAR MRLM 231600Z 04004KT CAVOK 29/25 A2990 REDZ=
202205231700 METAR MRLM 231700Z 07005KT CAVOK 30/25 A2988=
202205231800 METAR MRLM 231800Z 10007KT CAVOK 30/25 A2985=
202205231900 METAR MRLM 231900Z 08009KT CAVOK 30/25 A2983=
202205232000 METAR MRLM 232000Z 07011KT CAVOK 30/25 A2980=
202205232100 METAR MRLM 232100Z 08007KT 9999 SCT030 BKN230 29/25 A2980=
202205232200 METAR MRLM 232200Z 10008KT 9999 FEW025 BKN230 29/25 A2981=
202205232300 METAR MRLM 232300Z 09007KT 9999 SCT020 BKN230 28/25 A2982=
202205240000 METAR MRLM 240000Z 09005KT 9999 SCT020 BKN220 28/25 A2985=
202205240100 METAR MRLM NIL=
202205240200 METAR MRLM NIL=
202205240300 METAR MRLM NIL=
202205240400 METAR MRLM NIL=
202205240500 METAR MRLM NIL=
202205240600 METAR MRLM NIL=
202205240700 METAR MRLM NIL=
202205240800 METAR MRLM NIL=
202205240900 METAR MRLM NIL=
202205241000 METAR MRLM NIL=
202205241100 METAR MRLM NIL=
202205241200 METAR MRLM 241200Z 18004KT 8000 HZ FEW015 SCT100 OVC200 23/22 A2981=
202205241300 METAR MRLM 241300Z 18004KT 8000 HZ SCT015 OVC100 24/23 A2984=
202205241400 METAR MRLM 241400Z 14004KT 8000 DZ SCT015 OVC100 25/23 A2987=
202205241500 METAR MRLM 241500Z 13010KT 8000 -DZ FEW015 OVC100 25/24 A2988=
202205241600 METAR MRLM 241600Z 16004KT 7000 DZ FEW015 OVC090 25/23 A2989=
202205241700 METAR MRLM 241700Z 16004KT 9999 FEW015 BKN090 25/24 A2987 REDZ=
202205241800 METAR MRLM 241800Z 20004KT 9999 FEW020 BKN100 27/25 A2982=
202205241900 METAR MRLM 241900Z 08005KT 9999 FEW020 SCT100 BKN200 27/24 A2978=
202205242000 METAR MRLM 242000Z 03006KT CAVOK 28/25 A2975=
202205242100 METAR MRLM 242100Z 04005KT CAVOK 28/25 A2975=
202205242200 METAR MRLM 242200Z 01006KT CAVOK 28/25 A2976=
202205242300 METAR MRLM 242300Z 31006KT CAVOK 27/24 A2978=
202205250000 METAR MRLM 250000Z 29002KT CAVOK 27/24 A2979=
202205250100 METAR MRLM NIL=
202205250200 METAR MRLM NIL=
202205250300 METAR MRLM NIL=
202205250400 METAR MRLM NIL=
202205250500 METAR MRLM NIL=
202205250600 METAR MRLM NIL=
202205250700 METAR MRLM NIL=
202205250800 METAR MRLM NIL=
202205250900 METAR MRLM NIL=
202205251000 METAR MRLM NIL=
202205251100 METAR MRLM NIL=
202205251200 METAR MRLM 251200Z 25002KT 9999 FEW015TCU BKN200 23/22 A2983=
202205251300 METAR MRLM 251300Z 25004KT 9999 FEW015 BKN200 25/23 A2984=
202205251400 METAR MRLM 251400Z 27003KT CAVOK 28/25 A2985=
202205251500 METAR MRLM 251500Z 36003KT 9999 FEW025 BKN220 29/24 A2987=
202205251600 METAR MRLM 251600Z 01008KT 9999 FEW025 BKN120 29/24 A2986=
202205251700 METAR MRLM 251700Z 01008KT 9999 -DZ FEW025 BKN120 29/25 A2987=
202205251800 METAR MRLM 251800Z 02005KT CAVOK 28/25 A2985=
202205251900 METAR MRLM 251900Z 03004KT CAVOK 29/25 A2983=
202205252000 METAR MRLM 252000Z 07004KT 9999 FEW025 SCT120 BKN220 28/25 A2981=
202205252100 METAR MRLM 252100Z 08005KT CAVOK 29/25 A2979=
202205252200 METAR MRLM 252200Z 09004KT CAVOK 28/25 A2978=
202205252300 METAR MRLM 252300Z 08006KT 9999 FEW020 BKN220 28/25 A2980=
202205260000 METAR MRLM 260000Z 08005KT 9999 FEW015 BKN200 28/25 A2981=
202205260100 METAR MRLM NIL=
202205260200 METAR MRLM NIL=
202205260300 METAR MRLM NIL=
202205260400 METAR MRLM NIL=
202205260500 METAR MRLM NIL=
202205260600 METAR MRLM NIL=
202205260700 METAR MRLM NIL=
202205260800 METAR MRLM NIL=
202205260900 METAR MRLM NIL=
202205261000 METAR MRLM NIL=
202205261100 METAR MRLM NIL=
202205261200 METAR MRLM 261200Z 00000KT 8000 DZ VCSH FEW015TCU BKN090 25/24 A2990=
202205261300 METAR MRLM 261300Z 22004KT 9999 FEW015TCU BKN090 26/24 A2992 REDZ=
202205261400 METAR MRLM 261400Z 22003KT 9999 FEW020 BKN100 27/25 A2994=
202205261500 METAR MRLM 261500Z 24002KT 9999 FEW020 BKN100 28/25 A2994=
202205261600 METAR MRLM 261600Z 06003KT 9999 FEW020 BKN120 28/25 A2993=
202205261700 METAR MRLM 261700Z 04005KT 9999 FEW020 SCT120 BKN220 29/25 A2992=
202205261800 METAR MRLM 261800Z 05004KT 9999 FEW020 BKN220 29/25 A2989=
202205261900 METAR MRLM 261900Z 06005KT CAVOK 29/25 A2986=
202205262000 METAR MRLM 262000Z 05007KT CAVOK 30/25 A2983=
202205262100 METAR MRLM 262100Z 07006KT CAVOK 30/25 A2982=
202205262200 METAR MRLM 262200Z 11006KT CAVOK 30/25 A2982=
202205262300 METAR MRLM NIL=
202205270000 METAR MRLM NIL=
202205270100 METAR MRLM NIL=
202205270200 METAR MRLM NIL=
202205270300 METAR MRLM NIL=
202205270400 METAR MRLM NIL=
202205270500 METAR MRLM NIL=
202205270600 METAR MRLM NIL=
202205270700 METAR MRLM NIL=
202205270800 METAR MRLM NIL=
202205270900 METAR MRLM NIL=
202205271000 METAR MRLM NIL=
202205271100 METAR MRLM NIL=
202205271200 METAR MRLM 271200Z 23004KT 9999 FEW015TCU BKN200 23/22 A2989=
202205271300 METAR MRLM 271300Z 23005KT 9999 VCTS VCSH FEW010CB SCT100 BKN200 25/23 A2989=
202205271400 METAR MRLM 271400Z 22004KT 9999 VCSH FEW015TCU BKN100 26/24 A2992=
202205271500 METAR MRLM 271500Z 14005KT 8000 -DZ VCSH SCT010TCU OVC090 26/24 A2995=
202205271600 METAR MRLM 271600Z 11006KT 8000 DZ VCTS FEW010CB SCT015 OVC070 24/23 A2995 RERA=
202205271700 METAR MRLM 271700Z 20002KT 9999 -DZ FEW015 OVC090 25/23 A2993=
202205271800 METAR MRLM 271800Z 22003KT 9999 -DZ FEW015 OVC090 25/24 A2991=
202205271900 METAR MRLM 271900Z 19002KT CAVOK 25/24 A2986=
202205272000 METAR MRLM 272000Z 17003KT 9999 FEW020 OVC100 26/23 A2983=
202205272100 METAR MRLM 272100Z 28003KT CAVOK 27/24 A2981=
202205272200 METAR MRLM 272200Z 26003KT CAVOK 27/24 A2981=
202205272300 METAR MRLM NIL=
202205280000 METAR MRLM NIL=
202205280100 METAR MRLM NIL=
202205280200 METAR MRLM NIL=
202205280300 METAR MRLM NIL=
202205280400 METAR MRLM NIL=
202205280500 METAR MRLM NIL=
202205280600 METAR MRLM NIL=
202205280700 METAR MRLM NIL=
202205280800 METAR MRLM NIL=
202205280900 METAR MRLM NIL=
202205281000 METAR MRLM NIL=
202205281100 METAR MRLM NIL=
202205281200 METAR MRLM 281200Z 27002KT CAVOK 23/22 A2984=
202205281300 METAR MRLM 281300Z 24003KT CAVOK 24/23 A2986=
202205281400 METAR MRLM 281400Z 30002KT CAVOK 27/23 A2988=
202205281500 METAR MRLM 281500Z 31003KT CAVOK 28/23 A2988=
202205281600 METAR MRLM 281600Z 01006KT CAVOK 28/23 A2988=
202205281700 METAR MRLM 281700Z 03004KT CAVOK 29/24 A2988=
202205281800 METAR MRLM 281800Z 05005KT 9999 FEW025 SCT130 BKN240 29/24 A2987=
202205281900 METAR MRLM 281900Z 10010KT 9999 VCSH FEW020TCU BKN240 29/25 A2984=
202205282000 METAR MRLM 282000Z 09009KT 9999 FEW020TCU BKN240 28/24 A2981=
202205282100 METAR MRLM 282100Z 11008KT 9999 FEW020TCU BKN240 28/24 A2979=
202205282200 METAR MRLM 282200Z 11005KT 9999 FEW020 BKN120 28/24 A2978=
202205282300 METAR MRLM NIL=
202205290000 METAR MRLM NIL=
202205290100 METAR MRLM NIL=
202205290200 METAR MRLM NIL=
202205290300 METAR MRLM NIL=
202205290400 METAR MRLM NIL=
202205290500 METAR MRLM NIL=
202205290600 METAR MRLM NIL=
202205290700 METAR MRLM NIL=
202205290800 METAR MRLM NIL=
202205290900 METAR MRLM NIL=
202205291000 METAR MRLM NIL=
202205291100 METAR MRLM NIL=
202205291200 METAR MRLM 291200Z 27002KT 9999 FEW015 SCT100 24/23 A2980=
202205291300 METAR MRLM 291300Z 24004KT 9999 FEW015 SCT100 25/24 A2982=
202205291400 METAR MRLM 291400Z 28002KT 9999 FEW020 BKN200 28/25 A2984=
202205291500 METAR MRLM 291500Z 06004KT 9999 FEW020TCU BKN220 29/25 A2985=
202205291600 METAR MRLM 291600Z 06004KT 9999 FEW020 BKN220 29/25 A2986=
202205291700 METAR MRLM 291700Z 05004KT CAVOK 29/25 A2985=
202205291800 METAR MRLM 291800Z 05006KT CAVOK 29/25 A2981=
202205291900 METAR MRLM 291900Z 05006KT CAVOK 29/25 A2979=
202205292000 METAR MRLM 292000Z 06004KT 9999 FEW020TCU BKN240 29/25 A2976=
202205292100 METAR MRLM 292100Z 06005KT 9999 SCT020 BKN240 30/25 A2975=
202205292200 METAR MRLM 292200Z 06006KT 9999 SCT020 BKN220 30/25 A2975=
202205292300 METAR MRLM NIL=
202205300000 METAR MRLM NIL=
202205300100 METAR MRLM NIL=
202205300200 METAR MRLM NIL=
202205300300 METAR MRLM NIL=
202205300400 METAR MRLM NIL=
202205300500 METAR MRLM NIL=
202205300600 METAR MRLM NIL=
202205300700 METAR MRLM NIL=
202205300800 METAR MRLM NIL=
202205300900 METAR MRLM NIL=
202205301000 METAR MRLM NIL=
202205301100 METAR MRLM NIL=
202205301200 METAR MRLM 301200Z 23002KT 9999 FEW015 BKN100 24/23 A2982=
202205301300 METAR MRLM 301300Z 30002KT 9999 FEW015 BKN100 25/23 A2984=
202205301400 METAR MRLM 301400Z 30002KT 9999 FEW015TCU SCT100 OVC200 27/24 A2986=
202205301500 METAR MRLM 301500Z 31005KT 9999 FEW020 OVC200 28/24 A2987=
202205301600 METAR MRLM 301600Z 31005KT 9999 FEW020 OVC120 28/24 A2987=
202205301700 METAR MRLM 301700Z 33006KT 9999 FEW020 OVC120 29/24 A2986=
202205301800 METAR MRLM 301800Z 29002KT 9999 FEW020TCU OVC220 29/24 A2984=
202205301900 METAR MRLM 301900Z 02007KT 9999 FEW020 OVC220 29/25 A2983=
202205302000 METAR MRLM 302000Z 01005KT 9999 FEW020 OVC220 29/25 A2980=
202205302100 METAR MRLM 302100Z 35006KT 9999 FEW020 OVC120 28/24 A2978=
202205302200 METAR MRLM 302200Z 36005KT 9999 SCT020 OVC120 28/25 A2977=
202205302300 METAR MRLM NIL=
202205310000 METAR MRLM NIL=
202205310100 METAR MRLM NIL=
202205310200 METAR MRLM NIL=
202205310300 METAR MRLM NIL=
202205310400 METAR MRLM NIL=
202205310500 METAR MRLM NIL=
202205310600 METAR MRLM NIL=
202205310700 METAR MRLM NIL=
202205310800 METAR MRLM NIL=
202205310900 METAR MRLM NIL=
202205311000 METAR MRLM NIL=
202205311100 METAR MRLM NIL=
202205311200 METAR MRLM 311200Z 23004KT 9999 -DZ FEW015 BKN100 24/24 A2985=
202205311300 METAR MRLM 311300Z 23004KT 9999 FEW015 BKN100 25/25 A2986=
202205311400 METAR MRLM 311400Z 26002KT CAVOK 28/24 A2986=
202205311500 METAR MRLM 311500Z 16002KT CAVOK 30/24 A2985=
202205311600 METAR MRLM 311600Z 02008KT CAVOK 30/25 A2986=
202205311700 METAR MRLM 311700Z 03008KT 9999 FEW025 SCT240 30/25 A2985=
202205311800 METAR MRLM 311800Z 02008KT 9999 FEW025 SCT240 30/26 A2984=
202205311900 METAR MRLM 311900Z 05009KT 9999 FEW025 SCT240 30/26 A2980=
202205312000 METAR MRLM 312000Z 04005KT 9999 SCT020 SCT240 29/25 A2979=
202205312100 METAR MRLM 312100Z 10005KT 9999 SCT020 SCT240 29/25 A2978=
202205312200 METAR MRLM 312200Z 11005KT 9999 FEW020TCU SCT220 29/25 A2977=
202205312300 METAR MRLM NIL=
202206010000 METAR MRLM NIL=
202206010100 METAR MRLM NIL=
202206010200 METAR MRLM NIL=
202206010300 METAR MRLM NIL=
202206010400 METAR MRLM NIL=
202206010500 METAR MRLM NIL=
202206010600 METAR MRLM NIL=
202206010700 METAR MRLM NIL=
202206010800 METAR MRLM NIL=
202206010900 METAR MRLM NIL=
202206011000 METAR MRLM NIL=
202206011100 METAR MRLM NIL=
202206011200 METAR MRLM 011200Z 22003KT 9999 -DZ FEW015TCU BKN090 24/24 A2984=
202206011300 METAR MRLM 011300Z 22004KT 9999 FEW015 BKN090 25/24 A2985=
202206011400 METAR MRLM 011400Z 22003KT CAVOK 26/24 A2985=
202206011500 METAR MRLM 011500Z 25002KT CAVOK 28/24 A2985=
202206011600 METAR MRLM 011600Z 34003KT CAVOK 30/23 A2984=
202206011700 METAR MRLM 011700Z 36009KT CAVOK 29/24 A2983=
202206011800 METAR MRLM 011800Z 01009KT CAVOK 29/25 A2983=
202206011900 METAR MRLM 011900Z 01007KT CAVOK 29/25 A2980=
202206012000 METAR MRLM 012000Z 03005KT CAVOK 30/25 A2979=
202206012100 METAR MRLM 012100Z 06003KT CAVOK 29/24 A2977=
202206012200 METAR MRLM 012200Z 08003KT CAVOK 28/25 A2977=
202206012300 METAR MRLM NIL=
202206020000 METAR MRLM NIL=
202206020100 METAR MRLM NIL=
202206020200 METAR MRLM NIL=
202206020300 METAR MRLM NIL=
202206020400 METAR MRLM NIL=
202206020500 METAR MRLM NIL=
202206020600 METAR MRLM NIL=
202206020700 METAR MRLM NIL=
202206020800 METAR MRLM NIL=
202206020900 METAR MRLM NIL=
202206021000 METAR MRLM NIL=
202206021100 METAR MRLM NIL=
202206021200 METAR MRLM 021200Z 24002KT CAVOK 23/22 A2982=
202206021300 METAR MRLM 021300Z 23004KT CAVOK 25/24 A2984=
202206021400 METAR MRLM 021400Z 00000KT CAVOK 28/24 A2986=
202206021500 METAR MRLM 021500Z 12004KT 9999 FEW020 BKN120 28/24 A2988=
202206021600 METAR MRLM 021600Z 12006KT 9999 FEW020 BKN120 29/24 A2987=
202206021700 METAR MRLM 021700Z 11007KT 9999 FEW020 BKN120 29/24 A2986=
202206021800 METAR MRLM 021800Z 11007KT 9999 FEW025 BKN120 30/24 A2984=
202206021900 METAR MRLM 021900Z 10007KT 9999 FEW025 BKN120 30/24 A2982=
202206022000 METAR MRLM 022000Z 10006KT 9999 SCT020 BKN120 29/24 A2981=
202206022100 METAR MRLM 022100Z 15006KT 9999 +DZ VCSH SCT020TCU OVC100 27/25 A2981=
202206022200 METAR MRLM 022200Z 21006KT 8000 +DZ VCSH SCT015TCU OVC090 25/24 A2982=
202206022300 METAR MRLM NIL=
202206030000 METAR MRLM NIL=
202206030100 METAR MRLM NIL=
202206030200 METAR MRLM NIL=
202206030300 METAR MRLM NIL=
202206030400 METAR MRLM NIL=
202206030500 METAR MRLM NIL=
202206030600 METAR MRLM NIL=
202206030700 METAR MRLM NIL=
202206030800 METAR MRLM NIL=
202206030900 METAR MRLM NIL=
202206031000 METAR MRLM NIL=
202206031100 METAR MRLM NIL=
202206031200 METAR MRLM 031200Z 00000KT CAVOK 22/21 A2986=
202206031300 METAR MRLM 031300Z 23004KT CAVOK 25/22 A2985=
202206031400 METAR MRLM 031400Z 00000KT CAVOK 28/23 A2986=
202206031500 METAR MRLM 031500Z 09004KT CAVOK 29/22 A2988=
202206031600 METAR MRLM 031600Z 11005KT CAVOK 29/22 A2987=
202206031700 METAR MRLM 031700Z 12008KT CAVOK 29/23 A2986=
202206031800 METAR MRLM 031800Z 11011KT CAVOK 30/24 A2986=
202206031900 METAR MRLM 031900Z 11010KT CAVOK 30/24 A2983=
202206032000 METAR MRLM 032000Z 10010KT CAVOK 30/24 A2981=
202206032100 METAR MRLM 032100Z 10090KT CAVOK 30/24 A2979=
202206032200 METAR MRLM 032200Z 10008KT CAVOK 30/25 A2978=
202206032300 METAR MRLM 032300Z 11008KT CAVOK 29/24 A2979=
202206040000 METAR MRLM 040000Z 12004KT CAVOK 28/24 A2983=
202206040100 METAR MRLM NIL=
202206040200 METAR MRLM NIL=
202206040300 METAR MRLM NIL=
202206040400 METAR MRLM NIL=
202206040500 METAR MRLM NIL=
202206040600 METAR MRLM NIL=
202206040700 METAR MRLM NIL=
202206040800 METAR MRLM NIL=
202206040900 METAR MRLM NIL=
202206041000 METAR MRLM NIL=
202206041100 METAR MRLM NIL=
202206041200 METAR MRLM 041200Z 21005KT CAVOK 23/22 A2983=
202206041300 METAR MRLM 041300Z 22005KT CAVOK 27/23 A2984=
202206041400 METAR MRLM 041400Z 12004KT CAVOK 29/24 A2985=
202206041500 METAR MRLM 041500Z 11006KT CAVOK 30/23 A2985=
202206041600 METAR MRLM 041600Z 10008KT CAVOK 30/24 A2986=
202206041700 METAR MRLM 041700Z 09009KT CAVOK 30/24 A2985=
202206041800 METAR MRLM 041800Z 09009KT CAVOK 31/24 A2983=
202206041900 METAR MRLM 041900Z 07009KT CAVOK 30/25 A2982=
202206042000 METAR MRLM 042000Z 06007KT CAVOK 30/24 A2981=
202206042100 METAR MRLM 042100Z 04008KT CAVOK 30/25 A2979=
202206042200 METAR MRLM 042200Z 04005KT CAVOK 30/25 A2978=
202206042300 METAR MRLM 042300Z 05005KT CAVOK 29/24 A2978=
202206050000 METAR MRLM 050000Z 00000KT 9999 FEW025 BKN250 28/24 A2982=
202206050100 METAR MRLM NIL=
202206050200 METAR MRLM NIL=
202206050300 METAR MRLM NIL=
202206050400 METAR MRLM NIL=
202206050500 METAR MRLM NIL=
202206050600 METAR MRLM NIL=
202206050700 METAR MRLM NIL=
202206050800 METAR MRLM NIL=
202206050900 METAR MRLM NIL=
202206051000 METAR MRLM NIL=
202206051100 METAR MRLM NIL=
202206051200 METAR MRLM 051200Z 25005KT 9999 FEW015TCU SCT200 24/23 A2984=
202206051300 METAR MRLM 051300Z 23003KT 9999 FEW015 SCT200 27/24 A2985=
202206051400 METAR MRLM 051400Z 00000KT 9999 FEW020 SCT220 29/24 A2988=
202206051500 METAR MRLM 051500Z 05004KT 9999 FEW020 SCT220 29/25 A2988=
202206051600 METAR MRLM 051600Z 03006KT 9999 FEW020 SCT220 29/25 A2987=
202206051700 METAR MRLM 051700Z 04007KT CAVOK 30/25 A2985=
202206051800 METAR MRLM 051800Z 03007KT CAVOK 30/24 A2984=
202206051900 METAR MRLM 051900Z 07006KT CAVOK 30/25 A2981=
202206052000 METAR MRLM 052000Z 05008KT 9999 FEW025 SCT240 30/25 A2979=
202206052100 METAR MRLM 052100Z 04007KT 9999 FEW025 SCT240 30/25 A2979=
202206052200 METAR MRLM 052200Z 04006KT 9999 FEW025 BKN240 30/25 A2981=
202206052300 METAR MRLM 052300Z 06005KT 9999 FEW020 BKN220 29/25 A2982=
202206060000 METAR MRLM 060000Z 23002KT 9999 FEW015TCU BKN200 27/25 A2983=
202206060100 METAR MRLM NIL=
202206060200 METAR MRLM NIL=
202206060300 METAR MRLM NIL=
202206060400 METAR MRLM NIL=
202206060500 METAR MRLM NIL=
202206060600 METAR MRLM NIL=
202206060700 METAR MRLM NIL=
202206060800 METAR MRLM NIL=
202206060900 METAR MRLM NIL=
202206061000 METAR MRLM NIL=
202206061100 METAR MRLM NIL=
202206061200 METAR MRLM 061200Z 22005KT 9999 FEW015 BKN200 24/23 A2984=
202206061300 METAR MRLM 061300Z 24004KT 9999 FEW015 BKN200 26/24 A2986=
202206061400 METAR MRLM 061400Z 03003KT 9999 FEW020 SCT220 28/25 A2988=
202206061500 METAR MRLM 061500Z 04005KT 9999 FEW020 SCT220 28/25 A2989=
202206061600 METAR MRLM 061600Z 04005KT 9999 FEW020 SCT120 29/25 A2989=
202206061700 METAR MRLM 061700Z 06005KT 9999 FEW025 SCT220 30/25 A2986=
202206061800 METAR MRLM 061800Z 04007KT CAVOK 30/25 A2984=
202206061900 METAR MRLM 061900Z 04008KT CAVOK 30/25 A2982=
202206062000 METAR MRLM 062000Z 04006KT 9999 FEW025 BKN240 30/24 A2980=
202206062100 METAR MRLM 062100Z 05005KT CAVOK 30/24 A2979=
202206062200 METAR MRLM 062200Z 06005KT CAVOK 30/24 A2979=
202206062300 METAR MRLM 062300Z 08005KT CAVOK 29/24 A2981=
202206070000 METAR MRLM 070000Z 16003KT CAVOK 28/25 A2982=
202206070100 METAR MRLM NIL=
202206070200 METAR MRLM NIL=
202206070300 METAR MRLM NIL=
202206070400 METAR MRLM NIL=
202206070500 METAR MRLM NIL=
202206070600 METAR MRLM NIL=
202206070700 METAR MRLM NIL=
202206070800 METAR MRLM NIL=
202206070900 METAR MRLM NIL=
202206071000 METAR MRLM NIL=
202206071100 METAR MRLM NIL=
202206071200 METAR MRLM 071200Z 00000KT CAVOK 23/23 A2986=
202206071300 METAR MRLM 071300Z 00000KT CAVOK 25/23 A2988=
202206071400 METAR MRLM 071400Z 30004KT 9999 FEW020 SCT130 BKN240 28/24 A2989=
202206071500 METAR MRLM 071500Z 31004KT CAVOK 28/24 A2989=
202206071600 METAR MRLM 071600Z 00000KT CAVOK 28/24 A2990=
202206071700 METAR MRLM 071700Z 01007KT 9999 FEW025 SCT130 BKN230 29/24 A2989=
202206071800 METAR MRLM 071800Z 36008KT 9999 FEW025 SCT130 BKN230 29/24 A2986=
202206071900 METAR MRLM 071900Z 01008KT CAVOK 29/25 A2983=
202206072000 METAR MRLM 072000Z 02008KT CAVOK 29/25 A2981=
202206072100 METAR MRLM 072100Z 01009KT CAVOK 29/24 A2980=
202206072200 METAR MRLM 072200Z 03007KT CAVOK 29/24 A2981=
202206072300 METAR MRLM 072300Z 03004KT CAVOK 28/24 A2982=
202206080000 METAR MRLM NIL=
202206080100 METAR MRLM NIL=
202206080200 METAR MRLM NIL=
202206080300 METAR MRLM NIL=
202206080400 METAR MRLM NIL=
202206080500 METAR MRLM NIL=
202206080600 METAR MRLM NIL=
202206080700 METAR MRLM NIL=
202206080800 METAR MRLM NIL=
202206080900 METAR MRLM NIL=
202206081000 METAR MRLM NIL=
202206081100 METAR MRLM NIL=
202206081200 METAR MRLM 081200Z 23003KT CAVOK 23/22 A2986=
202206081300 METAR MRLM 081300Z 25003KT CAVOK 26/25 A2987=
202206081400 METAR MRLM 081400Z 30004KT CAVOK 29/23 A2987=
202206081500 METAR MRLM 081500Z 34005KT 9999 FEW030 BKN240 30/24 A2987=
202206081600 METAR MRLM 081600Z 01012KT 9999 FEW030 BKN240 30/25 A2987=
202206081700 METAR MRLM 081700Z 02010KT 9999 FEW030 BKN240 30/25 A2987=
202206081800 METAR MRLM 081800Z 02010KT CAVOK 30/25 A2984=
202206081900 METAR MRLM 081900Z 02007KT 9999 FEW030 SCT250 30/25 A2982=
202206082000 METAR MRLM 082000Z 04006KT 9999 FEW030 SCT240 29/24 A2980=
202206082100 METAR MRLM 082100Z 05005KT CAVOK 29/24 A2979=
202206082200 METAR MRLM 082200Z 05006KT 9999 FEW030 SCT240 29/24 A2980=
202206082300 METAR MRLM 082300Z 08006KT 9999 FEW030 SCT240 29/24 A2982=
202206090000 METAR MRLM 090000Z 08006KT 9999 FEW030 SCT240 29/24 A2982=
202206090100 METAR MRLM NIL=
202206090200 METAR MRLM NIL=
202206090300 METAR MRLM NIL=
202206090400 METAR MRLM NIL=
202206090500 METAR MRLM NIL=
202206090600 METAR MRLM NIL=
202206090700 METAR MRLM NIL=
202206090800 METAR MRLM NIL=
202206090900 METAR MRLM NIL=
202206091000 METAR MRLM NIL=
202206091100 METAR MRLM NIL=
202206091200 METAR MRLM 091200Z 22004KT 9999 VCSH FEW015TCU SCT090 23/22 A2988=
202206091300 METAR MRLM 091300Z 28002KT 9999 VCSH FEW015TCU BKN090 25/23 A2990=
202206091400 METAR MRLM 091400Z 26003KT 9999 FEW020 SCT100 28/23 A2991=
202206091500 METAR MRLM 091500Z 29005KT 9999 FEW020 BKN100 29/23 A2992=
202206091600 METAR MRLM 091600Z 32004KT 9999 FEW020 SCT120 BKN220 29/23 A2991=
202206091700 METAR MRLM 091700Z 34007KT 9999 VCSH FEW015TCU SCT020 OVC100 28/24 A2991=
202206091800 METAR MRLM 091800Z 02008KT 9999 DZ SCT020 OVC100 26/25 A2988=
202206091900 METAR MRLM 091900Z 36005KT 9999 SCT020 BKN100 26/24 A2986 REDZ=
202206092000 METAR MRLM 092000Z 07003KT 9999 FEW020 OVC120 27/24 A2984=
202206092100 METAR MRLM 092100Z 05004KT 9999 FEW020 OVC120 27/24 A2984=
202206092200 METAR MRLM 092200Z 09008KT 9999 SCT020 OVC120 28/24 A2983=
202206092300 METAR MRLM 092300Z 10007KT 9999 FEW020 SCT120 OVC220 27/24 A2983=
202206100000 METAR MRLM 100000Z 16002KT 9999 FEW015 SCT100 OVC200 26/24 A2983=
202206100100 METAR MRLM NIL=
202206100200 METAR MRLM NIL=
202206100300 METAR MRLM NIL=
202206100400 METAR MRLM NIL=
202206100500 METAR MRLM NIL=
202206100600 METAR MRLM NIL=
202206100700 METAR MRLM NIL=
202206100800 METAR MRLM NIL=
202206100900 METAR MRLM NIL=
202206101000 METAR MRLM NIL=
202206101100 METAR MRLM NIL=
202206101200 METAR MRLM 101200Z 23003KT CAVOK 22/22 A2983=
202206101300 METAR MRLM 101300Z 23003KT CAVOK 25/23 A2984=
202206101400 METAR MRLM 101400Z 00000KT 9999 FEW030 SCT240 28/24 A2987=
202206101500 METAR MRLM 101500Z 03006KT 9999 FEW030 SCT240 28/24 A2989=
202206101600 METAR MRLM 101600Z 03006KT 9999 FEW030 SCT240 28/24 A2989=
202206101700 METAR MRLM 101700Z 02007KT 9999 FEW030 BKN240 29/24 A2986=
202206101800 METAR MRLM 101800Z 02008KT CAVOK 30/25 A2984=
202206101900 METAR MRLM 101900Z 02009KT CAVOK 30/24 A2982=
202206102000 METAR MRLM 102000Z 02009KT CAVOK 30/24 A2982=
202206102100 METAR MRLM 102100Z 01008KT 9999 DZ BKN020 28/25 A2979=
202206102200 METAR MRLM 102200Z 36004KT 9999 DZ BKN020 28/25 A2978=
202206102300 METAR MRLM NIL=
202206110000 METAR MRLM NIL=
202206110100 METAR MRLM NIL=
202206110200 METAR MRLM NIL=
202206110300 METAR MRLM NIL=
202206110400 METAR MRLM NIL=
202206110500 METAR MRLM NIL=
202206110600 METAR MRLM NIL=
202206110700 METAR MRLM NIL=
202206110800 METAR MRLM NIL=
202206110900 METAR MRLM NIL=
202206111000 METAR MRLM NIL=
202206111100 METAR MRLM NIL=
202206111200 METAR MRLM 111200Z 23005KT CAVOK 23/23 A2984=
202206111300 METAR MRLM 111300Z 26003KT CAVOK 24/23 A2984=
202206111400 METAR MRLM 111400Z 30003KT CAVOK 27/24 A2986=
202206111500 METAR MRLM 111500Z 31004KT CAVOK 29/23 A2987=
202206111600 METAR MRLM 111600Z 33009KT 9999 FEW030 SCT140 BKN240 29/23 A2987=
202206111700 METAR MRLM 111700Z 35009KT 9999 FEW030 SCT140 BKN240 29/24 A2986=
202206111800 METAR MRLM 111800Z 01010KT 9999 SCT030 BKN240 29/25 A2984=
202206111900 METAR MRLM 111900Z 04016KT 9999 DZ BKN020 27/25 A2982=
202206112000 METAR MRLM 112000Z 04010KT 9999 DZ BKN020 27/25 A2979=
202206112100 METAR MRLM 112100Z 03005KT 9999 -DZ SCT020 BKN130 27/24 A2978=
202206112200 METAR MRLM 112200Z 24004KT 9999 DZ BKN015 26/25 A2979=
202206112300 METAR MRLM 112300Z 21006KT 5000 RA BKN010 25/24 A2980=
202206120000 METAR MRLM 120000Z 21005KT 3000 RA VCTS BKN010 24/24 A2984=
202206120100 METAR MRLM NIL=
202206120200 METAR MRLM NIL=
202206120300 METAR MRLM NIL=
202206120400 METAR MRLM NIL=
202206120500 METAR MRLM NIL=
202206120600 METAR MRLM NIL=
202206120700 METAR MRLM NIL=
202206120800 METAR MRLM NIL=
202206120900 METAR MRLM NIL=
202206121000 METAR MRLM NIL=
202206121100 METAR MRLM NIL=
202206121200 METAR MRLM 121200Z 21005KT 9999 FEW015 BKN130 23/23 A2984=
202206121300 METAR MRLM 121300Z 23004KT CAVOK 25/23 A2985=
202206121400 METAR MRLM 121400Z 27004KT 9999 SCT025 BKN130 28/23 A2986=
202206121500 METAR MRLM 121500Z 30007KT 9999 SCT025 BKN130 28/24 A2988=
202206121600 METAR MRLM 121600Z 27005KT 9999 FEW025 SCT130 BKN230 28/24 A2988=
202206121700 METAR MRLM 121700Z 29004KT 9999 SCT025 BKN230 28/24 A2988=
202206121800 METAR MRLM 121800Z 02005KT 9999 FEW030 SCT140 BKN230 29/24 A2986=
202206121900 METAR MRLM 121900Z 05004KT 9999 FEW030 SCT140 BKN230 29/24 A2984=
202206122000 METAR MRLM 122000Z 07005KT 9999 BKN020 28/24 A2983=
202206122100 METAR MRLM 122100Z 07004KT 9999 DZ BKN020 28/24 A2981=
202206122200 METAR MRLM 122200Z 30003KT 9999 4000NW DZ BKN015 25/23 A2981=
202206122300 METAR MRLM 122300Z 24004KT 9999 FEW015 BKN120 24/23 A2982 REDZ=
202206130000 METAR MRLM 130000Z 23004KT 9999 BKN015 24/23 A2985=
202206130100 METAR MRLM NIL=
202206130200 METAR MRLM NIL=
202206130300 METAR MRLM NIL=
202206130400 METAR MRLM NIL=
202206130500 METAR MRLM NIL=
202206130600 METAR MRLM NIL=
202206130700 METAR MRLM NIL=
202206130800 METAR MRLM NIL=
202206130900 METAR MRLM NIL=
202206131000 METAR MRLM NIL=
202206131100 METAR MRLM NIL=
202206131200 METAR MRLM 131200Z 26004KT 9999 FEW015 SCT100 BKN200 23/23 A2988=
202206131300 METAR MRLM 131300Z 00000KT 9999 FEW015 BKN100 24/24 A2991=
202206131400 METAR MRLM 131400Z 28002KT 9999 VCSH FEW015TCU SCT020 OVC100 25/24 A2993=
202206131500 METAR MRLM 131500Z 30006KT 9999 VCSH FEW015TCU BKN100 27/24 A2994=
202206131600 METAR MRLM 131600Z 33007KT 7000 DZ SCT015 OVC090 25/24 A2995=
202206131700 METAR MRLM 131700Z 34005KT 9000 -DZ FEW015 OVC090 25/24 A2993=
202206131800 METAR MRLM 131800Z 29004KT 9999 FEW020 BKN100 26/24 A2989 REDZ=
202206131900 METAR MRLM 131900Z 31006KT 9999 FEW020 SCT120 BKN220 27/24 A2985=
202206132000 METAR MRLM 132000Z 32006KT 9999 FEW020 SCT120 BKN220 28/23 A2981=
202206132100 METAR MRLM 132100Z 32006KT 9999 FEW020 BKN120 27/24 A2981=
202206132200 METAR MRLM 132200Z 35009KT 9999 FEW020 BKN120 27/24 A2982=
202206132300 METAR MRLM 132300Z 35012KT 9999 SCT020 BKN120 27/24 A2983=
202206140000 METAR MRLM 140000Z 35007KT 9999 SCT015 BKN100 27/24 A2985=
202206140100 METAR MRLM NIL=
202206140200 METAR MRLM NIL=
202206140300 METAR MRLM NIL=
202206140400 METAR MRLM NIL=
202206140500 METAR MRLM NIL=
202206140600 METAR MRLM NIL=
202206140700 METAR MRLM NIL=
202206140800 METAR MRLM NIL=
202206140900 METAR MRLM NIL=
202206141000 METAR MRLM NIL=
202206141100 METAR MRLM NIL=
202206141200 METAR MRLM 141200Z 26002KT 9999 VCSH FEW015TCU BKN200 23/22 A2983=
202206141300 METAR MRLM 141300Z 21002KT 9999 VCSH FEW015TCU BKN200 24/23 A2982=
202206141400 METAR MRLM 141400Z 06003KT 9999 FEW020 BKN200 26/23 A2984=
202206141500 METAR MRLM 141500Z 24002KT 9999 FEW020 SCT120 BKN220 28/24 A2986=
202206141600 METAR MRLM 141600Z 36007KT 9999 FEW020 BKN120 28/24 A2987=
202206141700 METAR MRLM 141700Z 34009KT 9999 FEW020 BKN120 28/24 A2988=
202206141800 METAR MRLM 141800Z 35012KT 9999 FEW020TCU BKN120 28/24 A2986=
202206141900 METAR MRLM 141900Z 32010KT 9999 FEW015TCU SCT020 BKN120 27/23 A2983=
202206142000 METAR MRLM 142000Z 30007KT 9999 VCSH FEW015TCU SCT020 OVC100 26/24 A2982=
202206142100 METAR MRLM 142100Z 30004KT 9999 VCSH SCT015TCU OVC100 27/24 A2981=
202206142200 METAR MRLM 142200Z 28007KT 4000 RA FEW010 OVC070 25/24 A2981=
202206142300 METAR MRLM 142300Z 34003KT 9999 VCSH FEW010TCU SCT015 OVC090 25/23 A2982 RERA=
202206150000 METAR MRLM 150000Z 27002KT 9999 -DZ SCT010 OVC080 25/23 A2984=
202206150100 METAR MRLM NIL=
202206150200 METAR MRLM NIL=
202206150300 METAR MRLM NIL=
202206150400 METAR MRLM NIL=
202206150500 METAR MRLM NIL=
202206150600 METAR MRLM NIL=
202206150700 METAR MRLM NIL=
202206150800 METAR MRLM NIL=
202206150900 METAR MRLM NIL=
202206151000 METAR MRLM NIL=
202206151100 METAR MRLM NIL=
202206151200 METAR MRLM 151200Z 00000KT CAVOK 23/22 A2980=
202206151300 METAR MRLM 151300Z 23004KT CAVOK 24/22 A2983=
202206151400 METAR MRLM 151400Z 26005KT 9999 FEW020 BKN140 27/23 A2985=
202206151500 METAR MRLM 151500Z 29005KT 9999 SCT030 BKN140 28/23 A2986=
202206151600 METAR MRLM 151600Z 02004KT 9999 SCT030 BKN140 29/24 A2986=
202206151700 METAR MRLM 151700Z 02006KT 9999 FEW030 BKN140 29/24 A2986=
202206151800 METAR MRLM 151800Z 01007KT 9999 FEW030 SCT140 BKN240 29/24 A2984=
202206151900 METAR MRLM 151900Z 03007KT 9999 SCT025 BKN140 29/24 A2982=
202206152000 METAR MRLM 152000Z 04006KT 9999 SCT025 BKN130 28/24 A2980=
202206152100 METAR MRLM 152100Z 00000KT 9999 DZ FEW025 BKN130 26/24 A2980=
202206152200 METAR MRLM 152200Z 26004KT 9999 DZ SCT020 BKN120 24/24 A2981=
202206152300 METAR MRLM 152300Z 24004KT 9999 DZ SCT020 BKN120 24/24 A2982=
202206160000 METAR MRLM 160000Z 00000KT 9999 DZ SCT015 BKN110 24/23 A2985=
202206160100 METAR MRLM NIL=
202206160200 METAR MRLM NIL=
202206160300 METAR MRLM NIL=
202206160400 METAR MRLM NIL=
202206160500 METAR MRLM NIL=
202206160600 METAR MRLM NIL=
202206160700 METAR MRLM NIL=
202206160800 METAR MRLM NIL=
202206160900 METAR MRLM NIL=
202206161000 METAR MRLM NIL=
202206161100 METAR MRLM NIL=
202206161200 METAR MRLM 161200Z 27005KT 9999 DZ SCT010 BKN090 23/22 A2990=
202206161300 METAR MRLM 161300Z 27005KT 9999 DZ SCT015 BKN090 23/22 A2990=
202206161400 METAR MRLM 161400Z 26003KT 9999 FEW020 BKN100 25/23 A2991 REDZ=
202206161500 METAR MRLM 161500Z 27004KT 9999 FEW020 BKN120 26/23 A2991=
202206161600 METAR MRLM 161600Z 31003KT 9999 FEW020 SCT130 BKN240 27/24 A2990=
202206161700 METAR MRLM 161700Z 02009KT 9999 FEW030 BKN240 28/24 A2988=
202206161800 METAR MRLM 161800Z 36009KT 9999 FEW030 BKN240 28/24 A2986=
202206161900 METAR MRLM 161900Z 01011KT 9999 FEW030 BKN240 28/24 A2985=
202206162000 METAR MRLM 162000Z 01010KT 9999 FEW030 SCT250 29/24 A2984=
202206162100 METAR MRLM 162100Z 01005KT 9999 VCTS FEW025 SCT240 27/24 A2983=
202206162200 METAR MRLM 162200Z 36004KT 9999 SCT020 27/24 A2983=
202206162300 METAR MRLM 162300Z 00000KT 9999 SCT020 27/24 A2984=
202206170000 METAR MRLM 170000Z 00000KT 9999 DZ BKN020 26/25 A2987=
202206170100 METAR MRLM NIL=
202206170200 METAR MRLM NIL=
202206170300 METAR MRLM NIL=
202206170400 METAR MRLM NIL=
202206170500 METAR MRLM NIL=
202206170600 METAR MRLM NIL=
202206170700 METAR MRLM NIL=
202206170800 METAR MRLM NIL=
202206170900 METAR MRLM NIL=
202206171000 METAR MRLM NIL=
202206171100 METAR MRLM NIL=
202206171200 METAR MRLM 171200Z 00000KT CAVOK 23/22 A2989=
202206171300 METAR MRLM 171300Z 00000KT CAVOK 23/23 A2990=
202206171400 METAR MRLM NIL=
202206171500 METAR MRLM 171500Z 25003KT CAVOK 27/23 A2991=
202206171600 METAR MRLM 171600Z 30005KT CAVOK 29/23 A2989=
202206171700 METAR MRLM 171700Z 29004KT CAVOK 30/23 A2989=
202206171800 METAR MRLM 171800Z 02007KT CAVOK 29/23 A2988=
202206171900 METAR MRLM 171900Z 02007KT CAVOK 29/23 A2987=
202206172000 METAR MRLM 172000Z 04005KT CAVOK 29/23 A2986=
202206172100 METAR MRLM 172100Z 08004KT 9999 FEW030 BKN240 29/24 A2983=
202206172200 METAR MRLM 172200Z 07003KT 9999 FEW030 BKN240 28/23 A2985=
202206172300 METAR MRLM NIL=
202206180000 METAR MRLM NIL=
202206180100 METAR MRLM NIL=
202206180200 METAR MRLM NIL=
202206180300 METAR MRLM NIL=
202206180400 METAR MRLM NIL=
202206180500 METAR MRLM NIL=
202206180600 METAR MRLM NIL=
202206180700 METAR MRLM NIL=
202206180800 METAR MRLM NIL=
202206180900 METAR MRLM NIL=
202206181000 METAR MRLM NIL=
202206181100 METAR MRLM NIL=
202206181200 METAR MRLM 181200Z 23006KT 9999 FEW015TCU BKN200 23/23 A2983=
202206181300 METAR MRLM 181300Z 25004KT 9999 FEW015 BKN200 25/24 A2985=
202206181400 METAR MRLM 181400Z 30003KT 9999 FEW020 BKN200 27/23 A2986=
202206181500 METAR MRLM 181500Z 31005KT 9999 FEW020 BKN200 29/23 A2988=
202206181600 METAR MRLM 181600Z 34007KT 9999 FEW020 BKN220 30/23 A2988=
202206181700 METAR MRLM 181700Z 02011KT 9999 FEW020 BKN220 30/24 A2987=
202206181800 METAR MRLM 181800Z 03009KT 9999 FEW030 BKN220 30/24 A2986=
202206181900 METAR MRLM 181900Z 04009KT CAVOK 30/24 A2984=
202206182000 METAR MRLM 182000Z 04010KT 9999 FEW020 OVC200 29/25 A2983=
202206182100 METAR MRLM 182100Z 06004KT 9999 FEW020 OVC120 28/24 A2981=
202206182200 METAR MRLM 182200Z 09002KT 9999 FEW020 OVC120 28/24 A2981=
202206182300 METAR MRLM 182300Z 20002KT CAVOK 27/25 A2979=
202206190000 METAR MRLM 190000Z 00000KT 9999 FEW015 OVC100 27/24 A2982=
202206190100 METAR MRLM NIL=
202206190200 METAR MRLM NIL=
202206190300 METAR MRLM NIL=
202206190400 METAR MRLM NIL=
202206190500 METAR MRLM NIL=
202206190600 METAR MRLM NIL=
202206190700 METAR MRLM NIL=
202206190800 METAR MRLM NIL=
202206190900 METAR MRLM NIL=
202206191000 METAR MRLM NIL=
202206191100 METAR MRLM NIL=
202206191200 METAR MRLM 191200Z 07003KT CAVOK 23/23 A2984=
202206191300 METAR MRLM 191300Z 23003KT CAVOK 25/23 A2985=
202206191400 METAR MRLM 191400Z 00000KT CAVOK 28/23 A2986=
202206191500 METAR MRLM 191500Z 07004KT CAVOK 29/23 A2987=
202206191600 METAR MRLM 191600Z 05005KT 9999 FEW030 BKN140 29/23 A2988=
202206191700 METAR MRLM 191700Z 06007KT 9999 FEW030 BKN130 29/24 A2987=
202206191800 METAR MRLM 191800Z 06004KT CAVOK 29/24 A2986=
202206191900 METAR MRLM 191900Z 06006KT 9999 SCT030 29/24 A2983=
202206192000 METAR MRLM 192000Z 05007KT 9999 FEW030 SCT250 29/23 A2981=
202206192100 METAR MRLM 192100Z 06006KT 9999 FEW030 BKN250 29/25 A2980=
202206192200 METAR MRLM 192200Z 08005KT 9999 FEW030 BKN250 29/24 A2979=
202206192300 METAR MRLM 192300Z 08006KT 9999 SCT025 29/24 A2981=
202206200000 METAR MRLM 200000Z 07006KT 9999 BKN020 28/24 A2985=
202206200100 METAR MRLM NIL=
202206200200 METAR MRLM NIL=
202206200300 METAR MRLM NIL=
202206200400 METAR MRLM NIL=
202206200500 METAR MRLM NIL=
202206200600 METAR MRLM NIL=
202206200700 METAR MRLM NIL=
202206200800 METAR MRLM NIL=
202206200900 METAR MRLM NIL=
202206201000 METAR MRLM NIL=
202206201100 METAR MRLM NIL=
202206201200 METAR MRLM 201200Z 36003KT 8000 +DZ SCT015 BKN100 24/23 A2990=
202206201300 METAR MRLM 201300Z 26003KT 9999 FEW015 BKN100 24/24 A2990 REDZ=
202206201400 METAR MRLM 201400Z 23003KT CAVOK 26/25 A2989=
202206201500 METAR MRLM 201500Z 07003KT CAVOK 27/24 A2989=
202206201600 METAR MRLM 201600Z 09006KT CAVOK 28/24 A2989=
202206201700 METAR MRLM 201700Z 07005KT CAVOK 28/24 A2989=
202206201800 METAR MRLM 201800Z 07006KT CAVOK 28/24 A2988=
202206201900 METAR MRLM 201900Z 07007KT CAVOK 29/24 A2985=
202206202000 METAR MRLM 202000Z 08007KT CAVOK 29/25 A2983=
202206202100 METAR MRLM 202100Z 07004KT 9999 SCT025 BKN240 28/24 A2983=
202206202200 METAR MRLM 202200Z 05004KT 9999 SCT025 BKN240 29/24 A2983=
202206202300 METAR MRLM 202300Z 01004KT 9999 SCT025 BKN140 28/24 A2984=
202206210000 METAR MRLM 210000Z 00000KT 9999 SCT020 BKN130 28/25 A2987=
202206210100 METAR MRLM NIL=
202206210200 METAR MRLM NIL=
202206210300 METAR MRLM NIL=
202206210400 METAR MRLM NIL=
202206210500 METAR MRLM NIL=
202206210600 METAR MRLM NIL=
202206210700 METAR MRLM NIL=
202206210800 METAR MRLM NIL=
202206210900 METAR MRLM NIL=
202206211000 METAR MRLM NIL=
202206211100 METAR MRLM NIL=
202206211200 METAR MRLM 211200Z 25004KT 9999 FEW015TCU BKN200 23/23 A2988=
202206211300 METAR MRLM 211300Z 23004KT 9999 VCSH FEW015TCU SCT020 BKN200 25/23 A2990=
202206211400 METAR MRLM 211400Z 27003KT 9999 VCSH FEW015TCU BKN200 27/24 A2990=
202206211500 METAR MRLM 211500Z 27003KT 9999 VCSH FEW020TCU BKN120 28/24 A2991=
202206211600 METAR MRLM 211600Z 05004KT 9999 VCSH FEW020TCU SCT120 BKN220 29/24 A2991=
202206211700 METAR MRLM 211700Z 03007KT 9999 VCTS VCSH FEW010CB SCT020 BKN120 29/24 A2991=
202206211800 METAR MRLM 211800Z 04008KT 9999 SCT020 BKN120 29/25 A2990=
202206211900 METAR MRLM 211900Z 04007KT 9999 DZ VCSH FEW015TCU SCT020 OVC100 28/24 A2989=
202206212000 METAR MRLM 212000Z 12009KT 9999 DZ SCT015 OVC100 27/24 A2987=
202206212100 METAR MRLM 212100Z 13007KT 9999 DZ VCSH FEW015TCU OVC100 27/24 A2985=
202206212200 METAR MRLM 212200Z 16003KT 9999 FEW020 SCT120 BKN220 26/24 A2986 REDZ=
202206212300 METAR MRLM 212300Z 21002KT CAVOK 26/24 A2986=
202206220000 METAR MRLM 220000Z 24004KT 9999 FEW015 SCT100 BKN200 25/24 A2987=
202206220100 METAR MRLM NIL=
202206220200 METAR MRLM NIL=
202206220300 METAR MRLM NIL=
202206220400 METAR MRLM NIL=
202206220500 METAR MRLM NIL=
202206220600 METAR MRLM NIL=
202206220700 METAR MRLM NIL=
202206220800 METAR MRLM NIL=
202206220900 METAR MRLM NIL=
202206221000 METAR MRLM NIL=
202206221100 METAR MRLM NIL=
202206221200 METAR MRLM 221200Z 23005KT 9999 FEW015TCU SCT100 BKN200 23/22 A2984=
202206221300 METAR MRLM 221300Z 25004KT 9999 VCSH FEW015TCU SCT100 BKN200 24/22 A2986=
202206221400 METAR MRLM 221400Z 09015KT 9999 VCSH FEW015TCU SCT020 OVC100 25/23 A2989=
202206221500 METAR MRLM 221500Z 19002KT 9999 VCSH FEW015TCU OVC100 25/23 A2989=
202206221600 METAR MRLM 221600Z 03006KT 9999 VCSH FEW010TCU SCT015 OVC090 25/23 A2989=
202206221700 METAR MRLM 221700Z 00000KT 9999 FEW015 OVC100 26/23 A2987=
202206221800 METAR MRLM 221800Z 29002KT 9999 FEW020 OVC100 26/23 A2985=
202206221900 METAR MRLM 221900Z 04003KT 9999 FEW020 OVC120 27/23 A2983=
202206222000 METAR MRLM 222000Z 36006KT CAVOK 27/23 A2981=
202206222100 METAR MRLM 222100Z 03005KT CAVOK 27/23 A2978=
202206222200 METAR MRLM 222200Z 02005KT CAVOK 27/23 A2977=
202206222300 METAR MRLM 222300Z 36004KT CAVOK 28/23 A2978=
202206230000 METAR MRLM 230000Z 28002KT CAVOK 26/24 A2981=
202206230100 METAR MRLM NIL=
202206230200 METAR MRLM NIL=
202206230300 METAR MRLM NIL=
202206230400 METAR MRLM NIL=
202206230500 METAR MRLM NIL=
202206230600 METAR MRLM NIL=
202206230700 METAR MRLM NIL=
202206230800 METAR MRLM NIL=
202206230900 METAR MRLM NIL=
202206231000 METAR MRLM NIL=
202206231100 METAR MRLM NIL=
202206231200 METAR MRLM 231200Z 00000KT 9999 FEW015 BKN230 22/22 A2983=
202206231300 METAR MRLM 231300Z 00000KT CAVOK 25/23 A2984=
202206231400 METAR MRLM 231400Z 30006KT CAVOK 27/23 A2985=
202206231500 METAR MRLM 231500Z 31007KT 9999 SCT030 BKN240 28/24 A2985=
202206231600 METAR MRLM 231600Z 36010KT 9999 FEW030 BKN240 29/25 A2984=
202206231700 METAR MRLM 231700Z 01010KT 9999 FEW030 BKN240 29/25 A2982=
202206231800 METAR MRLM 231800Z 36011KT CAVOK 29/24 A2981=
202206231900 METAR MRLM 231900Z 36013KT CAVOK 29/24 A2978=
202206232000 METAR MRLM 232000Z 01014KT 9999 FEW030 BKN250 29/25 A2977=
202206232100 METAR MRLM 232100Z 01014KT 9999 BKN020 28/24 A2975=
202206232200 METAR MRLM 232200Z 02012KT 9999 DZ BKN020 27/24 A2978=
202206232300 METAR MRLM 232300Z 31004KT 9999 DZ BKN015 26/24 A2979=
202206240000 METAR MRLM 240000Z 01011KT 9999 DZ BKN015 25/24 A2983=
202206240100 METAR MRLM NIL=
202206240200 METAR MRLM NIL=
202206240300 METAR MRLM NIL=
202206240400 METAR MRLM NIL=
202206240500 METAR MRLM NIL=
202206240600 METAR MRLM NIL=
202206240700 METAR MRLM NIL=
202206240800 METAR MRLM NIL=
202206240900 METAR MRLM NIL=
202206241000 METAR MRLM NIL=
202206241100 METAR MRLM NIL=
202206241200 METAR MRLM 241200Z 28004KT 9999 -DZ SCT015 BKN100 23/23 A2987=
202206241300 METAR MRLM 241300Z 26005KT 9999 SCT020 BKN100 23/23 A2989=
202206241400 METAR MRLM 241400Z 27006KT 9999 FEW020 BKN110 24/23 A2991=
202206241500 METAR MRLM 241500Z 25007KT 9999 SCT020 BKN110 25/23 A2993=
202206241600 METAR MRLM 241600Z 25006KT 9999 FEW020 BKN120 26/24 A2991=
202206241700 METAR MRLM 241700Z 27004KT 9999 VCSH SCT020 BKN120 26/23 A2990=
202206241800 METAR MRLM 241800Z 00000KT 9999 3000N RA BKN020 27/23 A2989=
202206241900 METAR MRLM 241900Z 16005KT 9999 -DZ BKN020 24/23 A2987 RERA=
202206242000 METAR MRLM 242000Z 21004KT 9999 SCT020 BKN100 24/23 A2985=
202206242100 METAR MRLM 242100Z 21003KT 9999 VCTS SCT020 BKN110 25/24 A2984=
202206242200 METAR MRLM 242200Z 00000KT 9999 4000N RA BKN015 26/24 A2983=
202206242300 METAR MRLM 242300Z 32006KT 8000 3000N DZ BKN015 24/23 A2985 RERA=
202206250000 METAR MRLM 250000Z 27003KT 8000 DZ SCT010 BKN090 23/22 A2989=
202206250100 METAR MRLM NIL=
202206250200 METAR MRLM NIL=
202206250300 METAR MRLM NIL=
202206250400 METAR MRLM NIL=
202206250500 METAR MRLM NIL=
202206250600 METAR MRLM NIL=
202206250700 METAR MRLM NIL=
202206250800 METAR MRLM NIL=
202206250900 METAR MRLM NIL=
202206251000 METAR MRLM NIL=
202206251100 METAR MRLM NIL=
202206251200 METAR MRLM 251200Z 23004KT 9999 FEW015 SCT100 23/22 A2989=
202206251300 METAR MRLM 251300Z 25003KT 9999 FEW015 SCT100 25/23 A2992=
202206251400 METAR MRLM 251400Z 27002KT CAVOK 27/23 A2994=
202206251500 METAR MRLM 251500Z 29003KT CAVOK 27/23 A2994=
202206251600 METAR MRLM 251600Z 27003KT CAVOK 28/24 A2993=
202206251700 METAR MRLM 251700Z 04003KT CAVOK 28/24 A2992=
202206251800 METAR MRLM 251800Z 02006KT 9999 FEW020 BKN120 28/24 A2990=
202206251900 METAR MRLM 251900Z 03005KT 9999 FEW020 SCT120 BKN220 29/24 A2987=
202206252000 METAR MRLM 252000Z 01009KT CAVOK 29/24 A2985=
202206252100 METAR MRLM 252100Z 01008KT CAVOK 29/23 A2984=
202206252200 METAR MRLM 252200Z 36007KT CAVOK 28/24 A2984=
202206252300 METAR MRLM 252300Z 35008KT 9999 FEW020 BKN220 28/24 A2986=
202206260000 METAR MRLM 260000Z 36007KT 9999 SCT015 BKN200 28/24 A2988=
202206260100 METAR MRLM NIL=
202206260200 METAR MRLM NIL=
202206260300 METAR MRLM NIL=
202206260400 METAR MRLM NIL=
202206260500 METAR MRLM NIL=
202206260600 METAR MRLM NIL=
202206260700 METAR MRLM NIL=
202206260800 METAR MRLM NIL=
202206260900 METAR MRLM NIL=
202206261000 METAR MRLM NIL=
202206261100 METAR MRLM NIL=
202206261200 METAR MRLM 261200Z 22003KT 9999 DZ SCT015 OVC110 23/23 A2991=
202206261300 METAR MRLM 261300Z 28003KT 9999 SCT015 OVC110 24/23 A2993 REDZ=
202206261400 METAR MRLM 261400Z 28005KT 9999 SCT015 OVC110 24/23 A2993=
202206261500 METAR MRLM 261500Z 29004KT 9999 DZ VCSH SCT015TCU OVC100 24/23 A2995=
202206261600 METAR MRLM 261600Z 31007KT 9999 DZ SCT010 OVC100 23/22 A2996=
202206261700 METAR MRLM 261700Z 30004KT 9999 DZ SCT010 OVC090 24/23 A2996=
202206261800 METAR MRLM 261800Z 27004KT 9999 -DZ SCT010 OVC090 24/23 A2995=
202206261900 METAR MRLM 261900Z 26004KT 9999 SCT015 OVC100 25/23 A2993 REDZ=
202206262000 METAR MRLM 262000Z 28004KT 9999 SCT015 OVC100 26/23 A2990=
202206262100 METAR MRLM 262100Z 30004KT 9999 SCT015 OVC100 26/23 A2989=
202206262200 METAR MRLM 262200Z 28003KT 9999 FEW015 OVC100 26/23 A2988=
202206262300 METAR MRLM 262300Z 29002KT CAVOK 25/23 A2988=
202206270000 METAR MRLM 270000Z 00000KT 9999 FEW015 BKN100 24/23 A2988=
202206270100 METAR MRLM NIL=
202206270200 METAR MRLM NIL=
202206270300 METAR MRLM NIL=
202206270400 METAR MRLM NIL=
202206270500 METAR MRLM NIL=
202206270600 METAR MRLM NIL=
202206270700 METAR MRLM NIL=
202206270800 METAR MRLM NIL=
202206270900 METAR MRLM NIL=
202206271000 METAR MRLM NIL=
202206271100 METAR MRLM NIL=
202206271200 METAR MRLM 271200Z 27004KT 8000 DZ SCT015 BKN100 23/22 A2991=
202206271300 METAR MRLM 271300Z 29003KT 9999 4000N +DZ SCT010 BKN100 23/23 A2994=
202206271400 METAR MRLM 271400Z 27005KT 3000 RA BKN015 23/23 A2997=
202206271500 METAR MRLM 271500Z 31005KT 3000 -RA BKN015 23/23 A3001=
202206271600 METAR MRLM 271600Z 27005KT 8000 +DZ SCT015 OVC100 23/23 A3002=
202206271700 METAR MRLM 271700Z 28006KT 8000 DZ SCT015 OVC100 24/24 A3002=
202206271800 METAR MRLM 271800Z 29006KT 9999 DZ BKN015 24/22 A2999=
202206271900 METAR MRLM 271900Z 31005KT 9999 SCT020 OVC100 24/22 A2996 REDZ=
202206272000 METAR MRLM 272000Z 28005KT 9999 FEW030 BKN120 25/23 A2993=
202206272100 METAR MRLM 272100Z 30006KT 9999 FEW030 BKN130 26/23 A2990=
202206272200 METAR MRLM 272200Z 26003KT CAVOK 26/23 A2989=
202206272300 METAR MRLM 272300Z 00000KT CAVOK 26/24 A2990=
202206280000 METAR MRLM 280000Z 00000KT CAVOK 25/24 A2994=
202206280100 METAR MRLM NIL=
202206280200 METAR MRLM NIL=
202206280300 METAR MRLM NIL=
202206280400 METAR MRLM NIL=
202206280500 METAR MRLM NIL=
202206280600 METAR MRLM NIL=
202206280700 METAR MRLM NIL=
202206280800 METAR MRLM NIL=
202206280900 METAR MRLM NIL=
202206281000 METAR MRLM NIL=
202206281100 METAR MRLM NIL=
202206281200 METAR MRLM 281200Z 30003KT CAVOK 23/22 A2993=
202206281300 METAR MRLM 281300Z 23004KT CAVOK 25/22 A2994=
202206281400 METAR MRLM 281400Z 30003KT CAVOK 28/22 A2997=
202206281500 METAR MRLM 281500Z 05003KT CAVOK 28/23 A2998=
202206281600 METAR MRLM 281600Z 28003KT CAVOK 29/23 A2997=
202206281700 METAR MRLM 281700Z 02009KT CAVOK 30/24 A2995=
202206281800 METAR MRLM 281800Z 01010KT CAVOK 30/23 A2993=
202206281900 METAR MRLM 281900Z 01009KT CAVOK 29/24 A2991=
202206282000 METAR MRLM 282000Z 01010KT CAVOK 29/24 A2990=
202206282100 METAR MRLM 282100Z 36010KT CAVOK 29/24 A2990=
202206282200 METAR MRLM 282200Z 01010KT 9999 SCT025 BKN130 28/25 A2989=
202206282300 METAR MRLM 282300Z 03008KT 9999 FEW025 BKN130 28/24 A2990=
202206290000 METAR MRLM 290000Z 03007KT 9999 FEW020 BKN130 27/24 A2994=
202206290100 METAR MRLM NIL=
202206290200 METAR MRLM NIL=
202206290300 METAR MRLM NIL=
202206290400 METAR MRLM NIL=
202206290500 METAR MRLM NIL=
202206290600 METAR MRLM NIL=
202206290700 METAR MRLM NIL=
202206290800 METAR MRLM NIL=
202206290900 METAR MRLM NIL=
202206291000 METAR MRLM NIL=
202206291100 METAR MRLM NIL=
202206291200 METAR MRLM 291200Z 25003KT CAVOK 23/23 A2993=
202206291300 METAR MRLM 291300Z 00000KT CAVOK 25/23 A2995=
202206291400 METAR MRLM 291400Z 29003KT CAVOK 27/24 A2995=
202206291500 METAR MRLM 291500Z 07004KT 9999 FEW030 BKN140 28/25 A2996=
202206291600 METAR MRLM 291600Z 03008KT 9999 FEW030 BKN140 28/24 A2995=
202206291700 METAR MRLM 291700Z 01010KT 9999 FEW030 BKN240 28/24 A2995=
202206291800 METAR MRLM 291800Z 01010KT CAVOK 29/24 A2992=
202206291900 METAR MRLM 291900Z 36011KT CAVOK 30/24 A2990=
202206292000 METAR MRLM 292000Z 36012KT CAVOK 30/24 A2989=
202206292100 METAR MRLM 292100Z 35010KT 9999 FEW030 BKN240 29/25 A2988=
202206292200 METAR MRLM 292200Z 35011KT 9999 SCT030 BKN240 29/24 A2991=
202206292300 METAR MRLM NIL=
202206300000 METAR MRLM NIL=
202206300100 METAR MRLM NIL=
202206300200 METAR MRLM NIL=
202206300300 METAR MRLM NIL=
202206300400 METAR MRLM NIL=
202206300500 METAR MRLM NIL=
202206300600 METAR MRLM NIL=
202206300700 METAR MRLM NIL=
202206300800 METAR MRLM NIL=
202206300900 METAR MRLM NIL=
202206301000 METAR MRLM NIL=
202206301100 METAR MRLM NIL=
202206301200 METAR MRLM 301200Z 27004KT 9999 VCSH SCT015TCU BKN200 23/23 A2991=
202206301300 METAR MRLM 301300Z 25005KT 9999 VCSH SCT015TCU BKN200 24/24 A2991=
202206301400 METAR MRLM 301400Z 26004KT 9999 VCSH FEW015TCU SCT100 OVC200 25/24 A2992=
202206301500 METAR MRLM 301500Z 30002KT 4000 RA FEW010 OVC070 26/24 A2996=
202206301600 METAR MRLM 301600Z 31004KT 9999 VCSH FEW010TCU SCT015 BKN080 25/24 A2996=
202206301700 METAR MRLM 301700Z 22005KT 9999 VCSH FEW010TCU SCT015 BKN080 26/24 A2995=
202206301800 METAR MRLM 301800Z 21004KT 4000 +RA SCT010 OVC080 26/24 A2994=
202206301900 METAR MRLM 301900Z 21005KT 8000 HZ VCSH SCT010TCU BKN080 26/24 A2991 RERA=
202206302000 METAR MRLM 302000Z 20005KT 8000 DZ VCSH SCT010TCU BKN080 25/23 A2989=
202206302100 METAR MRLM 302100Z 23003KT 9999 FEW015 BKN100 25/23 A2986 REDZ=
202206302200 METAR MRLM 302200Z 36004KT 9999 DZ VCSH FEW015TCU OVC100 28/23 A2987=
202206302300 METAR MRLM 302300Z 02004KT 9999 SCT015 BKN090 25/23 A2988=
202207010000 METAR MRLM 010000Z 32002KT 9999 -DZ SCT015 BKN090 25/23 A2989=
202207010100 METAR MRLM NIL=
202207010200 METAR MRLM NIL=
202207010300 METAR MRLM NIL=
202207010400 METAR MRLM NIL=
202207010500 METAR MRLM NIL=
202207010600 METAR MRLM NIL=
202207010700 METAR MRLM NIL=
202207010800 METAR MRLM NIL=
202207010900 METAR MRLM NIL=
202207011000 METAR MRLM NIL=
202207011100 METAR MRLM NIL=
202207011200 METAR MRLM 011200Z 30003KT 3000 RA BKN015 24/23 A2982=
202207011300 METAR MRLM 011300Z 31005KT 3000 RA FEW007 SCT015 BKN090 23/23 A2985=
202207011400 METAR MRLM 011400Z 27006KT 4000 -RA FEW007 SCT015 BKN100 24/23 A2985=
202207011500 METAR MRLM 011500Z 29009KT 2000 RA SCT015 BKN100 24/23 A2986=
202207011600 METAR MRLM 011600Z 28010KT 9999 DZ FEW020 OVC100 25/23 A2984 RERA=
202207011700 METAR MRLM 011700Z 28007KT 9999 DZ VCSH FEW015 BKN130 25/23 A2982=
202207011800 METAR MRLM 011800Z 30006KT 9999 DZ SCT015 BKN120 25/23 A2982=
202207011900 METAR MRLM NIL=
202207012000 METAR MRLM NIL=
202207012100 METAR MRLM NIL=
202207012200 METAR MRLM NIL=
202207012300 METAR MRLM NIL=
202207020000 METAR MRLM NIL=
202207020100 METAR MRLM NIL=
202207020200 METAR MRLM NIL=
202207020300 METAR MRLM NIL=
202207020400 METAR MRLM NIL=
202207020500 METAR MRLM NIL=
202207020600 METAR MRLM NIL=
202207020700 METAR MRLM NIL=
202207020800 METAR MRLM NIL=
202207020900 METAR MRLM NIL=
202207021000 METAR MRLM NIL=
202207021100 METAR MRLM NIL=
202207021200 METAR MRLM 021200Z 18003KT 9999 FEW015 BKN120 25/23 A2978=
202207021300 METAR MRLM 021300Z 13004KT 9999 SCT020 BKN120 26/24 A2980=
202207021400 METAR MRLM 021400Z 13007KT 9999 FEW025 BKN130 28/25 A2982=
202207021500 METAR MRLM 021500Z 12010KT 9999 SCT020 BKN120 27/24 A2984=
202207021600 METAR MRLM NIL=
202207021700 METAR MRLM 021700Z 12010KT 5000 RA BKN020 27/25 A2983=
202207021800 METAR MRLM 021800Z 20005KT 9999 SCT020 BKN120 26/25 A2982 RERA=
202207021900 METAR MRLM 021900Z 13009KT 9999 FEW030 BKN130 29/26 A2980=
202207022000 METAR MRLM 022000Z 12008KT 9999 FEW030 SCT230 29/26 A2977=
202207022100 METAR MRLM 022100Z 10008KT 9999 SCT025 29/26 A2977=
202207022200 METAR MRLM 022200Z 10011KT 9999 BKN020 29/25 A2977=
202207022300 METAR MRLM NIL=
202207030000 METAR MRLM 030000Z 11012KT 9999 BKN015 27/24 A2982=
202207030100 METAR MRLM NIL=
202207030200 METAR MRLM NIL=
202207030300 METAR MRLM NIL=
202207030400 METAR MRLM NIL=
202207030500 METAR MRLM NIL=
202207030600 METAR MRLM NIL=
202207030700 METAR MRLM NIL=
202207030800 METAR MRLM NIL=
202207030900 METAR MRLM NIL=
202207031000 METAR MRLM NIL=
202207031100 METAR MRLM NIL=
202207031200 METAR MRLM 031200Z 28003KT 9999 VCSH SCT015TCU OVC090 24/24 A2987=
202207031300 METAR MRLM 031300Z 25003KT 9999 DZ FEW015 OVC090 24/24 A2988=
202207031400 METAR MRLM 031400Z 14002KT 9999 SCT015 OVC100 25/25 A2991 REDZ=
202207031500 METAR MRLM 031500Z 36002KT 9999 DZ SCT015 OVC100 25/23 A2992=
202207031600 METAR MRLM 031600Z 33003KT 8000 +DZ SCT015 OVC100 25/23 A2993=
202207031700 METAR MRLM 031700Z 26004KT 9999 -DZ SCT015 OVC100 25/23 A2993=
202207031800 METAR MRLM 031800Z 29003KT 9999 SCT015 OVC110 26/24 A2992 REDZ=
202207031900 METAR MRLM 031900Z 29008KT 9999 FEW020 BKN110 27/25 A2989=
202207032000 METAR MRLM 032000Z 30005KT 9999 FEW020 SCT120 OVC200 28/24 A2987=
202207032100 METAR MRLM 032100Z 34008KT 9999 FEW020 OVC200 28/24 A2986=
202207032200 METAR MRLM 032200Z 30005KT 9999 FEW020 OVC200 27/24 A2985=
202207032300 METAR MRLM 032300Z 33008KT 9999 FEW020 OVC200 27/23 A2986=
202207040000 METAR MRLM 040000Z 33006KT 9999 FEW015 BKN200 26/24 A2989=
202207040100 METAR MRLM NIL=
202207040200 METAR MRLM NIL=
202207040300 METAR MRLM NIL=
202207040400 METAR MRLM NIL=
202207040500 METAR MRLM NIL=
202207040600 METAR MRLM NIL=
202207040700 METAR MRLM NIL=
202207040800 METAR MRLM NIL=
202207040900 METAR MRLM NIL=
202207041000 METAR MRLM NIL=
202207041100 METAR MRLM NIL=
202207041200 METAR MRLM 041200Z 28002KT 9999 VCSH FEW015 SCT100 BKN200 24/22 A2987=
202207041300 METAR MRLM 041300Z 22003KT 9999 -DZ VCSH FEW015 BKN100 24/23 A2989=
202207041400 METAR MRLM 041400Z 25003KT 9999 VCSH FEW015TCU SCT020 BKN100 25/23 A2990=
202207041500 METAR MRLM 041500Z 28002KT 9999 FEW020 SCT100 BKN200 27/24 A2991=
202207041600 METAR MRLM 041600Z 31003KT 9999 DZ VCSH FEW015TCU SCT020 OVC100 27/24 A2990=
202207041700 METAR MRLM 041700Z 34006KT 4000 RA FEW010 OVC070 27/24 A2992=
202207041800 METAR MRLM 041800Z 30003KT 8000 DZ VCSH FEW015TCU OVC090 25/24 A2991=
202207041900 METAR MRLM 041900Z 29004KT 9999 SCT015 BKN100 26/25 A2990=
202207042000 METAR MRLM 042000Z 29004KT 9999 SCT020 BKN120 28/25 A2988=
202207042100 METAR MRLM 042100Z 29006KT 9999 FEW020 SCT120 OVC220 28/25 A2984=
202207042200 METAR MRLM 042200Z 30006KT 9999 FEW020 OVC220 28/24 A2984=
202207042300 METAR MRLM 042300Z 26003KT CAVOK 27/25 A2985=
202207050000 METAR MRLM 050000Z 00000KT CAVOK 26/25 A2986=
202207050100 METAR MRLM NIL=
202207050200 METAR MRLM NIL=
202207050300 METAR MRLM NIL=
202207050400 METAR MRLM NIL=
202207050500 METAR MRLM NIL=
202207050600 METAR MRLM NIL=
202207050700 METAR MRLM NIL=
202207050800 METAR MRLM NIL=
202207050900 METAR MRLM NIL=
202207051000 METAR MRLM NIL=
202207051100 METAR MRLM NIL=
202207051200 METAR MRLM 051200Z 00000KT CAVOK 23/23 A2986=
202207051300 METAR MRLM 051300Z 23003KT CAVOK 24/24 A2987=
202207051400 METAR MRLM 051400Z 00000KT 9999 FEW020 BKN120 25/24 A2991=
202207051500 METAR MRLM 051500Z 00000KT 9999 FEW020 BKN130 28/24 A2991=
202207051600 METAR MRLM 051600Z 01006KT 9999 FEW020 BKN130 29/25 A2990=
202207051700 METAR MRLM 051700Z 03006KT 9999 FEW030 BKN130 29/25 A2989=
202207051800 METAR MRLM 051800Z 01008KT 9999 FEW030 SCT140 BKN230 28/24 A2987=
202207051900 METAR MRLM 051900Z 02007KT 9999 FEW030 BKN240 28/24 A2986=
202207052000 METAR MRLM 052000Z 02005KT 9999 BKN020 27/25 A2983=
202207052100 METAR MRLM 052100Z 35007KT 9999 FEW025 SCT140 BKN230 28/25 A2980=
202207052200 METAR MRLM 052200Z 31004KT CAVOK 27/24 A2980=
202207052300 METAR MRLM 052300Z 31004KT CAVOK 27/23 A2983=
202207060000 METAR MRLM 060000Z 27004KT CAVOK 26/23 A2985=
202207060100 METAR MRLM NIL=
202207060200 METAR MRLM NIL=
202207060300 METAR MRLM NIL=
202207060400 METAR MRLM NIL=
202207060500 METAR MRLM NIL=
202207060600 METAR MRLM NIL=
202207060700 METAR MRLM NIL=
202207060800 METAR MRLM NIL=
202207060900 METAR MRLM NIL=
202207061000 METAR MRLM NIL=
202207061100 METAR MRLM NIL=
202207061200 METAR MRLM 061200Z 00000KT CAVOK 23/23 A2985=
202207061300 METAR MRLM 061300Z 00000KT CAVOK 25/24 A2987=
202207061400 METAR MRLM 061400Z 31003KT CAVOK 27/23 A2988=
202207061500 METAR MRLM 061500Z 32004KT CAVOK 28/24 A2990=
202207061600 METAR MRLM 061600Z 33008KT 9999 FEW030 BKN130 28/24 A2991=
202207061700 METAR MRLM 061700Z 36010KT 9999 SCT030 BKN130 28/25 A2990=
202207061800 METAR MRLM 061800Z 02007KT 9999 FEW020 BKN120 24/24 A2989=
202207061900 METAR MRLM 061900Z 36005KT 9999 DZ SCT020 BKN120 27/24 A2987=
202207062000 METAR MRLM 062000Z 04003KT CAVOK 28/24 A2985=
202207062100 METAR MRLM 062100Z 36007KT 9999 FEW020 SCT140 BKN240 29/24 A2983=
202207062200 METAR MRLM 062200Z 01005KT 9999 BKN020 28/24 A2984=
202207062300 METAR MRLM 062300Z 00000KT 9999 FEW020 BKN130 28/24 A2983=
202207070000 METAR MRLM 070000Z 26003KT 9999 FEW020 SCT130 BKN230 27/24 A2986=
202207070100 METAR MRLM NIL=
202207070200 METAR MRLM NIL=
202207070300 METAR MRLM NIL=
202207070400 METAR MRLM NIL=
202207070500 METAR MRLM NIL=
202207070600 METAR MRLM NIL=
202207070700 METAR MRLM NIL=
202207070800 METAR MRLM NIL=
202207070900 METAR MRLM NIL=
202207071000 METAR MRLM NIL=
202207071100 METAR MRLM NIL=
202207071200 METAR MRLM 071200Z 23005KT 8000 DZ FEW010 OVC080 23/23 A2988=
202207071300 METAR MRLM 071300Z 23005KT 9999 FEW010 OVC090 23/23 A2988 REDZ=
202207071400 METAR MRLM 071400Z 26004KT 9999 -DZ FEW015 OVC090 24/23 A2989=
202207071500 METAR MRLM 071500Z 22003KT 9999 SCT015 OVC090 26/24 A2993=
202207071600 METAR MRLM 071600Z 23004KT 9999 SCT015 OVC090 26/23 A2993=
202207071700 METAR MRLM 071700Z 24003KT 9999 FEW020 OVC100 28/23 A2990=
202207071800 METAR MRLM 071800Z 01005KT 9999 SCT020 BKN100 27/24 A2989=
202207071900 METAR MRLM 071900Z 05003KT 9999 SCT020 BKN100 28/23 A2988=
202207072000 METAR MRLM 072000Z 12005KT 9999 FEW020 BKN110 28/23 A2986=
202207072100 METAR MRLM 072100Z 11004KT CAVOK 28/25 A2983=
202207072200 METAR MRLM 072200Z 22002KT CAVOK 30/24 A2980=
202207072300 METAR MRLM 072300Z 02006KT CAVOK 28/25 A2981=
202207080000 METAR MRLM 080000Z 00000KT CAVOK 26/24 A2984=
202207080100 METAR MRLM NIL=
202207080200 METAR MRLM NIL=
202207080300 METAR MRLM NIL=
202207080400 METAR MRLM NIL=
202207080500 METAR MRLM NIL=
202207080600 METAR MRLM NIL=
202207080700 METAR MRLM NIL=
202207080800 METAR MRLM NIL=
202207080900 METAR MRLM NIL=
202207081000 METAR MRLM NIL=
202207081100 METAR MRLM NIL=
202207081200 METAR MRLM 081200Z 23004KT CAVOK 22/20 A2987=
202207081300 METAR MRLM 081300Z 26004KT CAVOK 25/22 A2988=
202207081400 METAR MRLM 081400Z 26004KT CAVOK 29/22 A2989=
202207081500 METAR MRLM 081500Z 02006KT CAVOK 29/23 A2990=
202207081600 METAR MRLM 081600Z 35007KT 9999 FEW020 BKN120 29/23 A2991=
202207081700 METAR MRLM 081700Z 03005KT 9999 FEW020TCU BKN120 30/24 A2988=
202207081800 METAR MRLM 081800Z 02008KT 9999 FEW020 SCT220 30/25 A2985=
202207081900 METAR MRLM 081900Z 36014KT 9999 FEW020 SCT220 29/25 A2984=
202207082000 METAR MRLM 082000Z 36008KT CAVOK 29/25 A2982=
202207082100 METAR MRLM 082100Z 36007KT CAVOK 29/25 A2982=
202207082200 METAR MRLM 082200Z 31006KT 9999 FEW020 BKN220 29/25 A2984=
202207082300 METAR MRLM 082300Z 33006KT 9999 FEW020 SCT220 29/24 A2984=
202207090000 METAR MRLM 090000Z 32006KT 9999 SCT015 SCT200 28/25 A2989=
202207090100 METAR MRLM NIL=
202207090200 METAR MRLM NIL=
202207090300 METAR MRLM NIL=
202207090400 METAR MRLM NIL=
202207090500 METAR MRLM NIL=
202207090600 METAR MRLM NIL=
202207090700 METAR MRLM NIL=
202207090800 METAR MRLM NIL=
202207090900 METAR MRLM NIL=
202207091000 METAR MRLM NIL=
202207091100 METAR MRLM NIL=
202207091200 METAR MRLM 091200Z 24004KT 9999 DZ BKN015 24/24 A2990=
202207091300 METAR MRLM 091300Z 22003KT 9999 BKN020 25/25 A2993 REDZ=
202207091400 METAR MRLM 091400Z 05010KT 9999 SCT020 BKN130 27/25 A2993=
202207091500 METAR MRLM 091500Z 24004KT 9999 DZ BKN025 25/24 A2994=
202207091600 METAR MRLM 091600Z 33004KT 9999 DZ BKN020 26/25 A2993=
202207091700 METAR MRLM 091700Z 25004KT 9999 DZ BKN015 26/25 A2993=
202207091800 METAR MRLM 091800Z 30004KT 2000 RA BKN015 25/25 A2992=
202207091900 METAR MRLM 091900Z 31005KT 3000 TS RA FEW007CB BKN015 25/24 A2992=
202207092000 METAR MRLM 092000Z 00000KT 4000 +DZ VCTS BKN015 24/24 A2990 RETS=
202207092100 METAR MRLM 092100Z 22003KT 4000 +DZ VCTS BKN015 24/24 A2990=
202207092200 METAR MRLM 092200Z 19004KT 4000 +DZ BKN015 24/24 A2988=
202207092300 METAR MRLM 092300Z 24004KT 6000 DZ SCT015 OVC090 24/24 A2989=
202207100000 METAR MRLM 100000Z 25003KT 9999 DZ SCT010 OVC090 24/24 A2992=
202207100100 METAR MRLM NIL=
202207100200 METAR MRLM NIL=
202207100300 METAR MRLM NIL=
202207100400 METAR MRLM NIL=
202207100500 METAR MRLM NIL=
202207100600 METAR MRLM NIL=
202207100700 METAR MRLM NIL=
202207100800 METAR MRLM NIL=
202207100900 METAR MRLM NIL=
202207101000 METAR MRLM NIL=
202207101100 METAR MRLM NIL=
202207101200 METAR MRLM 101200Z 00000KT CAVOK 22/22 A2990=
202207101300 METAR MRLM 101300Z 25004KT CAVOK 24/23 A2993=
202207101400 METAR MRLM 101400Z 31005KT CAVOK 28/23 A2992=
202207101500 METAR MRLM 101500Z 31007KT CAVOK 28/24 A2995=
202207101600 METAR MRLM 101600Z 33007KT CAVOK 29/24 A2995=
202207101700 METAR MRLM 101700Z 36006KT 9999 FEW030 BKN140 28/24 A2993=
202207101800 METAR MRLM 101800Z 02007KT 9999 FEW030 BKN140 28/25 A2989=
202207101900 METAR MRLM 101900Z 01007KT CAVOK 29/25 A2986=
202207102000 METAR MRLM 102000Z 02008KT CAVOK 29/25 A2983=
202207102100 METAR MRLM 102100Z 36009KT CAVOK 29/25 A2982=
202207102200 METAR MRLM 102200Z 35006KT CAVOK 29/25 A2982=
202207102300 METAR MRLM 102300Z 36005KT CAVOK 28/25 A2982=
202207110000 METAR MRLM 110000Z 27004KT CAVOK 28/25 A2985=
202207110100 METAR MRLM NIL=
202207110200 METAR MRLM NIL=
202207110300 METAR MRLM NIL=
202207110400 METAR MRLM NIL=
202207110500 METAR MRLM NIL=
202207110600 METAR MRLM NIL=
202207110700 METAR MRLM NIL=
202207110800 METAR MRLM NIL=
202207110900 METAR MRLM NIL=
202207111000 METAR MRLM NIL=
202207111100 METAR MRLM NIL=
202207111200 METAR MRLM 111200Z 32003KT 9999 VCSH FEW015TCU BKN090 24/24 A2986=
202207111300 METAR MRLM 111300Z 00000KT 9999 VCSH FEW015TCU OVC090 25/24 A2988=
202207111400 METAR MRLM 111400Z 25002KT 9999 -DZ VCSH FEW015TCU OVC100 25/24 A2989=
202207111500 METAR MRLM 111500Z 23003KT 9999 FEW020 BKN100 27/25 A2989=
202207111600 METAR MRLM 111600Z 04005KT 9999 FEW020 SCT220 28/25 A2989=
202207111700 METAR MRLM 111700Z 05004KT 9999 FEW020 SCT220 29/25 A2987=
202207111800 METAR MRLM 111800Z 06005KT CAVOK 29/25 A2984=
202207111900 METAR MRLM 111900Z 05007KT CAVOK 30/25 A2982=
202207112000 METAR MRLM 112000Z 06008KT CAVOK 30/25 A2979=
202207112100 METAR MRLM 112100Z 07009KT CAVOK 29/25 A2978=
202207112200 METAR MRLM 112200Z 07007KT CAVOK 29/25 A2977=
202207112300 METAR MRLM 112300Z 07004KT CAVOK 29/25 A2979=
202207120000 METAR MRLM 120000Z 07005KT 9999 FEW020 BKN200 28/25 A2981=
202207120100 METAR MRLM NIL=
202207120200 METAR MRLM NIL=
202207120300 METAR MRLM NIL=
202207120400 METAR MRLM NIL=
202207120500 METAR MRLM NIL=
202207120600 METAR MRLM NIL=
202207120700 METAR MRLM NIL=
202207120800 METAR MRLM NIL=
202207120900 METAR MRLM NIL=
202207121000 METAR MRLM NIL=
202207121100 METAR MRLM NIL=
202207121200 METAR MRLM 121200Z 31003KT 6000 DZ VCTS VCSH FEW010CB OVC070 25/24 A2987=
202207121300 METAR MRLM 121300Z 23002KT 5000 +DZ VCSH SCT010TCU OVC070 24/24 A2988=
202207121400 METAR MRLM 121400Z 23003KT 8000 DZ VCSH FEW015TCU OVC080 24/24 A2989=
202207121500 METAR MRLM 121500Z 23004KT 9999 -DZ FEW015 OVC100 24/24 A2989=
202207121600 METAR MRLM 121600Z 28003KT 9999 -DZ FEW015 BKN100 26/24 A2990=
202207121700 METAR MRLM 121700Z 28005KT 9999 SCT015 BKN100 27/24 A2990 REDZ=
202207121800 METAR MRLM 121800Z 30007KT 9999 FEW020 BKN120 27/24 A2987=
202207121900 METAR MRLM 121900Z 30007KT 9999 FEW020 SCT120 BKN220 28/25 A2985=
202207122000 METAR MRLM 122000Z 32009KT 9999 FEW020 SCT120 BKN220 28/24 A2983=
202207122100 METAR MRLM 122100Z 32009KT 9999 FEW020 BKN220 28/24 A2981=
202207122200 METAR MRLM 122200Z 33007KT 9999 FEW020 BKN220 29/24 A2980=
202207122300 METAR MRLM 122300Z 35006KT CAVOK 28/24 A2981=
202207130000 METAR MRLM 130000Z 33003KT CAVOK 27/24 A2984=
202207130100 METAR MRLM NIL=
202207130200 METAR MRLM NIL=
202207130300 METAR MRLM NIL=
202207130400 METAR MRLM NIL=
202207130500 METAR MRLM NIL=
202207130600 METAR MRLM NIL=
202207130700 METAR MRLM NIL=
202207130800 METAR MRLM NIL=
202207130900 METAR MRLM NIL=
202207131000 METAR MRLM NIL=
202207131100 METAR MRLM NIL=
202207131200 METAR MRLM 131200Z 24003KT CAVOK 24/24 A2989=
202207131300 METAR MRLM 131300Z 00000KT 9999 FEW020 BKN140 24/24 A2990=
202207131400 METAR MRLM 131400Z 00000KT CAVOK 26/24 A2991=
202207131500 METAR MRLM 131500Z 00000KT CAVOK 27/24 A2992=
202207131600 METAR MRLM 131600Z 07004KT CAVOK 28/25 A2991=
202207131700 METAR MRLM 131700Z 03009KT CAVOK 28/24 A2989=
202207131800 METAR MRLM 131800Z 01007KT CAVOK 28/24 A2990=
202207131900 METAR MRLM 131900Z 01008KT CAVOK 29/25 A2988=
202207132000 METAR MRLM 132000Z 02007KT 9999 FEW030 BKN130 28/25 A2986=
202207132100 METAR MRLM 132100Z 02007KT 9999 FEW030 BKN240 29/25 A2984=
202207132200 METAR MRLM 132200Z 00000KT 9999 FEW030 SCT130 BKN230 28/25 A2982=
202207132300 METAR MRLM 132300Z 00000KT 9999 FEW030 SCT130 BKN230 28/25 A2984=
202207140000 METAR MRLM 140000Z 00000KT 9999 FEW025 BKN140 28/25 A2987=
202207140100 METAR MRLM NIL=
202207140200 METAR MRLM NIL=
202207140300 METAR MRLM NIL=
202207140400 METAR MRLM NIL=
202207140500 METAR MRLM NIL=
202207140600 METAR MRLM NIL=
202207140700 METAR MRLM NIL=
202207140800 METAR MRLM NIL=
202207140900 METAR MRLM NIL=
202207141000 METAR MRLM NIL=
202207141100 METAR MRLM NIL=
202207141200 METAR MRLM 141200Z 23003KT CAVOK 23/23 A2991=
202207141300 METAR MRLM 141300Z 24004KT CAVOK 24/23 A2992=
202207141400 METAR MRLM 141400Z 31004KT CAVOK 27/23 A2996=
202207141500 METAR MRLM 141500Z 29004KT CAVOK 27/24 A2997=
202207141600 METAR MRLM 141600Z 29004KT 9999 FEW030 BKN140 29/25 A2997=
202207141700 METAR MRLM 141700Z 03006KT 9999 FEW030 BKN140 29/24 A2996=
202207141800 METAR MRLM 141800Z 02007KT CAVOK 29/25 A2994=
202207141900 METAR MRLM 141900Z 02009KT 9999 FEW020 SCT230 29/25 A2992=
202207142000 METAR MRLM 142000Z 04010KT CAVOK 29/23 A2991=
202207142100 METAR MRLM 142100Z 01003KT CAVOK 28/23 A2989=
202207142200 METAR MRLM 142200Z 05004KT CAVOK 28/24 A2989=
202207142300 METAR MRLM 142300Z 00000KT CAVOK 28/24 A2990=
202207150000 METAR MRLM 150000Z 00000KT CAVOK 27/24 A2990=
202207150100 METAR MRLM NIL=
202207150200 METAR MRLM NIL=
202207150300 METAR MRLM NIL=
202207150400 METAR MRLM NIL=
202207150500 METAR MRLM NIL=
202207150600 METAR MRLM NIL=
202207150700 METAR MRLM NIL=
202207150800 METAR MRLM NIL=
202207150900 METAR MRLM NIL=
202207151000 METAR MRLM NIL=
202207151100 METAR MRLM NIL=
202207151200 METAR MRLM 151200Z 23004KT 9999 DZ SCT015 OVC090 24/23 A2994=
202207151300 METAR MRLM 151300Z 22005KT 9999 DZ VCSH FEW010TCU SCT015 OVC090 23/23 A2994=
202207151400 METAR MRLM 151400Z 00000KT 8000 +DZ VCSH SCT010TCU OVC090 24/24 A2995=
202207151500 METAR MRLM 151500Z 23003KT 9999 SCT015 OVC090 25/24 A2997 REDZ=
202207151600 METAR MRLM 151600Z 17003KT 8000 +DZ SCT015 OVC090 25/24 A2998=
202207151700 METAR MRLM 151700Z 23004KT 9999 SCT015 OVC100 26/24 A2997 REDZ=
202207151800 METAR MRLM 151800Z 23004KT 9999 SCT015 OVC100 27/24 A2994=
202207151900 METAR MRLM 151900Z 05003KT 9999 FEW020 BKN100 29/24 A2991=
202207152000 METAR MRLM 152000Z 04005KT 9999 FEW020 BKN100 29/25 A2989=
202207152100 METAR MRLM 152100Z 05004KT CAVOK 29/24 A2988=
202207152200 METAR MRLM 152200Z 04003KT CAVOK 29/25 A2987=
202207152300 METAR MRLM 152300Z 04004KT CAVOK 28/25 A2988=
202207160000 METAR MRLM 160000Z 03004KT 9999 FEW020 BKN200 28/24 A2989=
202207160100 METAR MRLM NIL=
202207160200 METAR MRLM NIL=
202207160300 METAR MRLM NIL=
202207160400 METAR MRLM NIL=
202207160500 METAR MRLM NIL=
202207160600 METAR MRLM NIL=
202207160700 METAR MRLM NIL=
202207160800 METAR MRLM NIL=
202207160900 METAR MRLM NIL=
202207161000 METAR MRLM NIL=
202207161100 METAR MRLM NIL=
202207161200 METAR MRLM 161200Z 23004KT 9999 VCSH FEW015TCU BKN120 23/23 A2991=
202207161300 METAR MRLM 161300Z 27002KT 9999 VCSH SCT015TCU OVC100 24/23 A2993=
202207161400 METAR MRLM 161400Z 23003KT 9999 DZ FEW015 BKN100 25/24 A2994=
202207161500 METAR MRLM 161500Z 21006KT 9999 FEW020 SCT200 27/24 A2994=
202207161600 METAR MRLM 161600Z 03003KT 9999 FEW020 SCT220 29/24 A2993=
202207161700 METAR MRLM 161700Z 04006KT 9999 FEW020 SCT220 29/24 A2991=
202207161800 METAR MRLM 161800Z 01009KT CAVOK 30/24 A2990=
202207161900 METAR MRLM 161900Z 02008KT CAVOK 30/24 A2987=
202207162000 METAR MRLM 162000Z 03007KT CAVOK 30/23 A2986=
202207162100 METAR MRLM 162100Z 02008KT CAVOK 29/24 A2984=
202207162200 METAR MRLM 162200Z 02007KT CAVOK 29/24 A2984=
202207162300 METAR MRLM 162300Z 01007KT 9999 FEW020 SCT200 29/25 A2985=
202207170000 METAR MRLM 170000Z 36007KT 9999 FEW020 SCT200 28/24 A2986=
202207170100 METAR MRLM NIL=
202207170200 METAR MRLM NIL=
202207170300 METAR MRLM NIL=
202207170400 METAR MRLM NIL=
202207170500 METAR MRLM NIL=
202207170600 METAR MRLM NIL=
202207170700 METAR MRLM NIL=
202207170800 METAR MRLM NIL=
202207170900 METAR MRLM NIL=
202207171000 METAR MRLM NIL=
202207171100 METAR MRLM NIL=
202207171200 METAR MRLM 171200Z 23003KT CAVOK 23/23 A2986=
202207171300 METAR MRLM 171300Z 00000KT 9999 FEW020 SCT130 26/23 A2988=
202207171400 METAR MRLM 171400Z 01009KT 9999 FEW020 BKN130 25/24 A2990=
202207171500 METAR MRLM 171500Z 24003KT 9999 FEW020 BKN130 25/23 A2991=
202207171600 METAR MRLM 171600Z 09003KT CAVOK 26/24 A2991=
202207171700 METAR MRLM 171700Z 09004KT CAVOK 27/24 A2991=
202207171800 METAR MRLM 171800Z 05003KT CAVOK 28/24 A2988=
202207171900 METAR MRLM 171900Z 05003KT CAVOK 29/24 A2985=
202207172000 METAR MRLM 172000Z 05005KT CAVOK 29/24 A2984=
202207172100 METAR MRLM 172100Z 04005KT CAVOK 29/24 A2983=
202207172200 METAR MRLM 172200Z 04003KT CAVOK 28/24 A2982=
202207172300 METAR MRLM 172300Z 00000KT CAVOK 29/24 A2982=
202207180000 METAR MRLM 180000Z 00000KT CAVOK 27/25 A2986=
202207180100 METAR MRLM NIL=
202207180200 METAR MRLM NIL=
202207180300 METAR MRLM NIL=
202207180400 METAR MRLM NIL=
202207180500 METAR MRLM NIL=
202207180600 METAR MRLM NIL=
202207180700 METAR MRLM NIL=
202207180800 METAR MRLM NIL=
202207180900 METAR MRLM NIL=
202207181000 METAR MRLM NIL=
202207181100 METAR MRLM NIL=
202207181200 METAR MRLM 181200Z 22005KT 9999 DZ SCT020 BKN100 24/24 A2988=
202207181300 METAR MRLM 181300Z 22004KT 9999 DZ SCT020 OVC110 24/24 A2990=
202207181400 METAR MRLM 181400Z 30003KT 9999 DZ BKN020 24/24 A2991=
202207181500 METAR MRLM 181500Z 00000KT 9999 SCT020 BKN110 25/24 A2992 REDZ=
202207181600 METAR MRLM 181600Z 26004KT 9999 FEW020 BKN110 26/24 A2989=
202207181700 METAR MRLM 181700Z 06003KT CAVOK 27/25 A2986=
202207181800 METAR MRLM NIL=
202207181900 METAR MRLM 181900Z 34005KT CAVOK 29/25 A2983=
202207182000 METAR MRLM 182000Z 01007KT CAVOK 29/25 A2983=
202207182100 METAR MRLM 182100Z 01004KT CAVOK 29/25 A2981=
202207182200 METAR MRLM 182200Z 02005KT CAVOK 29/25 A2980=
202207182300 METAR MRLM 182300Z 02007KT CAVOK 29/25 A2982=
202207190000 METAR MRLM 190000Z 00000KT CAVOK 27/24 A2985=
202207190100 METAR MRLM NIL=
202207190200 METAR MRLM NIL=
202207190300 METAR MRLM NIL=
202207190400 METAR MRLM NIL=
202207190500 METAR MRLM NIL=
202207190600 METAR MRLM NIL=
202207190700 METAR MRLM NIL=
202207190800 METAR MRLM NIL=
202207190900 METAR MRLM NIL=
202207191000 METAR MRLM NIL=
202207191100 METAR MRLM NIL=
202207191200 METAR MRLM 191200Z 23002KT 8000 DZ VCTS FEW010CB OVC090 24/24 A2988=
202207191300 METAR MRLM 191300Z 20003KT 9999 DZ VCSH FEW010TCU SCT015 OVC090 24/24 A2988=
202207191400 METAR MRLM 191400Z 21004KT 9999 VCSH FEW015TCU BKN100 25/24 A2988=
202207191500 METAR MRLM 191500Z 09003KT 9999 FEW015 BKN100 27/24 A2991=
202207191600 METAR MRLM 191600Z 08002KT 9999 FEW015 OVC100 27/24 A2991=
202207191700 METAR MRLM 191700Z 10005KT 9999 -DZ FEW020 OVC100 27/24 A2990=
202207191800 METAR MRLM 191800Z 13007KT 9999 DZ SCT020 OVC100 27/25 A2989=
202207191900 METAR MRLM 191900Z 16003KT 9999 -DZ SCT020 OVC100 26/25 A2986=
202207192000 METAR MRLM 192000Z 12006KT 9999 FEW020 OVC100 27/25 A2984 REDZ=
202207192100 METAR MRLM 192100Z 13007KT CAVOK 28/25 A2983=
202207192200 METAR MRLM 192200Z 10006KT CAVOK 28/25 A2983=
202207192300 METAR MRLM 192300Z 10004KT CAVOK 28/25 A2984=
202207200000 METAR MRLM 200000Z 08003KT CAVOK 28/25 A2985=
202207200100 METAR MRLM NIL=
202207200200 METAR MRLM NIL=
202207200300 METAR MRLM NIL=
202207200400 METAR MRLM NIL=
202207200500 METAR MRLM NIL=
202207200600 METAR MRLM NIL=
202207200700 METAR MRLM NIL=
202207200800 METAR MRLM NIL=
202207200900 METAR MRLM NIL=
202207201000 METAR MRLM NIL=
202207201100 METAR MRLM NIL=
202207201200 METAR MRLM 201200Z 23005KT 9999 VCSH FEW015TCU SCT100 BKN200 24/24 A2986=
202207201300 METAR MRLM 201300Z 00000KT 9999 DZ VCSH SCT015TCU OVC100 24/24 A2989=
202207201400 METAR MRLM 201400Z 19003KT 8000 +DZ SCT015 OVC080 25/25 A2990=
202207201500 METAR MRLM 201500Z 20004KT 9999 -DZ SCT015 OVC080 25/25 A2990=
202207201600 METAR MRLM 201600Z 14003KT 8000 +DZ FEW015 OVC080 26/24 A2990=
202207201700 METAR MRLM 201700Z 32006KT 9999 SCT015 OVC100 27/24 A2987 REDZ=
202207201800 METAR MRLM 201800Z 27003KT 9999 FEW020 SCT100 OVC200 28/25 A2984=
202207201900 METAR MRLM 201900Z 01005KT 9999 FEW020 SCT100 BKN200 29/24 A2983=
202207202000 METAR MRLM 202000Z 02005KT 9999 FEW020 BKN220 29/24 A2982=
202207202100 METAR MRLM 202100Z 36006KT CAVOK 29/25 A2981=
202207202200 METAR MRLM 202200Z 36006KT CAVOK 28/24 A2981=
202207202300 METAR MRLM 202300Z 32006KT 9999 FEW020 BKN200 28/25 A2982=
202207210000 METAR MRLM 210000Z 33003KT 9999 SCT015 BKN200 27/25 A2984=
202207210100 METAR MRLM NIL=
202207210200 METAR MRLM NIL=
202207210300 METAR MRLM NIL=
202207210400 METAR MRLM NIL=
202207210500 METAR MRLM NIL=
202207210600 METAR MRLM NIL=
202207210700 METAR MRLM NIL=
202207210800 METAR MRLM NIL=
202207210900 METAR MRLM NIL=
202207211000 METAR MRLM NIL=
202207211100 METAR MRLM NIL=
202207211200 METAR MRLM 211200Z 24004KT 9999 DZ BKN020 24/24 A2985=
202207211300 METAR MRLM 211300Z 24004KT 9999 DZ BKN020 25/24 A2987 REDZ=
202207211400 METAR MRLM 211400Z 23004KT 9999 BKN020 26/25 A2989 REDZ=
202207211500 METAR MRLM 211500Z 00000KT 9999 FEW020 OVC130 27/25 A2990=
202207211600 METAR MRLM 211600Z 00000KT 9999 SCT030 OVC130 29/25 A2989=
202207211700 METAR MRLM 211700Z 03003KT 9999 SCT030 OVC130 29/25 A2988=
202207211800 METAR MRLM 211800Z 05004KT 9999 FEW030 BKN140 29/25 A2986=
202207211900 METAR MRLM 211900Z 01005KT 9999 FEW030 BKN240 29/25 A2983=
202207212000 METAR MRLM 212000Z 01007KT 9999 FEW030 BKN240 29/25 A2983=
202207212100 METAR MRLM 212100Z 01006KT 9999 FEW030 BKN230 29/25 A2981=
202207212200 METAR MRLM 212200Z 02006KT 9999 SCT025 BKN130 29/25 A2982=
202207212300 METAR MRLM 212300Z 01010KT 9999 BKN020 28/25 A2982=
202207220000 METAR MRLM 220000Z 36006KT 9999 SCT020 BKN130 27/24 A2982=
202207220100 METAR MRLM NIL=
202207220200 METAR MRLM NIL=
202207220300 METAR MRLM NIL=
202207220400 METAR MRLM NIL=
202207220500 METAR MRLM NIL=
202207220600 METAR MRLM NIL=
202207220700 METAR MRLM NIL=
202207220800 METAR MRLM NIL=
202207220900 METAR MRLM NIL=
202207221000 METAR MRLM NIL=
202207221100 METAR MRLM NIL=
202207221200 METAR MRLM 221200Z 00000KT CAVOK 23/23 A2985=
202207221300 METAR MRLM 221300Z 00000KT CAVOK 24/24 A2987=
202207221400 METAR MRLM 221400Z 00000KT CAVOK 26/23 A2988=
202207221500 METAR MRLM 221500Z 06003KT CAVOK 28/24 A2990=
202207221600 METAR MRLM 221600Z 32007KT CAVOK 29/23 A2990=
202207221700 METAR MRLM 221700Z 36009KT 9999 FEW030 SCT140 BKN240 30/24 A2990=
202207221800 METAR MRLM 221800Z 02009KT CAVOK 29/25 A2988=
202207221900 METAR MRLM 221900Z 01010KT CAVOK 29/24 A2985=
202207222000 METAR MRLM 222000Z 36008KT CAVOK 29/24 A2984=
202207222100 METAR MRLM 222100Z 02009KT 9999 FEW030 BKN240 29/24 A2984=
202207222200 METAR MRLM 222200Z 02006KT 9999 FEW030 BKN240 28/24 A2984=
202207222300 METAR MRLM 222300Z 02003KT 9999 FEW020 SCT130 BKN240 28/24 A2986=
202207230000 METAR MRLM 230000Z 23003KT CAVOK 27/24 A2986=
202207230100 METAR MRLM NIL=
202207230200 METAR MRLM NIL=
202207230300 METAR MRLM NIL=
202207230400 METAR MRLM NIL=
202207230500 METAR MRLM NIL=
202207230600 METAR MRLM NIL=
202207230700 METAR MRLM NIL=
202207230800 METAR MRLM NIL=
202207230900 METAR MRLM NIL=
202207231000 METAR MRLM NIL=
202207231100 METAR MRLM NIL=
202207231200 METAR MRLM 231200Z 00000KT 9999 VCSH FEW015TCU SCT100 OVC200 24/23 A2988=
202207231300 METAR MRLM 231300Z 29003KT 9999 -DZ FEW015 SCT100 BKN200 25/23 A2990=
202207231400 METAR MRLM 231400Z 27005KT CAVOK 26/23 A2991=
202207231500 METAR MRLM 231500Z 27004KT CAVOK 28/24 A2993=
202207231600 METAR MRLM 231600Z 29003KT CAVOK 29/24 A2992=
202207231700 METAR MRLM 231700Z 03006KT 9999 FEW020 OVC120 29/24 A2993=
202207231800 METAR MRLM 231800Z 07004KT 9999 -DZ FEW020 OVC120 29/24 A2991=
202207231900 METAR MRLM 231900Z 15004KT 9999 FEW020 OVC120 28/24 A2989=
202207232000 METAR MRLM 232000Z 15005KT 9999 FEW020 OVC120 28/24 A2986=
202207232100 METAR MRLM 232100Z 10008KT 9999 FEW020 OVC120 28/25 A2985=
202207232200 METAR MRLM 232200Z 09006KT 9999 FEW020 OVC120 28/25 A2984=
202207232300 METAR MRLM 232300Z 09005KT 9999 FEW020 OVC120 28/24 A2986=
202207240000 METAR MRLM 240000Z 12002KT CAVOK 27/24 A2987=
202207240100 METAR MRLM NIL=
202207240200 METAR MRLM NIL=
202207240300 METAR MRLM NIL=
202207240400 METAR MRLM NIL=
202207240500 METAR MRLM NIL=
202207240600 METAR MRLM NIL=
202207240700 METAR MRLM NIL=
202207240800 METAR MRLM NIL=
202207240900 METAR MRLM NIL=
202207241000 METAR MRLM NIL=
202207241100 METAR MRLM NIL=
202207241200 METAR MRLM 241200Z 28002KT 9999 FEW010 SCT100 OVC200 24/24 A2990=
202207241300 METAR MRLM 241300Z 24005KT 9999 FEW010 SCT100 OVC200 25/23 A2992=
202207241400 METAR MRLM 241400Z 28003KT 9999 VCSH SCT010TCU OVC090 25/23 A2994=
202207241500 METAR MRLM 241500Z 24003KT 9999 FEW015 BKN090 24/23 A2994 RERA=
202207241600 METAR MRLM 241600Z 25005KT CAVOK 27/24 A2994=
202207241700 METAR MRLM 241700Z 01003KT CAVOK 29/24 A2992=
202207241800 METAR MRLM 241800Z 03002KT CAVOK 28/23 A2991=
202207241900 METAR MRLM 241900Z 03004KT CAVOK 28/24 A2988=
202207242000 METAR MRLM 242000Z 02005KT CAVOK 29/24 A2986=
202207242100 METAR MRLM 242100Z 02005KT 9999 FEW030 29/25 A2984=
202207242200 METAR MRLM 242200Z 02003KT 9999 FEW030 29/25 A2983=
202207242300 METAR MRLM 242300Z 04003KT 9999 FEW020TCU FEW030 29/25 A2984=
202207250000 METAR MRLM 250000Z 06007KT 9999 SCT020 28/24 A2986=
202207250100 METAR MRLM NIL=
202207250200 METAR MRLM NIL=
202207250300 METAR MRLM NIL=
202207250400 METAR MRLM NIL=
202207250500 METAR MRLM NIL=
202207250600 METAR MRLM NIL=
202207250700 METAR MRLM NIL=
202207250800 METAR MRLM NIL=
202207250900 METAR MRLM NIL=
202207251000 METAR MRLM NIL=
202207251100 METAR MRLM NIL=
202207251200 METAR MRLM 251200Z 23005KT CAVOK 22/21 A2988=
202207251300 METAR MRLM 251300Z 23005KT CAVOK 25/22 A2991=
202207251400 METAR MRLM 251400Z 20003KT CAVOK 27/23 A2991=
202207251500 METAR MRLM 251500Z 07004KT 9999 FEW020 29/24 A2992=
202207251600 METAR MRLM 251600Z 08005KT 9999 FEW025 29/24 A2992=
202207251700 METAR MRLM 251700Z 07008KT CAVOK 29/24 A2991=
202207251800 METAR MRLM 251800Z 07008KT CAVOK 30/24 A2989=
202207251900 METAR MRLM 251900Z 07009KT CAVOK 30/24 A2988=
202207252000 METAR MRLM 252000Z 07009KT 9999 FEW030 SCT240 30/24 A2985=
202207252100 METAR MRLM 252100Z 07009KT 9999 SCT030 BKN240 29/24 A2984=
202207252200 METAR MRLM 252200Z 10007KT 9999 SCT030 BKN240 29/24 A2983=
202207252300 METAR MRLM 252300Z 10005KT 9999 SCT025 BKN240 28/24 A2985=
202207260000 METAR MRLM 260000Z 10006KT 9999 BKN025 28/24 A2987=
202207260100 METAR MRLM NIL=
202207260200 METAR MRLM NIL=
202207260300 METAR MRLM NIL=
202207260400 METAR MRLM NIL=
202207260500 METAR MRLM NIL=
202207260600 METAR MRLM NIL=
202207260700 METAR MRLM NIL=
202207260800 METAR MRLM NIL=
202207260900 METAR MRLM NIL=
202207261000 METAR MRLM NIL=
202207261100 METAR MRLM NIL=
202207261200 METAR MRLM 261200Z 25005KT CAVOK 23/22 A2989=
202207261300 METAR MRLM 261300Z 22005KT CAVOK 24/23 A2993=
202207261400 METAR MRLM 261400Z 27003KT CAVOK 26/23 A2993=
202207261500 METAR MRLM 261500Z 27003KT CAVOK 28/23 A2994=
202207261600 METAR MRLM 261600Z 30003KT CAVOK 28/23 A2995=
202207261700 METAR MRLM 261700Z 31003KT CAVOK 29/23 A2994=
202207261800 METAR MRLM 261800Z 36008KT 9999 FEW025 BKN130 29/24 A2994=
202207261900 METAR MRLM 261900Z 36010KT 9999 FEW030 BKN130 28/24 A2993=
202207262000 METAR MRLM 262000Z 02011KT 9999 FEW030 BKN130 27/24 A2990=
202207262100 METAR MRLM 262100Z 01004KT 9999 FEW030 BKN130 27/23 A2987=
202207262200 METAR MRLM 262200Z 03008KT 9999 SCT025 BKN130 27/24 A2987=
202207262300 METAR MRLM 262300Z 03008KT 9999 FEW020 BKN130 26/24 A2987=
202207270000 METAR MRLM 270000Z 02003KT CAVOK 26/23 A2990=
202207270100 METAR MRLM NIL=
202207270200 METAR MRLM NIL=
202207270300 METAR MRLM NIL=
202207270400 METAR MRLM NIL=
202207270500 METAR MRLM NIL=
202207270600 METAR MRLM NIL=
202207270700 METAR MRLM NIL=
202207270800 METAR MRLM NIL=
202207270900 METAR MRLM NIL=
202207271000 METAR MRLM NIL=
202207271100 METAR MRLM NIL=
202207271200 METAR MRLM 271200Z 24005KT CAVOK 23/22 A2989=
202207271300 METAR MRLM 271300Z 25004KT CAVOK 25/22 A2991=
202207271400 METAR MRLM 271400Z 05003KT CAVOK 28/23 A2992=
202207271500 METAR MRLM 271500Z 02008KT CAVOK 29/23 A2992=
202207271600 METAR MRLM 271600Z 01008KT CAVOK 29/23 A2995=
202207271700 METAR MRLM 271700Z 02007KT CAVOK 29/24 A2993=
202207271800 METAR MRLM 271800Z 01008KT 9999 FEW025 BKN120 29/24 A2993=
202207271900 METAR MRLM 271900Z 02008KT 9999 SCT020 BKN120 29/25 A2991=
202207272000 METAR MRLM 272000Z 02007KT 9999 FEW020 BKN120 28/24 A2988=
202207272100 METAR MRLM 272100Z 04007KT 9999 FEW020 BKN120 28/25 A2986=
202207272200 METAR MRLM 272200Z 08004KT 9999 FEW020 BKN220 28/25 A2986=
202207272300 METAR MRLM 272300Z 10004KT 9999 FEW020 BKN220 28/24 A2987=
202207280000 METAR MRLM 280000Z 00000KT 9999 FEW020 BKN200 27/24 A2988=
202207280100 METAR MRLM NIL=
202207280200 METAR MRLM NIL=
202207280300 METAR MRLM NIL=
202207280400 METAR MRLM NIL=
202207280500 METAR MRLM NIL=
202207280600 METAR MRLM NIL=
202207280700 METAR MRLM NIL=
202207280800 METAR MRLM NIL=
202207280900 METAR MRLM NIL=
202207281000 METAR MRLM NIL=
202207281100 METAR MRLM NIL=
202207281200 METAR MRLM 281200Z 23004KT 9999 FEW015 SCT100 23/22 A2989=
202207281300 METAR MRLM 281300Z 24004KT 9999 VCTS VCSH FEW010CB FEW015 SCT100 23/22 A2991=
202207281400 METAR MRLM 281400Z 25004KT 9999 VCSH FEW015TCU BKN100 24/23 A2993=
202207281500 METAR MRLM 281500Z 21002KT 9999 VCSH SCT015TCU OVC100 24/23 A2995=
202207281600 METAR MRLM 281600Z 05006KT 6000 +DZ FEW010 OVC090 25/24 A2997=
202207281700 METAR MRLM 281700Z 02009KT 6000 -RA FEW010 OVC090 25/23 A2997=
202207281800 METAR MRLM 281800Z 03002KT 9999 -DZ SCT015 OVC100 25/23 A2995 RERA=
202207281900 METAR MRLM 281900Z 21005KT 9999 -DZ FEW015 OVC100 25/23 A2992=
202207282000 METAR MRLM 282000Z 20005KT CAVOK 26/24 A2989=
202207282100 METAR MRLM 282100Z 19004KT CAVOK 27/24 A2987=
202207282200 METAR MRLM 282200Z 18003KT CAVOK 27/22 A2986=
202207282300 METAR MRLM 282300Z 09003KT CAVOK 28/23 A2987=
202207290000 METAR MRLM 290000Z 00000KT CAVOK 25/23 A2988=
202207290100 METAR MRLM NIL=
202207290200 METAR MRLM NIL=
202207290300 METAR MRLM NIL=
202207290400 METAR MRLM NIL=
202207290500 METAR MRLM NIL=
202207290600 METAR MRLM NIL=
202207290700 METAR MRLM NIL=
202207290800 METAR MRLM NIL=
202207290900 METAR MRLM NIL=
202207291000 METAR MRLM NIL=
202207291100 METAR MRLM NIL=
202207291200 METAR MRLM 291200Z 23005KT 9999 FEW025 BKN120 22/21 A2987=
202207291300 METAR MRLM 291300Z 21006KT 9999 FEW025 BKN130 23/21 A2990=
202207291400 METAR MRLM 291400Z 03003KT 9999 FEW020 BKN130 26/23 A2992=
202207291500 METAR MRLM 291500Z 36003KT CAVOK 27/24 A2992=
202207291600 METAR MRLM 291600Z 28003KT CAVOK 29/25 A2990=
202207291700 METAR MRLM 291700Z 05004KT 9999 FEW030 SCT140 29/25 A2989=
202207291800 METAR MRLM 291800Z 03006KT CAVOK 29/24 A2987=
202207291900 METAR MRLM 291900Z 02007KT CAVOK 29/23 A2984=
202207292000 METAR MRLM 292000Z 03006KT CAVOK 29/24 A2982=
202207292100 METAR MRLM 292100Z 04007KT CAVOK 29/24 A2982=
202207292200 METAR MRLM 292200Z 06006KT CAVOK 29/24 A2981=
202207292300 METAR MRLM 292300Z 10003KT 9999 FEW030 SCT240 28/24 A2982=
202207300000 METAR MRLM 300000Z 00000KT 9999 FEW030 SCT140 28/24 A2984=
202207300100 METAR MRLM NIL=
202207300200 METAR MRLM NIL=
202207300300 METAR MRLM NIL=
202207300400 METAR MRLM NIL=
202207300500 METAR MRLM NIL=
202207300600 METAR MRLM NIL=
202207300700 METAR MRLM NIL=
202207300800 METAR MRLM NIL=
202207300900 METAR MRLM NIL=
202207301000 METAR MRLM NIL=
202207301100 METAR MRLM NIL=
202207301200 METAR MRLM 301200Z 25004KT 9999 FEW015 BKN100 23/23 A2987=
202207301300 METAR MRLM 301300Z 24005KT 9999 FEW015 BKN110 24/22 A2990=
202207301400 METAR MRLM 301400Z 00000KT CAVOK 25/23 A2992=
202207301500 METAR MRLM 301500Z 00000KT 9999 FEW030 SCT150 28/23 A2993=
202207301600 METAR MRLM 301600Z 06004KT CAVOK 29/25 A2992=
202207301700 METAR MRLM 301700Z 04005KT 9999 FEW030 30/24 A2992=
202207301800 METAR MRLM 301800Z 06005KT 9999 FEW030 SCT240 30/25 A2989=
202207301900 METAR MRLM 301900Z 07007KT 9999 FEW030 BKN140 29/25 A2987=
202207302000 METAR MRLM 302000Z 05007KT 9999 BKN030 29/25 A2986=
202207302100 METAR MRLM 302100Z 05003KT 9999 FEW030 SCT250 29/25 A2984=
202207302200 METAR MRLM 302200Z 08006KT 9999 FEW030 SCT250 29/25 A2983=
202207302300 METAR MRLM 302300Z 06007KT 9999 FEW030 BKN240 29/25 A2985=
202207310000 METAR MRLM 310000Z 05007KT 9999 BKN025 28/24 A2988=
202207310100 METAR MRLM NIL=
202207310200 METAR MRLM NIL=
202207310300 METAR MRLM NIL=
202207310400 METAR MRLM NIL=
202207310500 METAR MRLM NIL=
202207310600 METAR MRLM NIL=
202207310700 METAR MRLM NIL=
202207310800 METAR MRLM NIL=
202207310900 METAR MRLM NIL=
202207311000 METAR MRLM NIL=
202207311100 METAR MRLM NIL=
202207311200 METAR MRLM 311200Z 03003KT 6000 +DZ VCSH SCT010TCU OVC070 24/24 A2991=
202207311300 METAR MRLM 311300Z 23006KT 9999 VCSH FEW015TCU SCT100 BKN200 25/25 A2991 REDZ=
202207311400 METAR MRLM 311400Z 23004KT 9999 VCSH FEW015TCU BKN200 28/25 A2992=
202207311500 METAR MRLM 311500Z 09003KT 9999 VCSH SCT020TCU 29/25 A2993=
202207311600 METAR MRLM 311600Z 11005KT 9999 VCSH SCT020TCU SCT120 29/25 A2994=
202207311700 METAR MRLM 311700Z 10004KT 9999 FEW020 SCT120 29/25 A2994=
202207311800 METAR MRLM 311800Z 11005KT CAVOK 30/25 A2990=
202207311900 METAR MRLM 311900Z 09005KT CAVOK 30/25 A2989=
202207312000 METAR MRLM 312000Z 09006KT 9999 FEW020 BKN120 30/25 A2987=
202207312100 METAR MRLM 312100Z 10006KT CAVOK 30/26 A2984=
202207312200 METAR MRLM 312200Z 09007KT CAVOK 30/24 A2984=
202207312300 METAR MRLM 312300Z 11005KT CAVOK 29/24 A2984=
202208010000 METAR MRLM 010000Z 18002KT CAVOK 27/24 A2986=
202208010100 METAR MRLM NIL=
202208010200 METAR MRLM NIL=
202208010300 METAR MRLM NIL=
202208010400 METAR MRLM NIL=
202208010500 METAR MRLM NIL=
202208010600 METAR MRLM NIL=
202208010700 METAR MRLM NIL=
202208010800 METAR MRLM NIL=
202208010900 METAR MRLM NIL=
202208011000 METAR MRLM NIL=
202208011100 METAR MRLM NIL=
202208011200 METAR MRLM 011200Z 24005KT 9999 FEW015 BKN200 22/22 A2988=
202208011300 METAR MRLM 011300Z 22003KT 9999 FEW015 BKN200 25/23 A2989=
202208011400 METAR MRLM 011400Z 22003KT 9999 FEW020 BKN220 27/23 A2990=
202208011500 METAR MRLM 011500Z 06003KT 9999 FEW020 SCT120 BKN220 29/24 A2991=
202208011600 METAR MRLM 011600Z 13002KT 9999 FEW020 BKN220 30/23 A2991=
202208011700 METAR MRLM 011700Z 08005KT 9999 FEW030 BKN240 30/24 A2988=
202208011800 METAR MRLM 011800Z 05007KT CAVOK 31/24 A2986=
202208011900 METAR MRLM 011900Z 04010KT CAVOK 30/25 A2987=
202208012000 METAR MRLM 012000Z 05011KT 9999 FEW025 SCT120 BKN240 29/25 A2985=
202208012100 METAR MRLM 012100Z 36012KT 9999 FEW020 BKN120 28/25 A2982=
202208012200 METAR MRLM 012200Z 01006KT 9999 FEW020 BKN120 28/24 A2984=
202208012300 METAR MRLM 012300Z 03004KT 9999 SCT020 OVC100 28/24 A2983=
202208020000 METAR MRLM 020000Z 27003KT 9999 SCT015 OVC100 26/24 A2984=
202208020100 METAR MRLM NIL=
202208020200 METAR MRLM NIL=
202208020300 METAR MRLM NIL=
202208020400 METAR MRLM NIL=
202208020500 METAR MRLM NIL=
202208020600 METAR MRLM NIL=
202208020700 METAR MRLM NIL=
202208020800 METAR MRLM NIL=
202208020900 METAR MRLM NIL=
202208021000 METAR MRLM NIL=
202208021100 METAR MRLM NIL=
202208021200 METAR MRLM 021200Z 25004KT 9999 FEW015 BKN100 23/23 A2982=
202208021300 METAR MRLM 021300Z 32003KT CAVOK 25/23 A2984=
202208021400 METAR MRLM 021400Z 29003KT CAVOK 26/24 A2985=
202208021500 METAR MRLM 021500Z 28004KT CAVOK 27/24 A2984=
202208021600 METAR MRLM 021600Z 10005KT CAVOK 29/24 A2983=
202208021700 METAR MRLM 021700Z 08005KT CAVOK 28/24 A2982=
202208021800 METAR MRLM 021800Z 01007KT 9999 FEW025 BKN130 29/25 A2984=
202208021900 METAR MRLM 021900Z 01011KT 9999 BKN025 29/25 A2981=
202208022000 METAR MRLM 022000Z 03007KT 9999 FEW020 BKN130 28/25 A2979 RERA=
202208022100 METAR MRLM 022100Z 36004KT 9999 FEW020 BKN130 28/25 A2978=
202208022200 METAR MRLM 022200Z 01006KT 9999 BKN020 28/25 A2980=
202208022300 METAR MRLM 022300Z 00000KT 9999 -DZ SCT020 BKN130 25/24 A2980 RERA=
202208030000 METAR MRLM 030000Z 00000KT 9999 BKN015 25/24 A2982=
202208030100 METAR MRLM NIL=
202208030200 METAR MRLM NIL=
202208030300 METAR MRLM NIL=
202208030400 METAR MRLM NIL=
202208030500 METAR MRLM NIL=
202208030600 METAR MRLM NIL=
202208030700 METAR MRLM NIL=
202208030800 METAR MRLM NIL=
202208030900 METAR MRLM NIL=
202208031000 METAR MRLM NIL=
202208031100 METAR MRLM NIL=
202208031200 METAR MRLM 031200Z 23003KT 9999 -DZ SCT025 BKN120 23/23 A2984=
202208031300 METAR MRLM 031300Z 00000KT 9999 FEW025 BKN130 24/24 A2987=
202208031400 METAR MRLM 031400Z 24004KT 9999 FEW030 BKN130 25/24 A2988=
202208031500 METAR MRLM 031500Z 35004KT 9999 DZ BKN020 26/24 A2989=
202208031600 METAR MRLM 031600Z 31004KT 9999 FEW030 BKN130 25/23 A2989=
202208031700 METAR MRLM 031700Z 29005KT 9999 SCT030 BKN130 26/24 A2987=
202208031800 METAR MRLM 031800Z 33007KT 9999 SCT030 BKN130 28/24 A2987=
202208031900 METAR MRLM 031900Z 31006KT 9999 FEW030 BKN140 27/24 A2985=
202208032000 METAR MRLM 032000Z 31008KT 9999 FEW030 BKN140 27/24 A2984=
202208032100 METAR MRLM 032100Z 31009KT 9999 BKN020 27/24 A2983=
202208032200 METAR MRLM 032200Z 29006KT 9999 BKN020 26/23 A2984=
202208032300 METAR MRLM 032300Z 28005KT 9999 FEW020 BKN130 26/23 A2984=
202208040000 METAR MRLM 040000Z 27005KT 9999 SCT020 BKN130 25/23 A2987=
202208040100 METAR MRLM NIL=
202208040200 METAR MRLM NIL=
202208040300 METAR MRLM NIL=
202208040400 METAR MRLM NIL=
202208040500 METAR MRLM NIL=
202208040600 METAR MRLM NIL=
202208040700 METAR MRLM NIL=
202208040800 METAR MRLM NIL=
202208040900 METAR MRLM NIL=
202208041000 METAR MRLM NIL=
202208041100 METAR MRLM NIL=
202208041200 METAR MRLM 041200Z 23002KT 9999 VCSH FEW015TCU BKN100 22/22 A2987=
202208041300 METAR MRLM 041300Z 19003KT 9999 -DZ VCSH FEW015TCU OVC100 23/23 A2988=
202208041400 METAR MRLM 041400Z 21004KT 8000 DZ SCT010 OVC090 23/23 A2990=
202208041500 METAR MRLM 041500Z 23002KT 8000 DZ SCT010 OVC090 24/22 A2993=
202208041600 METAR MRLM 041600Z 19002KT 9999 -DZ FEW015 OVC090 24/23 A2993=
202208041700 METAR MRLM 041700Z 21004KT 9999 -DZ FEW015 OVC100 25/23 A2990=
202208041800 METAR MRLM 041800Z 14003KT 9999 FEW020 BKN100 27/23 A2989=
202208041900 METAR MRLM 041900Z 12006KT 9999 FEW020 BKN120 26/22 A2987=
202208042000 METAR MRLM 042000Z 04002KT 9999 FEW020 BKN120 27/23 A2984=
202208042100 METAR MRLM 042100Z 01008KT 9999 FEW020 BKN120 27/23 A2982=
202208042200 METAR MRLM 042200Z 35011KT 9999 FEW020 BKN120 27/23 A2982=
202208042300 METAR MRLM 042300Z 32009KT 9999 FEW020 BKN100 26/23 A2984=
202208050000 METAR MRLM 050000Z 32007KT 9999 SCT015 BKN100 26/23 A2985=
202208050100 METAR MRLM NIL=
202208050200 METAR MRLM NIL=
202208050300 METAR MRLM NIL=
202208050400 METAR MRLM NIL=
202208050500 METAR MRLM NIL=
202208050600 METAR MRLM NIL=
202208050700 METAR MRLM NIL=
202208050800 METAR MRLM NIL=
202208050900 METAR MRLM NIL=
202208051000 METAR MRLM NIL=
202208051100 METAR MRLM NIL=
202208051200 METAR MRLM 051200Z 24003KT 9999 FEW015TCU BKN100 23/23 A2985=
202208051300 METAR MRLM 051300Z 27004KT 9999 FEW020 SCT120 25/23 A2986=
202208051400 METAR MRLM 051400Z 30004KT 9999 FEW020 SCT120 27/23 A2988=
202208051500 METAR MRLM 051500Z 29004KT 9999 FEW020 BKN120 28/23 A2989=
202208051600 METAR MRLM 051600Z 29004KT 9999 FEW020 BKN120 29/24 A2988=
202208051700 METAR MRLM 051700Z 34008KT 9999 FEW020 BKN120 30/24 A2987=
202208051800 METAR MRLM 051800Z 01009KT 9999 FEW020 SCT120 BKN220 30/25 A2984=
202208051900 METAR MRLM 051900Z 36011KT 9999 FEW025 SCT120 BKN220 29/25 A2983=
202208052000 METAR MRLM 052000Z 35013KT 9999 FEW025 BKN220 29/25 A2981=
202208052100 METAR MRLM 052100Z 01011KT CAVOK 28/24 A2980=
202208052200 METAR MRLM 052200Z 34008KT 9999 FEW020 BKN120 28/24 A2981=
202208052300 METAR MRLM 052300Z 34007KT 9999 FEW015TCU SCT020 BKN120 27/24 A2982=
202208060000 METAR MRLM 060000Z 31004KT 9999 VCSH SCT015TCU BKN100 27/25 A2983=
202208060100 METAR MRLM NIL=
202208060200 METAR MRLM NIL=
202208060300 METAR MRLM NIL=
202208060400 METAR MRLM NIL=
202208060500 METAR MRLM NIL=
202208060600 METAR MRLM NIL=
202208060700 METAR MRLM NIL=
202208060800 METAR MRLM NIL=
202208060900 METAR MRLM NIL=
202208061000 METAR MRLM NIL=
202208061100 METAR MRLM NIL=
202208061200 METAR MRLM 061200Z 29006KT 5000 +DZ SCT020 BKN100 23/23 A2984=
202208061300 METAR MRLM 061300Z 28005KT 8000 DZ SCT020 BKN100 23/23 A2986=
202208061400 METAR MRLM 061400Z 25004KT 9999 DZ FEW020 BKN120 24/24 A2987=
202208061500 METAR MRLM 061500Z 23004KT 9999 -DZ FEW020 BKN120 25/24 A2988=
202208061600 METAR MRLM 061600Z 28003KT 9999 FEW025 BKN130 26/24 A2988=
202208061700 METAR MRLM 061700Z 31004KT 9999 FEW025 BKN130 26/24 A2988 REDZ=
202208061800 METAR MRLM 061800Z 35008KT 9999 SCT030 BKN130 27/24 A2987=
202208061900 METAR MRLM 061900Z 32009KT 9999 FEW020 BKN130 27/24 A2985=
202208062000 METAR MRLM 062000Z 35008KT 9999 FEW025 SCT140 BKN230 27/24 A2982=
202208062100 METAR MRLM 062100Z 30005KT 9999 FEW020 BKN130 27/24 A2981=
202208062200 METAR MRLM 062200Z 30004KT 9999 SCT020 BKN130 26/24 A2982=
202208062300 METAR MRLM 062300Z 29003KT 9999 FEW020 BKN130 26/24 A2983=
202208070000 METAR MRLM 070000Z 00000KT 9999 SCT015 BKN120 26/24 A2984=
202208070100 METAR MRLM NIL=
202208070200 METAR MRLM NIL=
202208070300 METAR MRLM NIL=
202208070400 METAR MRLM NIL=
202208070500 METAR MRLM NIL=
202208070600 METAR MRLM NIL=
202208070700 METAR MRLM NIL=
202208070800 METAR MRLM NIL=
202208070900 METAR MRLM NIL=
202208071000 METAR MRLM NIL=
202208071100 METAR MRLM NIL=
202208071200 METAR MRLM 071200Z 23003KT 9999 SCT010 BKN110 23/23 A2984=
202208071300 METAR MRLM 071300Z 00000KT 9999 SCT020 BKN110 24/24 A2986=
202208071400 METAR MRLM 071400Z 00000KT CAVOK 25/24 A2988=
202208071500 METAR MRLM 071500Z 00000KT 9999 FEW030 BKN140 28/24 A2988=
202208071600 METAR MRLM 071600Z 04004KT 9999 SCT030 BKN150 29/25 A2987=
202208071700 METAR MRLM 071700Z 02007KT 9999 FEW030 BKN140 29/25 A2985=
202208071800 METAR MRLM 071800Z 02007KT CAVOK 29/25 A2983=
202208071900 METAR MRLM 071900Z 03007KT 9999 FEW030 BKN250 29/25 A2981=
202208072000 METAR MRLM 072000Z 03006KT CAVOK 29/25 A2979=
202208072100 METAR MRLM 072100Z 05006KT CAVOK 29/25 A2978=
202208072200 METAR MRLM 072200Z 06006KT 9999 FEW030 SCT240 29/25 A2978=
202208072300 METAR MRLM 072300Z 07005KT 9999 FEW020 BKN140 28/25 A2980=
202208080000 METAR MRLM 080000Z 09004KT 9999 SCT020 BKN130 27/24 A2982=
202208080100 METAR MRLM NIL=
202208080200 METAR MRLM NIL=
202208080300 METAR MRLM NIL=
202208080400 METAR MRLM NIL=
202208080500 METAR MRLM NIL=
202208080600 METAR MRLM NIL=
202208080700 METAR MRLM NIL=
202208080800 METAR MRLM NIL=
202208080900 METAR MRLM NIL=
202208081000 METAR MRLM NIL=
202208081100 METAR MRLM NIL=
202208081200 METAR MRLM 081200Z 24003KT 9999 FEW015 BKN100 24/24 A2984=
202208081300 METAR MRLM 081300Z 23004KT 9999 FEW015 BKN100 24/24 A2986=
202208081400 METAR MRLM 081400Z 27004KT 9999 FEW020 BKN200 28/25 A2987=
202208081500 METAR MRLM 081500Z 29005KT 9999 FEW020TCU BKN200 28/24 A2987=
202208081600 METAR MRLM 081600Z 28005KT 9999 FEW020 BKN220 30/24 A2986=
202208081700 METAR MRLM 081700Z 31009KT 9999 FEW025 BKN220 30/25 A2986=
202208081800 METAR MRLM 081800Z 32011KT 9999 FEW025 BKN220 29/25 A2985=
202208081900 METAR MRLM 081900Z 31008KT 9999 FEW025 BKN220 28/24 A2983=
202208082000 METAR MRLM 082000Z 32010KT 9999 FEW020 BKN200 28/25 A2981=
202208082100 METAR MRLM 082100Z 33009KT 9999 FEW020TCU BKN200 28/24 A2981=
202208082200 METAR MRLM 082200Z 31006KT 9999 FEW020 BKN200 28/24 A2980=
202208082300 METAR MRLM 082300Z 30005KT 9999 FEW020 BKN200 27/24 A2981=
202208090000 METAR MRLM 090000Z 27003KT 9999 FEW015 BKN200 27/24 A2983=
202208090100 METAR MRLM NIL=
202208090200 METAR MRLM NIL=
202208090300 METAR MRLM NIL=
202208090400 METAR MRLM NIL=
202208090500 METAR MRLM NIL=
202208090600 METAR MRLM NIL=
202208090700 METAR MRLM NIL=
202208090800 METAR MRLM NIL=
202208090900 METAR MRLM NIL=
202208091000 METAR MRLM NIL=
202208091100 METAR MRLM NIL=
202208091200 METAR MRLM 091200Z 00000KT CAVOK 24/24 A2988=
202208091300 METAR MRLM 091300Z 22004KT CAVOK 25/25 A2988=
202208091400 METAR MRLM 091400Z 22003KT 9999 FEW020 SCT200 28/25 A2990=
202208091500 METAR MRLM 091500Z 07003KT 9999 FEW020 SCT220 29/25 A2989=
202208091600 METAR MRLM 091600Z 03006KT CAVOK 29/25 A2990=
202208091700 METAR MRLM 091700Z 04006KT CAVOK 29/25 A2989=
202208091800 METAR MRLM 091800Z 03007KT CAVOK 29/25 A2986=
202208091900 METAR MRLM 091900Z 03007KT 9999 FEW025 BKN220 29/25 A2983=
202208092000 METAR MRLM 092000Z 02006KT 9999 FEW025 BKN220 29/25 A2982=
202208092100 METAR MRLM 092100Z 03006KT CAVOK 29/25 A2981=
202208092200 METAR MRLM 092200Z 03005KT CAVOK 29/25 A2982=
202208092300 METAR MRLM 092300Z 04004KT 9999 FEW020 BKN200 29/25 A2984=
202208100000 METAR MRLM 100000Z 05004KT 9999 FEW015TCU BKN200 28/25 A2986=
202208100100 METAR MRLM NIL=
202208100200 METAR MRLM NIL=
202208100300 METAR MRLM NIL=
202208100400 METAR MRLM NIL=
202208100500 METAR MRLM NIL=
202208100600 METAR MRLM NIL=
202208100700 METAR MRLM NIL=
202208100800 METAR MRLM NIL=
202208100900 METAR MRLM NIL=
202208101000 METAR MRLM NIL=
202208101100 METAR MRLM NIL=
202208101200 METAR MRLM 101200Z 00000KT CAVOK 23/23 A2989=
202208101300 METAR MRLM 101300Z 23003KT CAVOK 25/24 A2991=
202208101400 METAR MRLM 101400Z 23003KT 9999 FEW025 SCT130 BKN230 26/24 A2992=
202208101500 METAR MRLM 101500Z 00000KT 9999 VCTS BKN020 27/25 A2994=
202208101600 METAR MRLM 101600Z 03004KT 9999 VCTS FEW025 SCT140 BKN230 26/25 A2993=
202208101700 METAR MRLM 101700Z 31004KT 9999 SCT020 BKN130 26/24 A2993=
202208101800 METAR MRLM 101800Z 26003KT 9999 FEW020 BKN230 28/25 A2991=
202208101900 METAR MRLM 101900Z 03006KT 9999 FEW030 BKN240 28/25 A2988=
202208102000 METAR MRLM 102000Z 01008KT 9999 FEW030 SCT240 29/25 A2986=
202208102100 METAR MRLM 102100Z 01008KT 9999 FEW030 SCT250 30/25 A2984=
202208102200 METAR MRLM 102200Z 01006KT CAVOK 30/25 A2984=
202208102300 METAR MRLM 102300Z 02005KT 9999 VCSH FEW020 BKN230 29/25 A2986=
202208110000 METAR MRLM 110000Z 35005KT 9999 DZ BKN015 27/26 A2989=
202208110100 METAR MRLM NIL=
202208110200 METAR MRLM NIL=
202208110300 METAR MRLM NIL=
202208110400 METAR MRLM NIL=
202208110500 METAR MRLM NIL=
202208110600 METAR MRLM NIL=
202208110700 METAR MRLM NIL=
202208110800 METAR MRLM NIL=
202208110900 METAR MRLM NIL=
202208111000 METAR MRLM NIL=
202208111100 METAR MRLM NIL=
202208111200 METAR MRLM 111200Z 30003KT 9999 FEW010 SCT140 BKN230 24/24 A2987=
202208111300 METAR MRLM 111300Z 00000KT CAVOK 25/24 A2988=
202208111400 METAR MRLM 111400Z 26003KT 9999 FEW025 SCT140 BKN240 26/25 A2988=
202208111500 METAR MRLM 111500Z 00000KT 9999 SCT025 BKN230 27/25 A2991=
202208111600 METAR MRLM 111600Z 02006KT 9999 BKN025 27/25 A2990=
202208111700 METAR MRLM 111700Z 03009KT 9999 FEW030 BKN240 29/25 A2989=
202208111800 METAR MRLM 111800Z 02007KT CAVOK 29/25 A2988=
202208111900 METAR MRLM 111900Z 01008KT CAVOK 29/25 A2986=
202208112000 METAR MRLM 112000Z 02007KT 9999 FEW030 SCT250 29/25 A2983=
202208112100 METAR MRLM 112100Z 01009KT 9999 FEW030 SCT250 29/24 A2982=
202208112200 METAR MRLM 112200Z 01008KT 9999 SCT030 29/25 A2983=
202208112300 METAR MRLM 112300Z 01005KT 9999 FEW030 SCT240 28/25 A2986=
202208120000 METAR MRLM 120000Z 36004KT 9999 BKN020 27/24 A2990=
202208120100 METAR MRLM NIL=
202208120200 METAR MRLM NIL=
202208120300 METAR MRLM NIL=
202208120400 METAR MRLM NIL=
202208120500 METAR MRLM NIL=
202208120600 METAR MRLM NIL=
202208120700 METAR MRLM NIL=
202208120800 METAR MRLM NIL=
202208120900 METAR MRLM NIL=
202208121000 METAR MRLM NIL=
202208121100 METAR MRLM NIL=
202208121200 METAR MRLM 121200Z 32003KT 9999 DZ FEW010 OVC100 24/23 A2992=
202208121300 METAR MRLM 121300Z 24002KT 9999 DZ SCT010 OVC090 24/23 A2994=
202208121400 METAR MRLM 121400Z 25004KT 9999 DZ SCT010 OVC090 24/23 A2996=
202208121500 METAR MRLM 121500Z 25003KT 9999 SCT015 OVC100 24/23 A2996=
202208121600 METAR MRLM 121600Z 29004KT 9999 FEW015 OVC100 26/23 A2996=
202208121700 METAR MRLM 121700Z 30005KT 9999 FEW020 BKN120 27/24 A2995=
202208121800 METAR MRLM 121800Z 30004KT CAVOK 28/24 A2994=
202208121900 METAR MRLM 121900Z 34008KT 9999 FEW020 BKN220 29/24 A2990=
202208122000 METAR MRLM 122000Z 32005KT 9999 FEW020 BKN220 29/24 A2988=
202208122100 METAR MRLM 122100Z 35012KT CAVOK 29/25 A2987=
202208122200 METAR MRLM 122200Z 35011KT 9999 FEW020 BKN220 28/24 A2987=
202208122300 METAR MRLM 122300Z 32008KT 9999 FEW020 BKN200 27/24 A2987=
202208130000 METAR MRLM 130000Z 30005KT 9999 FEW015 SCT100 BKN200 27/24 A2988=
202208130100 METAR MRLM NIL=
202208130200 METAR MRLM NIL=
202208130300 METAR MRLM NIL=
202208130400 METAR MRLM NIL=
202208130500 METAR MRLM NIL=
202208130600 METAR MRLM NIL=
202208130700 METAR MRLM NIL=
202208130800 METAR MRLM NIL=
202208130900 METAR MRLM NIL=
202208131000 METAR MRLM NIL=
202208131100 METAR MRLM NIL=
202208131200 METAR MRLM 131200Z 24003KT 9999 VCSH FEW015TCU BKN100 24/22 A2993=
202208131300 METAR MRLM 131300Z 22002KT 9999 -DZ VCSH FEW015TCU BKN090 24/23 A2995=
202208131400 METAR MRLM 131400Z 24002KT 9999 -DZ VCSH FEW015TCU BKN100 25/23 A2997=
202208131500 METAR MRLM 131500Z 28002KT 9999 FEW020 BKN100 27/23 A2997=
202208131600 METAR MRLM 131600Z 10003KT 9999 FEW020 BKN120 27/23 A2997=
202208131700 METAR MRLM 131700Z 08003KT 9999 FEW020 BKN120 28/24 A2997=
202208131800 METAR MRLM 131800Z 04007KT 9999 FEW025 BKN120 28/24 A2995=
202208131900 METAR MRLM 131900Z 05007KT CAVOK 29/24 A2991=
202208132000 METAR MRLM 132000Z 02006KT CAVOK 29/24 A2989=
202208132100 METAR MRLM 132100Z 02006KT CAVOK 29/24 A2987=
202208132200 METAR MRLM 132200Z 03006KT CAVOK 29/24 A2985=
202208132300 METAR MRLM 132300Z 03006KT CAVOK 28/24 A2986=
202208140000 METAR MRLM 140000Z 04003KT CAVOK 27/24 A2986=
202208140100 METAR MRLM NIL=
202208140200 METAR MRLM NIL=
202208140300 METAR MRLM NIL=
202208140400 METAR MRLM NIL=
202208140500 METAR MRLM NIL=
202208140600 METAR MRLM NIL=
202208140700 METAR MRLM NIL=
202208140800 METAR MRLM NIL=
202208140900 METAR MRLM NIL=
202208141000 METAR MRLM NIL=
202208141100 METAR MRLM NIL=
202208141200 METAR MRLM 141200Z 00000KT CAVOK 24/23 A2989=
202208141300 METAR MRLM 141300Z 22004KT CAVOK 25/24 A2991=
202208141400 METAR MRLM 141400Z 23003KT CAVOK 28/24 A2992=
202208141500 METAR MRLM 141500Z 07005KT CAVOK 28/24 A2991=
202208141600 METAR MRLM 141600Z 07006KT 9999 FEW030 30/24 A2992=
202208141700 METAR MRLM 141700Z 06007KT 9999 FEW030 30/24 A2992=
202208141800 METAR MRLM 141800Z 06007KT CAVOK 30/24 A2989=
202208141900 METAR MRLM 141900Z 04007KT CAVOK 30/24 A2987=
202208142000 METAR MRLM 142000Z 04007KT CAVOK 30/24 A2987=
202208142100 METAR MRLM 142100Z 04007KT 9999 FEW030 30/25 A2993=
202208142200 METAR MRLM 142200Z 05007KT 9999 SCT030 30/24 A2983=
202208142300 METAR MRLM 142300Z 06005KT 9999 SCT030 29/25 A2984=
202208150000 METAR MRLM 150000Z 00000KT 9999 BKN025 28/24 A2986=
202208150100 METAR MRLM NIL=
202208150200 METAR MRLM NIL=
202208150300 METAR MRLM NIL=
202208150400 METAR MRLM NIL=
202208150500 METAR MRLM NIL=
202208150600 METAR MRLM NIL=
202208150700 METAR MRLM NIL=
202208150800 METAR MRLM NIL=
202208150900 METAR MRLM NIL=
202208151000 METAR MRLM NIL=
202208151100 METAR MRLM NIL=
202208151200 METAR MRLM 151200Z 25004KT 9999 FEW015 SCT130 BKN230 23/22 A2985=
202208151300 METAR MRLM 151300Z 00000KT 9999 FEW015 SCT140 BKN230 23/22 A2988=
202208151400 METAR MRLM 151400Z 23003KT 9999 DZ SCT015 BKN130 24/23 A2991=
202208151500 METAR MRLM 151500Z 23005KT 9999 DZ SCT020 BKN130 24/23 A2991=
202208151600 METAR MRLM 151600Z 23004KT 9999 FEW025 BKN130 26/25 A2992 REDZ=
202208151700 METAR MRLM 151700Z 03004KT 9999 FEW025 BKN130 28/24 A2991=
202208151800 METAR MRLM 151800Z 08006KT 9999 DZ FEW020 BKN130 27/24 A2989=
202208151900 METAR MRLM 151900Z 09004KT CAVOK 27/23 A2986=
202208152000 METAR MRLM 152000Z 06003KT CAVOK 27/23 A2985=
202208152100 METAR MRLM 152100Z 05004KT 9999 FEW030 BKN140 27/24 A2984=
202208152200 METAR MRLM 152200Z 00000KT 9999 FEW030 OVC130 27/23 A2983=
202208152300 METAR MRLM 152300Z 07004KT 9999 FEW030 OVC130 27/24 A2985=
202208160000 METAR MRLM 160000Z 09004KT 9999 SCT020 BKN130 27/23 A2988=
202208160100 METAR MRLM NIL=
202208160200 METAR MRLM NIL=
202208160300 METAR MRLM NIL=
202208160400 METAR MRLM NIL=
202208160500 METAR MRLM NIL=
202208160600 METAR MRLM NIL=
202208160700 METAR MRLM NIL=
202208160800 METAR MRLM NIL=
202208160900 METAR MRLM NIL=
202208161000 METAR MRLM NIL=
202208161100 METAR MRLM NIL=
202208161200 METAR MRLM 161200Z 23003KT 9999 VCSH FEW015TCU BKN100 23/22 A2986=
202208161300 METAR MRLM 161300Z 25003KT 9999 VCSH FEW015TCU BKN100 24/23 A2989=
202208161400 METAR MRLM 161400Z 25002KT 9999 VCSH FEW015TCU BKN100 26/23 A2989=
202208161500 METAR MRLM 161500Z 21004KT 9999 FEW020 BKN120 28/24 A2989=
202208161600 METAR MRLM 161600Z 07004KT 9999 FEW020 SCT120 29/24 A2990=
202208161700 METAR MRLM 161700Z 03008KT 9999 FEW020TCU SCT220 29/24 A2990=
202208161800 METAR MRLM 161800Z 35014KT 9999 SCT020 SCT220 29/25 A2989=
202208161900 METAR MRLM 161900Z 35015KT 9999 SCT020 SCT120 28/24 A2987=
202208162000 METAR MRLM 162000Z 35010KT 9999 SCT020 SCT120 27/24 A2985=
202208162100 METAR MRLM 162100Z 32005KT 9999 SCT020 BKN120 28/24 A2984=
202208162200 METAR MRLM 162200Z 27006KT 9999 FEW020 BKN120 28/24 A2983=
202208162300 METAR MRLM 162300Z 27005KT 9999 FEW020 SCT120 27/24 A2984=
202208170000 METAR MRLM 170000Z 27003KT 9999 FEW015 SCT100 26/23 A2984=
202208170100 METAR MRLM NIL=
202208170200 METAR MRLM NIL=
202208170300 METAR MRLM NIL=
202208170400 METAR MRLM NIL=
202208170500 METAR MRLM NIL=
202208170600 METAR MRLM NIL=
202208170700 METAR MRLM NIL=
202208170800 METAR MRLM NIL=
202208170900 METAR MRLM NIL=
202208171000 METAR MRLM NIL=
202208171100 METAR MRLM NIL=
202208171200 METAR MRLM 171200Z 23004KT 9999 FEW015TCU 23/23 A2990=
202208171300 METAR MRLM 171300Z 23004KT 9999 FEW020 25/23 A2991=
202208171400 METAR MRLM 171400Z 27003KT 9999 FEW020 28/24 A2992=
202208171500 METAR MRLM 171500Z 35004KT 9999 FEW020 30/24 A2993=
202208171600 METAR MRLM 171600Z 02008KT 9999 FEW030 29/24 A2993=
202208171700 METAR MRLM 171700Z 02010KT 9999 FEW030 29/24 A2993=
202208171800 METAR MRLM 171800Z 02009KT 9999 FEW030 29/25 A2990=
202208171900 METAR MRLM 171900Z 01009KT CAVOK 29/25 A2988=
202208172000 METAR MRLM 172000Z 03007KT CAVOK 29/25 A2985=
202208172100 METAR MRLM 172100Z 04006KT 9999 FEW030 29/24 A2984=
202208172200 METAR MRLM 172200Z 04007KT 9999 FEW030 29/24 A2984=
202208172300 METAR MRLM 172300Z 03004KT 9999 FEW020 SCT220 28/24 A2985=
202208180000 METAR MRLM 180000Z 02003KT 9999 SCT015 SCT200 28/24 A2986=
202208180100 METAR MRLM NIL=
202208180200 METAR MRLM NIL=
202208180300 METAR MRLM NIL=
202208180400 METAR MRLM NIL=
202208180500 METAR MRLM NIL=
202208180600 METAR MRLM NIL=
202208180700 METAR MRLM NIL=
202208180800 METAR MRLM NIL=
202208180900 METAR MRLM NIL=
202208181000 METAR MRLM NIL=
202208181100 METAR MRLM NIL=
202208181200 METAR MRLM 181200Z 22004KT CAVOK 24/24 A2988=
202208181300 METAR MRLM 181300Z 23003KT CAVOK 27/24 A2990=
202208181400 METAR MRLM 181400Z 23003KT CAVOK 29/24 A2990=
202208181500 METAR MRLM 181500Z 07005KT CAVOK 30/24 A2990=
202208181600 METAR MRLM 181600Z 04006KT CAVOK 30/24 A2990=
202208181700 METAR MRLM 181700Z 03007KT CAVOK 30/25 A2989=
202208181800 METAR MRLM 181800Z 04009KT CAVOK 31/24 A2987=
202208181900 METAR MRLM 181900Z 03007KT 9999 FEW030 SCT250 31/25 A2985=
202208182000 METAR MRLM 182000Z 03008KT 9999 FEW030 BKN250 30/25 A2983=
202208182100 METAR MRLM 182100Z 03008KT 9999 FEW030 BKN250 30/25 A2982=
202208182200 METAR MRLM 182200Z 04007KT 9999 FEW030 BKN250 30/25 A2982=
202208182300 METAR MRLM 182300Z 05010KT 9999 BKN020 29/25 A2983=
202208190000 METAR MRLM 190000Z 05010KT 9999 SCT020 29/25 A2984=
202208190100 METAR MRLM NIL=
202208190200 METAR MRLM NIL=
202208190300 METAR MRLM NIL=
202208190400 METAR MRLM NIL=
202208190500 METAR MRLM NIL=
202208190600 METAR MRLM NIL=
202208190700 METAR MRLM NIL=
202208190800 METAR MRLM NIL=
202208190900 METAR MRLM NIL=
202208191000 METAR MRLM NIL=
202208191100 METAR MRLM NIL=
202208191200 METAR MRLM 191200Z 00000KT 9999 SCT015 BKN110 24/23 A2988=
202208191300 METAR MRLM 191300Z 00000KT 9999 FEW020 BKN130 25/23 A2989=
202208191400 METAR MRLM 191400Z 00000KT CAVOK 27/24 A2991=
202208191500 METAR MRLM 191500Z 09003KT 9999 FEW030 SCT250 28/24 A2992=
202208191600 METAR MRLM 191600Z 09005KT 9999 FEW030 SCT250 29/24 A2991=
202208191700 METAR MRLM 191700Z 08006KT CAVOK 30/24 A2989=
202208191800 METAR MRLM 191800Z 08006KT CAVOK 30/25 A2987=
202208191900 METAR MRLM 191900Z 08008KT CAVOK 31/25 A2983=
202208192000 METAR MRLM 192000Z 06008KT CAVOK 30/25 A2981=
202208192100 METAR MRLM 192100Z 06007KT 9999 FEW030 BKN230 30/25 A2979=
202208192200 METAR MRLM 192200Z 05005KT 9999 FEW030 BKN230 29/25 A2980=
202208192300 METAR MRLM 192300Z 07004KT CAVOK 29/25 A2982=
202208200000 METAR MRLM 200000Z 10006KT 9999 FEW020 SCT230 29/24 A2986=
202208200100 METAR MRLM NIL=
202208200200 METAR MRLM NIL=
202208200300 METAR MRLM NIL=
202208200400 METAR MRLM NIL=
202208200500 METAR MRLM NIL=
202208200600 METAR MRLM NIL=
202208200700 METAR MRLM NIL=
202208200800 METAR MRLM NIL=
202208200900 METAR MRLM NIL=
202208201000 METAR MRLM NIL=
202208201100 METAR MRLM NIL=
202208201200 METAR MRLM 201200Z 27002KT 9999 SCT015 BKN200 23/22 A2989=
202208201300 METAR MRLM 201300Z 24002KT 9999 FEW015 BKN200 25/23 A2992=
202208201400 METAR MRLM 201400Z 29002KT 9999 FEW020 BKN200 28/24 A2992=
202208201500 METAR MRLM 201500Z 07004KT 9999 FEW020 BKN220 29/24 A2992=
202208201600 METAR MRLM 201600Z 05005KT CAVOK 29/24 A2992=
202208201700 METAR MRLM 201700Z 03007KT CAVOK 30/25 A2992=
202208201800 METAR MRLM 201800Z 03007KT CAVOK 30/25 A2991=
202208201900 METAR MRLM 201900Z 04008KT CAVOK 30/25 A2988=
202208202000 METAR MRLM 202000Z 04006KT CAVOK 30/25 A2987=
202208202100 METAR MRLM 202100Z 05003KT CAVOK 30/25 A2985=
202208202200 METAR MRLM 202200Z 07004KT CAVOK 30/24 A2983=
202208202300 METAR MRLM 202300Z 09004KT CAVOK 29/23 A2984=
202208210000 METAR MRLM 210000Z 10004KT 9999 FEW020 BKN200 29/24 A2986=
202208210100 METAR MRLM NIL=
202208210200 METAR MRLM NIL=
202208210300 METAR MRLM NIL=
202208210400 METAR MRLM NIL=
202208210500 METAR MRLM NIL=
202208210600 METAR MRLM NIL=
202208210700 METAR MRLM NIL=
202208210800 METAR MRLM NIL=
202208210900 METAR MRLM NIL=
202208211000 METAR MRLM NIL=
202208211100 METAR MRLM NIL=
202208211200 METAR MRLM 211200Z 24004KT CAVOK 23/22 A2988=
202208211300 METAR MRLM 211300Z 24003KT CAVOK 25/23 A2989=
202208211400 METAR MRLM 211400Z 26002KT 9999 FEW020TCU SCT200 28/24 A2992=
202208211500 METAR MRLM 211500Z 07003KT 9999 FEW020TCU BKN200 29/24 A2992=
202208211600 METAR MRLM 211600Z 36005KT 9999 FEW020TCU BKN220 30/24 A2992=
202208211700 METAR MRLM 211700Z 04006KT 9999 FEW025 BKN220 30/24 A2991=
202208211800 METAR MRLM 211800Z 03007KT CAVOK 30/25 A2990=
202208211900 METAR MRLM 211900Z 03007KT 9999 FEW025 SCT120 BKN220 30/26 A2987=
202208212000 METAR MRLM 212000Z 03008KT 9999 FEW025 BKN220 30/25 A2984=
202208212100 METAR MRLM 212100Z 04004KT 9999 FEW020TCU BKN220 30/23 A2985=
202208212200 METAR MRLM 212200Z 04004KT 9999 FEW020 BKN220 29/24 A2985=
202208212300 METAR MRLM 212300Z 06006KT 9999 FEW020 BKN200 29/25 A2985=
202208220000 METAR MRLM 220000Z 08002KT 9999 FEW015 BKN200 28/24 A2986=
202208220100 METAR MRLM NIL=
202208220200 METAR MRLM NIL=
202208220300 METAR MRLM NIL=
202208220400 METAR MRLM NIL=
202208220500 METAR MRLM NIL=
202208220600 METAR MRLM NIL=
202208220700 METAR MRLM NIL=
202208220800 METAR MRLM NIL=
202208220900 METAR MRLM NIL=
202208221000 METAR MRLM NIL=
202208221100 METAR MRLM NIL=
202208221200 METAR MRLM 221200Z 27003KT 9999 FEW020 SCT130 BKN230 23/22 A2987=
202208221300 METAR MRLM 221300Z 23005KT 9999 FEW020 BKN230 24/22 A2988=
202208221400 METAR MRLM 221400Z 23004KT CAVOK 25/23 A2989=
202208221500 METAR MRLM 221500Z COR 26003KT CAVOK 28/24 A2989=
202208221600 METAR MRLM 221600Z 04004KT 9999 FEW030 SCT140 BKN230 29/24 A2988=
202208221700 METAR MRLM 221700Z 01007KT 9999 FEW030 BKN230 30/24 A2986=
202208221800 METAR MRLM 221800Z 01007KT 9999 FEW030 BKN230 30/24 A2986=
202208221900 METAR MRLM 221900Z 01006KT CAVOK 30/24 A2982=
202208222000 METAR MRLM 222000Z 02006KT CAVOK 30/24 A2980=
202208222100 METAR MRLM 222100Z 01007KT CAVOK 30/24 A2979=
202208222200 METAR MRLM 222200Z 01007KT CAVOK 30/24 A2979=
202208222300 METAR MRLM 222300Z 01006KT 9999 FEW030 SCT140 BKN230 29/25 A2983=
202208230000 METAR MRLM 230000Z 03007KT 9999 FEW025 SCT130 BKN230 28/25 A2984=
202208230100 METAR MRLM NIL=
202208230200 METAR MRLM NIL=
202208230300 METAR MRLM NIL=
202208230400 METAR MRLM NIL=
202208230500 METAR MRLM NIL=
202208230600 METAR MRLM NIL=
202208230700 METAR MRLM NIL=
202208230800 METAR MRLM NIL=
202208230900 METAR MRLM NIL=
202208231000 METAR MRLM NIL=
202208231100 METAR MRLM NIL=
202208231200 METAR MRLM 231200Z 21004KT CAVOK 22/22 A2982=
202208231300 METAR MRLM 231300Z 22003KT CAVOK 23/23 A2985=
202208231400 METAR MRLM 231400Z 22003KT CAVOK 27/22 A2985=
202208231500 METAR MRLM 231500Z 26003KT 9999 FEW025 BKN140 28/23 A2985=
202208231600 METAR MRLM 231600Z 31007KT CAVOK 30/24 A2984=
202208231700 METAR MRLM 231700Z 33005KT 9999 FEW020 SCT130 BKN230 29/23 A2983=
202208231800 METAR MRLM 231800Z 33005KT 9999 VCSH SCT020 BKN130 28/25 A2982=
202208231900 METAR MRLM 231900Z 02012KT 9999 FEW025 BKN130 27/24 A2980=
202208232000 METAR MRLM 232000Z 01006KT 9999 FEW030 BKN130 28/23 A2978=
202208232100 METAR MRLM 232100Z 03006KT 9999 SCT030 BKN130 29/23 A2977=
202208232200 METAR MRLM 232200Z 27005KT 9999 FEW025 BKN130 28/24 A2976=
202208232300 METAR MRLM 232300Z 27004KT 9999 FEW025 BKN130 27/23 A2978=
202208240000 METAR MRLM 240000Z 00000KT 9999 FEW020 BKN130 26/24 A2980=
202208240100 METAR MRLM NIL=
202208240200 METAR MRLM NIL=
202208240300 METAR MRLM NIL=
202208240400 METAR MRLM NIL=
202208240500 METAR MRLM NIL=
202208240600 METAR MRLM NIL=
202208240700 METAR MRLM NIL=
202208240800 METAR MRLM NIL=
202208240900 METAR MRLM NIL=
202208241000 METAR MRLM NIL=
202208241100 METAR MRLM NIL=
202208241200 METAR MRLM 241200Z 23002KT 9999 VCSH FEW015TCU BKN100 23/22 A2987=
202208241300 METAR MRLM 241300Z 26003KT 9999 VCSH FEW015TCU BKN100 23/22 A2988=
202208241400 METAR MRLM 241400Z 25003KT 9999 FEW020 BKN120 26/23 A2990=
202208241500 METAR MRLM 241500Z 29005KT 9999 FEW020 SCT120 29/23 A2990=
202208241600 METAR MRLM 241600Z 34007KT 9999 FEW030 SCT220 29/23 A2989=
202208241700 METAR MRLM 241700Z 34010KT 9999 FEW030 SCT220 29/24 A2989=
202208241800 METAR MRLM NIL=
202208241900 METAR MRLM NIL=
202208242000 METAR MRLM NIL=
202208242100 METAR MRLM NIL=
202208242200 METAR MRLM NIL=
202208242300 METAR MRLM NIL=
202208250000 METAR MRLM NIL=
202208250100 METAR MRLM NIL=
202208250200 METAR MRLM NIL=
202208250300 METAR MRLM NIL=
202208250400 METAR MRLM NIL=
202208250500 METAR MRLM NIL=
202208250600 METAR MRLM NIL=
202208250700 METAR MRLM NIL=
202208250800 METAR MRLM NIL=
202208250900 METAR MRLM NIL=
202208251000 METAR MRLM NIL=
202208251100 METAR MRLM NIL=
202208251200 METAR MRLM 251200Z 21005KT CAVOK 19/18 A2987=
202208251300 METAR MRLM 251300Z 23003KT CAVOK 21/19 A2989=
202208251400 METAR MRLM 251400Z 00000KT CAVOK 24/19 A2991=
202208251500 METAR MRLM 251500Z 06004KT CAVOK 29/23 A2994=
202208251600 METAR MRLM 251600Z 03006KT CAVOK 30/23 A2994=
202208251700 METAR MRLM 251700Z 02008KT CAVOK 30/24 A2994=
202208251800 METAR MRLM 251800Z 01008KT CAVOK 30/24 A2992=
202208251900 METAR MRLM NIL=
202208252000 METAR MRLM NIL=
202208252100 METAR MRLM NIL=
202208252200 METAR MRLM NIL=
202208252300 METAR MRLM NIL=
202208260000 METAR MRLM NIL=
202208260100 METAR MRLM NIL=
202208260200 METAR MRLM NIL=
202208260300 METAR MRLM NIL=
202208260400 METAR MRLM NIL=
202208260500 METAR MRLM NIL=
202208260600 METAR MRLM NIL=
202208260700 METAR MRLM NIL=
202208260800 METAR MRLM NIL=
202208260900 METAR MRLM NIL=
202208261000 METAR MRLM NIL=
202208261100 METAR MRLM NIL=
202208261200 METAR MRLM NIL=
202208261300 METAR MRLM 261300Z 23004KT 9999 FEW030 26/24 A2991=
202208261400 METAR MRLM 261400Z 21003KT 9999 FEW030 29/24 A2993=
202208261500 METAR MRLM 261500Z 08004KT 9999 SCT030 29/24 A2994=
202208261600 METAR MRLM 261600Z 06005KT 9999 FEW030 29/25 A2992=
202208261700 METAR MRLM 261700Z 04007KT 9999 FEW030 30/25 A2992=
202208261800 METAR MRLM 261800Z 02006KT CAVOK 30/25 A2990=
202208261900 METAR MRLM 261900Z 02007KT CAVOK 31/25 A2987=
202208262000 METAR MRLM 262000Z 03007KT CAVOK 30/24 A2983=
202208262100 METAR MRLM 262100Z 02008KT 9999 FEW030 SCT250 30/25 A2982=
202208262200 METAR MRLM 262200Z 02006KT CAVOK 30/24 A2983=
202208262300 METAR MRLM 262300Z 03005KT CAVOK 30/24 A2985=
202208270000 METAR MRLM 270000Z 04004KT CAVOK 29/24 A2986=
202208270100 METAR MRLM NIL=
202208270200 METAR MRLM NIL=
202208270300 METAR MRLM NIL=
202208270400 METAR MRLM NIL=
202208270500 METAR MRLM NIL=
202208270600 METAR MRLM NIL=
202208270700 METAR MRLM NIL=
202208270800 METAR MRLM NIL=
202208270900 METAR MRLM NIL=
202208271000 METAR MRLM NIL=
202208271100 METAR MRLM NIL=
202208271200 METAR MRLM 271200Z 21005KT 9999 FEW020 BKN100 23/22 A2986=
202208271300 METAR MRLM 271300Z 23005KT 9999 FEW025 BKN110 24/22 A2987=
202208271400 METAR MRLM 271400Z 24004KT 9999 FEW030 BKN130 27/23 A2989=
202208271500 METAR MRLM 271500Z 05003KT 9999 FEW030 SCT140 BKN240 28/24 A2989=
202208271600 METAR MRLM 271600Z 36005KT CAVOK 29/23 A2990=
202208271700 METAR MRLM 271700Z 35007KT CAVOK 28/24 A2989=
202208271800 METAR MRLM 271800Z 33007KT CAVOK 28/24 A2987=
202208271900 METAR MRLM 271900Z 36007KT CAVOK 30/24 A2983=
202208272000 METAR MRLM 272000Z 34004KT CAVOK 30/25 A2980=
202208272100 METAR MRLM 272100Z 35008KT 9999 FEW030 SCT150 BKN240 30/24 A2979=
202208272200 METAR MRLM 272200Z 35007KT 9999 FEW030 SCT140 BKN240 30/24 A2979=
202208272300 METAR MRLM 272300Z 01004KT 9999 SCT020 BKN130 29/24 A2980=
202208280000 METAR MRLM 280000Z 21005KT 9999 SCT015 BKN130 27/25 A2984 REDZ=
202208280100 METAR MRLM NIL=
202208280200 METAR MRLM NIL=
202208280300 METAR MRLM NIL=
202208280400 METAR MRLM NIL=
202208280500 METAR MRLM NIL=
202208280600 METAR MRLM NIL=
202208280700 METAR MRLM NIL=
202208280800 METAR MRLM NIL=
202208280900 METAR MRLM NIL=
202208281000 METAR MRLM NIL=
202208281100 METAR MRLM NIL=
202208281200 METAR MRLM 281200Z 23004KT CAVOK 23/23 A2985=
202208281300 METAR MRLM 281300Z 23004KT CAVOK 25/23 A2986=
202208281400 METAR MRLM 281400Z 29002KT 9999 FEW020 SCT200 29/24 A2989=
202208281500 METAR MRLM 281500Z 03005KT 9999 FEW020TCU SCT220 29/24 A2989=
202208281600 METAR MRLM 281600Z 02006KT 9999 FEW030 SCT220 29/24 A2989=
202208281700 METAR MRLM 281700Z 03008KT CAVOK 30/25 A2988=
202208281800 METAR MRLM 281800Z 02008KT CAVOK 30/24 A2984=
202208281900 METAR MRLM 281900Z 03006KT CAVOK 29/24 A2981=
202208282000 METAR MRLM 282000Z 02007KT 9999 FEW030 SCT240 29/24 A2979=
202208282100 METAR MRLM 282100Z 06005KT 9999 FEW025 SCT240 29/24 A2978=
202208282300 METAR MRLM 282300Z 12005KT 9999 SCT020 BKN220 28/24 A2981=
202208290000 METAR MRLM 290000Z 21003KT 9999 SCT015 BKN200 27/24 A2984=
202208290100 METAR MRLM NIL=
202208290200 METAR MRLM NIL=
202208290300 METAR MRLM NIL=
202208290400 METAR MRLM NIL=
202208290500 METAR MRLM NIL=
202208290600 METAR MRLM NIL=
202208290700 METAR MRLM NIL=
202208290800 METAR MRLM NIL=
202208290900 METAR MRLM NIL=
202208291000 METAR MRLM NIL=
202208291100 METAR MRLM NIL=
202208291200 METAR MRLM 291200Z 27002KT CAVOK 23/22 A2984=
202208291300 METAR MRLM 291300Z 25003KT CAVOK 26/23 A2987=
202208291400 METAR MRLM 291400Z 26004KT 9999 FEW020TCU BKN200 28/23 A2989=
202208291500 METAR MRLM 291500Z 24002KT 9999 VCSH FEW020TCU BKN200 29/24 A2990=
202208291600 METAR MRLM 291600Z 07005KT 9999 FEW020 BKN120 28/23 A2990=
202208291700 METAR MRLM 291700Z 01006KT 9999 FEW020 BKN120 29/23 A2990=
202208291800 METAR MRLM 291800Z 03010KT 9999 FEW020 BKN120 28/24 A2989=
202208291900 METAR MRLM 291900Z 01007KT 9999 FEW020 BKN120 28/23 A2987=
202208292000 METAR MRLM 292000Z 36004KT CAVOK 28/24 A2983=
202208292100 METAR MRLM 292100Z 02006KT 9999 FEW020 BKN120 28/24 A2983=
202208292200 METAR MRLM 292200Z 05006KT 9999 FEW020 SCT120 BKN220 28/23 A2982=
202208292300 METAR MRLM 292300Z 03003KT CAVOK 27/24 A2985=
202208300000 METAR MRLM 300000Z 03003KT CAVOK 27/23 A2986=
202208300100 METAR MRLM NIL=
202208300200 METAR MRLM NIL=
202208300300 METAR MRLM NIL=
202208300400 METAR MRLM NIL=
202208300500 METAR MRLM NIL=
202208300600 METAR MRLM NIL=
202208300700 METAR MRLM NIL=
202208300800 METAR MRLM NIL=
202208300900 METAR MRLM NIL=
202208301000 METAR MRLM NIL=
202208301100 METAR MRLM NIL=
202208301200 METAR MRLM 301200Z 24004KT CAVOK 22/21 A2986=
202208301300 METAR MRLM 301300Z 25004KT CAVOK 24/22 A2988=
202208301400 METAR MRLM 301400Z 24004KT CAVOK 27/23 A2989=
202208301500 METAR MRLM 301500Z 29005KT CAVOK 29/23 A2989=
202208301600 METAR MRLM 301600Z 31004KT CAVOK 29/22 A2990=
202208301700 METAR MRLM 301700Z 02009KT CAVOK 30/23 A2990=
202208301800 METAR MRLM 301800Z 03007KT CAVOK 30/23 A2989=
202208301900 METAR MRLM 301900Z 04008KT CAVOK 30/24 A2986=
202208302000 METAR MRLM 302000Z 02005KT CAVOK 29/24 A2983=
202208302100 METAR MRLM 302100Z 03005KT CAVOK 29/24 A2982=
202208302200 METAR MRLM 302200Z 02006KT 9999 FEW030 BKN240 29/24 A2982=
202208302300 METAR MRLM 302300Z 03005KT 9999 FEW030 SCT140 BKN240 29/24 A2982=
202208310000 METAR MRLM 310000Z 00000KT CAVOK 28/24 A2984=
202208310100 METAR MRLM NIL=
202208310200 METAR MRLM NIL=
202208310300 METAR MRLM NIL=
202208310400 METAR MRLM NIL=
202208310500 METAR MRLM NIL=
202208310600 METAR MRLM NIL=
202208310700 METAR MRLM NIL=
202208310800 METAR MRLM NIL=
202208310900 METAR MRLM NIL=
202208311100 METAR MRLM NIL=
202208311200 METAR MRLM 311200Z 22004KT CAVOK 24/24 A2986=
202208311300 METAR MRLM 311300Z 00000KT CAVOK 25/24 A2986=
202208311400 METAR MRLM 311400Z 00000KT 9999 FEW030 BKN240 27/24 A2988=
202208311500 METAR MRLM 311500Z 02006KT 9999 FEW020TCU BKN240 28/24 A2990=
202208311600 METAR MRLM 311600Z 02005KT CAVOK 28/24 A2990=
202208311700 METAR MRLM 311700Z 04005KT 9999 FEW030 BKN250 29/25 A2988=
202208311800 METAR MRLM 311800Z 07005KT CAVOK 29/24 A2986=
202208311900 METAR MRLM 311900Z 07008KT CAVOK 30/25 A2983=
202208312000 METAR MRLM 312000Z 06007KT 9999 FEW030 BKN250 30/25 A2980=
202208312100 METAR MRLM 312100Z 05005KT 9999 SCT030 BKN250 29/25 A2979=
202208312200 METAR MRLM 312200Z 05005KT 9999 SCT025 BKN240 29/25 A2979=
202208312300 METAR MRLM 312300Z 05005KT 9999 FEW025 BKN240 29/25 A2979=
202209010000 METAR MRLM NIL=
202209010100 METAR MRLM NIL=
202209010200 METAR MRLM NIL=
202209010300 METAR MRLM NIL=
202209010400 METAR MRLM NIL=
202209010500 METAR MRLM NIL=
202209010600 METAR MRLM NIL=
202209010700 METAR MRLM NIL=
202209010800 METAR MRLM NIL=
202209010900 METAR MRLM NIL=
202209011000 METAR MRLM NIL=
202209011100 METAR MRLM NIL=
202209011200 METAR MRLM NIL=
202209011300 METAR MRLM NIL=
202209011400 METAR MRLM 011400Z 09004KT 9999 FEW030 BKN240 29/24 A2988=
202209011500 METAR MRLM 011500Z 04005KT 9999 FEW030 BKN240 29/24 A2989=
202209011600 METAR MRLM 011600Z 03006KT 9999 FEW030 BKN240 30/25 A2988=
202209011700 METAR MRLM 011700Z 02008KT 9999 FEW030 BKN240 30/25 A2987=
202209011800 METAR MRLM 011800Z 02007KT 9999 FEW030 BKN250 30/25 A2985=
202209011900 METAR MRLM 011900Z 01010KT CAVOK 30/25 A2982=
202209012000 METAR MRLM 012000Z 01008KT CAVOK 30/25 A2980=
202209012100 METAR MRLM 012100Z 03005KT 9999 FEW030 BKN240 29/24 A2977=
202209012200 METAR MRLM 012200Z 19003KT 9999 FEW030 BKN240 29/25 A2977=
202209012300 METAR MRLM NIL=
202209020000 METAR MRLM NIL=
202209020100 METAR MRLM NIL=
202209020200 METAR MRLM NIL=
202209020300 METAR MRLM NIL=
202209020400 METAR MRLM NIL=
202209020500 METAR MRLM NIL=
202209020600 METAR MRLM NIL=
202209020800 METAR MRLM NIL=
202209020900 METAR MRLM NIL=
202209021000 METAR MRLM NIL=
202209021100 METAR MRLM NIL=
202209021200 METAR MRLM 021200Z 00000KT 9999 FEW030 SCT120 BKN240 24/24 A2983=
202209021300 METAR MRLM 021300Z 24003KT CAVOK 25/24 A2986=
202209021400 METAR MRLM 021400Z 24003KT CAVOK 26/24 A2986=
202209021500 METAR MRLM 021500Z 35004KT CAVOK 29/24 A2986=
202209021600 METAR MRLM 021600Z 36006KT CAVOK 29/24 A2987=
202209021800 METAR MRLM 021800Z 01008KT CAVOK 30/25 A2983=
202209021900 METAR MRLM 021900Z 01009KT CAVOK 30/25 A2979=
202209022000 METAR MRLM 022000Z 01011KT CAVOK 30/24 A2979=
202209022100 METAR MRLM 022100Z 01011KT CAVOK 30/25 A2977=
202209022200 METAR MRLM 022200Z 34010KT 9999 FEW030 BKN240 29/25 A2978=
202209022300 METAR MRLM NIL=
202209030000 METAR MRLM NIL=
202209030100 METAR MRLM NIL=
202209030200 METAR MRLM NIL=
202209030300 METAR MRLM NIL=
202209030400 METAR MRLM NIL=
202209030500 METAR MRLM NIL=
202209030600 METAR MRLM NIL=
202209030700 METAR MRLM NIL=
202209030800 METAR MRLM NIL=
202209030900 METAR MRLM NIL=
202209031000 METAR MRLM NIL=
202209031100 METAR MRLM NIL=
202209031200 METAR MRLM 031200Z COR 00000KT 9999 FEW015 BKN130 24/24 A2981=
202209031300 METAR MRLM 031300Z COR 00000KT 9999 DZ VCTS FEW015 BKN130 24/24 A2982=
202209031400 METAR MRLM 031400Z 24004KT 9999 SCT020 BKN130 24/24 A2987 REDZ=
202209031500 METAR MRLM 031500Z 29006KT 9999 VCSH SCT015 BKN120 25/24 A2989=
202209031600 METAR MRLM 031600Z 31005KT 9999 VCTS SCT015 BKN120 25/23 A2991=
202209031700 METAR MRLM 031700Z 01007KT 9999 RA VCTS BKN015 25/24 A2991=
202209031800 METAR MRLM 031800Z 27003KT 9999 DZ SCT020 BKN110 24/24 A2988 RERA=
202209031900 METAR MRLM 031900Z 26004KT 9999 DZ FEW020 SCT120 BKN230 25/25 A2985=
202209032000 METAR MRLM 032000Z 26003KT 9999 SCT025 BKN110 25/25 A2983=
202209032100 METAR MRLM 032100Z 33005KT 9999 DZ SCT020 BKN100 25/25 A2982=
202209032200 METAR MRLM 032200Z 27006KT 9999 FEW020 BKN130 25/25 A2982=
202209032300 METAR MRLM NIL=
202209040000 METAR MRLM NIL=
202209040100 METAR MRLM NIL=
202209040200 METAR MRLM NIL=
202209040300 METAR MRLM NIL=
202209040400 METAR MRLM NIL=
202209040500 METAR MRLM NIL=
202209040600 METAR MRLM NIL=
202209040700 METAR MRLM NIL=
202209040800 METAR MRLM NIL=
202209040900 METAR MRLM NIL=
202209041000 METAR MRLM NIL=
202209041100 METAR MRLM NIL=
202209041200 METAR MRLM 041200Z 23004KT CAVOK 23/22 A2985=
202209041300 METAR MRLM 041300Z 24004KT CAVOK 23/22 A2986=
202209041400 METAR MRLM 041400Z 23003KT CAVOK 26/24 A2989=
202209041500 METAR MRLM 041500Z 00000KT 9999 FEW030 SCT140 BKN250 29/25 A2990=
202209041600 METAR MRLM 041600Z 00000KT 9999 FEW030 SCT140 BKN250 29/25 A2990=
202209041800 METAR MRLM 041800Z 06004KT 9999 FEW030 BKN250 29/24 A2986=
202209041900 METAR MRLM 041900Z 06005KT CAVOK 29/24 A2982=
202209042000 METAR MRLM 042000Z 04005KT CAVOK 29/24 A2978=
202209042100 METAR MRLM 042100Z 04006KT CAVOK 30/24 A2977=
202209042200 METAR MRLM 042200Z 02004KT 9999 FEW030 BKN240 29/24 A2978=
202209042300 METAR MRLM NIL=
202209050000 METAR MRLM NIL=
202209050100 METAR MRLM NIL=
202209050200 METAR MRLM NIL=
202209050300 METAR MRLM NIL=
202209050400 METAR MRLM NIL=
202209050600 METAR MRLM NIL=
202209050700 METAR MRLM NIL=
202209050800 METAR MRLM NIL=
202209050900 METAR MRLM NIL=
202209051000 METAR MRLM NIL=
202209051100 METAR MRLM NIL=
202209051200 METAR MRLM 051200Z 25004KT 9999 -DZ FEW015 BKN110 24/24 A2986=
202209051300 METAR MRLM 051300Z 25004KT CAVOK 25/24 A2989=
202209051400 METAR MRLM 051400Z 25003KT CAVOK 27/25 A2992=
202209051500 METAR MRLM 051500Z 25003KT 9999 FEW020 BKN130 28/25 A2993=
202209051600 METAR MRLM 051600Z 29005KT 9999 VCSH SCT020 BKN130 29/24 A2993=
202209051700 METAR MRLM 051700Z 02013KT 9999 BKN020 27/25 A2994=
202209051800 METAR MRLM 051800Z 03015KT 9999 DZ BKN020 26/24 A2992=
202209051900 METAR MRLM 051900Z 03012KT 9999 DZ BKN015 26/25 A2990=
202209052000 METAR MRLM 052000Z 34008KT 9999 +DZ BKN010 25/24 A2988=
202209052100 METAR MRLM 052100Z 24005KT 9999 DZ SCT010 BKN110 24/23 A2989=
202209052200 METAR MRLM 052200Z 26004KT 8000 DZ SCT010 BKN110 23/23 A2988=
202209052300 METAR MRLM NIL=
202209060000 METAR MRLM NIL=
202209060200 METAR MRLM NIL=
202209060300 METAR MRLM NIL=
202209060500 METAR MRLM NIL=
202209060600 METAR MRLM NIL=
202209060700 METAR MRLM NIL=
202209060800 METAR MRLM NIL=
202209060900 METAR MRLM NIL=
202209061000 METAR MRLM NIL=
202209061100 METAR MRLM NIL=
202209061200 METAR MRLM 061200Z 25003KT CAVOK 21/21 A2991=
202209061300 METAR MRLM 061300Z 23005KT CAVOK 24/22 A2994=
202209061400 METAR MRLM 061400Z 29004KT CAVOK 27/23 A2996=
202209061500 METAR MRLM 061500Z 30006KT CAVOK 29/23 A2996=
202209061600 METAR MRLM 061600Z 35005KT CAVOK 29/24 A2996=
202209061700 METAR MRLM 061700Z 03009KT 9999 FEW030 BKN250 29/24 A2997=
202209061800 METAR MRLM 061800Z 03008KT CAVOK 29/24 A2995=
202209061900 METAR MRLM 061900Z 04005KT CAVOK 29/24 A2992=
202209062000 METAR MRLM 062000Z 04004KT CAVOK 29/24 A2989=
202209062100 METAR MRLM 062100Z 03004KT CAVOK 29/24 A2988=
202209062200 METAR MRLM 062200Z 03005KT CAVOK 29/24 A2987=
202209062300 METAR MRLM NIL=
202209070000 METAR MRLM NIL=
202209070100 METAR MRLM NIL=
202209070200 METAR MRLM NIL=
202209070300 METAR MRLM NIL=
202209070500 METAR MRLM NIL=
202209070600 METAR MRLM NIL=
202209070700 METAR MRLM NIL=
202209070800 METAR MRLM NIL=
202209070900 METAR MRLM NIL=
202209071100 METAR MRLM NIL=
202209071200 METAR MRLM 071200Z 22004KT CAVOK 23/23 A2991=
202209071300 METAR MRLM 071300Z 22004KT CAVOK 23/23 A2991=
202209071400 METAR MRLM 071400Z 25004KT CAVOK 29/24 A2994=
202209071500 METAR MRLM 071500Z 04004KT CAVOK 28/24 A2994=
202209071700 METAR MRLM 071700Z 03007KT CAVOK 30/25 A2993=
202209071800 METAR MRLM 071800Z 02008KT CAVOK 30/25 A2989=
202209071900 METAR MRLM 071900Z 04007KT CAVOK 30/25 A2986=
202209072000 METAR MRLM 072000Z 04009KT CAVOK 30/26 A2982=
202209072100 METAR MRLM 072100Z 05008KT 9999 FEW030 SCT250 30/25 A2981=
202209072200 METAR MRLM 072200Z 06004KT 9999 FEW030 BKN240 29/25 A2982=
202209072300 METAR MRLM NIL=
202209080000 METAR MRLM NIL=
202209080100 METAR MRLM NIL=
202209080200 METAR MRLM NIL=
202209080300 METAR MRLM NIL=
202209080400 METAR MRLM NIL=
202209080500 METAR MRLM NIL=
202209080600 METAR MRLM NIL=
202209080700 METAR MRLM NIL=
202209080800 METAR MRLM NIL=
202209080900 METAR MRLM NIL=
202209081000 METAR MRLM NIL=
202209081100 METAR MRLM NIL=
202209081200 METAR MRLM 081200Z 24005KT CAVOK 23/23 A2984=
202209081300 METAR MRLM 081300Z 24005KT CAVOK 25/23 A2985=
202209081400 METAR MRLM 081400Z 25003KT CAVOK 29/24 A2986=
202209081500 METAR MRLM 081500Z 02004KT 9999 FEW030 SCT250 30/24 A2987=
202209081600 METAR MRLM 081600Z 03008KT 9999 FEW030 30/25 A2987=
202209081700 METAR MRLM 081700Z 03006KT 9999 FEW030 30/25 A2986=
202209081800 METAR MRLM 081800Z 04008KT CAVOK 30/25 A2983=
202209081900 METAR MRLM 081900Z 04005KT 9999 FEW030 30/25 A2979=
202209082000 METAR MRLM 082000Z 05006KT 9999 FEW030 SCT250 30/25 A2976=
202209082100 METAR MRLM 082100Z 05005KT 9999 SCT030 30/26 A2976=
202209082200 METAR MRLM 082200Z 07006KT 9999 BKN030 30/25 A2976=
202209082300 METAR MRLM NIL=
202209090000 METAR MRLM NIL=
202209090100 METAR MRLM NIL=
202209090200 METAR MRLM NIL=
202209090300 METAR MRLM NIL=
202209090400 METAR MRLM NIL=
202209090500 METAR MRLM NIL=
202209090600 METAR MRLM NIL=
202209090700 METAR MRLM NIL=
202209090800 METAR MRLM NIL=
202209090900 METAR MRLM NIL=
202209091000 METAR MRLM NIL=
202209091100 METAR MRLM NIL=
202209091200 METAR MRLM 091200Z 24004KT CAVOK 23/23 A2980=
202209091300 METAR MRLM 091300Z 22004KT CAVOK 24/23 A2983=
202209091400 METAR MRLM 091400Z 23005KT CAVOK 24/24 A2985=
202209091500 METAR MRLM 091500Z 00000KT CAVOK 29/25 A2986=
202209091600 METAR MRLM 091600Z 06005KT 9999 FEW030 SCT240 29/25 A2985=
202209091700 METAR MRLM 091700Z 04007KT CAVOK 29/25 A2984=
202209091800 METAR MRLM 091800Z 05008KT CAVOK 30/25 A2982=
202209091900 METAR MRLM 091900Z 06007KT CAVOK 30/25 A2978=
202209092000 METAR MRLM 092000Z 06007KT CAVOK 30/25 A2978=
202209092100 METAR MRLM 092100Z 06004KT 9999 FEW030 BKN250 30/25 A2974=
202209092200 METAR MRLM 092200Z 05004KT 9999 FEW030 SCT240 29/25 A2975=
202209092300 METAR MRLM NIL=
202209100000 METAR MRLM NIL=
202209100100 METAR MRLM NIL=
202209100200 METAR MRLM NIL=
202209100300 METAR MRLM NIL=
202209100400 METAR MRLM NIL=
202209100600 METAR MRLM NIL=
202209100700 METAR MRLM NIL=
202209100800 METAR MRLM NIL=
202209100900 METAR MRLM NIL=
202209101000 METAR MRLM NIL=
202209101100 METAR MRLM NIL=
202209101200 METAR MRLM 101200Z 25004KT 9999 DZ FEW020 BKN130 24/24 A2986=
202209101300 METAR MRLM 101300Z 25004KT 9999 -DZ FEW020 BKN130 24/24 A2989=
202209101400 METAR MRLM 101400Z 22003KT CAVOK 25/25 A2992=
202209101500 METAR MRLM 101500Z 23004KT CAVOK 27/24 A2994=
202209101600 METAR MRLM 101600Z 00000KT CAVOK 29/25 A2994=
202209101700 METAR MRLM 101700Z 05006KT CAVOK 29/24 A2995=
202209101800 METAR MRLM 101800Z 04006KT CAVOK 29/24 A2992=
202209101900 METAR MRLM 101900Z 05007KT CAVOK 30/24 A2988=
202209102000 METAR MRLM 102000Z 06006KT CAVOK 30/24 A2985=
202209102100 METAR MRLM 102100Z 08006KT CAVOK 30/24 A2984=
202209102200 METAR MRLM 102200Z 08005KT 9999 FEW030 BKN240 29/24 A2985=
202209102300 METAR MRLM NIL=
202209110000 METAR MRLM NIL=
202209110100 METAR MRLM NIL=
202209110200 METAR MRLM NIL=
202209110300 METAR MRLM NIL=
202209110400 METAR MRLM NIL=
202209110500 METAR MRLM NIL=
202209110600 METAR MRLM NIL=
202209110700 METAR MRLM NIL=
202209110800 METAR MRLM NIL=
202209110900 METAR MRLM NIL=
202209111000 METAR MRLM NIL=
202209111100 METAR MRLM NIL=
202209111200 METAR MRLM 111200Z 24005KT CAVOK 23/22 A2990=
202209111300 METAR MRLM 111300Z 23003KT CAVOK 24/23 A2993=
202209111400 METAR MRLM 111400Z 00000KT CAVOK 26/23 A2996=
202209111500 METAR MRLM 111500Z 24004KT CAVOK 29/24 A2996=
202209111600 METAR MRLM 111600Z 24004KT CAVOK 29/24 A2996=
202209111700 METAR MRLM 111700Z 11005KT CAVOK 29/24 A2996=
202209111800 METAR MRLM 111800Z 10007KT CAVOK 30/25 A2995=
202209111900 METAR MRLM 111900Z 12009KT 9999 FEW030 BKN130 29/25 A2992=
202209112000 METAR MRLM 112000Z 13011KT 9999 SCT025 BKN120 29/25 A2989=
202209112100 METAR MRLM 112100Z 13014KT 9999 FEW025 BKN130 28/24 A2988=
202209112200 METAR MRLM 112200Z 13014KT 9999 FEW025 BKN130 28/24 A2988=
202209112300 METAR MRLM NIL=
202209120000 METAR MRLM NIL=
202209120100 METAR MRLM NIL=
202209120200 METAR MRLM NIL=
202209120300 METAR MRLM NIL=
202209120400 METAR MRLM NIL=
202209120500 METAR MRLM NIL=
202209120600 METAR MRLM NIL=
202209120700 METAR MRLM NIL=
202209120800 METAR MRLM NIL=
202209120900 METAR MRLM NIL=
202209121000 METAR MRLM NIL=
202209121100 METAR MRLM NIL=
202209121200 METAR MRLM 121200Z 00000KT CAVOK 23/23 A2987=
202209121300 METAR MRLM 121300Z 23003KT CAVOK 24/23 A2989=
202209121400 METAR MRLM 121400Z 24003KT 9999 FEW020 SCT130 BKN240 25/24 A2992=
202209121500 METAR MRLM 121500Z 21004KT 9999 FEW020 BKN140 25/23 A2993=
202209121600 METAR MRLM 121600Z 27003KT 9999 FEW020 BKN140 27/24 A2994=
202209121700 METAR MRLM 121700Z 03003KT 9999 FEW030 BKN130 29/24 A2992=
202209121800 METAR MRLM 121800Z 01006KT CAVOK 30/25 A2989=
202209121900 METAR MRLM 121900Z 01008KT CAVOK 29/25 A2986=
202209122000 METAR MRLM 122000Z 01008KT 9999 FEW030 SCT140 BKN240 29/25 A2982=
202209122100 METAR MRLM 122100Z 01008KT 9999 FEW030 BKN250 30/25 A2980=
202209122200 METAR MRLM 122200Z 34008KT 9999 FEW030 BKN130 29/25 A2979=
202209122300 METAR MRLM NIL=
202209130000 METAR MRLM NIL=
202209130100 METAR MRLM NIL=
202209130200 METAR MRLM NIL=
202209130300 METAR MRLM NIL=
202209130400 METAR MRLM NIL=
202209130500 METAR MRLM NIL=
202209130600 METAR MRLM NIL=
202209130700 METAR MRLM NIL=
202209130800 METAR MRLM NIL=
202209130900 METAR MRLM NIL=
202209131000 METAR MRLM NIL=
202209131100 METAR MRLM NIL=
202209131200 METAR MRLM 131200Z 23004KT CAVOK 23/22 A2985=
202209131300 METAR MRLM 131300Z 26003KT CAVOK 27/23 A2985=
202209131400 METAR MRLM 131400Z 04004KT CAVOK 28/24 A2986=
202209131500 METAR MRLM 131500Z 04004KT CAVOK 30/24 A2988=
202209131600 METAR MRLM 131600Z 36011KT CAVOK 30/25 A2990=
202209131700 METAR MRLM 131700Z 01010KT CAVOK 29/25 A2989=
202209131800 METAR MRLM 131800Z 02007KT 9999 SCT030 BKN140 29/25 A2986=
202209131900 METAR MRLM 131900Z 01004KT 9999 BKN025 30/25 A2980=
202209132000 METAR MRLM 132000Z COR 29005KT 9999 BKN025 28/25 A2977=
202209132100 METAR MRLM 132100Z 30003KT 9999 FEW030 BKN130 28/25 A2976=
202209132200 METAR MRLM 132200Z 28005KT 9999 FEW030 SCT140 BKN240 29/25 A2976=
202209132300 METAR MRLM NIL=
202209140000 METAR MRLM NIL=
202209140100 METAR MRLM NIL=
202209140200 METAR MRLM NIL=
202209140300 METAR MRLM NIL=
202209140400 METAR MRLM NIL=
202209140500 METAR MRLM NIL=
202209140600 METAR MRLM NIL=
202209140700 METAR MRLM NIL=
202209140800 METAR MRLM NIL=
202209140900 METAR MRLM NIL=
202209141000 METAR MRLM NIL=
202209141100 METAR MRLM NIL=
202209141200 METAR MRLM 141200Z 23004KT 9999 FEW025 BKN130 24/24 A2982=
202209141300 METAR MRLM 141300Z 23004KT CAVOK 25/24 A2985=
202209141400 METAR MRLM 141400Z 00000KT 9999 FEW030 BKN130 26/23 A2987=
202209141500 METAR MRLM 141500Z 26003KT 9999 FEW030 SCT130 BKN240 26/24 A2988=
202209141600 METAR MRLM 141600Z 00000KT 9999 FEW030 BKN130 26/24 A2990=
202209141700 METAR MRLM 141700Z 14006KT 9999 FEW030 BKN130 27/24 A2989=
202209141800 METAR MRLM 141800Z 12008KT 9999 FEW030 BKN130 27/25 A2987=
202209141900 METAR MRLM 141900Z 12006KT 9999 FEW030 BKN120 27/24 A2985=
202209142000 METAR MRLM 142000Z 11006KT 9999 FEW030 BKN120 28/23 A2983=
202209142100 METAR MRLM 142100Z 20003KT 9999 FEW030 BKN140 27/24 A2981=
202209142200 METAR MRLM 142200Z 16003KT 9999 FEW030 BKN140 26/24 A2981=
202209142300 METAR MRLM NIL=
202209150000 METAR MRLM NIL=
202209150100 METAR MRLM NIL=
202209150200 METAR MRLM NIL=
202209150300 METAR MRLM NIL=
202209150400 METAR MRLM NIL=
202209150500 METAR MRLM NIL=
202209150600 METAR MRLM NIL=
202209150700 METAR MRLM NIL=
202209150800 METAR MRLM NIL=
202209150900 METAR MRLM NIL=
202209151000 METAR MRLM NIL=
202209151100 METAR MRLM NIL=
202209151200 METAR MRLM 151200Z 23004KT CAVOK 23/22 A2986=
202209151300 METAR MRLM 151300Z 22004KT CAVOK 25/22 A2989=
202209151400 METAR MRLM 151400Z 00000KT CAVOK 28/23 A2991=
202209151500 METAR MRLM 151500Z 04003KT 9999 FEW030 28/23 A2992=
202209151600 METAR MRLM 151600Z 06007KT 9999 FEW030 SCT250 29/24 A2991=
202209151700 METAR MRLM 151700Z 05008KT CAVOK 29/24 A2990=
202209151800 METAR MRLM 151800Z 04008KT CAVOK 30/25 A2987=
202209151900 METAR MRLM 151900Z 04007KT CAVOK 30/25 A2984=
202209152000 METAR MRLM 152000Z 05010KT CAVOK 30/25 A2983=
202209152100 METAR MRLM 152100Z 07009KT CAVOK 30/24 A2982=
202209152200 METAR MRLM 152200Z 07007KT 9999 FEW030 BKN230 30/24 A2981=
202209152300 METAR MRLM NIL=
202209160000 METAR MRLM NIL=
202209160100 METAR MRLM NIL=
202209160200 METAR MRLM NIL=
202209160300 METAR MRLM NIL=
202209160400 METAR MRLM NIL=
202209160500 METAR MRLM NIL=
202209160600 METAR MRLM NIL=
202209160700 METAR MRLM NIL=
202209160800 METAR MRLM NIL=
202209160900 METAR MRLM NIL=
202209161000 METAR MRLM NIL=
202209161100 METAR MRLM NIL=
202209161200 METAR MRLM 161200Z 23004KT CAVOK 23/23 A2987=
202209161300 METAR MRLM 161300Z 00000KT CAVOK 24/23 A2989=
202209161400 METAR MRLM 161400Z 00000KT CAVOK 28/24 A2990=
202209161500 METAR MRLM 161500Z 05004KT CAVOK 29/25 A2990=
202209161600 METAR MRLM 161600Z 01008KT CAVOK 30/24 A2989=
202209161700 METAR MRLM 161700Z 01009KT CAVOK 29/25 A2989=
202209161800 METAR MRLM 161800Z 01009KT CAVOK 30/25 A2987=
202209161900 METAR MRLM 161900Z 01011KT 9999 FEW030 SCT130 BKN240 30/25 A2984=
202209162000 METAR MRLM 162000Z 01009KT 9999 BKN030 30/25 A2981=
202209162100 METAR MRLM 162100Z 02011KT 9999 BKN025 29/26 A2982=
202209162200 METAR MRLM 162200Z 02009KT 9999 FEW025 SCT140 BKN240 28/24 A2982=
202209162300 METAR MRLM NIL=
202209170000 METAR MRLM NIL=
202209170100 METAR MRLM NIL=
202209170200 METAR MRLM NIL=
202209170300 METAR MRLM NIL=
202209170400 METAR MRLM NIL=
202209170500 METAR MRLM NIL=
202209170600 METAR MRLM NIL=
202209170700 METAR MRLM NIL=
202209170800 METAR MRLM NIL=
202209170900 METAR MRLM NIL=
202209171000 METAR MRLM NIL=
202209171100 METAR MRLM NIL=
202209171200 METAR MRLM 171200Z 22004KT CAVOK 23/22 A2986=
202209171300 METAR MRLM 171300Z 24003KT CAVOK 26/23 A2986=
202209171400 METAR MRLM 171400Z 29003KT CAVOK 29/23 A2987=
202209171500 METAR MRLM 171500Z 31008KT CAVOK 30/23 A2987=
202209171600 METAR MRLM 171600Z 33009KT 9999 FEW030 BKN250 30/24 A2987=
202209171700 METAR MRLM 171700Z 35011KT 9999 FEW030 BKN250 31/25 A2985=
202209171800 METAR MRLM 171800Z 15015KT CAVOK 31/25 A2983=
202209171900 METAR MRLM 171900Z 36016KT CAVOK 31/26 A2981=
202209172000 METAR MRLM 172000Z 36016KT 9999 BKN030 30/26 A2979=
202209172100 METAR MRLM 172100Z 36010KT 9999 BKN030 29/26 A2980=
202209172200 METAR MRLM 172200Z 35007KT 9999 BKN030 29/25 A2979=
202209172300 METAR MRLM NIL=
202209180000 METAR MRLM NIL=
202209180100 METAR MRLM NIL=
202209180200 METAR MRLM NIL=
202209180300 METAR MRLM NIL=
202209180400 METAR MRLM NIL=
202209180500 METAR MRLM NIL=
202209180600 METAR MRLM NIL=
202209180700 METAR MRLM NIL=
202209180800 METAR MRLM NIL=
202209180900 METAR MRLM NIL=
202209181000 METAR MRLM NIL=
202209181100 METAR MRLM NIL=
202209181200 METAR MRLM 181200Z 26004KT 9999 DZ FEW025 BKN140 23/23 A2985=
202209181300 METAR MRLM 181300Z 23004KT 9999 DZ FEW025 BKN140 24/23 A2988=
202209181400 METAR MRLM 181400Z 23004KT CAVOK 26/23 A2989=
202209181500 METAR MRLM 181500Z 00000KT CAVOK 27/23 A2989=
202209181600 METAR MRLM 181600Z 00000KT CAVOK 28/23 A2990=
202209181700 METAR MRLM 181700Z 31004KT CAVOK 29/23 A2988=
202209181800 METAR MRLM 181800Z 03008KT CAVOK 29/23 A2986=
202209181900 METAR MRLM 181900Z 05004KT CAVOK 28/24 A2983=
202209182000 METAR MRLM 182000Z 04003KT CAVOK 28/24 A2982=
202209182100 METAR MRLM 182100Z 00000KT CAVOK 28/23 A2980=
202209182200 METAR MRLM 182200Z 00000KT CAVOK 28/23 A2981=
202209182300 METAR MRLM NIL=
202209190000 METAR MRLM NIL=
202209190100 METAR MRLM NIL=
202209190200 METAR MRLM NIL=
202209190300 METAR MRLM NIL=
202209190400 METAR MRLM NIL=
202209190500 METAR MRLM NIL=
202209190600 METAR MRLM NIL=
202209190700 METAR MRLM NIL=
202209190800 METAR MRLM NIL=
202209190900 METAR MRLM NIL=
202209191000 METAR MRLM NIL=
202209191100 METAR MRLM NIL=
202209191200 METAR MRLM 191200Z 25004KT CAVOK 23/23 A2984=
202209191300 METAR MRLM 191300Z 24004KT CAVOK 25/23 A2987=
202209191400 METAR MRLM 191400Z 26004KT CAVOK 27/24 A2988=
202209191500 METAR MRLM 191500Z 26005KT CAVOK 30/24 A2989=
202209191600 METAR MRLM 191600Z 02003KT 9999 FEW030 SCT140 30/23 A2990=
202209191700 METAR MRLM 191700Z 02003KT 9999 FEW030 BKN140 30/24 A2986=
202209191800 METAR MRLM 191800Z 03008KT CAVOK 30/25 A2984=
202209191900 METAR MRLM 191900Z 04006KT CAVOK 30/24 A2981=
202209192000 METAR MRLM 192000Z 04006KT CAVOK 29/25 A2978=
202209192100 METAR MRLM 192100Z 04005KT CAVOK 29/25 A2978=
202209192200 METAR MRLM 192200Z 07007KT 9999 FEW030 BKN140 29/24 A2979=
202209192300 METAR MRLM NIL=
202209200000 METAR MRLM NIL=
202209200100 METAR MRLM NIL=
202209200200 METAR MRLM NIL=
202209200300 METAR MRLM NIL=
202209200400 METAR MRLM NIL=
202209200500 METAR MRLM NIL=
202209200600 METAR MRLM NIL=
202209200700 METAR MRLM NIL=
202209200800 METAR MRLM NIL=
202209200900 METAR MRLM NIL=
202209201000 METAR MRLM NIL=
202209201100 METAR MRLM NIL=
202209201200 METAR MRLM 201200Z 25003KT CAVOK 22/22 A2987=
202209201300 METAR MRLM 201300Z 25004KT CAVOK 24/22 A2988=
202209201400 METAR MRLM 201400Z 25004KT CAVOK 27/23 A2990=
202209201500 METAR MRLM 201500Z 28004KT CAVOK 30/22 A2990=
202209201600 METAR MRLM 201600Z 02004KT CAVOK 30/24 A2989=
202209201700 METAR MRLM 201700Z 02008KT 9999 FEW030 SCT140 BKN230 30/24 A2988=
202209201800 METAR MRLM 201800Z 02008KT CAVOK 29/24 A2986=
202209201900 METAR MRLM 201900Z 05005KT CAVOK 29/24 A2984=
202209202000 METAR MRLM 202000Z 06006KT CAVOK 29/24 A2981=
202209202100 METAR MRLM 202100Z 00000KT CAVOK 28/24 A2980=
202209202200 METAR MRLM 202200Z 08005KT CAVOK 28/24 A2982=
202209202300 METAR MRLM NIL=
202209210000 METAR MRLM NIL=
202209210100 METAR MRLM NIL=
202209210200 METAR MRLM NIL=
202209210300 METAR MRLM NIL=
202209210400 METAR MRLM NIL=
202209210500 METAR MRLM NIL=
202209210600 METAR MRLM NIL=
202209210700 METAR MRLM NIL=
202209210800 METAR MRLM NIL=
202209210900 METAR MRLM NIL=
202209211000 METAR MRLM NIL=
202209211100 METAR MRLM NIL=
202209211200 METAR MRLM 211200Z 22004KT 9999 FEW015 SCT100 24/24 A2985=
202209211300 METAR MRLM 211300Z 26003KT 9999 FEW015 SCT200 26/24 A2987=
202209211400 METAR MRLM 211400Z 03002KT 9999 FEW020 SCT100 BKN200 28/24 A2989=
202209211500 METAR MRLM 211500Z 07004KT 9999 FEW020 SCT200 29/25 A2990=
202209211600 METAR MRLM 211600Z 06005KT 9999 FEW020 BKN220 29/25 A2989=
202209211700 METAR MRLM 211700Z 07004KT 9999 FEW020 BKN220 29/25 A2988=
202209211800 METAR MRLM 211800Z 05005KT 9999 FEW025 BKN220 30/25 A2984=
202209211900 METAR MRLM 211900Z 07006KT 9999 FEW025 BKN220 30/25 A2981=
202209212000 METAR MRLM 212000Z 06007KT 9999 FEW025 BKN220 30/25 A2978=
202209212100 METAR MRLM 212100Z 05005KT 9999 FEW020 BKN220 30/25 A2977=
202209212200 METAR MRLM 212200Z 04005KT 9999 FEW020 BKN200 29/24 A2978=
202209212300 METAR MRLM 212300Z 26003KT 9999 FEW020 BKN200 28/25 A2981=
202209220000 METAR MRLM 220000Z 19002KT 9999 FEW015 BKN200 26/24 A2982=
202209220100 METAR MRLM NIL=
202209220200 METAR MRLM NIL=
202209220300 METAR MRLM NIL=
202209220400 METAR MRLM NIL=
202209220500 METAR MRLM NIL=
202209220600 METAR MRLM NIL=
202209220700 METAR MRLM NIL=
202209220800 METAR MRLM NIL=
202209220900 METAR MRLM NIL=
202209221000 METAR MRLM NIL=
202209221100 METAR MRLM NIL=
202209221200 METAR MRLM 221200Z 23005KT CAVOK 22/21 A2986=
202209221300 METAR MRLM 221300Z 24004KT CAVOK 24/22 A2988=
202209221400 METAR MRLM 221400Z 22004KT CAVOK 28/23 A2989=
202209221500 METAR MRLM 221500Z 04004KT 9999 FEW020 SCT220 29/23 A2989=
202209221600 METAR MRLM 221600Z 02007KT 9999 FEW020 SCT220 30/24 A2989=
202209221700 METAR MRLM 221700Z 04006KT 9999 FEW025 SCT220 30/24 A2988=
202209221800 METAR MRLM 221800Z 05007KT CAVOK 30/24 A2985=
202209221900 METAR MRLM 221900Z 03009KT 9999 FEW025 BKN240 30/25 A2982=
202209222000 METAR MRLM 222000Z 05008KT 9999 FEW025 BKN240 30/25 A2979=
202209222100 METAR MRLM 222100Z 05007KT 9999 FEW025 BKN240 29/24 A2978=
202209222200 METAR MRLM 222200Z 07006KT 9999 FEW020 BKN220 29/24 A2979=
202209222300 METAR MRLM 222300Z 06004KT 9999 SCT020 BKN220 28/24 A2980=
202209230000 METAR MRLM 230000Z 22002KT 9999 SCT015 SCT200 26/24 A2982=
202209230100 METAR MRLM NIL=
202209230200 METAR MRLM NIL=
202209230300 METAR MRLM NIL=
202209230400 METAR MRLM NIL=
202209230500 METAR MRLM NIL=
202209230600 METAR MRLM NIL=
202209230700 METAR MRLM NIL=
202209230800 METAR MRLM NIL=
202209230900 METAR MRLM NIL=
202209231000 METAR MRLM NIL=
202209231100 METAR MRLM NIL=
202209231200 METAR MRLM 231200Z 20006KT CAVOK 23/22 A2988=
202209231300 METAR MRLM 231300Z 22004KT CAVOK 24/22 A2991=
202209231400 METAR MRLM 231400Z 22004KT 9999 DZ FEW020 BKN140 25/23 A2993=
202209231500 METAR MRLM 231500Z 22003KT CAVOK 26/24 A2993=
202209231600 METAR MRLM 231600Z 00000KT CAVOK 28/24 A2992=
202209231700 METAR MRLM 231700Z 09005KT 9999 FEW030 BKN140 29/24 A2989=
202209231800 METAR MRLM 231800Z 10007KT CAVOK 29/24 A2986=
202209231900 METAR MRLM 231900Z 10004KT CAVOK 30/24 A2982=
202209232000 METAR MRLM 232000Z 07007KT CAVOK 30/24 A2981=
202209232100 METAR MRLM 232100Z 07007KT 9999 FEW030 SCT150 29/24 A2980=
202209232200 METAR MRLM 232200Z 08007KT 9999 FEW030 SCT150 29/24 A2980=
202209232300 METAR MRLM 232300Z 00000KT 9999 SCT025 28/24 A2981=
202209240000 METAR MRLM 240000Z 00000KT 9999 SCT020 26/24 A2984=
202209240100 METAR MRLM NIL=
202209240200 METAR MRLM NIL=
202209240300 METAR MRLM NIL=
202209240400 METAR MRLM NIL=
202209240500 METAR MRLM NIL=
202209240600 METAR MRLM NIL=
202209240700 METAR MRLM NIL=
202209240800 METAR MRLM NIL=
202209240900 METAR MRLM NIL=
202209241000 METAR MRLM NIL=
202209241100 METAR MRLM NIL=
202209241200 METAR MRLM 241200Z 23005KT CAVOK 22/22 A2985=
202209241300 METAR MRLM 241300Z 25005KT CAVOK 25/22 A2987=
202209241400 METAR MRLM 241400Z 28003KT CAVOK 28/23 A2988=
202209241500 METAR MRLM 241500Z 05004KT CAVOK 29/23 A2990=
202209241600 METAR MRLM 241600Z 00000KT CAVOK 29/23 A2988=
202209241700 METAR MRLM 241700Z 03005KT CAVOK 30/24 A2986=
202209241800 METAR MRLM 241800Z 02009KT CAVOK 31/24 A2983=
202209241900 METAR MRLM 241900Z 02008KT CAVOK 31/24 A2980=
202209242000 METAR MRLM 242000Z 02008KT CAVOK 31/24 A2976=
202209242100 METAR MRLM 242100Z 04007KT CAVOK 30/25 A2977=
202209242200 METAR MRLM 242200Z 05008KT CAVOK 30/24 A2978=
202209242300 METAR MRLM 242300Z 05003KT CAVOK 29/24 A2979=
202209250000 METAR MRLM 250000Z 05003KT CAVOK 29/24 A2979=
202209250100 METAR MRLM NIL=
202209250200 METAR MRLM NIL=
202209250300 METAR MRLM NIL=
202209250400 METAR MRLM NIL=
202209250500 METAR MRLM NIL=
202209250600 METAR MRLM NIL=
202209250700 METAR MRLM NIL=
202209250800 METAR MRLM NIL=
202209250900 METAR MRLM NIL=
202209251000 METAR MRLM NIL=
202209251100 METAR MRLM NIL=
202209251200 METAR MRLM 251200Z 21002KT 9999 FEW015 BKN200 23/22 A2977=
202209251300 METAR MRLM 251300Z 25003KT CAVOK 25/22 A2979=
202209251400 METAR MRLM 251400Z 27003KT CAVOK 28/23 A2982=
202209251500 METAR MRLM 251500Z 31006KT CAVOK 29/23 A2983=
202209251600 METAR MRLM 251600Z 30003KT CAVOK 30/23 A2981=
202209251700 METAR MRLM 251700Z 02010KT 9999 FEW025 BKN240 30/24 A2980=
202209251800 METAR MRLM 251800Z 02010KT CAVOK 31/24 A2977=
202209251900 METAR MRLM 251900Z 02011KT CAVOK 30/25 A2973=
202209252000 METAR MRLM 252000Z 02009KT CAVOK 30/25 A2971=
202209252100 METAR MRLM 252100Z 03007KT CAVOK 30/25 A2969=
202209252200 METAR MRLM 252200Z 03004KT CAVOK 30/24 A2971=
202209252300 METAR MRLM 252300Z 05004KT CAVOK 29/24 A2972=
202209260000 METAR MRLM 260000Z 12002KT CAVOK 27/25 A2975=
202209260100 METAR MRLM NIL=
202209260200 METAR MRLM NIL=
202209260300 METAR MRLM NIL=
202209260400 METAR MRLM NIL=
202209260500 METAR MRLM NIL=
202209260600 METAR MRLM NIL=
202209260700 METAR MRLM NIL=
202209260800 METAR MRLM NIL=
202209260900 METAR MRLM NIL=
202209261000 METAR MRLM NIL=
202209261100 METAR MRLM NIL=
202209261200 METAR MRLM 261200Z 25003KT 9999 FEW015 SCT100 BKN200 24/23 A2978=
202209261300 METAR MRLM 261300Z 25004KT 9999 FEW015 SCT100 BKN200 26/24 A2982=
202209261400 METAR MRLM 261400Z 25004KT 9999 FEW020 SCT120 BKN220 28/25 A2985=
202209261500 METAR MRLM 261500Z 02003KT 9999 FEW020 BKN220 30/24 A2985=
202209261600 METAR MRLM 261600Z 10004KT 9999 FEW025 SCT220 31/24 A2985=
202209261700 METAR MRLM 261700Z 02010KT CAVOK 31/25 A2981=
202209261800 METAR MRLM 261800Z 03009KT CAVOK 31/24 A2978=
202209261900 METAR MRLM 261900Z 04008KT CAVOK 30/24 A2975=
202209262000 METAR MRLM 262000Z 04007KT CAVOK 30/24 A2975=
202209262100 METAR MRLM 262100Z 05007KT 9999 FEW025 BKN120 29/24 A2974=
202209262200 METAR MRLM 262200Z 26005KT 9999 DZ VCSH FEW015TCU FEW020 BKN100 26/25 A2977=
202209262300 METAR MRLM 262300Z 24005KT 9999 +DZ SCT020 OVC100 25/24 A2979=
202209270000 METAR MRLM 270000Z 23005KT 9999 DZ FEW015 OVC090 24/24 A2980=
202209270100 METAR MRLM NIL=
202209270200 METAR MRLM NIL=
202209270300 METAR MRLM NIL=
202209270400 METAR MRLM NIL=
202209270500 METAR MRLM NIL=
202209270600 METAR MRLM NIL=
202209270700 METAR MRLM NIL=
202209270800 METAR MRLM NIL=
202209270900 METAR MRLM NIL=
202209271000 METAR MRLM NIL=
202209271100 METAR MRLM NIL=
202209271200 METAR MRLM 271200Z 22003KT 9999 FEW010 BKN100 22/22 A2986=
202209271300 METAR MRLM 271300Z 23003KT 9999 FEW015 BKN100 24/23 A2988=
202209271400 METAR MRLM 271400Z 21004KT 9999 FEW015 BKN100 25/23 A2991=
202209271500 METAR MRLM 271500Z 24003KT 9999 FEW020 OVC120 26/23 A2991=
202209271600 METAR MRLM 271600Z 16002KT 9999 FEW020 OVC120 27/24 A2992=
202209271700 METAR MRLM 271700Z 12006KT 9999 SCT020 OVC120 27/25 A2992=
202209271800 METAR MRLM 271800Z 12012KT 9999 FEW020 OVC120 28/24 A2990=
202209271900 METAR MRLM 271900Z 10008KT 9999 FEW020 OVC220 28/24 A2987=
202209272000 METAR MRLM 272000Z 13004KT 9999 FEW020 BKN220 28/24 A2982=
202209272100 METAR MRLM 272100Z 11005KT CAVOK 28/24 A2980=
202209272200 METAR MRLM 272200Z 11005KT CAVOK 28/24 A2980=
202209272300 METAR MRLM NIL=
202209280000 METAR MRLM NIL=
202209280100 METAR MRLM NIL=
202209280200 METAR MRLM NIL=
202209280300 METAR MRLM NIL=
202209280400 METAR MRLM NIL=
202209280500 METAR MRLM NIL=
202209280600 METAR MRLM NIL=
202209280700 METAR MRLM NIL=
202209280800 METAR MRLM NIL=
202209280900 METAR MRLM NIL=
202209281000 METAR MRLM NIL=
202209281100 METAR MRLM NIL=
202209281200 METAR MRLM 281200Z 23004KT 9999 VCSH FEW015TCU BKN100 23/23 A2988=
202209281300 METAR MRLM 281300Z 24003KT 9999 DZ VCSH FEW015TCU BKN100 23/23 A2991=
202209281400 METAR MRLM 281400Z 20005KT 9999 -DZ VCSH FEW020TCU BKN100 25/23 A2992=
202209281500 METAR MRLM 281500Z 21002KT 9999 FEW020 SCT120 29/23 A2992 REDZ=
202209281600 METAR MRLM 281600Z 11008KT 9999 FEW025 SCT220 29/25 A2992=
202209281700 METAR MRLM 281700Z 08005KT 9999 FEW025 BKN220 29/24 A2991=
202209281800 METAR MRLM 281800Z 03007KT CAVOK 30/24 A2988=
202209281900 METAR MRLM 281900Z 02008KT CAVOK 30/25 A2986=
202209282000 METAR MRLM 282000Z 02008KT CAVOK 30/25 A2983=
202209282100 METAR MRLM 282100Z 04005KT CAVOK 29/24 A2981=
202209282200 METAR MRLM 282200Z 09005KT 9999 FEW020 BKN220 29/24 A2981=
202209282300 METAR MRLM NIL=
202209290000 METAR MRLM NIL=
202209290100 METAR MRLM NIL=
202209290200 METAR MRLM NIL=
202209290300 METAR MRLM NIL=
202209290400 METAR MRLM NIL=
202209290500 METAR MRLM NIL=
202209290600 METAR MRLM NIL=
202209290700 METAR MRLM NIL=
202209290800 METAR MRLM NIL=
202209290900 METAR MRLM NIL=
202209291000 METAR MRLM NIL=
202209291100 METAR MRLM NIL=
202209291200 METAR MRLM 291200Z 25004KT CAVOK 23/23 A2985=
202209291300 METAR MRLM 291300Z 23004KT 9999 FEW020 SCT200 24/24 A2986=
202209291400 METAR MRLM 291400Z 20002KT CAVOK 29/24 A2988=
202209291500 METAR MRLM 291500Z 05005KT 9999 FEW025 SCT220 29/24 A2988=
202209291600 METAR MRLM 291600Z 02010KT 9999 FEW025 30/24 A2986=
202209291700 METAR MRLM 291700Z 03009KT CAVOK 30/24 A2985=
202209291800 METAR MRLM 291800Z 01010KT CAVOK 30/25 A2982=
202209291900 METAR MRLM 291900Z 01010KT CAVOK 31/25 A2979=
202209292000 METAR MRLM 292000Z 01007KT 9999 FEW025 29/25 A2977=
202209292100 METAR MRLM 292100Z 02005KT 9999 FEW025 SCT220 29/25 A2975=
202209292200 METAR MRLM 292200Z 01003KT 9999 SCT020 SCT220 29/25 A2977=
202209292300 METAR MRLM NIL=
202209300000 METAR MRLM NIL=
202209300100 METAR MRLM NIL=
202209300200 METAR MRLM NIL=
202209300300 METAR MRLM NIL=
202209300400 METAR MRLM NIL=
202209300500 METAR MRLM NIL=
202209300600 METAR MRLM NIL=
202209300700 METAR MRLM NIL=
202209300800 METAR MRLM NIL=
202209300900 METAR MRLM NIL=
202209301000 METAR MRLM NIL=
202209301100 METAR MRLM NIL=
202209301200 METAR MRLM 301200Z 23005KT CAVOK 23/23 A2980=
202209301300 METAR MRLM 301300Z 26004KT CAVOK 25/22 A2982=
202209301400 METAR MRLM 301400Z 22004KT CAVOK 27/25 A2984=
202209301500 METAR MRLM 301500Z 27003KT CAVOK 29/24 A2984=
202209301600 METAR MRLM 301600Z 28004KT CAVOK 30/23 A2983=
202209301700 METAR MRLM 301700Z 03009KT CAVOK 30/24 A2981=
202209301800 METAR MRLM 301800Z 01010KT CAVOK 30/24 A2978=
202209301900 METAR MRLM 301900Z 01010KT CAVOK 31/25 A2975=
202209302000 METAR MRLM 302000Z 01011KT CAVOK 30/25 A2972=
202209302100 METAR MRLM 302100Z 01008KT CAVOK 29/24 A2971=
202209302200 METAR MRLM 302200Z 01008KT CAVOK 29/25 A2973=
202209302300 METAR MRLM NIL=
202210010000 METAR MRLM NIL=
202210010100 METAR MRLM NIL=
202210010200 METAR MRLM NIL=
202210010300 METAR MRLM NIL=
202210010400 METAR MRLM NIL=
202210010500 METAR MRLM NIL=
202210010600 METAR MRLM NIL=
202210010700 METAR MRLM NIL=
202210010800 METAR MRLM NIL=
202210010900 METAR MRLM NIL=
202210011000 METAR MRLM NIL=
202210011100 METAR MRLM NIL=
202210011200 METAR MRLM 011200Z 26003KT CAVOK 23/22 A2983=
202210011300 METAR MRLM 011300Z 00000KT CAVOK 25/23 A2987=
202210011400 METAR MRLM 011400Z 29005KT CAVOK 27/23 A2987=
202210011500 METAR MRLM 011500Z 31007KT 9999 DZ FEW020 BKN140 27/23 A2990=
202210011600 METAR MRLM 011600Z 28004KT 9999 FEW020 BKN130 27/24 A2990 REDZ=
202210011700 METAR MRLM 011700Z 28004KT 9999 FEW025 BKN130 27/24 A2987=
202210011800 METAR MRLM 011800Z 31006KT 9999 FEW025 BKN130 28/23 A2985=
202210011900 METAR MRLM 011900Z 34009KT 9999 FEW030 BKN250 29/24 A2982=
202210012000 METAR MRLM 012000Z 35010KT 9999 FEW030 BKN250 29/24 A2981=
202210012100 METAR MRLM 012100Z 35008KT 9999 FEW030 BKN250 29/24 A2980=
202210012200 METAR MRLM 012200Z 33007KT 9999 BKN025 28/24 A2982=
202210012300 METAR MRLM 012300Z 34006KT 9999 BKN015 28/24 A2985=
202210020000 METAR MRLM 020000Z 23005KT 9999 BKN015 25/24 A2990=
202210020100 METAR MRLM NIL=
202210020200 METAR MRLM NIL=
202210020300 METAR MRLM NIL=
202210020400 METAR MRLM NIL=
202210020500 METAR MRLM NIL=
202210020600 METAR MRLM NIL=
202210020700 METAR MRLM NIL=
202210020800 METAR MRLM NIL=
202210020900 METAR MRLM NIL=
202210021000 METAR MRLM NIL=
202210021100 METAR MRLM NIL=
202210021200 METAR MRLM 021200Z 23004KT CAVOK 22/22 A2989=
202210021300 METAR MRLM 021300Z 23004KT CAVOK 23/23 A2990=
202210021400 METAR MRLM 021400Z 24004KT CAVOK 25/23 A2992=
202210021500 METAR MRLM 021500Z 00000KT CAVOK 27/23 A2996=
202210021600 METAR MRLM 021600Z 03004KT 9999 FEW030 BKN230 28/23 A2996=
202210021700 METAR MRLM 021700Z 32006KT 9999 FEW025 SCT140 BKN230 28/22 A2994=
202210021800 METAR MRLM 021800Z 35006KT 9999 FEW025 BKN140 28/23 A2992=
202210021900 METAR MRLM 021900Z 30007KT 9999 FEW025 BKN140 28/23 A2990=
202210022000 METAR MRLM 022000Z 33008KT 9999 BKN020 28/24 A2989=
202210022100 METAR MRLM 022100Z 31006KT 9999 SCT020 BKN140 28/23 A2986=
202210022200 METAR MRLM 022200Z 30003KT 9999 FEW020 BKN140 27/23 A2985=
202210022300 METAR MRLM 022300Z 00000KT 9999 FEW015 BKN140 27/23 A2986=
202210030000 METAR MRLM 030000Z 00000KT 9999 FEW010 BKN130 26/24 A2990=
202210030100 METAR MRLM NIL=
202210030200 METAR MRLM NIL=
202210030300 METAR MRLM NIL=
202210030400 METAR MRLM NIL=
202210030500 METAR MRLM NIL=
202210030600 METAR MRLM NIL=
202210030700 METAR MRLM NIL=
202210030800 METAR MRLM NIL=
202210030900 METAR MRLM NIL=
202210031000 METAR MRLM NIL=
202210031100 METAR MRLM NIL=
202210031200 METAR MRLM 031200Z 22004KT 9999 FEW015TCU SCT200 22/22 A2992=
202210031300 METAR MRLM 031300Z 26003KT 9999 FEW015 26/22 A2992=
202210031400 METAR MRLM 031400Z 28004KT CAVOK 28/23 A2992=
202210031500 METAR MRLM 031500Z 28005KT 9999 FEW020 30/23 A2993=
202210031600 METAR MRLM 031600Z 36010KT 9999 FEW020 30/24 A2994=
202210031700 METAR MRLM 031700Z 36011KT 9999 FEW025 30/24 A2992=
202210031800 METAR MRLM 031800Z 36013KT 9999 FEW025 30/25 A2988=
202210031900 METAR MRLM 031900Z 36011KT 9999 FEW025 30/25 A2984=
202210032000 METAR MRLM 032000Z 36009KT 9999 FEW025 30/24 A2982=
202210032100 METAR MRLM 032100Z 36010KT 9999 FEW025 30/24 A2981=
202210032200 METAR MRLM 032200Z 36009KT 9999 FEW025 29/24 A2982=
202210032300 METAR MRLM 032300Z 30003KT 9999 FEW020 28/24 A2984=
202210040000 METAR MRLM 040000Z 34005KT 9999 FEW020 28/24 A2984=
202210040100 METAR MRLM NIL=
202210040200 METAR MRLM NIL=
202210040300 METAR MRLM NIL=
202210040400 METAR MRLM NIL=
202210040500 METAR MRLM NIL=
202210040600 METAR MRLM NIL=
202210040700 METAR MRLM NIL=
202210040800 METAR MRLM NIL=
202210040900 METAR MRLM NIL=
202210041000 METAR MRLM NIL=
202210041100 METAR MRLM NIL=
202210041200 METAR MRLM 041200Z 25003KT 9999 FEW015TCU 24/23 A2988=
202210041300 METAR MRLM 041300Z 28006KT 9999 FEW020 26/23 A2988=
202210041400 METAR MRLM 041400Z 31008KT 9999 SCT020 28/24 A2989=
202210041500 METAR MRLM 041500Z 30007KT 9999 SCT020 29/24 A2989=
202210041600 METAR MRLM 041600Z 36009KT 9999 FEW020 SCT220 29/24 A2989=
202210041700 METAR MRLM 041700Z 35008KT 9999 FEW025 SCT220 30/24 A2987=
202210041800 METAR MRLM 041800Z 35011KT 9999 FEW025 SCT220 30/24 A2984=
202210041900 METAR MRLM 041900Z 36012KT CAVOK 30/25 A2982=
202210042000 METAR MRLM 042000Z 36012KT CAVOK 30/25 A2980=
202210042100 METAR MRLM 042100Z 35010KT CAVOK 30/24 A2978=
202210042200 METAR MRLM 042200Z 34008KT CAVOK 29/24 A2979=
202210042300 METAR MRLM 042300Z 34007KT 9999 FEW020 BKN220 28/24 A2981=
202210050000 METAR MRLM 050000Z 31004KT 9999 SCT020 BKN200 28/24 A2982=
202210050100 METAR MRLM NIL=
202210050200 METAR MRLM NIL=
202210050300 METAR MRLM NIL=
202210050400 METAR MRLM NIL=
202210050500 METAR MRLM NIL=
202210050600 METAR MRLM NIL=
202210050700 METAR MRLM NIL=
202210050800 METAR MRLM NIL=
202210050900 METAR MRLM NIL=
202210051000 METAR MRLM NIL=
202210051100 METAR MRLM NIL=
202210051200 METAR MRLM 051200Z 26003KT 9999 FEW010 SCT120 BKN230 24/23 A2986=
202210051300 METAR MRLM 051300Z 19003KT 9999 DZ FEW010 SCT130 BKN230 25/24 A2989=
202210051400 METAR MRLM 051400Z 27003KT CAVOK 26/24 A2991 REDZ=
202210051500 METAR MRLM 051500Z 00000KT CAVOK 28/24 A2991=
202210051600 METAR MRLM 051600Z 05005KT 9999 FEW025 SCT140 BKN240 29/24 A2992=
202210051700 METAR MRLM 051700Z 05005KT CAVOK 29/24 A2988=
202210051800 METAR MRLM 051800Z 01008KT CAVOK 29/25 A2987=
202210051900 METAR MRLM 051900Z 00000KT 9999 FEW030 SCT140 BKN230 28/24 A2984=
202210052000 METAR MRLM 052000Z 09004KT 9999 FEW030 BKN240 29/24 A2983=
202210052100 METAR MRLM 052100Z 00000KT 9999 FEW030 BKN240 28/24 A2981=
202210052200 METAR MRLM 052200Z 07003KT 9999 FEW030 BKN250 29/24 A2980=
202210052300 METAR MRLM 052300Z 00000KT CAVOK 28/23 A2981=
202210060000 METAR MRLM 060000Z 00000KT CAVOK 26/24 A2985=
202210060100 METAR MRLM NIL=
202210060200 METAR MRLM NIL=
202210060300 METAR MRLM NIL=
202210060400 METAR MRLM NIL=
202210060500 METAR MRLM NIL=
202210060600 METAR MRLM NIL=
202210060700 METAR MRLM NIL=
202210060800 METAR MRLM NIL=
202210060900 METAR MRLM NIL=
202210061000 METAR MRLM NIL=
202210061100 METAR MRLM NIL=
202210061200 METAR MRLM 061200Z 00000KT 9999 DZ VCTS FEW015 BKN130 22/22 A2987=
202210061300 METAR MRLM 061300Z 00000KT 9999 DZ VCTS SCT015 BKN130 23/22 A2992=
202210061400 METAR MRLM 061400Z 20003KT 7000 DZ VCTS BKN015 23/22 A2995=
202210061500 METAR MRLM 061500Z 23004KT 6000 RA FEW015 BKN130 23/23 A2996=
202210061600 METAR MRLM 061600Z 26004KT 9999 DZ FEW015 BKN130 24/24 A2992 RERA=
202210061700 METAR MRLM 061700Z 27004KT CAVOK 25/23 A2990 REDZ=
202210061800 METAR MRLM 061800Z 29005KT CAVOK 27/24 A2989=
202210061900 METAR MRLM 061900Z 26004KT CAVOK 29/24 A2985=
202210062000 METAR MRLM 062000Z 01004KT CAVOK 29/24 A2983=
202210062100 METAR MRLM 062100Z 00000KT CAVOK 29/25 A2980=
202210062200 METAR MRLM 062200Z 36007KT CAVOK 28/25 A2979=
202210062300 METAR MRLM 062300Z 26003KT CAVOK 27/25 A2980=
202210070000 METAR MRLM 070000Z 00000KT CAVOK 27/24 A2983=
202210070100 METAR MRLM NIL=
202210070200 METAR MRLM NIL=
202210070300 METAR MRLM NIL=
202210070400 METAR MRLM NIL=
202210070500 METAR MRLM NIL=
202210070600 METAR MRLM NIL=
202210070700 METAR MRLM NIL=
202210070800 METAR MRLM NIL=
202210070900 METAR MRLM NIL=
202210071000 METAR MRLM NIL=
202210071100 METAR MRLM NIL=
202210071200 METAR MRLM 071200Z 27006KT 9999 -DZ FEW015 BKN100 24/22 A2984=
202210071300 METAR MRLM 071300Z 30006KT 9999 FEW015 BKN100 25/22 A2987=
202210071400 METAR MRLM 071400Z 29005KT 9999 -DZ FEW015 OVC100 25/22 A2988=
202210071500 METAR MRLM 071500Z 29006KT 9999 SCT015 OVC100 25/23 A2989=
202210071600 METAR MRLM 071600Z 30006KT 9999 -DZ SCT015 OVC100 26/24 A2991=
202210071700 METAR MRLM 071700Z 28008KT 9999 -DZ SCT015 OVC100 25/23 A2989=
202210071800 METAR MRLM 071800Z 28008KT 8000 +DZ FEW010 OVC090 25/23 A2992=
202210071900 METAR MRLM 071900Z 29003KT 8000 DZ FEW010 OVC090 24/24 A2988=
202210072000 METAR MRLM 072000Z 26007KT 8000 DZ FEW010 OVC090 24/24 A2982=
202210072100 METAR MRLM 072100Z 27007KT 9999 DZ FEW010 OVC090 24/23 A2981=
202210072200 METAR MRLM 072200Z 27003KT 9999 FEW015 BKN100 24/23 A2981 REDZ=
202210072300 METAR MRLM 072300Z 31007KT 9999 DZ FEW015 OVC100 25/23 A2980=
202210080000 METAR MRLM 080000Z 30007KT 9999 -DZ FEW010 OVC090 24/23 A2981=
202210080100 METAR MRLM NIL=
202210080200 METAR MRLM NIL=
202210080300 METAR MRLM NIL=
202210080400 METAR MRLM NIL=
202210080500 METAR MRLM NIL=
202210080600 METAR MRLM NIL=
202210080700 METAR MRLM NIL=
202210080800 METAR MRLM NIL=
202210080900 METAR MRLM NIL=
202210081000 METAR MRLM NIL=
202210081100 METAR MRLM NIL=
202210081200 METAR MRLM 081200Z 25004KT CAVOK 22/22 A2978=
202210081300 METAR MRLM 081300Z 29003KT 9999 FEW015 BKN100 23/22 A2979=
202210081400 METAR MRLM 081400Z 29005KT 9999 FEW015 OVC100 24/22 A2981=
202210081500 METAR MRLM 081500Z 28006KT 9999 FEW015 OVC100 25/22 A2983=
202210081600 METAR MRLM 081600Z 30007KT 9999 -DZ FEW020 OVC100 26/23 A2982=
202210081700 METAR MRLM 081700Z 30011KT 9999 FEW020 OVC120 27/23 A2980=
202210081800 METAR MRLM 081800Z 30009KT 9999 -DZ FEW020 OVC120 26/23 A2977=
202210081900 METAR MRLM 081900Z 30006KT 9999 -DZ FEW020 OVC120 25/23 A2973=
202210082000 METAR MRLM 082000Z 29007KT 9999 -DZ FEW020 OVC100 26/23 A2971=
202210082100 METAR MRLM 082100Z 30006KT 9999 FEW020 OVC100 26/23 A2967=
202210082200 METAR MRLM 082200Z 31006KT 9999 FEW020 OVC100 26/23 A2966=
202210082300 METAR MRLM 082300Z 28005KT 9999 FEW015 OVC100 26/23 A2966=
202210090000 METAR MRLM 090000Z 23003KT 9999 FEW015 OVC090 25/23 A2967=
202210090100 METAR MRLM NIL=
202210090200 METAR MRLM NIL=
202210090300 METAR MRLM NIL=
202210090400 METAR MRLM NIL=
202210090500 METAR MRLM NIL=
202210090600 METAR MRLM NIL=
202210090700 METAR MRLM NIL=
202210090800 METAR MRLM NIL=
202210090900 METAR MRLM NIL=
202210091000 METAR MRLM NIL=
202210091100 METAR MRLM NIL=
202210091200 METAR MRLM 091200Z 19003KT DZ SCT025 BKN110 24/24 A2969=
202210091300 METAR MRLM 091300Z 00000KT DZ VCSH SCT020 BKN110 24/23 A2972=
202210091400 METAR MRLM 091400Z 15003KT 8000 +DZ SCT020 BKN110 24/23 A2976=
202210091500 METAR MRLM 091500Z 15004KT 9999 -DZ SCT025 BKN120 25/23 A2978=
202210091600 METAR MRLM 091600Z 15005KT 9999 -DZ FEW025 BKN130 26/23 A2978=
202210091700 METAR MRLM 091700Z 22003KT CAVOK 28/24 A2976=
202210091800 METAR MRLM 091800Z 11006KT CAVOK 28/24 A2975=
202210091900 METAR MRLM 091900Z 10006KT CAVOK 29/23 A2972=
202210092000 METAR MRLM 092000Z 00000KT CAVOK 29/23 A2971=
202210092100 METAR MRLM 092100Z 24003KT 9999 DZ FEW030 BKN130 28/24 A2970=
202210092200 METAR MRLM 092200Z 00000KT CAVOK 27/24 A2970=
202210092300 METAR MRLM 092300Z 00000KT CAVOK 26/24 A2973=
202210100000 METAR MRLM 100000Z 29003KT CAVOK 26/24 A2976=
202210100100 METAR MRLM NIL=
202210100200 METAR MRLM NIL=
202210100300 METAR MRLM NIL=
202210100400 METAR MRLM NIL=
202210100500 METAR MRLM NIL=
202210100600 METAR MRLM NIL=
202210100700 METAR MRLM NIL=
202210100800 METAR MRLM NIL=
202210100900 METAR MRLM NIL=
202210101000 METAR MRLM NIL=
202210101100 METAR MRLM NIL=
202210101200 METAR MRLM 101200Z 00000KT CAVOK 22/22 A2984=
202210101300 METAR MRLM 101300Z 00000KT CAVOK 25/23 A2988=
202210101400 METAR MRLM 101400Z 26003KT CAVOK 29/23 A2990=
202210101500 METAR MRLM 101500Z 26006KT CAVOK 30/23 A2990=
202210101600 METAR MRLM 101600Z 01009KT 9999 FEW030 BKN240 30/25 A2990=
202210101700 METAR MRLM 101700Z 36007KT 9999 FEW030 BKN140 29/24 A2990=
202210101800 METAR MRLM 101800Z 01006KT 9999 FEW020 BKN130 29/25 A2988=
202210101900 METAR MRLM 101900Z 01003KT 9999 FEW020 BKN130 28/25 A2983=
202210102000 METAR MRLM 102000Z 05005KT 9999 FEW030 SCT140 29/25 A2979=
202210102100 METAR MRLM 102100Z 01007KT CAVOK 29/26 A2977=
202210102200 METAR MRLM 102200Z 02006KT CAVOK 28/25 A2978=
202210102300 METAR MRLM 102300Z 36003KT CAVOK 28/25 A2980=
202210110000 METAR MRLM 110000Z 02005KT CAVOK 28/25 A2983=
202210110100 METAR MRLM NIL=
202210110200 METAR MRLM NIL=
202210110300 METAR MRLM NIL=
202210110400 METAR MRLM NIL=
202210110500 METAR MRLM NIL=
202210110600 METAR MRLM NIL=
202210110700 METAR MRLM NIL=
202210110800 METAR MRLM NIL=
202210110900 METAR MRLM NIL=
202210111000 METAR MRLM NIL=
202210111100 METAR MRLM NIL=
202210111200 METAR MRLM 111200Z 26003KT 9999 VCSH FEW015TCU SCT100 23/23 A2991=
202210111300 METAR MRLM 111300Z 21003KT 9999 VCSH SCT015TCU SCT100 24/24 A2993=
202210111400 METAR MRLM 111400Z 00000KT 9999 FEW020TCU SCT100 BKN200 27/24 A2995=
202210111500 METAR MRLM 111500Z 05004KT 9999 FEW020 BKN220 28/25 A2996=
202210111600 METAR MRLM 111600Z 08003KT 9999 FEW020 BKN220 29/24 A2995=
202210111700 METAR MRLM 111700Z 04004KT 9999 FEW020 BKN220 30/25 A2992=
202210111800 METAR MRLM 111800Z 05007KT CAVOK 29/25 A2989=
202210111900 METAR MRLM 111900Z 05009KT CAVOK 30/25 A2987=
202210112000 METAR MRLM 112000Z 04005KT 9999 FEW025 SCT240 29/25 A2983=
202210112100 METAR MRLM 112100Z 04005KT 9999 FEW025 SCT240 30/25 A2982=
202210112200 METAR MRLM 112200Z 03006KT 9999 SCT025 SCT240 29/25 A2983=
202210112300 METAR MRLM 112300Z 01003KT 9999 SCT020 SCT220 29/25 A2983=
202210120000 METAR MRLM 120000Z 03003KT 9999 FEW020 SCT200 28/25 A2985=
202210120100 METAR MRLM NIL=
202210120200 METAR MRLM NIL=
202210120300 METAR MRLM NIL=
202210120400 METAR MRLM NIL=
202210120500 METAR MRLM NIL=
202210120600 METAR MRLM NIL=
202210120700 METAR MRLM NIL=
202210120800 METAR MRLM NIL=
202210120900 METAR MRLM NIL=
202210121000 METAR MRLM NIL=
202210121100 METAR MRLM NIL=
202210121200 METAR MRLM 121200Z 23002KT 9999 FEW015 BKN200 23/23 A2988=
202210121300 METAR MRLM 121300Z 00000KT 9999 FEW015TCU SCT100 BKN200 24/23 A2989=
202210121400 METAR MRLM 121400Z 26003KT 9999 FEW020TCU SCT100 BKN200 27/23 A2992=
202210121500 METAR MRLM 121500Z 31006KT 9999 FEW020TCU SCT120 BKN220 28/23 A2993=
202210121600 METAR MRLM 121600Z 32006KT 9999 FEW020 BKN120 28/24 A2994=
202210121700 METAR MRLM 121700Z 34009KT 9999 FEW020 BKN120 28/24 A2992=
202210121800 METAR MRLM 121800Z 32007KT 9999 FEW020 BKN120 28/25 A2987=
202210121900 METAR MRLM 121900Z 34008KT 9999 FEW020 SCT120 BKN220 30/25 A2984=
202210122000 METAR MRLM 122000Z 36011KT 9999 FEW025 BKN220 29/25 A2982=
202210122100 METAR MRLM 122100Z 34008KT 9999 FEW025 BKN220 29/24 A2981=
202210122200 METAR MRLM 122200Z 29003KT 9999 FEW020 BKN220 28/24 A2983=
202210122300 METAR MRLM 122300Z 00000KT 9999 FEW020 BKN220 27/25 A2983=
202210130000 METAR MRLM 130000Z 22002KT CAVOK 26/24 A2984=
202210130100 METAR MRLM NIL=
202210130200 METAR MRLM NIL=
202210130300 METAR MRLM NIL=
202210130400 METAR MRLM NIL=
202210130500 METAR MRLM NIL=
202210130600 METAR MRLM NIL=
202210130700 METAR MRLM NIL=
202210130800 METAR MRLM NIL=
202210130900 METAR MRLM NIL=
202210131000 METAR MRLM NIL=
202210131100 METAR MRLM NIL=
202210131200 METAR MRLM 131200Z 23005KT 9999 VCTS FEW015 BKN230 22/22 A2985=
202210131300 METAR MRLM 131300Z 25003KT 9999 VCTS FEW015 BKN230 24/22 A2987=
202210131400 METAR MRLM 131400Z 00000KT CAVOK 26/23 A2990=
202210131500 METAR MRLM 131500Z 34009KT 9999 VCSH FEW020 SCT140 BKN230 28/23 A2992=
202210131600 METAR MRLM 131600Z 31007KT 9999 FEW020 SCT140 BKN230 27/24 A2992=
202210131700 METAR MRLM 131700Z 27005KT CAVOK 27/24 A2989=
202210131800 METAR MRLM 131800Z 30004KT 9999 FEW025 BKN140 29/24 A2985=
202210131900 METAR MRLM 131900Z 32006KT CAVOK 29/25 A2982=
202210132000 METAR MRLM 132000Z 30004KT CAVOK 29/25 A2977=
202210132100 METAR MRLM 132100Z 01008KT CAVOK 29/24 A2977=
202210132200 METAR MRLM 132200Z 35007KT CAVOK 28/24 A2977=
202210132300 METAR MRLM 132300Z 01005KT CAVOK 28/23 A2979=
202210140000 METAR MRLM 140000Z 00000KT CAVOK 25/23 A2982=
202210140100 METAR MRLM NIL=
202210140200 METAR MRLM NIL=
202210140300 METAR MRLM NIL=
202210140400 METAR MRLM NIL=
202210140500 METAR MRLM NIL=
202210140600 METAR MRLM NIL=
202210140700 METAR MRLM NIL=
202210140800 METAR MRLM NIL=
202210140900 METAR MRLM NIL=
202210141000 METAR MRLM NIL=
202210141100 METAR MRLM NIL=
202210141200 METAR MRLM 141200Z 22004KT CAVOK 23/23 A2983=
202210141300 METAR MRLM 141300Z 00000KT CAVOK 26/23 A2985=
202210141400 METAR MRLM 141400Z 00000KT CAVOK 28/24 A2987=
202210141500 METAR MRLM 141500Z 06004KT 9999 FEW030 BKN240 29/24 A2988=
202210141600 METAR MRLM 141600Z 04006KT 9999 FEW030 SCT140 BKN240 29/24 A2988=
202210141700 METAR MRLM 141700Z 02008KT CAVOK 29/25 A2986=
202210141800 METAR MRLM 141800Z 02009KT 9999 FEW030 BKN240 30/25 A2984=
202210141900 METAR MRLM 141900Z 02007KT 9999 SCT030 BKN240 29/24 A2980=
202210142000 METAR MRLM 142000Z 03008KT 9999 SCT025 BKN240 29/24 A2978=
202210142100 METAR MRLM 142100Z 07007KT 9999 FEW025 SCT130 BKN240 28/24 A2979=
202210142200 METAR MRLM 142200Z 09004KT 9999 FEW025 BKN230 28/25 A2979=
202210142300 METAR MRLM 142300Z 00000KT 9999 SCT020 BKN230 27/25 A2981=
202210150000 METAR MRLM 150000Z 23003KT 9999 FEW020 SCT130 BKN230 25/23 A2985=
202210150100 METAR MRLM NIL=
202210150200 METAR MRLM NIL=
202210150300 METAR MRLM NIL=
202210150400 METAR MRLM NIL=
202210150500 METAR MRLM NIL=
202210150600 METAR MRLM NIL=
202210150700 METAR MRLM NIL=
202210150800 METAR MRLM NIL=
202210150900 METAR MRLM NIL=
202210151000 METAR MRLM NIL=
202210151200 METAR MRLM 151200Z 23002KT 9999 FEW015TCU SCT200 22/21 A2986=
202210151300 METAR MRLM 151300Z 24004KT 9999 FEW015TCU SCT200 25/22 A2989=
202210151400 METAR MRLM 151400Z 22003KT 9999 FEW020 SCT220 28/23 A2990=
202210151500 METAR MRLM 151500Z 04004KT 9999 FEW020 SCT220 29/24 A2991=
202210151600 METAR MRLM 151600Z 04006KT 9999 FEW020 29/24 A2990=
202210151700 METAR MRLM 151700Z 02007KT CAVOK 29/24 A2988=
202210151800 METAR MRLM 151800Z 05007KT CAVOK 29/24 A2985=
202210151900 METAR MRLM 151900Z 05007KT CAVOK 30/24 A2982=
202210152000 METAR MRLM 152000Z 06006KT CAVOK 30/24 A2980=
202210152100 METAR MRLM 152100Z 06006KT CAVOK 30/24 A2979=
202210152200 METAR MRLM 152200Z 08006KT 9999 FEW020 SCT220 29/24 A2979=
202210152300 METAR MRLM 152300Z 10006KT 9999 FEW020 SCT220 29/24 A2981=
202210160000 METAR MRLM 160000Z 12006KT 9999 FEW015 SCT200 28/24 A2983=
202210160100 METAR MRLM NIL=
202210160200 METAR MRLM NIL=
202210160300 METAR MRLM NIL=
202210160400 METAR MRLM NIL=
202210160500 METAR MRLM NIL=
202210160600 METAR MRLM NIL=
202210160700 METAR MRLM NIL=
202210160800 METAR MRLM NIL=
202210160900 METAR MRLM NIL=
202210161000 METAR MRLM NIL=
202210161100 METAR MRLM NIL=
202210161200 METAR MRLM 161200Z 24003KT 9999 FEW015 SCT100 BKN200 23/23 A2986=
202210161300 METAR MRLM 161300Z 23003KT 9999 FEW015 SCT100 BKN200 25/24 A2988=
202210161400 METAR MRLM 161400Z 23004KT 9999 FEW020TCU SCT120 BKN220 27/24 A2988=
202210161500 METAR MRLM 161500Z 26003KT 9999 FEW020 SCT220 29/24 A2987=
202210161600 METAR MRLM 161600Z 04007KT 9999 FEW025 SCT220 29/25 A2988=
202210161700 METAR MRLM 161700Z 02008KT 9999 FEW025 SCT220 30/25 A2987=
202210161800 METAR MRLM 161800Z 02007KT 9999 FEW025 SCT240 30/25 A2984=
202210161900 METAR MRLM 161900Z 04006KT 9999 FEW025 BKN130 30/25 A2983=
202210162000 METAR MRLM 162000Z 04007KT 9999 FEW025 BKN130 30/25 A2981=
202210162100 METAR MRLM 162100Z 05007KT 9999 FEW025 SCT130 BKN240 29/25 A2980=
202210162200 METAR MRLM 162200Z 26003KT 9999 FEW020 OVC220 29/25 A2977=
202210162300 METAR MRLM 162300Z 06006KT 9999 VCSH SCT020TCU OVC200 28/25 A2981=
202210170000 METAR MRLM 170000Z 06015KT 9999 -DZ VCSH SCT020TCU OVC120 28/24 A2982=
202210170100 METAR MRLM NIL=
202210170200 METAR MRLM NIL=
202210170300 METAR MRLM NIL=
202210170400 METAR MRLM NIL=
202210170500 METAR MRLM NIL=
202210170600 METAR MRLM NIL=
202210170700 METAR MRLM NIL=
202210170800 METAR MRLM NIL=
202210170900 METAR MRLM NIL=
202210171000 METAR MRLM NIL=
202210171100 METAR MRLM NIL=
202210171200 METAR MRLM 171200Z 00000KT 9999 DZ SCT015 BKN120 23/23 A2988=
202210171300 METAR MRLM 171300Z 25006KT 9999 FEW015 BKN120 23/22 A2990 REDZ=
202210171400 METAR MRLM 171400Z 25006KT 9999 FEW020 BKN120 24/23 A2992=
202210171500 METAR MRLM 171500Z 26005KT 9999 FEW020 BKN130 26/23 A2993=
202210171600 METAR MRLM 171600Z 28004KT 9999 FEW020 BKN130 27/24 A2992=
202210171700 METAR MRLM 171700Z 28003KT CAVOK 29/24 A2989=
202210171800 METAR MRLM 171800Z 06004KT 9999 FEW025 SCT140 BKN240 29/23 A2986=
202210171900 METAR MRLM 171900Z 05005KT 9999 FEW030 SCT150 BKN240 29/24 A2982=
202210172000 METAR MRLM 172000Z 05005KT 9999 FEW030 SCT150 BKN240 29/23 A2980=
202210172100 METAR MRLM 172100Z 08003KT CAVOK 29/23 A2977=
202210172200 METAR MRLM 172200Z 06004KT CAVOK 29/24 A2978=
202210172300 METAR MRLM 172300Z 05006KT CAVOK 29/24 A2980=
202210180000 METAR MRLM 180000Z 06005KT CAVOK 28/24 A2985=
202210180100 METAR MRLM NIL=
202210180200 METAR MRLM NIL=
202210180300 METAR MRLM NIL=
202210180400 METAR MRLM NIL=
202210180500 METAR MRLM NIL=
202210180600 METAR MRLM NIL=
202210180700 METAR MRLM NIL=
202210180800 METAR MRLM NIL=
202210180900 METAR MRLM NIL=
202210181000 METAR MRLM NIL=
202210181100 METAR MRLM NIL=
202210181200 METAR MRLM 181200Z 24005KT 9999 FEW015 BKN120 23/22 A2987=
202210181300 METAR MRLM 181300Z 26004KT 9999 FEW015 BKN130 25/23 A2989=
202210181400 METAR MRLM 181400Z 01010KT 9999 FEW020 BKN130 28/24 A2991=
202210181500 METAR MRLM 181500Z 08003KT CAVOK 30/24 A2990=
202210181600 METAR MRLM 181600Z 02007KT CAVOK 29/24 A2990=
202210181700 METAR MRLM 181700Z 02007KT CAVOK 29/24 A2988=
202210181800 METAR MRLM 181800Z 04006KT CAVOK 30/23 A2986=
202210181900 METAR MRLM 181900Z 03006KT CAVOK 30/23 A2983=
202210182000 METAR MRLM 182000Z 05006KT CAVOK 30/24 A2981=
202210182100 METAR MRLM 182100Z 06004KT CAVOK 30/24 A2980=
202210182200 METAR MRLM 182200Z 06005KT CAVOK 29/24 A2981=
202210182300 METAR MRLM 182300Z 07004KT 9999 FEW030 29/24 A2982=
202210190000 METAR MRLM 190000Z 08004KT CAVOK 27/23 A2986=
202210190100 METAR MRLM NIL=
202210190200 METAR MRLM NIL=
202210190300 METAR MRLM NIL=
202210190400 METAR MRLM NIL=
202210190500 METAR MRLM NIL=
202210190600 METAR MRLM NIL=
202210190700 METAR MRLM NIL=
202210190800 METAR MRLM NIL=
202210190900 METAR MRLM NIL=
202210191000 METAR MRLM NIL=
202210191100 METAR MRLM NIL=
202210191200 METAR MRLM 191200Z 23005KT 9999 FEW015TCU SCT100 22/21 A2989=
202210191300 METAR MRLM 191300Z 24004KT 9999 FEW020 25/22 A2990=
202210191400 METAR MRLM 191400Z 27005KT 9999 FEW020 28/23 A2992=
202210191500 METAR MRLM 191500Z 28005KT CAVOK 30/24 A2993=
202210191600 METAR MRLM 191600Z 02009KT 9999 FEW020 SCT220 30/23 A2994=
202210191700 METAR MRLM 191700Z 03006KT 9999 FEW020 BKN120 29/23 A2991=
202210191800 METAR MRLM 191800Z 07008KT 9999 FEW020 BKN120 29/25 A2991=
202210191900 METAR MRLM 191900Z 08011KT 9999 FEW020 OVC110 28/25 A2989=
202210192000 METAR MRLM 192000Z 09012KT 9999 FEW020 OVC110 27/24 A2987=
202210192100 METAR MRLM 192100Z 12006KT 9999 SCT015 OVC110 27/24 A2984=
202210192200 METAR MRLM 192200Z 10005KT 9999 SCT015 OVC100 27/24 A2984=
202210192300 METAR MRLM 192300Z 09002KT 9999 SCT015 OVC100 27/24 A2986=
202210200000 METAR MRLM 200000Z 18002KT 9999 SCT015 OVC100 26/24 A2987=
202210200100 METAR MRLM NIL=
202210200200 METAR MRLM NIL=
202210200300 METAR MRLM NIL=
202210200400 METAR MRLM NIL=
202210200500 METAR MRLM NIL=
202210200600 METAR MRLM NIL=
202210200700 METAR MRLM NIL=
202210200800 METAR MRLM NIL=
202210200900 METAR MRLM NIL=
202210201000 METAR MRLM NIL=
202210201100 METAR MRLM NIL=
202210201200 METAR MRLM 201200Z 25005KT 9999 FEW015TCU SCT200 23/21 A2988=
202210201300 METAR MRLM 201300Z 22005KT 9999 FEW015TCU SCT100 24/22 A2989=
202210201400 METAR MRLM 201400Z 25004KT 9999 FEW020TCU BKN120 27/23 A2992=
202210201500 METAR MRLM 201500Z 23003KT 9999 FEW020 BKN120 28/23 A2994=
202210201600 METAR MRLM 201600Z 03004KT 9999 FEW025 BKN120 29/24 A2993=
202210201700 METAR MRLM 201700Z 01006KT CAVOK 30/24 A2991=
202210201800 METAR MRLM 201800Z 03005KT CAVOK 30/25 A2988=
202210201900 METAR MRLM 201900Z 05005KT 9999 FEW025 BKN240 30/25 A2985=
202210202000 METAR MRLM 202000Z 06005KT 9999 FEW025 BKN240 29/25 A2982=
202210202100 METAR MRLM 202100Z 07005KT 9999 FEW020 BKN220 29/25 A2981=
202210202200 METAR MRLM 202200Z 11004KT 9999 FEW020 BKN220 29/24 A2980=
202210202300 METAR MRLM 202300Z 13004KT 9999 FEW020 BKN220 28/24 A2981=
202210210000 METAR MRLM 210000Z 11006KT 9999 FEW015 BKN200 28/24 A2982=
202210210100 METAR MRLM NIL=
202210210200 METAR MRLM NIL=
202210210300 METAR MRLM NIL=
202210210400 METAR MRLM NIL=
202210210500 METAR MRLM NIL=
202210210600 METAR MRLM NIL=
202210210700 METAR MRLM NIL=
202210210800 METAR MRLM NIL=
202210210900 METAR MRLM NIL=
202210211000 METAR MRLM NIL=
202210211100 METAR MRLM NIL=
202210211200 METAR MRLM 211200Z 24005KT CAVOK 23/22 A2985=
202210211300 METAR MRLM 211300Z 24004KT CAVOK 26/23 A2988=
202210211400 METAR MRLM 211400Z 24004KT CAVOK 29/24 A2990=
202210211500 METAR MRLM 211500Z 03006KT CAVOK 30/24 A2991=
202210211600 METAR MRLM 211600Z 02008KT CAVOK 30/25 A2989=
202210211700 METAR MRLM 211700Z 03007KT CAVOK 30/25 A2986=
202210211800 METAR MRLM 211800Z 02008KT CAVOK 30/25 A2984=
202210211900 METAR MRLM 211900Z 04009KT 9999 FEW030 SCT140 BKN240 30/25 A2982=
202210212000 METAR MRLM 212000Z 03007KT 9999 BKN030 29/25 A2980=
202210212100 METAR MRLM 212100Z 05007KT 9999 BKN030 29/25 A2978=
202210212200 METAR MRLM 212200Z 06005KT 9999 FEW030 SCT140 BKN250 28/24 A2980=
202210212300 METAR MRLM 212300Z 22003KT 9999 SCT140 BKN240 26/24 A2983=
202210220000 METAR MRLM 220000Z 21004KT CAVOK 25/24 A2985=
202210220100 METAR MRLM NIL=
202210220200 METAR MRLM NIL=
202210220300 METAR MRLM NIL=
202210220400 METAR MRLM NIL=
202210220500 METAR MRLM NIL=
202210220600 METAR MRLM NIL=
202210220700 METAR MRLM NIL=
202210220800 METAR MRLM NIL=
202210220900 METAR MRLM NIL=
202210221000 METAR MRLM NIL=
202210221100 METAR MRLM NIL=
202210221200 METAR MRLM 221200Z 24006KT CAVOK 22/22 A2985=
202210221300 METAR MRLM 221300Z 26003KT CAVOK 25/23 A2988=
202210221400 METAR MRLM 221400Z 00000KT CAVOK 28/24 A2990=
202210221500 METAR MRLM 221500Z 02004KT CAVOK 30/24 A2991=
202210221600 METAR MRLM 221600Z 02007KT 9999 FEW030 SCT250 30/24 A2991=
202210221700 METAR MRLM 221700Z 01009KT CAVOK 30/24 A2989=
202210221800 METAR MRLM 221800Z 01010KT CAVOK 30/25 A2986=
202210221900 METAR MRLM 221900Z 02009KT 9999 FEW030 BKN250 30/25 A2984=
202210222000 METAR MRLM 222000Z 02009KT 9999 BKN030 29/25 A2981=
202210222100 METAR MRLM 222100Z 05007KT 9999 FEW030 BKN250 29/25 A2979=
202210222200 METAR MRLM 222200Z 08007KT 9999 FEW030 BKN240 29/23 A2979=
202210222300 METAR MRLM 222300Z 11004KT CAVOK 28/23 A2982=
202210230000 METAR MRLM 230000Z 00000KT CAVOK 25/24 A2985=
202210230100 METAR MRLM NIL=
202210230200 METAR MRLM NIL=
202210230300 METAR MRLM NIL=
202210230400 METAR MRLM NIL=
202210230500 METAR MRLM NIL=
202210230600 METAR MRLM NIL=
202210230700 METAR MRLM NIL=
202210230800 METAR MRLM NIL=
202210230900 METAR MRLM NIL=
202210231000 METAR MRLM NIL=
202210231100 METAR MRLM NIL=
202210231200 METAR MRLM 231200Z 24002KT 9999 VCSH FEW015TCU BKN100 23/22 A2988=
202210231300 METAR MRLM 231300Z 25004KT 9999 VCSH FEW015TCU BKN100 26/23 A2990=
202210231400 METAR MRLM 231400Z 34003KT 9999 VCSH FEW020TCU BKN100 26/23 A2993=
202210231500 METAR MRLM 231500Z 31002KT 9999 VCSH FEW020TCU BKN120 28/24 A2993=
202210231600 METAR MRLM 231600Z 07017KT 8000 +DZ FEW015 OVC100 26/24 A2993=
202210231700 METAR MRLM 231700Z 15006KT 9999 -DZ FEW015 BKN100 25/24 A2992=
202210231800 METAR MRLM 231800Z 21005KT 9999 FEW020 BKN100 26/23 A2988 REDZ=
202210231900 METAR MRLM 231900Z 13006KT CAVOK 28/23 A2984=
202210232000 METAR MRLM 232000Z 10005KT CAVOK 28/24 A2981=
202210232100 METAR MRLM 232100Z 09005KT 9999 VCSH FEW020TCU BKN120 29/23 A2980=
202210232200 METAR MRLM 232200Z 08008KT 9999 FEW020 BKN120 29/23 A2980=
202210232300 METAR MRLM 232300Z 18003KT CAVOK 27/24 A2982=
202210240000 METAR MRLM 240000Z 17004KT CAVOK 27/23 A2983=
202210240100 METAR MRLM NIL=
202210240200 METAR MRLM NIL=
202210240300 METAR MRLM NIL=
202210240400 METAR MRLM NIL=
202210240500 METAR MRLM NIL=
202210240600 METAR MRLM NIL=
202210240700 METAR MRLM NIL=
202210240800 METAR MRLM NIL=
202210240900 METAR MRLM NIL=
202210241000 METAR MRLM NIL=
202210241100 METAR MRLM NIL=
202210241200 METAR MRLM 241200Z 25003KT CAVOK 22/22 A2990=
202210241300 METAR MRLM 241300Z 26003KT CAVOK 25/23 A2992=
202210241400 METAR MRLM 241400Z 26002KT CAVOK 28/23 A2992=
202210241500 METAR MRLM 241500Z 09004KT 9999 FEW020TCU SCT220 29/24 A2994=
202210241600 METAR MRLM 241600Z 03006KT 9999 FEW020TCU SCT220 29/23 A2993=
202210241700 METAR MRLM 241700Z 04008KT 9999 VCTS FEW015CB FEW025 SCT220 30/25 A2993=
202210241800 METAR MRLM 241800Z 06014KT 9999 FEW025TCU SCT220 28/24 A2989=
202210241900 METAR MRLM 241900Z 06007KT 9999 FEW025 BKN220 28/25 A2986=
202210242000 METAR MRLM 242000Z 09006KT 9999 FEW025 SCT120 BKN220 29/24 A2983=
202210242100 METAR MRLM 242100Z 07009KT 9999 FEW020 SCT120 BKN220 29/23 A2982=
202210242200 METAR MRLM 242200Z 05008KT 9999 FEW020 BKN220 28/24 A2983=
202210242300 METAR MRLM 242300Z 36007KT 9999 FEW020 BKN200 28/24 A2985=
202210250000 METAR MRLM 250000Z 24004KT 9999 FEW015 OVC200 26/24 A2987=
202210250100 METAR MRLM NIL=
202210250200 METAR MRLM NIL=
202210250300 METAR MRLM NIL=
202210250400 METAR MRLM NIL=
202210250500 METAR MRLM NIL=
202210250600 METAR MRLM NIL=
202210250700 METAR MRLM NIL=
202210250800 METAR MRLM NIL=
202210250900 METAR MRLM NIL=
202210251000 METAR MRLM NIL=
202210251100 METAR MRLM NIL=
202210251200 METAR MRLM 251200Z 25003KT 9999 FEW015TCU 22/21 A2990=
202210251300 METAR MRLM 251300Z 22004KT 9999 FEW015 SCT200 25/22 A2991=
202210251400 METAR MRLM 251400Z 23003KT 9999 FEW020 SCT220 28/23 A2993=
202210251500 METAR MRLM 251500Z 25003KT 9999 FEW020 BKN220 30/24 A2992=
202210251600 METAR MRLM 251600Z 04007KT 9999 FEW025 BKN240 30/24 A2991=
202210251700 METAR MRLM 251700Z 02010KT CAVOK 30/25 A2990=
202210251800 METAR MRLM 251800Z 02008KT CAVOK 30/24 A2987=
202210251900 METAR MRLM 251900Z 03009KT CAVOK 30/24 A2985=
202210252000 METAR MRLM 252000Z 03006KT CAVOK 30/25 A2982=
202210252100 METAR MRLM 252100Z 02006KT 9999 FEW025 BKN240 30/25 A2981=
202210252200 METAR MRLM 252200Z 01007KT 9999 FEW020 BKN220 29/24 A2981=
202210252300 METAR MRLM NIL=
202210260000 METAR MRLM NIL=
202210260100 METAR MRLM NIL=
202210260200 METAR MRLM NIL=
202210260300 METAR MRLM NIL=
202210260400 METAR MRLM NIL=
202210260500 METAR MRLM NIL=
202210260600 METAR MRLM NIL=
202210260700 METAR MRLM NIL=
202210260800 METAR MRLM NIL=
202210260900 METAR MRLM NIL=
202210261000 METAR MRLM NIL=
202210261100 METAR MRLM NIL=
202210261200 METAR MRLM 261200Z 24005KT 9999 FEW015TCU SCT200 23/21 A2986=
202210261300 METAR MRLM 261300Z 22005KT 9999 FEW015TCU BKN200 25/22 A2988=
202210261400 METAR MRLM 261400Z 21004KT 9999 FEW020TCU BKN220 27/23 A2990=
202210261500 METAR MRLM 261500Z 06004KT 9999 FEW020 BKN220 30/25 A2991=
202210261600 METAR MRLM 261600Z 05005KT 9999 FEW025 BKN220 30/25 A2990=
202210261700 METAR MRLM 261700Z 03005KT CAVOK 30/25 A2988=
202210261800 METAR MRLM 261800Z 03006KT CAVOK 30/25 A2985=
202210261900 METAR MRLM 261900Z 02007KT CAVOK 31/25 A2982=
202210262000 METAR MRLM 262000Z 03006KT CAVOK 31/25 A2980=
202210262100 METAR MRLM 262100Z 02006KT 9999 FEW020 BKN220 30/24 A2978=
202210262200 METAR MRLM 262200Z 02006KT 9999 FEW020 BKN220 30/24 A2978=
202210262300 METAR MRLM NIL=
202210270000 METAR MRLM NIL=
202210270100 METAR MRLM NIL=
202210270200 METAR MRLM NIL=
202210270300 METAR MRLM NIL=
202210270400 METAR MRLM NIL=
202210270500 METAR MRLM NIL=
202210270600 METAR MRLM NIL=
202210270700 METAR MRLM NIL=
202210270800 METAR MRLM NIL=
202210270900 METAR MRLM NIL=
202210271000 METAR MRLM NIL=
202210271100 METAR MRLM NIL=
202210271200 METAR MRLM 271200Z 23004KT 9999 FEW015 SCT100 23/21 A2987=
202210271300 METAR MRLM 271300Z 22005KT 9999 FEW015 SCT200 25/22 A2987=
202210271400 METAR MRLM 271400Z 24004KT CAVOK 28/23 A2989=
202210271500 METAR MRLM 271500Z 08003KT 9999 FEW020 SCT220 30/24 A2989=
202210271600 METAR MRLM 271600Z 09005KT 9999 FEW020 SCT220 30/24 A2989=
202210271700 METAR MRLM 271700Z 07006KT 9999 FEW025 SCT240 30/24 A2987=
202210271800 METAR MRLM 271800Z 06007KT 9999 FEW025 SCT240 30/25 A2985=
202210271900 METAR MRLM 271900Z 07007KT 9999 FEW025 SCT240 30/25 A2982=
202210272000 METAR MRLM 272000Z 06006KT 9999 FEW020 SCT240 30/24 A2981=
202210272100 METAR MRLM 272100Z 05004KT 9999 FEW020 BKN220 30/24 A2980=
202210272200 METAR MRLM 272200Z 05004KT 9999 FEW020 BKN220 29/24 A2981=
202210272300 METAR MRLM NIL=
202210280000 METAR MRLM NIL=
202210280100 METAR MRLM NIL=
202210280200 METAR MRLM NIL=
202210280300 METAR MRLM NIL=
202210280400 METAR MRLM NIL=
202210280500 METAR MRLM NIL=
202210280600 METAR MRLM NIL=
202210280700 METAR MRLM NIL=
202210280800 METAR MRLM NIL=
202210280900 METAR MRLM NIL=
202210281000 METAR MRLM NIL=
202210281100 METAR MRLM NIL=
202210281200 METAR MRLM 281200Z 24005KT 9999 VCSH FEW015TCU BKN100 23/22 A2990=
202210281300 METAR MRLM 281300Z 24004KT 9999 VCSH FEW015TCU BKN100 25/23 A2993=
202210281400 METAR MRLM 281400Z 23004KT 9999 VCSH FEW020TCU BKN120 27/24 A2994=
202210281500 METAR MRLM 281500Z 19002KT 9999 VCSH SCT020TCU BKN120 29/24 A2996=
202210281600 METAR MRLM 281600Z 12011KT 9999 FEW020 BKN120 28/23 A2995=
202210281700 METAR MRLM 281700Z 12005KT 9999 FEW020 SCT120 30/23 A2992=
202210281800 METAR MRLM 281800Z 04005KT 9999 FEW025 SCT120 30/23 A2989=
202210281900 METAR MRLM 281900Z 07006KT 9999 FEW025 SCT120 30/24 A2987=
202210282000 METAR MRLM 282000Z 05006KT 9999 FEW025 BKN120 30/24 A2985=
202210282100 METAR MRLM 282100Z 04006KT 9999 FEW020 BKN120 29/24 A2983=
202210282200 METAR MRLM 282200Z 06005KT 9999 FEW020 BKN120 29/24 A2983=
202210282300 METAR MRLM NIL=
202210290000 METAR MRLM NIL=
202210290100 METAR MRLM NIL=
202210290200 METAR MRLM NIL=
202210290300 METAR MRLM NIL=
202210290400 METAR MRLM NIL=
202210290500 METAR MRLM NIL=
202210290600 METAR MRLM NIL=
202210290700 METAR MRLM NIL=
202210290800 METAR MRLM NIL=
202210290900 METAR MRLM NIL=
202210291000 METAR MRLM NIL=
202210291100 METAR MRLM NIL=
202210291200 METAR MRLM 291200Z 25004KT CAVOK 23/22 A2991=
202210291300 METAR MRLM 291300Z 23004KT CAVOK 25/23 A2993=
202210291400 METAR MRLM 291400Z 28003KT CAVOK 27/24 A2994=
202210291500 METAR MRLM 291500Z 04005KT CAVOK 29/24 A2994=
202210291600 METAR MRLM 291600Z 03006KT CAVOK 29/23 A2993=
202210291700 METAR MRLM 291700Z 04007KT CAVOK 30/23 A2991=
202210291800 METAR MRLM 291800Z 04009KT CAVOK 30/23 A2988=
202210291900 METAR MRLM 291900Z 03008KT CAVOK 30/23 A2986=
202210292000 METAR MRLM 292000Z 05006KT CAVOK 30/24 A2984=
202210292100 METAR MRLM 292100Z 03006KT 9999 FEW025 SCT130 30/23 A2983=
202210292200 METAR MRLM 292200Z 03004KT 9999 FEW020 SCT120 29/23 A2984=
202210292300 METAR MRLM NIL=
202210300000 METAR MRLM NIL=
202210300100 METAR MRLM NIL=
202210300200 METAR MRLM NIL=
202210300300 METAR MRLM NIL=
202210300400 METAR MRLM NIL=
202210300500 METAR MRLM NIL=
202210300600 METAR MRLM NIL=
202210300700 METAR MRLM NIL=
202210300800 METAR MRLM NIL=
202210300900 METAR MRLM NIL=
202210301000 METAR MRLM NIL=
202210301100 METAR MRLM NIL=
202210301200 METAR MRLM 301200Z 21005KT 9999 FEW015 SCT100 23/21 A2986=
202210301300 METAR MRLM 301300Z 24005KT 9999 FEW015 SCT100 24/22 A2987=
202210301400 METAR MRLM 301400Z 21004KT 9999 FEW020 SCT120 28/23 A2989=
202210301500 METAR MRLM 301500Z 06003KT 9999 FEW020 29/24 A2989=
202210301600 METAR MRLM 301600Z 04005KT 9999 FEW025 30/23 A2989=
202210301700 METAR MRLM 301700Z 02009KT 9999 FEW025 30/24 A2986=
202210301800 METAR MRLM 301800Z 02010KT 9999 FEW025 30/24 A2983=
202210301900 METAR MRLM 301900Z 02009KT 9999 FEW025 SCT120 30/24 A2980=
202210302000 METAR MRLM 302000Z 36008KT 9999 FEW025 SCT120 29/24 A2978=
202210302100 METAR MRLM 302100Z 36007KT 9999 FEW020 BKN120 29/24 A2977=
202210302200 METAR MRLM 302200Z 01005KT 9999 FEW020 BKN120 29/23 A2978=
202210302300 METAR MRLM NIL=
202210310000 METAR MRLM NIL=
202210310100 METAR MRLM NIL=
202210310200 METAR MRLM NIL=
202210310300 METAR MRLM NIL=
202210310400 METAR MRLM NIL=
202210310500 METAR MRLM NIL=
202210310600 METAR MRLM NIL=
202210310700 METAR MRLM NIL=
202210310800 METAR MRLM NIL=
202210310900 METAR MRLM NIL=
202210311000 METAR MRLM NIL=
202210311100 METAR MRLM NIL=
202210311200 METAR MRLM 311200Z 23007KT 9999 FEW015TCU SCT200 21/20 A2983=
202210311300 METAR MRLM 311300Z 23005KT 9999 FEW015 SCT200 24/21 A2986=
202210311400 METAR MRLM 311400Z 26003KT 9999 FEW020 SCT220 28/22 A2987=
202210311500 METAR MRLM 311500Z 29005KT CAVOK 30/20 A2987=
202210311600 METAR MRLM 311600Z 30005KT CAVOK 31/21 A2986=
202210311700 METAR MRLM 311700Z 36011KT CAVOK 31/21 A2982=
202210311800 METAR MRLM 311800Z 36013KT CAVOK 30/24 A2980=
202210311900 METAR MRLM 311900Z 36013KT CAVOK 31/23 A2978=
202210312000 METAR MRLM 312000Z 35014KT CAVOK 30/23 A2976=
202210312100 METAR MRLM 312100Z 34010KT 9999 FEW025 SCT240 30/24 A2975=
202210312200 METAR MRLM 312200Z 32007KT 9999 SCT020 SCT220 29/24 A2976=
202210312300 METAR MRLM NIL=
202211010000 METAR MRLM NIL=
202211010100 METAR MRLM NIL=
202211010200 METAR MRLM NIL=
202211010300 METAR MRLM NIL=
202211010400 METAR MRLM NIL=
202211010500 METAR MRLM NIL=
202211010600 METAR MRLM NIL=
202211010700 METAR MRLM NIL=
202211010800 METAR MRLM NIL=
202211010900 METAR MRLM NIL=
202211011000 METAR MRLM NIL=
202211011100 METAR MRLM NIL=
202211011200 METAR MRLM 011200Z 25004KT 9999 FEW015 SCT200 23/22 A2987=
202211011300 METAR MRLM 011300Z 28006KT 9999 FEW015 SCT200 25/23 A2988=
202211011400 METAR MRLM 011400Z 29005KT CAVOK 28/23 A2989=
202211011500 METAR MRLM 011500Z 30006KT 9999 FEW025 SCT220 29/24 A2989=
202211011600 METAR MRLM 011600Z 34007KT 9999 FEW025 SCT220 30/24 A2987=
202211011700 METAR MRLM 011700Z 36011KT CAVOK 30/23 A2986=
202211011800 METAR MRLM 011800Z 35012KT CAVOK 31/24 A2983=
202211011900 METAR MRLM 011900Z 36013KT CAVOK 31/24 A2981=
202211012000 METAR MRLM 012000Z 36012KT 9999 FEW025 BKN250 30/25 A2979=
202211012100 METAR MRLM 012100Z 36010KT 9999 FEW020 BKN230 29/25 A2979=
202211012200 METAR MRLM 012200Z 35008KT 9999 SCT020 SCT230 29/24 A2981=
202211012300 METAR MRLM NIL=
202211020000 METAR MRLM NIL=
202211020100 METAR MRLM NIL=
202211020200 METAR MRLM NIL=
202211020300 METAR MRLM NIL=
202211020400 METAR MRLM NIL=
202211020500 METAR MRLM NIL=
202211020600 METAR MRLM NIL=
202211020700 METAR MRLM NIL=
202211020800 METAR MRLM NIL=
202211020900 METAR MRLM NIL=
202211021000 METAR MRLM NIL=
202211021100 METAR MRLM NIL=
202211021200 METAR MRLM 021200Z 23005KT CAVOK 22/21 A2990=
202211021300 METAR MRLM 021300Z 22004KT CAVOK 25/22 A2991=
202211021400 METAR MRLM 021400Z 21003KT CAVOK 29/23 A2992=
202211021500 METAR MRLM 021500Z 09004KT CAVOK 29/23 A2993=
202211021600 METAR MRLM 021600Z 07005KT CAVOK 30/23 A2992=
202211021700 METAR MRLM 021700Z 06006KT 9999 FEW030 31/23 A2989=
202211021800 METAR MRLM 021800Z 05007KT CAVOK 30/23 A2987=
202211021900 METAR MRLM 021900Z 05007KT CAVOK 31/24 A2984=
202211022000 METAR MRLM 022000Z 05008KT CAVOK 30/24 A2981=
202211022100 METAR MRLM 022100Z 05005KT CAVOK 30/24 A2981=
202211022200 METAR MRLM 022200Z 07005KT CAVOK 30/24 A2982=
202211022300 METAR MRLM 022300Z 06004KT CAVOK 29/24 A2984=
202211030000 METAR MRLM 030000Z 00000KT CAVOK 26/24 A2985=
202211030100 METAR MRLM NIL=
202211030200 METAR MRLM NIL=
202211030300 METAR MRLM NIL=
202211030400 METAR MRLM NIL=
202211030500 METAR MRLM NIL=
202211030600 METAR MRLM NIL=
202211030700 METAR MRLM NIL=
202211030800 METAR MRLM NIL=
202211030900 METAR MRLM NIL=
202211031000 METAR MRLM NIL=
202211031100 METAR MRLM NIL=
202211031200 METAR MRLM 031200Z 23005KT 9999 VCSH FEW015 SCT130 BKN230 23/21 A2985=
202211031300 METAR MRLM 031300Z 25004KT 9999 FEW020 SCT130 BKN230 23/22 A2988=
202211031400 METAR MRLM 031400Z 25004KT 9999 FEW020 BKN130 24/22 A2990=
202211031500 METAR MRLM 031500Z 25004KT 9999 FEW020 BKN130 25/23 A2993=
202211031600 METAR MRLM 031600Z 29004KT 4000 RA SCT015 BKN120 24/22 A2995=
202211031700 METAR MRLM 031700Z 24003KT 6000 +DZ SCT020 BKN120 24/22 A2992 RERA=
202211031800 METAR MRLM 031800Z 21005KT 9999 DZ SCT015 BKN120 23/22 A2990=
202211031900 METAR MRLM 031900Z 00000KT 9999 DZ SCT020 BKN120 24/23 A2990=
202211032000 METAR MRLM 032000Z 22003KT 9999 -DZ FEW020 BKN130 24/23 A2987=
202211032100 METAR MRLM 032100Z 00000KT 9999 -DZ FEW020 OVC130 24/23 A2982=
202211032200 METAR MRLM 032200Z 29003KT 9999 -DZ FEW020 OVC130 25/23 A2979=
202211032300 METAR MRLM 032300Z 27003KT CAVOK 24/23 A2980=
202211040000 METAR MRLM 040000Z 27006KT CAVOK 24/22 A2981=
202211040100 METAR MRLM NIL=
202211040200 METAR MRLM NIL=
202211040300 METAR MRLM NIL=
202211040400 METAR MRLM NIL=
202211040500 METAR MRLM NIL=
202211040600 METAR MRLM NIL=
202211040700 METAR MRLM NIL=
202211040800 METAR MRLM NIL=
202211040900 METAR MRLM NIL=
202211041000 METAR MRLM NIL=
202211041100 METAR MRLM NIL=
202211041200 METAR MRLM 041200Z 21004KT 9999 FEW015 BKN090 22/21 A2985=
202211041300 METAR MRLM 041300Z 21003KT 9999 FEW015 BKN090 23/22 A2986=
202211041400 METAR MRLM 041400Z 26002KT 9999 FEW015 BKN100 25/23 A2989=
202211041500 METAR MRLM 041500Z 25003KT CAVOK 27/23 A2989=
202211041600 METAR MRLM 041600Z 30006KT CAVOK 28/23 A2988=
202211041700 METAR MRLM 041700Z 33007KT 9999 FEW020 SCT120 BKN220 29/25 A2985=
202211041800 METAR MRLM 041800Z 35012KT 9999 FEW020 BKN220 30/26 A2981=
202211041900 METAR MRLM 041900Z 35016KT 9999 FEW020 BKN220 30/25 A2979=
202211042000 METAR MRLM 042000Z 35015KT 9999 FEW020 BKN220 30/25 A2977=
202211042100 METAR MRLM 042100Z 34010KT 9999 SCT020 BKN200 28/25 A2978=
202211042200 METAR MRLM 042200Z 35012KT 9999 SCT020 BKN120 28/24 A2979=
202211042300 METAR MRLM 042300Z 30004KT 9999 SCT015 BKN100 27/24 A2981=
202211050000 METAR MRLM 050000Z 24004KT 9999 SCT015 BKN100 26/23 A2983=
202211050100 METAR MRLM NIL=
202211050200 METAR MRLM NIL=
202211050300 METAR MRLM NIL=
202211050400 METAR MRLM NIL=
202211050500 METAR MRLM NIL=
202211050600 METAR MRLM NIL=
202211050700 METAR MRLM NIL=
202211050800 METAR MRLM NIL=
202211050900 METAR MRLM NIL=
202211051000 METAR MRLM NIL=
202211051100 METAR MRLM NIL=
202211051200 METAR MRLM 051200Z 22003KT 9999 FEW015TCU BKN200 23/22 A2982=
202211051300 METAR MRLM 051300Z 26003KT 9999 VCSH FEW015TCU BKN200 25/23 A2984=
202211051400 METAR MRLM 051400Z 24003KT 9999 VCSH FEW020TCU BKN200 26/23 A2986=
202211051500 METAR MRLM 051500Z 31004KT 9999 FEW020TCU BKN120 26/23 A2986=
202211051600 METAR MRLM 051600Z 29003KT 9999 FEW020 BKN120 27/24 A2986=
202211051700 METAR MRLM 051700Z 31002KT 9999 FEW020 BKN120 27/24 A2984=
202211051800 METAR MRLM 051800Z 32003KT 9999 -DZ FEW020 BKN120 28/25 A2981=
202211051900 METAR MRLM 051900Z 34006KT 9999 FEW020 BKN120 29/24 A2978=
202211052000 METAR MRLM 052000Z 04006KT 9999 SCT020 BKN120 28/25 A2976=
202211052100 METAR MRLM 052100Z 09006KT 5000 +RA SCT010 OVC090 26/24 A2976=
202211052200 METAR MRLM 052200Z 18003KT 8000 +DZ VCTS FEW007CB SCT010 OVC090 24/24 A2974 RETSRA=
202211052300 METAR MRLM 052300Z 22005KT 9999 DZ VCSH SCT010TCU OVC080 24/24 A2975=
202211060000 METAR MRLM 060000Z 20003KT 9999 DZ VCTS VCSH FEW006CB OVC080 24/24 A2978=
202211060100 METAR MRLM NIL=
202211060200 METAR MRLM NIL=
202211060300 METAR MRLM NIL=
202211060400 METAR MRLM NIL=
202211060500 METAR MRLM NIL=
202211060600 METAR MRLM NIL=
202211060700 METAR MRLM NIL=
202211060800 METAR MRLM NIL=
202211060900 METAR MRLM NIL=
202211061000 METAR MRLM NIL=
202211061100 METAR MRLM NIL=
202211061200 METAR MRLM 061200Z 20003KT CAVOK 23/23 A2982=
202211061300 METAR MRLM 061300Z 24003KT CAVOK 24/24 A2984=
202211061400 METAR MRLM 061400Z 21003KT CAVOK 25/24 A2989=
202211061500 METAR MRLM 061500Z 00000KT CAVOK 27/23 A2989=
202211061600 METAR MRLM 061600Z 10005KT 9999 FEW030 BKN140 28/24 A2989=
202211061700 METAR MRLM 061700Z 08004KT 9999 FEW030 BKN140 28/24 A2986=
202211061800 METAR MRLM 061800Z 08004KT CAVOK 28/23 A2983=
202211061900 METAR MRLM 061900Z 07004KT 9999 FEW030 BKN130 28/23 A2980=
202211062000 METAR MRLM 062000Z 07005KT 9999 FEW030 BKN130 28/23 A2978=
202211062100 METAR MRLM 062100Z 09003KT 9999 FEW025 BKN130 28/24 A2977=
202211062200 METAR MRLM 062200Z 13003KT 9999 SCT020 BKN130 28/24 A2977=
202211062300 METAR MRLM 062300Z 20004KT 9999 SCT020 BKN110 26/24 A2979=
202211070000 METAR MRLM 070000Z 23004KT 9999 FEW020 BKN110 25/23 A2981=
202211070100 METAR MRLM NIL=
202211070200 METAR MRLM NIL=
202211070300 METAR MRLM NIL=
202211070400 METAR MRLM NIL=
202211070500 METAR MRLM NIL=
202211070600 METAR MRLM NIL=
202211070700 METAR MRLM NIL=
202211070800 METAR MRLM NIL=
202211070900 METAR MRLM NIL=
202211071000 METAR MRLM NIL=
202211071100 METAR MRLM NIL=
202211071200 METAR MRLM 071200Z 23003KT 9999 FEW020 BKN110 24/23 A2986=
202211071300 METAR MRLM 071300Z 27005KT CAVOK 24/23 A2987=
202211071400 METAR MRLM 071400Z 27004KT CAVOK 27/23 A2989=
202211071500 METAR MRLM 071500Z 27006KT CAVOK 29/23 A2990=
202211071600 METAR MRLM 071600Z 31009KT CAVOK 29/24 A2991=
202211071700 METAR MRLM 071700Z 30011KT 9999 FEW030 BKN140 30/23 A2989=
202211071800 METAR MRLM 071800Z 32011KT 9999 BKN030 30/24 A2987=
202211071900 METAR MRLM 071900Z 36015KT 9999 BKN020 27/24 A2985 REDZ=
202211072000 METAR MRLM 072000Z 35012KT 9999 FEW025 BKN130 28/24 A2982=
202211072100 METAR MRLM 072100Z 34011KT 9999 BKN020 27/24 A2983=
202211072200 METAR MRLM 072200Z 31005KT 1000 TS RA FEW015CB BKN020 24/23 A2987=
202211072300 METAR MRLM 072300Z 20003KT 1000 RA VCTS BKN015 23/23 A2990=
202211080000 METAR MRLM 080000Z 00000KT 1000 RA VCTS OVC015 23/23 A2990=
202211080100 METAR MRLM NIL=
202211080200 METAR MRLM NIL=
202211080300 METAR MRLM NIL=
202211080400 METAR MRLM NIL=
202211080500 METAR MRLM NIL=
202211080600 METAR MRLM NIL=
202211080700 METAR MRLM NIL=
202211080800 METAR MRLM NIL=
202211080900 METAR MRLM NIL=
202211081000 METAR MRLM NIL=
202211081100 METAR MRLM NIL=
202211081200 METAR MRLM 081200Z 24004KT CAVOK 22/21 A2989=
202211081300 METAR MRLM 081300Z 26003KT CAVOK 24/22 A2990=
202211081400 METAR MRLM 081400Z 29003KT CAVOK 26/23 A2993=
202211081500 METAR MRLM 081500Z 26002KT CAVOK 29/24 A2995=
202211081600 METAR MRLM 081600Z 08003KT CAVOK 29/23 A2994=
202211081700 METAR MRLM 081700Z 31005KT 9999 FEW030 BKN120 30/22 A2992=
202211081800 METAR MRLM 081800Z 33006KT 9999 FEW030 SCT120 30/22 A2988=
202211081900 METAR MRLM 081900Z 01009KT CAVOK 29/23 A2985=
202211082000 METAR MRLM 082000Z 01008KT CAVOK 29/23 A2983=
202211082100 METAR MRLM 082100Z 36007KT 9999 FEW020 BKN120 29/23 A2983=
202211082200 METAR MRLM 082200Z 35006KT CAVOK 29/23 A2984=
202211082300 METAR MRLM 082300Z 35006KT CAVOK 29/23 A2984=
202211090000 METAR MRLM 090000Z 21002KT CAVOK 25/24 A2987=
202211090100 METAR MRLM NIL=
202211090200 METAR MRLM NIL=
202211090300 METAR MRLM NIL=
202211090400 METAR MRLM NIL=
202211090500 METAR MRLM NIL=
202211090600 METAR MRLM NIL=
202211090700 METAR MRLM NIL=
202211090800 METAR MRLM NIL=
202211090900 METAR MRLM NIL=
202211091000 METAR MRLM NIL=
202211091100 METAR MRLM NIL=
202211091200 METAR MRLM 091200Z 24005KT 9999 FEW015TCU SCT100 23/22 A2988=
202211091300 METAR MRLM 091300Z 20005KT 9999 FEW015TCU SCT100 24/22 A2990=
202211091400 METAR MRLM 091400Z 28003KT CAVOK 26/24 A2991=
202211091500 METAR MRLM 091500Z 20002KT 9999 FEW020TCU SCT220 29/22 A2992=
202211091600 METAR MRLM 091600Z 06005KT 9999 FEW020TCU SCT220 29/22 A2992=
202211091700 METAR MRLM 091700Z 02008KT 9999 FEW020TCU SCT220 30/23 A2990=
202211091800 METAR MRLM 091800Z 02009KT 9999 FEW025 SCT220 30/24 A2987=
202211091900 METAR MRLM 091900Z 01008KT 9999 FEW025 SCT220 30/25 A2985=
202211092000 METAR MRLM 092000Z 02007KT 9999 FEW025 SCT220 29/25 A2980=
202211092100 METAR MRLM 092100Z 36006KT 9999 FEW020 SCT120 BKN220 29/24 A2981=
202211092200 METAR MRLM 092200Z 24004KT 9999 DZ VCSH FEW020TCU BKN200 26/25 A2982=
202211092300 METAR MRLM 092300Z 25003KT 9999 -DZ VCSH FEW020TCU OVC120 25/24 A2983=
202211100000 METAR MRLM 100000Z 20005KT 9999 -DZ FEW015TCU BKN100 24/23 A2985=
202211100100 METAR MRLM NIL=
202211100200 METAR MRLM NIL=
202211100300 METAR MRLM NIL=
202211100400 METAR MRLM NIL=
202211100500 METAR MRLM NIL=
202211100600 METAR MRLM NIL=
202211100700 METAR MRLM NIL=
202211100800 METAR MRLM NIL=
202211100900 METAR MRLM NIL=
202211101000 METAR MRLM NIL=
202211101100 METAR MRLM NIL=
202211101200 METAR MRLM 101200Z 00000KT CAVOK 22/21 A2987=
202211101300 METAR MRLM 101300Z 25004KT CAVOK 24/22 A2989=
202211101400 METAR MRLM 101400Z 00000KT CAVOK 28/23 A2991=
202211101500 METAR MRLM 101500Z 29005KT CAVOK 29/22 A2991=
202211101600 METAR MRLM 101600Z 33007KT 9999 FEW030 30/21 A2991=
202211101700 METAR MRLM 101700Z 36010KT CAVOK 30/22 A2990=
202211101800 METAR MRLM 101800Z 36012KT CAVOK 30/24 A2987=
202211101900 METAR MRLM 101900Z 01011KT 9999 FEW030 SCT250 29/24 A2985=
202211102000 METAR MRLM 102000Z 01010KT 9999 FEW030 SCT250 29/24 A2982=
202211102100 METAR MRLM 102100Z 35007KT 9999 FEW025 BKN130 28/24 A2980=
202211102200 METAR MRLM 102200Z 35007KT 9999 SCT025 BKN130 28/24 A2980=
202211102300 METAR MRLM 102300Z 31003KT 9999 BKN020 27/24 A2982=
202211110000 METAR MRLM 110000Z 36005KT 9999 SCT020 BKN120 28/24 A2983=
202211110100 METAR MRLM NIL=
202211110200 METAR MRLM NIL=
202211110300 METAR MRLM NIL=
202211110400 METAR MRLM NIL=
202211110500 METAR MRLM NIL=
202211110600 METAR MRLM NIL=
202211110700 METAR MRLM NIL=
202211110800 METAR MRLM NIL=
202211110900 METAR MRLM NIL=
202211111000 METAR MRLM NIL=
202211111100 METAR MRLM NIL=
202211111200 METAR MRLM 111200Z 20005KT CAVOK 23/22 A2987=
202211111300 METAR MRLM 111300Z 23004KT CAVOK 26/23 A2989=
202211111400 METAR MRLM 111400Z 00000KT CAVOK 29/24 A2991=
202211111500 METAR MRLM 111500Z 06005KT 9999 FEW030 BKN140 28/24 A2992=
202211111600 METAR MRLM 111600Z 04006KT 9999 FEW030 SCT140 29/23 A2992=
202211111700 METAR MRLM 111700Z 03008KT 9999 FEW030 SCT140 29/23 A2990=
202211111800 METAR MRLM 111800Z 03007KT CAVOK 30/24 A2986=
202211111900 METAR MRLM 111900Z 02008KT CAVOK 30/24 A2984=
202211112000 METAR MRLM 112000Z 01009KT CAVOK 30/24 A2981=
202211112100 METAR MRLM 112100Z 01008KT CAVOK 30/24 A2981=
202211112200 METAR MRLM 112200Z 36006KT 9999 FEW030 BKN240 29/24 A2982=
202211112300 METAR MRLM 112300Z 35005KT 9999 FEW025 SCT140 28/24 A2983=
202211120000 METAR MRLM 120000Z 36007KT 9999 SCT020 BKN130 28/25 A2986=
202211120100 METAR MRLM NIL=
202211120200 METAR MRLM NIL=
202211120300 METAR MRLM NIL=
202211120400 METAR MRLM NIL=
202211120500 METAR MRLM NIL=
202211120600 METAR MRLM NIL=
202211120700 METAR MRLM NIL=
202211120800 METAR MRLM NIL=
202211120900 METAR MRLM NIL=
202211121000 METAR MRLM NIL=
202211121100 METAR MRLM NIL=
202211121200 METAR MRLM 121200Z 25004KT 9999 FEW015TCU SCT200 22/22 A2988=
202211121300 METAR MRLM 121300Z 23003KT 9999 FEW015TCU SCT200 25/23 A2991=
202211121400 METAR MRLM 121400Z 26003KT 9999 FEW020 28/24 A2993=
202211121500 METAR MRLM 121500Z 28004KT 9999 FEW020 SCT120 29/24 A2993=
202211121600 METAR MRLM 121600Z 34005KT 9999 FEW020 SCT120 30/23 A2993=
202211121700 METAR MRLM 121700Z 03009KT 9999 FEW020 SCT120 30/24 A2989=
202211121800 METAR MRLM 121800Z 02010KT 9999 FEW025 SCT130 30/24 A2986=
202211121900 METAR MRLM 121900Z 02011KT 9999 FEW025 SCT130 30/24 A2984=
202211122000 METAR MRLM 122000Z 03008KT 9999 FEW025 SCT240 30/25 A2982=
202211122100 METAR MRLM 122100Z 03007KT 9999 FEW025 SCT240 30/24 A2981=
202211122200 METAR MRLM 122200Z 01006KT 9999 SCT020 SCT220 29/24 A2982=
202211122300 METAR MRLM 122300Z 05003KT 9999 SCT020 SCT220 28/24 A2984=
202211130000 METAR MRLM 130000Z 24003KT 9999 FEW020 SCT200 26/24 A2985=
202211130100 METAR MRLM NIL=
202211130200 METAR MRLM NIL=
202211130300 METAR MRLM NIL=
202211130400 METAR MRLM NIL=
202211130500 METAR MRLM NIL=
202211130600 METAR MRLM NIL=
202211130700 METAR MRLM NIL=
202211130800 METAR MRLM NIL=
202211130900 METAR MRLM NIL=
202211131000 METAR MRLM NIL=
202211131100 METAR MRLM NIL=
202211131200 METAR MRLM 131200Z 25004KT 9999 VCSH FEW015TCU SCT200 22/21 A2987=
202211131300 METAR MRLM 131300Z 26003KT 9999 VCSH FEW015TCU SCT100 24/22 A2989=
202211131400 METAR MRLM 131400Z 30006KT 9999 -DZ VCSH FEW020TCU SCT120 27/23 A2992=
202211131500 METAR MRLM 131500Z 30006KT 9999 VCSH FEW020TCU BKN120 27/24 A2992=
202211131600 METAR MRLM 131600Z 32008KT 9999 -DZ SCT020 OVC100 26/24 A2992=
202211131700 METAR MRLM 131700Z 07013KT 5000 +DZ SCT010 OVC070 24/23 A2992=
202211131800 METAR MRLM 131800Z 19004KT 8000 +DZ SCT015 OVC090 23/22 A2989=
202211131900 METAR MRLM 131900Z 22003KT 9999 DZ SCT015 OVC090 24/23 A2987=
202211132000 METAR MRLM 132000Z 22003KT 9999 DZ SCT015 OVC090 25/23 A2982=
202211132100 METAR MRLM 132100Z 32003KT 6000 RA FEW015 OVC080 25/23 A2982=
202211132200 METAR MRLM 132200Z 22004KT 9999 -DZ FEW015 OVC100 24/23 A2982 RERA=
202211132300 METAR MRLM 132300Z 24004KT 9999 FEW015 SCT100 OVC200 24/23 A2980=
202211140000 METAR MRLM 140000Z 28002KT 9999 FEW010 SCT100 OVC200 24/23 A2980=
202211140100 METAR MRLM NIL=
202211140200 METAR MRLM NIL=
202211140300 METAR MRLM NIL=
202211140400 METAR MRLM NIL=
202211140500 METAR MRLM NIL=
202211140600 METAR MRLM NIL=
202211140700 METAR MRLM NIL=
202211140800 METAR MRLM NIL=
202211140900 METAR MRLM NIL=
202211141000 METAR MRLM NIL=
202211141100 METAR MRLM NIL=
202211141200 METAR MRLM 141200Z 27004KT 9999 FEW020 BKN120 23/22 A2984=
202211141300 METAR MRLM 141300Z 30007KT 9999 4000N +DZ SCT020 BKN110 24/22 A2987=
202211141400 METAR MRLM 141400Z 28007KT 9999 FEW020 BKN110 24/22 A2987 REDZ=
202211141500 METAR MRLM 141500Z 28005KT 9999 FEW025 BKN120 26/23 A2989=
202211141600 METAR MRLM 141600Z 00000KT 9999 DZ FEW025 BKN130 26/23 A2989=
202211141700 METAR MRLM 141700Z 30008KT 9999 FEW025 BKN130 26/23 A2987 REDZ=
202211141800 METAR MRLM 141800Z 30006KT 9999 DZ FEW020 BKN130 26/23 A2985=
202211141900 METAR MRLM 141900Z 30007KT 9999 DZ SCT020 BKN120 25/24 A2982=
202211142000 METAR MRLM 142000Z 29004KT CAVOK 25/24 A2979=
202211142100 METAR MRLM 142100Z 29004KT CAVOK 26/24 A2977=
202211142200 METAR MRLM 142200Z 30006KT CAVOK 25/23 A2979=
202211142300 METAR MRLM 142300Z 29005KT 9999 FEW020 BKN120 25/23 A2979=
202211150000 METAR MRLM 150000Z 29004KT CAVOK 25/23 A2982=
202211150100 METAR MRLM NIL=
202211150200 METAR MRLM NIL=
202211150300 METAR MRLM NIL=
202211150400 METAR MRLM NIL=
202211150500 METAR MRLM NIL=
202211150600 METAR MRLM NIL=
202211150700 METAR MRLM NIL=
202211150800 METAR MRLM NIL=
202211150900 METAR MRLM NIL=
202211151000 METAR MRLM NIL=
202211151100 METAR MRLM NIL=
202211151200 METAR MRLM 151200Z 26003KT 9999 FEW015 BKN130 23/23 A2989=
202211151300 METAR MRLM 151300Z 26004KT CAVOK 24/23 A2990=
202211151400 METAR MRLM 151400Z 29005KT 9999 DZ SCT020 BKN130 24/22 A2994=
202211151500 METAR MRLM 151500Z 19004KT 4000 RA BKN015 24/23 A2996=
202211151600 METAR MRLM 151600Z 22004KT 9999 DZ FEW020 BKN140 24/23 A2994=
202211151700 METAR MRLM 151700Z 24004KT 9999 DZ SCT020 BKN130 24/24 A2991=
202211151800 METAR MRLM 151800Z 28003KT 9999 DZ BKN020 25/25 A2989=
202211151900 METAR MRLM 151900Z 25005KT 9999 FEW020 BKN130 27/24 A2986=
202211152000 METAR MRLM 152000Z 29004KT CAVOK 27/24 A2983=
202211152100 METAR MRLM 152100Z 32005KT CAVOK 28/24 A2983=
202211152200 METAR MRLM 152200Z 31003KT CAVOK 27/24 A2985=
202211152300 METAR MRLM 152300Z 00000KT CAVOK 26/24 A2986=
202211160000 METAR MRLM 160000Z 00000KT CAVOK 25/24 A2990=
202211160100 METAR MRLM NIL=
202211160200 METAR MRLM NIL=
202211160300 METAR MRLM NIL=
202211160400 METAR MRLM NIL=
202211160500 METAR MRLM NIL=
202211160600 METAR MRLM NIL=
202211160700 METAR MRLM NIL=
202211160800 METAR MRLM NIL=
202211160900 METAR MRLM NIL=
202211161000 METAR MRLM NIL=
202211161100 METAR MRLM NIL=
202211161200 METAR MRLM 161200Z 23003KT 9999 FEW015 BKN200 23/23 A2993=
202211161300 METAR MRLM 161300Z 23004KT 9999 VCSH SCT015TCU OVC120 23/23 A2995=
202211161400 METAR MRLM 161400Z 25003KT 9999 VCSH SCT015TCU OVC100 24/23 A2998=
202211161500 METAR MRLM 161500Z 20002KT 7000 +DZ FEW010 OVC070 24/23 A3002=
202211161600 METAR MRLM 161600Z 00000KT 6000 +DZ SCT010 OVC070 25/23 A2999=
202211161700 METAR MRLM 161700Z 20003KT 9999 SCT015 OVC090 26/24 A2995 REDZ=
202211161800 METAR MRLM 161800Z 21003KT 9999 SCT015 OVC100 27/25 A2991=
202211161900 METAR MRLM 161900Z 06002KT 9999 -DZ SCT015 OVC100 27/24 A2987=
202211162000 METAR MRLM 162000Z 00000KT 9999 DZ SCT015 OVC100 27/25 A2986=
202211162100 METAR MRLM 162100Z 22005KT 9999 -DZ SCT015 OVC100 25/23 A2986=
202211162200 METAR MRLM 162200Z 24005KT 9999 SCT015 OVC110 26/24 A2987 REDZ=
202211162300 METAR MRLM 162300Z 21004KT 9999 FEW015 BKN110 25/24 A2987=
202211170000 METAR MRLM 170000Z 26002KT 9999 FEW015 BKN100 24/23 A2989=
202211170100 METAR MRLM NIL=
202211170200 METAR MRLM NIL=
202211170300 METAR MRLM NIL=
202211170400 METAR MRLM NIL=
202211170500 METAR MRLM NIL=
202211170600 METAR MRLM NIL=
202211170700 METAR MRLM NIL=
202211170800 METAR MRLM NIL=
202211170900 METAR MRLM NIL=
202211171000 METAR MRLM NIL=
202211171100 METAR MRLM NIL=
202211171200 METAR MRLM 171200Z 29002KT 9999 VCSH SCT015TCU BKN100 23/22 A2989=
202211171300 METAR MRLM 171300Z 23005KT 9999 VCSH SCT015TCU BKN100 24/22 A2992=
202211171400 METAR MRLM 171400Z 16006KT 8000 -RA SCT010 OVC080 24/23 A2996=
202211171500 METAR MRLM 171500Z 23003KT 9999 FEW015 BKN090 24/24 A2993=
202211171600 METAR MRLM 171600Z 21002KT 9999 FEW015 BKN090 27/24 A2993=
202211171700 METAR MRLM 171700Z 05004KT 9999 SCT015 BKN100 28/24 A2990=
202211171800 METAR MRLM 171800Z 03006KT 9999 FEW020 BKN120 28/23 A2986=
202211171900 METAR MRLM 171900Z 02007KT CAVOK 28/24 A2983=
202211172000 METAR MRLM 172000Z 01008KT CAVOK 29/24 A2981=
202211172100 METAR MRLM 172100Z 03005KT CAVOK 29/24 A2980=
202211172200 METAR MRLM 172200Z 02006KT 9999 FEW025 SCT120 BKN220 28/24 A2981=
202211172300 METAR MRLM 172300Z 04003KT CAVOK 28/24 A2985=
202211180000 METAR MRLM 180000Z 24002KT CAVOK 25/24 A2985=
202211180100 METAR MRLM NIL=
202211180200 METAR MRLM NIL=
202211180300 METAR MRLM NIL=
202211180400 METAR MRLM NIL=
202211180500 METAR MRLM NIL=
202211180600 METAR MRLM NIL=
202211180700 METAR MRLM NIL=
202211180800 METAR MRLM NIL=
202211180900 METAR MRLM NIL=
202211181000 METAR MRLM NIL=
202211181100 METAR MRLM NIL=
202211181200 METAR MRLM 181200Z 00000KT CAVOK 22/22 A2985=
202211181300 METAR MRLM 181300Z 00000KT CAVOK 24/22 A2986=
202211181400 METAR MRLM 181400Z 26003KT CAVOK 28/21 A2988=
202211181500 METAR MRLM 181500Z 33004KT CAVOK 29/22 A2988=
202211181600 METAR MRLM 181600Z 32008KT CAVOK 30/23 A2987=
202211181700 METAR MRLM 181700Z 34009KT 9999 FEW030 BKN130 29/25 A2986=
202211181800 METAR MRLM 181800Z 35010KT 9999 BKN025 29/25 A2984=
202211181900 METAR MRLM 181900Z 35007KT 9999 SCT025 BKN130 29/25 A2981=
202211182000 METAR MRLM 182000Z 02005KT 9999 FEW030 SCT250 29/25 A2977=
202211182100 METAR MRLM 182100Z 03006KT 9999 FEW030 SCT250 29/25 A2976=
202211182200 METAR MRLM 182200Z 01006KT 9999 FEW030 BKN130 28/25 A2976=
202211182300 METAR MRLM 182300Z 03003KT 9999 FEW030 SCT240 28/25 A2977=
202211190000 METAR MRLM 190000Z 04004KT 9999 SCT020 28/24 A2981=
202211190100 METAR MRLM NIL=
202211190200 METAR MRLM NIL=
202211190300 METAR MRLM NIL=
202211190400 METAR MRLM NIL=
202211190500 METAR MRLM NIL=
202211190600 METAR MRLM NIL=
202211190700 METAR MRLM NIL=
202211190800 METAR MRLM NIL=
202211190900 METAR MRLM NIL=
202211191000 METAR MRLM NIL=
202211191100 METAR MRLM NIL=
202211191200 METAR MRLM 191200Z 25003KT 9999 FEW020 BKN130 23/22 A2984=
202211191300 METAR MRLM 191300Z 29004KT CAVOK 25/23 A2985=
202211191400 METAR MRLM 191400Z 30007KT CAVOK 27/23 A2988=
202211191500 METAR MRLM 191500Z 30008KT CAVOK 28/24 A2987=
202211191600 METAR MRLM 191600Z 31008KT 9999 FEW030 BKN250 30/25 A2986=
202211191700 METAR MRLM 191700Z 33015KT 9999 SCT030 BKN250 29/25 A2985=
202211191800 METAR MRLM 191800Z 33015KT 9999 SCT025 BKN140 29/25 A2983=
202211191900 METAR MRLM 191900Z 31010KT 9999 DZ SCT020 BKN130 26/24 A2982=
202211192000 METAR MRLM 192000Z 27005KT 9999 -DZ FEW020 BKN130 26/25 A2978=
202211192100 METAR MRLM 192100Z 28004KT 9999 FEW020 BKN130 26/24 A2978=
202211192200 METAR MRLM 192200Z 25003KT 9999 BKN020 26/25 A2979=
202211192300 METAR MRLM 192300Z 24003KT 8000 DZ BKN020 25/24 A2980=
202211200000 METAR MRLM 200000Z 00000KT 9999 FEW015 BKN130 25/24 A2980=
202211200100 METAR MRLM NIL=
202211200200 METAR MRLM NIL=
202211200300 METAR MRLM NIL=
202211200400 METAR MRLM NIL=
202211200500 METAR MRLM NIL=
202211200600 METAR MRLM NIL=
202211200700 METAR MRLM NIL=
202211200800 METAR MRLM NIL=
202211200900 METAR MRLM NIL=
202211201000 METAR MRLM NIL=
202211201100 METAR MRLM NIL=
202211201200 METAR MRLM 201200Z 28006KT 9999 SCT015 BKN100 24/23 A2982=
202211201300 METAR MRLM 201300Z 29005KT 9999 SCT015 BKN100 24/23 A2984=
202211201400 METAR MRLM 201400Z 29004KT 9999 FEW015 BKN100 24/23 A2985=
202211201500 METAR MRLM 201500Z 29005KT 9999 FEW015 BKN100 25/23 A2986=
202211201600 METAR MRLM 201600Z 30008KT 9999 FEW020 BKN100 26/23 A2987=
202211201700 METAR MRLM 201700Z 29006KT 9999 FEW020 BKN100 27/23 A2986=
202211201800 METAR MRLM 201800Z 32009KT 9999 SCT020 OVC110 27/24 A2983=
202211201900 METAR MRLM 201900Z 32009KT 9999 SCT020 OVC110 28/24 A2979=
202211202000 METAR MRLM 202000Z 35010KT 9999 FEW020 OVC200 28/24 A2977=
202211202100 METAR MRLM 202100Z 33007KT 9999 FEW020 OVC200 27/24 A2975=
202211202200 METAR MRLM 202200Z 34011KT 9999 SCT015 OVC120 27/24 A2978=
202211202300 METAR MRLM 202300Z 35011KT 9999 SCT015 OVC200 27/24 A2979=
202211210000 METAR MRLM 210000Z 32005KT 9999 SCT015 OVC200 26/24 A2980=
202211210100 METAR MRLM NIL=
202211210200 METAR MRLM NIL=
202211210300 METAR MRLM NIL=
202211210400 METAR MRLM NIL=
202211210500 METAR MRLM NIL=
202211210600 METAR MRLM NIL=
202211210700 METAR MRLM NIL=
202211210800 METAR MRLM NIL=
202211210900 METAR MRLM NIL=
202211211000 METAR MRLM NIL=
202211211100 METAR MRLM NIL=
202211211200 METAR MRLM 211200Z 27003KT 9999 FEW015TCU BKN090 24/24 A2985=
202211211300 METAR MRLM 211300Z 28003KT 9999 FEW015TCU BKN090 24/24 A2987=
202211211400 METAR MRLM 211400Z 29006KT 9999 FEW015 BKN100 25/23 A2989=
202211211500 METAR MRLM 211500Z 30006KT 9999 FEW015 BKN100 26/23 A2991=
202211211600 METAR MRLM 211600Z 31007KT 9999 FEW020 BKN120 27/24 A2989=
202211211700 METAR MRLM 211700Z 31007KT 9999 FEW020 SCT120 OVC200 28/24 A2986=
202211211800 METAR MRLM 211800Z 32007KT 9999 SCT020 OVC120 28/24 A2985=
202211211900 METAR MRLM 211900Z 33009KT 9999 FEW015TCU SCT020 OVC100 27/24 A2984=
202211212000 METAR MRLM 212000Z 35013KT 9999 FEW015TCU SCT020 OVC100 26/24 A2982=
202211212100 METAR MRLM 212100Z 01009KT 9999 SCT020 OVC100 27/24 A2982=
202211212200 METAR MRLM 212200Z 24005KT 9999 VCSH FEW010TCU SCT015 OVC090 25/23 A2982=
202211212300 METAR MRLM 212300Z 22003KT 9999 VCSH FEW010TCU SCT015 OVC090 24/23 A2985=
202211220000 METAR MRLM 220000Z 20004KT 9999 DZ SCT010 OVC080 24/23 A2987=
202211220100 METAR MRLM NIL=
202211220200 METAR MRLM NIL=
202211220300 METAR MRLM NIL=
202211220400 METAR MRLM NIL=
202211220500 METAR MRLM NIL=
202211220600 METAR MRLM NIL=
202211220700 METAR MRLM NIL=
202211220800 METAR MRLM NIL=
202211220900 METAR MRLM NIL=
202211221000 METAR MRLM NIL=
202211221100 METAR MRLM NIL=
202211221200 METAR MRLM 221200Z 00000KT 9999 DZ BKN020 23/23 A2992=
202211221300 METAR MRLM 221300Z 23004KT 9999 FEW020 BKN130 23/23 A2993 REDZ=
202211221400 METAR MRLM 221400Z 20003KT 9999 VCSH SCT020 BKN120 24/22 A2996=
202211221500 METAR MRLM 221500Z 29003KT 9999 SCT020 BKN130 25/23 A2997=
202211221600 METAR MRLM 221600Z 26005KT 9999 FEW025 BKN130 26/23 A2994=
202211221700 METAR MRLM 221700Z 26005KT 9999 FEW020 BKN130 26/23 A2994=
202211221800 METAR MRLM 221800Z 19004KT CAVOK 27/23 A2991=
202211221900 METAR MRLM 221900Z 23003KT CAVOK 28/23 A2988=
202211222000 METAR MRLM 222000Z 16003KT CAVOK 29/23 A2984=
202211222100 METAR MRLM 222100Z 11005KT CAVOK 29/24 A2982=
202211222200 METAR MRLM 222200Z 00000KT CAVOK 28/24 A2982=
202211222300 METAR MRLM 222300Z 07007KT CAVOK 28/24 A2983=
202211230000 METAR MRLM 230000Z 04008KT CAVOK 27/24 A2984=
202211230100 METAR MRLM NIL=
202211230200 METAR MRLM NIL=
202211230300 METAR MRLM NIL=
202211230400 METAR MRLM NIL=
202211230500 METAR MRLM NIL=
202211230600 METAR MRLM NIL=
202211230700 METAR MRLM NIL=
202211230800 METAR MRLM NIL=
202211230900 METAR MRLM NIL=
202211231000 METAR MRLM NIL=
202211231100 METAR MRLM NIL=
202211231200 METAR MRLM 231200Z 25004KT CAVOK 20/20 A2987=
202211231300 METAR MRLM 231300Z 23004KT CAVOK 23/21 A2989=
202211231400 METAR MRLM 231400Z 00000KT CAVOK 26/22 A2991=
202211231500 METAR MRLM 231500Z 30004KT CAVOK 28/21 A2991=
202211231600 METAR MRLM 231600Z 30006KT CAVOK 29/23 A2991=
202211231700 METAR MRLM 231700Z 31005KT CAVOK 29/22 A2989=
202211231800 METAR MRLM 231800Z 36008KT CAVOK 29/24 A2986=
202211231900 METAR MRLM 231900Z 36011KT 9999 FEW030 SCT140 28/24 A2982=
202211232000 METAR MRLM 232000Z 01009KT 9999 FEW030 SCT130 29/24 A2979=
202211232100 METAR MRLM 232100Z 36009KT CAVOK 28/24 A2978=
202211232200 METAR MRLM 232200Z 36008KT CAVOK 28/24 A2979=
202211232300 METAR MRLM 232300Z 32004KT CAVOK 27/24 A2981=
202211240000 METAR MRLM 240000Z 00000KT CAVOK 24/23 A2985=
202211240100 METAR MRLM NIL=
202211240200 METAR MRLM NIL=
202211240300 METAR MRLM NIL=
202211240400 METAR MRLM NIL=
202211240500 METAR MRLM NIL=
202211240600 METAR MRLM NIL=
202211240700 METAR MRLM NIL=
202211240800 METAR MRLM NIL=
202211240900 METAR MRLM NIL=
202211241000 METAR MRLM NIL=
202211241100 METAR MRLM NIL=
202211241200 METAR MRLM 241200Z 25003KT 9999 VCSH FEW015 BKN100 23/22 A2985=
202211241300 METAR MRLM 241300Z 26002KT 9999 VCSH FEW015TCU BKN100 23/22 A2987=
202211241400 METAR MRLM 241400Z 24003KT 9999 VCSH FEW020TCU BKN120 25/23 A2989=
202211241500 METAR MRLM 241500Z 25004KT 9999 FEW020TCU SCT120 28/24 A2990=
202211241600 METAR MRLM 241600Z 21002KT 9999 FEW020TCU SCT120 29/24 A2988=
202211241700 METAR MRLM 241700Z 02009KT 9999 FEW025 SCT120 29/25 A2987=
202211241800 METAR MRLM 241800Z 01007KT 9999 FEW025 SCT130 29/24 A2983=
202211241900 METAR MRLM 241900Z 02006KT CAVOK 29/24 A2980=
202211242000 METAR MRLM 242000Z 01009KT CAVOK 29/24 A2978=
202211242100 METAR MRLM 242100Z 01008KT 9999 FEW025 SCT240 30/25 A2979=
202211242200 METAR MRLM 242200Z 01012KT 9999 FEW020 BKN120 28/25 A2980=
202211242300 METAR MRLM 242300Z 27003KT CAVOK 26/24 A2980=
202211250000 METAR MRLM 250000Z 24003KT CAVOK 25/24 A2982=
202211250100 METAR MRLM NIL=
202211250200 METAR MRLM NIL=
202211250300 METAR MRLM NIL=
202211250400 METAR MRLM NIL=
202211250500 METAR MRLM NIL=
202211250600 METAR MRLM NIL=
202211250700 METAR MRLM NIL=
202211250800 METAR MRLM NIL=
202211250900 METAR MRLM NIL=
202211251000 METAR MRLM NIL=
202211251100 METAR MRLM NIL=
202211251200 METAR MRLM 251200Z 25004KT 9999 VCSH FEW015TCU BKN090 23/23 A2987=
202211251300 METAR MRLM 251300Z 28003KT 9999 FEW015 SCT090 25/24 A2988=
202211251400 METAR MRLM 251400Z 25002KT 9999 FEW020 28/25 A2990=
202211251500 METAR MRLM 251500Z 01004KT 9999 FEW020 SCT120 28/25 A2990=
202211251600 METAR MRLM 251600Z 03005KT CAVOK 28/25 A2990=
202211251700 METAR MRLM 251700Z 04004KT CAVOK 28/24 A2988=
202211251800 METAR MRLM 251800Z 05004KT CAVOK 28/23 A2985=
202211251900 METAR MRLM 251900Z 07004KT CAVOK 29/24 A2981=
202211252000 METAR MRLM 252000Z 04005KT CAVOK 29/24 A2978=
202211252100 METAR MRLM 252100Z 01007KT 9999 FEW025 SCT220 28/25 A2977=
202211252200 METAR MRLM 252200Z 01005KT 9999 FEW020 SCT220 28/24 A2978=
202211252300 METAR MRLM 252300Z 03004KT 9999 SCT020 SCT220 28/24 A2980=
202211260000 METAR MRLM 260000Z 00000KT 9999 FEW020 SCT200 26/24 A2982=
202211260100 METAR MRLM NIL=
202211260200 METAR MRLM NIL=
202211260300 METAR MRLM NIL=
202211260400 METAR MRLM NIL=
202211260500 METAR MRLM NIL=
202211260600 METAR MRLM NIL=
202211260700 METAR MRLM NIL=
202211260800 METAR MRLM NIL=
202211260900 METAR MRLM NIL=
202211261000 METAR MRLM NIL=
202211261100 METAR MRLM NIL=
202211261200 METAR MRLM 261200Z 24004KT CAVOK 22/22 A2988=
202211261300 METAR MRLM 261300Z 24005KT CAVOK 23/22 A2989=
202211261400 METAR MRLM 261400Z 26003KT CAVOK 25/23 A2992=
202211261500 METAR MRLM 261500Z 26004KT CAVOK 28/24 A2992=
202211261600 METAR MRLM 261600Z 26004KT CAVOK 28/24 A2992=
202211261700 METAR MRLM 261700Z 02010KT 9999 FEW030 BKN140 29/25 A2991=
202211261800 METAR MRLM 261800Z 01012KT CAVOK 29/25 A2988=
202211261900 METAR MRLM 261900Z 01010KT CAVOK 29/25 A2984=
202211262000 METAR MRLM NIL=
202211262100 METAR MRLM 262100Z 01007KT CAVOK 29/25 A2979=
202211262200 METAR MRLM 262200Z 01009KT 9999 SCT030 28/25 A2981=
202211262300 METAR MRLM 262300Z 02007KT 9999 BKN025 28/25 A2982=
202211270000 METAR MRLM 270000Z 01006KT CAVOK 27/24 A2985=
202211270100 METAR MRLM NIL=
202211270200 METAR MRLM NIL=
202211270300 METAR MRLM NIL=
202211270400 METAR MRLM NIL=
202211270500 METAR MRLM NIL=
202211270600 METAR MRLM NIL=
202211270700 METAR MRLM NIL=
202211270800 METAR MRLM NIL=
202211270900 METAR MRLM NIL=
202211271000 METAR MRLM NIL=
202211271100 METAR MRLM NIL=
202211271200 METAR MRLM 271200Z 25004KT CAVOK 22/22 A2981=
202211271300 METAR MRLM 271300Z 00000KT CAVOK 25/23 A2991=
202211271400 METAR MRLM 271400Z 26003KT CAVOK 27/24 A2992=
202211271500 METAR MRLM 271500Z 33006KT CAVOK 28/24 A2992=
202211271600 METAR MRLM 271600Z 01007KT 9999 FEW030 SCT240 29/24 A2992=
202211271700 METAR MRLM 271700Z 01009KT 9999 FEW030 29/24 A2991=
202211271800 METAR MRLM 271800Z 01010KT CAVOK 29/25 A2988=
202211271900 METAR MRLM 271900Z 36011KT CAVOK 29/25 A2984=
202211272000 METAR MRLM 272000Z 36010KT 9999 FEW030 30/25 A2981=
202211272100 METAR MRLM 272100Z 35011KT 9999 SCT030 29/25 A2981=
202211272200 METAR MRLM 272200Z 34008KT 9999 BKN025 28/25 A2982=
202211272300 METAR MRLM 272300Z 36006KT 9999 BKN020 28/25 A2985=
202211280000 METAR MRLM 280000Z 36006KT CAVOK 28/25 A2987=
202211280100 METAR MRLM NIL=
202211280200 METAR MRLM NIL=
202211280300 METAR MRLM NIL=
202211280400 METAR MRLM NIL=
202211280500 METAR MRLM NIL=
202211280600 METAR MRLM NIL=
202211280700 METAR MRLM NIL=
202211280800 METAR MRLM NIL=
202211280900 METAR MRLM NIL=
202211281000 METAR MRLM NIL=
202211281100 METAR MRLM NIL=
202211281200 METAR MRLM 281200Z 26003KT 9999 FEW010 BKN090 23/23 A2984=
202211281300 METAR MRLM 281300Z 26005KT 9999 FEW010 BKN090 23/23 A2989=
202211281400 METAR MRLM 281400Z 28004KT 9999 FEW015 BKN100 25/23 A2992=
202211281500 METAR MRLM 281500Z 29007KT 9999 FEW015 SCT100 BKN200 27/23 A2993=
202211281600 METAR MRLM 281600Z 31008KT 9999 SCT015 BKN100 27/24 A2994=
202211281700 METAR MRLM 281700Z 31007KT 9999 FEW015TCU SCT020 BKN120 28/24 A2991=
202211281800 METAR MRLM 281800Z 31009KT 9999 SCT020 BKN120 27/23 A2989=
202211281900 METAR MRLM 281900Z 31006KT 9999 VCSH FEW015TCU SCT020 BKN100 27/24 A2986=
202211282000 METAR MRLM 282000Z 33005KT 9999 FEW020 OVC100 27/24 A2984=
202211282100 METAR MRLM 282100Z 22002KT 9999 SCT020 OVC100 26/24 A2982=
202211282200 METAR MRLM 282200Z 22003KT 9999 FEW020 BKN100 26/24 A2980=
202211282300 METAR MRLM 282300Z 00000KT 9999 FEW015 SCT100 OVC200 26/24 A2982=
202211290000 METAR MRLM 290000Z 24002KT CAVOK 25/24 A2984=
202211290100 METAR MRLM NIL=
202211290200 METAR MRLM NIL=
202211290300 METAR MRLM NIL=
202211290400 METAR MRLM NIL=
202211290500 METAR MRLM NIL=
202211290600 METAR MRLM NIL=
202211290700 METAR MRLM NIL=
202211290800 METAR MRLM NIL=
202211290900 METAR MRLM NIL=
202211291000 METAR MRLM NIL=
202211291100 METAR MRLM NIL=
202211291200 METAR MRLM 291200Z 24005KT 9999 FEW015 BKN090 22/21 A2987=
202211291300 METAR MRLM 291300Z 24002KT 9999 FEW015 BKN090 23/22 A2989=
202211291400 METAR MRLM 291400Z 25004KT 9999 FEW020 BKN100 26/22 A2990=
202211291500 METAR MRLM 291500Z 07003KT CAVOK 28/22 A2990=
202211291600 METAR MRLM 291600Z 32005KT CAVOK 29/22 A2990=
202211291700 METAR MRLM 291700Z 35010KT CAVOK 29/23 A2988=
202211291800 METAR MRLM 291800Z 01010KT 9999 FEW020 OVC120 28/24 A2986=
202211291900 METAR MRLM 291900Z 06019KT 8000 DZ SCT015 OVC090 26/24 A2989=
202211292000 METAR MRLM 292000Z 02008KT 8000 DZ FEW015 OVC080 24/22 A2983=
202211292100 METAR MRLM 292100Z 22004KT 9999 DZ FEW015 OVC090 24/22 A2982=
202211292200 METAR MRLM 292200Z 22004KT 9999 FEW015 OVC100 23/22 A2982=
202211292300 METAR MRLM 292300Z 21002KT 9999 -DZ FEW015 OVC100 23/22 A2982=
202211300000 METAR MRLM 300000Z 26002KT 9999 FEW010 SCT100 OVC200 23/22 A2983=
202211300100 METAR MRLM NIL=
202211300200 METAR MRLM NIL=
202211300300 METAR MRLM NIL=
202211300400 METAR MRLM NIL=
202211300500 METAR MRLM NIL=
202211300600 METAR MRLM NIL=
202211300700 METAR MRLM NIL=
202211300800 METAR MRLM NIL=
202211300900 METAR MRLM NIL=
202211301000 METAR MRLM NIL=
202211301100 METAR MRLM NIL=
202211301200 METAR MRLM 301200Z 29005KT CAVOK 23/21 A2984=
202211301300 METAR MRLM 301300Z 28005KT CAVOK 24/22 A2986=
202211301400 METAR MRLM 301400Z 28007KT CAVOK 27/23 A2988=
202211301500 METAR MRLM 301500Z 31009KT CAVOK 27/23 A2989=
202211301600 METAR MRLM 301600Z 30007KT 9999 FEW025 BKN130 27/23 A2989=
202211301700 METAR MRLM 301700Z 30004KT 9999 SCT025 BKN130 27/24 A2987=
202211301800 METAR MRLM 301800Z 32004KT 9999 SCT025 BKN130 27/24 A2983=
202211301900 METAR MRLM 301900Z 36010KT 9999 FEW025 BKN120 27/23 A2982=
202211302000 METAR MRLM 302000Z 01016KT 9999 VCSH BKN020 25/23 A2980=
202211302100 METAR MRLM 302100Z 35006KT 9999 SCT015 BKN120 25/23 A2979=
202211302200 METAR MRLM 302200Z 27003KT 9999 BKN020 25/23 A2980=
202211302300 METAR MRLM 302300Z 26005KT 9999 BKN020 24/23 A2982=
202212010000 METAR MRLM 010000Z 26005KT 9999 DZ BKN150 23/22 A2984=
202212010100 METAR MRLM NIL=
202212010200 METAR MRLM NIL=
202212010300 METAR MRLM NIL=
202212010400 METAR MRLM NIL=
202212010500 METAR MRLM NIL=
202212010600 METAR MRLM NIL=
202212010700 METAR MRLM NIL=
202212010800 METAR MRLM NIL=
202212010900 METAR MRLM NIL=
202212011000 METAR MRLM NIL=
202212011100 METAR MRLM NIL=
202212011200 METAR MRLM 011200Z 22005KT 9999 SCT020 BKN120 23/22 A2991=
202212011300 METAR MRLM 011300Z 22005KT 9999 SCT020 BKN120 23/23 A2992=
202212011400 METAR MRLM 011400Z 23006KT 9999 FEW025 BKN130 25/23 A2993=
202212011500 METAR MRLM 011500Z 24005KT 9999 FEW030 SCT140 26/23 A2994 RERA=
202212011600 METAR MRLM 011600Z 25004KT 9999 FEW030 SCT140 28/23 A2994=
202212011700 METAR MRLM 011700Z 13003KT 9999 FEW030 SCT140 30/24 A2991=
202212011800 METAR MRLM 011800Z 11007KT 9999 FEW025 BKN130 29/24 A2990=
202212011900 METAR MRLM 011900Z 10005KT CAVOK 29/23 A2987=
202212012000 METAR MRLM 012000Z 11005KT CAVOK 29/23 A2985=
202212012100 METAR MRLM 012100Z 11005KT CAVOK 29/23 A2985=
202212012200 METAR MRLM 012200Z 09006KT CAVOK 29/22 A2984=
202212012300 METAR MRLM 012300Z 08006KT CAVOK 28/23 A2986=
202212020000 METAR MRLM 020000Z 06006KT CAVOK 28/23 A2986=
202212020100 METAR MRLM NIL=
202212020200 METAR MRLM NIL=
202212020300 METAR MRLM NIL=
202212020400 METAR MRLM NIL=
202212020500 METAR MRLM NIL=
202212020600 METAR MRLM NIL=
202212020700 METAR MRLM NIL=
202212020800 METAR MRLM NIL=
202212020900 METAR MRLM NIL=
202212021000 METAR MRLM NIL=
202212021100 METAR MRLM NIL=
202212021200 METAR MRLM 021200Z 20002KT 9999 FEW015 SCT100 21/20 A2990=
202212021300 METAR MRLM 021300Z 24004KT 9999 FEW015 SCT200 24/22 A2992=
202212021400 METAR MRLM 021400Z 28002KT 9999 FEW020 28/22 A2994=
202212021500 METAR MRLM 021500Z 09004KT 9999 FEW020 BKN120 27/23 A2995=
202212021600 METAR MRLM 021600Z 16004KT 9999 FEW020 BKN120 28/23 A2994=
202212021700 METAR MRLM 021700Z 09003KT 9999 FEW020 BKN120 28/23 A2992=
202212021800 METAR MRLM 021800Z 35010KT 9999 FEW020TCU BKN120 27/23 A2989=
202212021900 METAR MRLM 021900Z 27005KT 9999 FEW020 BKN120 29/23 A2985=
202212022000 METAR MRLM 022000Z 15002KT 9999 VCSH FEW020TCU BKN120 29/22 A2983=
202212022100 METAR MRLM 022100Z 12007KT 9999 SCT020 SCT120 28/24 A2982=
202212022200 METAR MRLM 022200Z 09004KT 9999 SCT020 BKN120 29/23 A2983=
202212022300 METAR MRLM 022300Z 05006KT 9999 -DZ SCT015 OVC100 28/23 A2985=
202212030000 METAR MRLM 030000Z 35013KT 9999 DZ VCSH SCT015TCU OVC090 25/23 A2988=
202212030100 METAR MRLM NIL=
202212030200 METAR MRLM NIL=
202212030300 METAR MRLM NIL=
202212030400 METAR MRLM NIL=
202212030500 METAR MRLM NIL=
202212030600 METAR MRLM NIL=
202212030700 METAR MRLM NIL=
202212030800 METAR MRLM NIL=
202212030900 METAR MRLM NIL=
202212031000 METAR MRLM NIL=
202212031100 METAR MRLM NIL=
202212031200 METAR MRLM 031200Z 21003KT 9999 VCSH FEW015TCU BKN090 22/21 A2992=
202212031300 METAR MRLM 031300Z 22004KT 9999 FEW015 SCT100 24/22 A2994=
202212031400 METAR MRLM 031400Z 20004KT 9999 FEW020 SCT100 26/23 A2996=
202212031500 METAR MRLM 031500Z 19004KT 9999 FEW020 SCT100 28/23 A2996=
202212031600 METAR MRLM 031600Z 20005KT 9999 FEW020 BKN120 29/22 A2995=
202212031700 METAR MRLM 031700Z 11005KT 9999 SCT020 BKN120 29/22 A2993=
202212031800 METAR MRLM 031800Z 14004KT 9999 VCSH SCT015TCU OVC100 29/23 A2990=
202212031900 METAR MRLM 031900Z 14009KT 8000 +DZ FEW015TCU BKN080 24/23 A2989 RERA=
202212032000 METAR MRLM 032000Z 21006KT 9999 FEW015TCU SCT100 25/23 A2987 REDZ=
202212032100 METAR MRLM 032100Z 23005KT 9999 FEW020 SCT100 27/23 A2986=
202212032200 METAR MRLM 032200Z 23002KT 9999 FEW020 SCT200 27/24 A2987=
202212032300 METAR MRLM 032300Z 22003KT 9999 FEW020 SCT200 25/24 A2988=
202212040000 METAR MRLM 040000Z 22004KT CAVOK 24/23 A2989=
202212040100 METAR MRLM NIL=
202212040200 METAR MRLM NIL=
202212040300 METAR MRLM NIL=
202212040400 METAR MRLM NIL=
202212040500 METAR MRLM NIL=
202212040600 METAR MRLM NIL=
202212040700 METAR MRLM NIL=
202212040800 METAR MRLM NIL=
202212040900 METAR MRLM NIL=
202212041000 METAR MRLM NIL=
202212041100 METAR MRLM NIL=
202212041200 METAR MRLM 041200Z 29005KT 9999 DZ FEW025 BKN120 22/21 A2991=
202212041300 METAR MRLM 041300Z 25008KT 9999 FEW025 BKN130 22/20 A2992=
202212041400 METAR MRLM 041400Z 24004KT 9999 FEW030 SCT140 25/22 A2994=
202212041500 METAR MRLM 041500Z 00000KT CAVOK 27/22 A2994=
202212041600 METAR MRLM 041600Z 35009KT 9999 DZ SCT025 BKN130 24/22 A2995=
202212041700 METAR MRLM 041700Z 27004KT 9999 SCT030 26/23 A2993=
202212041800 METAR MRLM 041800Z 28005KT 9999 FEW030 SCT140 28/24 A2989=
202212041900 METAR MRLM 041900Z 10012G29KT 1000 +RA BKN020 23/22 A2989=
202212042000 METAR MRLM 042000Z 25004KT 9999 SCT020 BKN130 23/21 A2984 RERA=
202212042100 METAR MRLM 042100Z 24004KT 9999 FEW020 BKN140 24/23 A2985=
202212042200 METAR MRLM 042200Z 22003KT CAVOK 25/23 A2985=
202212042300 METAR MRLM 042300Z 23003KT CAVOK 25/23 A2984=
202212050000 METAR MRLM 050000Z 23004KT CAVOK 23/22 A2983=
202212050100 METAR MRLM NIL=
202212050200 METAR MRLM NIL=
202212050300 METAR MRLM NIL=
202212050400 METAR MRLM NIL=
202212050500 METAR MRLM NIL=
202212050600 METAR MRLM NIL=
202212050700 METAR MRLM NIL=
202212050800 METAR MRLM NIL=
202212050900 METAR MRLM NIL=
202212051000 METAR MRLM NIL=
202212051100 METAR MRLM NIL=
202212051200 METAR MRLM 051200Z 23005KT CAVOK 21/20 A2986=
202212051300 METAR MRLM 051300Z 23004KT CAVOK 23/21 A2989=
202212051400 METAR MRLM 051400Z 00000KT CAVOK 27/23 A2992=
202212051500 METAR MRLM 051500Z 07003KT CAVOK 28/22 A2992=
202212051600 METAR MRLM 051600Z 11005KT CAVOK 28/23 A2991=
202212051700 METAR MRLM 051700Z 10006KT CAVOK 28/22 A2989=
202212051800 METAR MRLM 051800Z 09006KT CAVOK 28/22 A2987=
202212051900 METAR MRLM 051900Z 07006KT CAVOK 28/22 A2984=
202212052000 METAR MRLM 052000Z 07006KT CAVOK 29/22 A2984=
202212052100 METAR MRLM 052100Z 04007KT CAVOK 28/23 A2981=
202212052200 METAR MRLM 052200Z 06005KT CAVOK 28/23 A2982=
202212052300 METAR MRLM 052300Z 07003KT CAVOK 28/22 A2983=
202212060000 METAR MRLM 060000Z 00000KT CAVOK 23/22 A2986=
202212060100 METAR MRLM NIL=
202212060200 METAR MRLM NIL=
202212060300 METAR MRLM NIL=
202212060400 METAR MRLM NIL=
202212060500 METAR MRLM NIL=
202212060600 METAR MRLM NIL=
202212060700 METAR MRLM NIL=
202212060800 METAR MRLM NIL=
202212060900 METAR MRLM NIL=
202212061000 METAR MRLM NIL=
202212061100 METAR MRLM NIL=
202212061200 METAR MRLM 061200Z 23005KT 9999 FEW015 BKN100 20/19 A2990=
202212061300 METAR MRLM 061300Z 23005KT 9999 FEW015 BKN100 21/20 A2992=
202212061400 METAR MRLM 061400Z 24003KT 9999 FEW015 BKN100 22/21 A2995=
202212061500 METAR MRLM 061500Z 25003KT CAVOK 24/22 A2995=
202212061600 METAR MRLM 061600Z 35003KT CAVOK 27/23 A2995=
202212061700 METAR MRLM 061700Z 06003KT CAVOK 27/23 A2993=
202212061800 METAR MRLM 061800Z 03006KT CAVOK 28/23 A2990=
202212061900 METAR MRLM 061900Z 01008KT CAVOK 28/23 A2988=
202212062000 METAR MRLM 062000Z 01007KT CAVOK 28/23 A2986=
202212062100 METAR MRLM 062100Z 35004KT 9999 FEW020 BKN120 27/23 A2986=
202212062200 METAR MRLM 062200Z 36004KT 9999 FEW020 BKN120 27/23 A2987=
202212062300 METAR MRLM 062300Z 02002KT 9999 FEW015 BKN100 27/24 A2989=
202212070000 METAR MRLM 070000Z 25002KT 9999 FEW015 SCT100 24/23 A2991=
202212070100 METAR MRLM NIL=
202212070200 METAR MRLM NIL=
202212070300 METAR MRLM NIL=
202212070400 METAR MRLM NIL=
202212070500 METAR MRLM NIL=
202212070600 METAR MRLM NIL=
202212070700 METAR MRLM NIL=
202212070800 METAR MRLM NIL=
202212070900 METAR MRLM NIL=
202212071000 METAR MRLM NIL=
202212071100 METAR MRLM NIL=
202212071200 METAR MRLM 071200Z 22008KT 8000 DZ VCSH FEW015TCU OVC090 22/21 A2997=
202212071300 METAR MRLM 071300Z 29003KT 9999 VCSH FEW015TCU BKN090 22/21 A3000 REDZ=
202212071400 METAR MRLM 071400Z 22005KT 9999 FEW015 BKN090 24/21 A3001=
202212071500 METAR MRLM 071500Z 24002KT 9999 VCSH FEW015TCU BKN100 25/22 A3002=
202212071600 METAR MRLM 071600Z 32005KT 9999 FEW015 BKN090 24/22 A3002=
202212071700 METAR MRLM 071700Z 27006KT CAVOK 26/23 A2999=
202212071800 METAR MRLM 071800Z 24003KT CAVOK 29/23 A2996=
202212071900 METAR MRLM 071900Z 01007KT CAVOK 28/23 A2993=
202212072000 METAR MRLM 072000Z 36009KT CAVOK 28/22 A2990=
202212072100 METAR MRLM 072100Z 01008KT CAVOK 28/22 A2989=
202212072200 METAR MRLM 072200Z 36008KT CAVOK 28/23 A2989=
202212072300 METAR MRLM 072300Z 36006KT CAVOK 27/23 A2991=
202212080000 METAR MRLM 080000Z 01004KT 9999 FEW015 BKN100 27/23 A2993=
202212080100 METAR MRLM NIL=
202212080200 METAR MRLM NIL=
202212080300 METAR MRLM NIL=
202212080400 METAR MRLM NIL=
202212080500 METAR MRLM NIL=
202212080600 METAR MRLM NIL=
202212080700 METAR MRLM NIL=
202212080800 METAR MRLM NIL=
202212080900 METAR MRLM NIL=
202212081000 METAR MRLM NIL=
202212081100 METAR MRLM NIL=
202212081200 METAR MRLM 081200Z 23004KT 9999 5000N DZ SCT015 BKN110 22/21 A2992=
202212081300 METAR MRLM 081300Z 18004KT 9999 FEW015 BKN120 23/21 A2996 REDZ=
202212081400 METAR MRLM 081400Z 23005KT CAVOK 23/21 A2997=
202212081500 METAR MRLM 081500Z 25004KT CAVOK 25/22 A2997=
202212081600 METAR MRLM 081600Z 25004KT CAVOK 28/22 A2996=
202212081700 METAR MRLM 081700Z 06004KT CAVOK 29/22 A2993=
202212081800 METAR MRLM 081800Z 06004KT CAVOK 28/22 A2990=
202212081900 METAR MRLM 081900Z 06007KT CAVOK 29/22 A2987=
202212082000 METAR MRLM 082000Z 07011KT CAVOK 29/23 A2985=
202212082100 METAR MRLM 082100Z 06009KT CAVOK 28/21 A2983=
202212082200 METAR MRLM 082200Z 06010KT CAVOK 29/22 A2983=
202212082300 METAR MRLM 082300Z 07012KT CAVOK 27/23 A2984=
202212090000 METAR MRLM 090000Z 08008KT CAVOK 27/23 A2988=
202212090100 METAR MRLM NIL=
202212090200 METAR MRLM NIL=
202212090300 METAR MRLM NIL=
202212090400 METAR MRLM NIL=
202212090500 METAR MRLM NIL=
202212090600 METAR MRLM NIL=
202212090700 METAR MRLM NIL=
202212090800 METAR MRLM NIL=
202212090900 METAR MRLM NIL=
202212091000 METAR MRLM NIL=
202212091100 METAR MRLM NIL=
202212091200 METAR MRLM 091200Z 24004KT 9999 FEW020 BKN130 21/19 A2988=
202212091300 METAR MRLM 091300Z 00000KT 9999 FEW020 BKN110 21/20 A2991=
202212091400 METAR MRLM 091400Z 22004KT 9999 DZ BKN020 22/20 A2993=
202212091500 METAR MRLM 091500Z 00000KT 9999 5000N DZ FEW020 BKN120 24/22 A2994=
202212091600 METAR MRLM 091600Z 28003KT CAVOK 26/22 A2993=
202212091700 METAR MRLM 091700Z 10004KT CAVOK 27/21 A2991=
202212091800 METAR MRLM 091800Z 08012KT 9999 DZ FEW020 BKN130 25/21 A2990=
202212091900 METAR MRLM 091900Z 00000KT CAVOK 26/21 A2985=
202212092000 METAR MRLM 092000Z 17004KT CAVOK 27/21 A2984=
202212092100 METAR MRLM 092100Z 22003KT 9999 FEW030 BKN130 26/22 A2983=
202212092200 METAR MRLM 092200Z 22006KT 9999 FEW030 BKN130 26/22 A2983=
202212092300 METAR MRLM 092300Z 22006KT 9999 FEW030 BKN130 26/22 A2983=
202212100000 METAR MRLM 100000Z 00000KT CAVOK 24/21 A2987=
202212100100 METAR MRLM NIL=
202212100200 METAR MRLM NIL=
202212100300 METAR MRLM NIL=
202212100400 METAR MRLM NIL=
202212100500 METAR MRLM NIL=
202212100600 METAR MRLM NIL=
202212100700 METAR MRLM NIL=
202212100800 METAR MRLM NIL=
202212100900 METAR MRLM NIL=
202212101000 METAR MRLM NIL=
202212101100 METAR MRLM NIL=
202212101200 METAR MRLM 101200Z 23004KT 9999 SCT015 BKN100 21/20 A2991=
202212101300 METAR MRLM 101300Z 24004KT 9999 SCT015 BKN100 22/20 A2993=
202212101400 METAR MRLM 101400Z 20005KT 9999 VCSH FEW010TCU SCT015 BKN100 24/21 A2995=
202212101500 METAR MRLM 101500Z 13015KT 9999 FEW015 OVC100 24/21 A2997=
202212101600 METAR MRLM 101600Z 28003KT 9999 SCT015 OVC100 26/22 A2996=
202212101700 METAR MRLM 101700Z 23005KT 9999 VCSH FEW015TCU OVC100 26/22 A2995=
202212101800 METAR MRLM 101800Z 19002KT 9999 VCSH FEW015TCU OVC100 27/21 A2994=
202212101900 METAR MRLM 101900Z 18005KT 9999 SCT015 OVC100 25/22 A2991=
202212102000 METAR MRLM 102000Z 22006KT 9999 FEW020 BKN110 26/22 A2988=
202212102100 METAR MRLM 102100Z 20003KT CAVOK 27/23 A2987=
202212102200 METAR MRLM 102200Z 18002KT 9999 FEW020 BKN100 26/22 A2988=
202212102300 METAR MRLM 102300Z 17002KT CAVOK 25/22 A2989=
202212110000 METAR MRLM 110000Z 22002KT CAVOK 24/22 A2989=
202212110100 METAR MRLM NIL=
202212110200 METAR MRLM NIL=
202212110300 METAR MRLM NIL=
202212110400 METAR MRLM NIL=
202212110500 METAR MRLM NIL=
202212110600 METAR MRLM NIL=
202212110700 METAR MRLM NIL=
202212110800 METAR MRLM NIL=
202212110900 METAR MRLM NIL=
202212111000 METAR MRLM NIL=
202212111100 METAR MRLM NIL=
202212111200 METAR MRLM 111200Z 23005KT CAVOK 20/18 A2993=
202212111300 METAR MRLM 111300Z 23005KT CAVOK 21/20 A2994=
202212111400 METAR MRLM 111400Z 23003KT CAVOK 26/21 A2996=
202212111500 METAR MRLM 111500Z 04003KT 9999 FEW025 27/22 A2996=
202212111600 METAR MRLM 111600Z 03007KT 9999 FEW025 SCT120 28/23 A2996=
202212111700 METAR MRLM 111700Z 02008KT 9999 SCT020 BKN120 28/23 A2995=
202212111800 METAR MRLM 111800Z 04008KT 9999 FEW020 BKN120 27/23 A2993=
202212111900 METAR MRLM 111900Z 08004KT 9999 FEW020 SCT120 27/22 A2990=
202212112000 METAR MRLM 112000Z 09015KT 9999 FEW020 SCT120 26/23 A2989=
202212112100 METAR MRLM 112100Z 14007KT CAVOK 26/22 A2987=
202212112200 METAR MRLM 112200Z 21005KT CAVOK 25/22 A2987=
202212112300 METAR MRLM 112300Z 23004KT CAVOK 25/21 A2987=
202212120000 METAR MRLM 120000Z 23004KT CAVOK 24/21 A2988=
202212120100 METAR MRLM NIL=
202212120200 METAR MRLM NIL=
202212120300 METAR MRLM NIL=
202212120400 METAR MRLM NIL=
202212120500 METAR MRLM NIL=
202212120600 METAR MRLM NIL=
202212120700 METAR MRLM NIL=
202212120800 METAR MRLM NIL=
202212120900 METAR MRLM NIL=
202212121000 METAR MRLM NIL=
202212121100 METAR MRLM NIL=
202212121200 METAR MRLM 121200Z 23005KT 9999 VCSH SCT020 20/19 A2991=
202212121300 METAR MRLM 121300Z 23004KT 9999 FEW025 BKN130 23/20 A2994=
202212121400 METAR MRLM 121400Z 28004KT 9999 FEW025 BKN140 26/22 A2996=
202212121500 METAR MRLM 121500Z 26007KT 9999 FEW030 BKN130 26/22 A2996=
202212121600 METAR MRLM 121600Z 27005KT CAVOK 27/22 A2994=
202212121700 METAR MRLM 121700Z 05003KT CAVOK 29/22 A2993=
202212121800 METAR MRLM 121800Z 02009KT 9999 FEW030 BKN130 28/22 A2991=
202212121900 METAR MRLM 121900Z 02004KT 9999 FEW030 BKN130 27/22 A2987=
202212122000 METAR MRLM 122000Z 04004KT 9999 FEW030 BKN130 27/22 A2985=
202212122100 METAR MRLM 122100Z 04003KT CAVOK 27/22 A2984=
202212122200 METAR MRLM 122200Z 03004KT 9999 FEW020 BKN120 27/22 A2985=
202212122300 METAR MRLM 122300Z 00000KT CAVOK 27/23 A2985=
202212130000 METAR MRLM 130000Z 00000KT CAVOK 24/22 A2988=
202212130100 METAR MRLM NIL=
202212130200 METAR MRLM NIL=
202212130300 METAR MRLM NIL=
202212130400 METAR MRLM NIL=
202212130500 METAR MRLM NIL=
202212130600 METAR MRLM NIL=
202212130700 METAR MRLM NIL=
202212130800 METAR MRLM NIL=
202212130900 METAR MRLM NIL=
202212131000 METAR MRLM NIL=
202212131100 METAR MRLM NIL=
202212131200 METAR MRLM 131200Z 28003KT CAVOK 21/20 A2989=
202212131300 METAR MRLM 131300Z 25004KT CAVOK 24/21 A2991=
202212131400 METAR MRLM 131400Z 26004KT CAVOK 26/22 A2993=
202212131500 METAR MRLM 131500Z 00000KT 9999 FEW030 29/22 A2993=
202212131600 METAR MRLM 131600Z 03006KT CAVOK 28/22 A2993=
202212131700 METAR MRLM 131700Z 02006KT CAVOK 28/22 A2991=
202212131800 METAR MRLM 131800Z 04006KT CAVOK 28/22 A2989=
202212131900 METAR MRLM 131900Z 03006KT CAVOK 28/22 A2987=
202212132000 METAR MRLM 132000Z 04007KT CAVOK 28/22 A2984=
202212132100 METAR MRLM 132100Z 03006KT CAVOK 28/22 A2983=
202212132200 METAR MRLM 132200Z 04005KT CAVOK 28/22 A2983=
202212132300 METAR MRLM 132300Z 08004KT CAVOK 27/22 A2984=
202212140000 METAR MRLM 140000Z 00000KT CAVOK 24/22 A2987=
202212140100 METAR MRLM NIL=
202212140200 METAR MRLM NIL=
202212140300 METAR MRLM NIL=
202212140400 METAR MRLM NIL=
202212140500 METAR MRLM NIL=
202212140600 METAR MRLM NIL=
202212140700 METAR MRLM NIL=
202212140800 METAR MRLM NIL=
202212140900 METAR MRLM NIL=
202212141000 METAR MRLM NIL=
202212141100 METAR MRLM NIL=
202212141200 METAR MRLM 141200Z 25004KT 9999 FEW015 SCT200 20/18 A2987=
202212141300 METAR MRLM 141300Z 23005KT 9999 FEW015 BKN100 21/20 A2990=
202212141400 METAR MRLM 141400Z 22005KT CAVOK 24/22 A2992=
202212141500 METAR MRLM 141500Z 21003KT CAVOK 27/22 A2992=
202212141600 METAR MRLM 141600Z 08004KT 9999 FEW020 BKN220 28/22 A2991=
202212141700 METAR MRLM 141700Z 07006KT 9999 FEW020 BKN220 28/23 A2989=
202212141800 METAR MRLM 141800Z 06005KT CAVOK 29/22 A2986=
202212141900 METAR MRLM 141900Z 06006KT CAVOK 29/22 A2983=
202212142000 METAR MRLM 142000Z 06009KT CAVOK 29/23 A2981=
202212142100 METAR MRLM 142100Z 06008KT CAVOK 29/23 A2981=
202212142200 METAR MRLM 142200Z 05008KT 9999 FEW020 BKN220 28/22 A2982=
202212142300 METAR MRLM 142300Z 08005KT 9999 FEW020 BKN220 27/23 A2983=
202212150000 METAR MRLM 150000Z 06002KT 9999 FEW015 SCT200 27/23 A2984=
202212150100 METAR MRLM NIL=
202212150200 METAR MRLM NIL=
202212150300 METAR MRLM NIL=
202212150400 METAR MRLM NIL=
202212150500 METAR MRLM NIL=
202212150600 METAR MRLM NIL=
202212150700 METAR MRLM NIL=
202212150800 METAR MRLM NIL=
202212150900 METAR MRLM NIL=
202212151000 METAR MRLM NIL=
202212151100 METAR MRLM NIL=
202212151200 METAR MRLM 151200Z 24005KT CAVOK 23/21 A2988=
202212151300 METAR MRLM 151300Z 24005KT CAVOK 23/21 A2990=
202212151400 METAR MRLM 151400Z 24005KT CAVOK 24/22 A2992=
202212151500 METAR MRLM 151500Z 24004KT CAVOK 27/23 A2993=
202212151600 METAR MRLM 151600Z 25003KT CAVOK 28/24 A2993=
202212151700 METAR MRLM 151700Z 26004KT 9999 FEW030 BKN130 29/23 A2990=
202212151800 METAR MRLM 151800Z 32006KT 9999 FEW030 BKN140 29/23 A2987=
202212151900 METAR MRLM 151900Z 36007KT 9999 SCT020 BKN130 28/23 A2986=
202212152000 METAR MRLM 152000Z 03004KT 9999 SCT020 BKN130 26/24 A2983=
202212152100 METAR MRLM 152100Z 00000KT 9999 FEW020 BKN120 26/24 A2983=
202212152200 METAR MRLM 152200Z 05005KT 9999 FEW020 BKN110 26/23 A2982=
202212152300 METAR MRLM NIL=
202212160000 METAR MRLM NIL=
202212160100 METAR MRLM NIL=
202212160200 METAR MRLM NIL=
202212160300 METAR MRLM NIL=
202212160400 METAR MRLM NIL=
202212160500 METAR MRLM NIL=
202212160600 METAR MRLM NIL=
202212160700 METAR MRLM NIL=
202212160800 METAR MRLM NIL=
202212160900 METAR MRLM NIL=
202212161000 METAR MRLM NIL=
202212161100 METAR MRLM NIL=
202212161200 METAR MRLM 161200Z 26003KT 9999 BKN015 23/23 A2985=
202212161300 METAR MRLM 161300Z 23003KT 9999 DZ SCT015 BKN100 23/23 A2988=
202212161400 METAR MRLM 161400Z 26003KT 6000 2000N +DZ BKN020 23/23 A2992=
202212161500 METAR MRLM 161500Z 23005KT 1000 RA VCTS BKN015 23/23 A2993=
202212161600 METAR MRLM 161600Z 22005KT 9999 DZ SCT020 BKN110 23/23 A2992 RERA=
202212161700 METAR MRLM 161700Z 26004KT 9999 DZ SCT020 BKN110 24/24 A2988=
202212161800 METAR MRLM 161800Z 24008KT 9999 DZ SCT020 BKN120 25/24 A2986=
202212161900 METAR MRLM 161900Z 25005KT 9999 DZ BKN020 25/24 A2983=
202212162000 METAR MRLM 162000Z 22004KT 9999 SCT025 BKN120 26/24 A2981 REDZ=
202212162100 METAR MRLM 162100Z 22003KT 9999 BKN025 26/24 A2979=
202212162200 METAR MRLM 162200Z 21005KT 9999 FEW025 BKN130 26/24 A2980=
202212162300 METAR MRLM 162300Z 00000KT 9999 SCT020 BKN120 25/24 A2981=
202212170000 METAR MRLM 170000Z 00000KT 9999 FEW020 BKN120 25/24 A2983=
202212170100 METAR MRLM NIL=
202212170200 METAR MRLM NIL=
202212170300 METAR MRLM NIL=
202212170400 METAR MRLM NIL=
202212170500 METAR MRLM NIL=
202212170600 METAR MRLM NIL=
202212170700 METAR MRLM NIL=
202212170800 METAR MRLM NIL=
202212170900 METAR MRLM NIL=
202212171000 METAR MRLM NIL=
202212171100 METAR MRLM NIL=
202212171200 METAR MRLM 171200Z 00000KT 9999 +DZ BKN020 23/23 A2984=
202212171300 METAR MRLM 171300Z 22005KT 4000 +DZ BKN020 23/23 A2987 RERA=
202212171400 METAR MRLM 171400Z 22005KT 4000 +DZ BKN020 23/23 A2987 RERA=
202212171500 METAR MRLM 171500Z 26004KT 9999 SCT025 BKN120 25/23 A2989 REDZ=
202212171600 METAR MRLM 171600Z 23003KT 9999 FEW030 BKN130 29/25 A2987=
202212171700 METAR MRLM 171700Z 05003KT 9999 SCT030 BKN130 29/24 A2986=
202212171800 METAR MRLM 171800Z 05004KT 9999 FEW030 BKN140 29/24 A2983=
202212171900 METAR MRLM 171900Z 03006KT 9999 FEW030 SCT140 29/24 A2980=
202212172000 METAR MRLM 172000Z 04003KT CAVOK 29/23 A2978=
202212172100 METAR MRLM 172100Z 00000KT CAVOK 28/23 A2977=
202212172200 METAR MRLM 172200Z 00000KT CAVOK 29/24 A2979=
202212172300 METAR MRLM 172300Z 00000KT CAVOK 26/24 A2981=
202212180000 METAR MRLM 180000Z 00000KT 9999 FEW030 25/24 A2985=
202212180100 METAR MRLM NIL=
202212180200 METAR MRLM NIL=
202212180300 METAR MRLM NIL=
202212180400 METAR MRLM NIL=
202212180500 METAR MRLM NIL=
202212180600 METAR MRLM NIL=
202212180700 METAR MRLM NIL=
202212180800 METAR MRLM NIL=
202212180900 METAR MRLM NIL=
202212181000 METAR MRLM NIL=
202212181100 METAR MRLM NIL=
202212181200 METAR MRLM 181200Z 26004KT 8000 HZ VCSH SCT010TCU BKN080 23/22 A2989=
202212181300 METAR MRLM 181300Z 21004KT 8000 HZ VCSH FEW010TCU SCT015 BKN080 23/23 A2993=
202212181400 METAR MRLM 181400Z 23003KT 9999 VCSH FEW010TCU BKN090 24/23 A2995=
202212181500 METAR MRLM 181500Z 22006KT 9999 SCT015 BKN090 25/23 A2995=
202212181600 METAR MRLM 181600Z 21005KT 9999 FEW015TCU BKN090 26/24 A2995=
202212181700 METAR MRLM 181700Z 21003KT 9999 FEW015 BKN090 27/24 A2992=
202212181800 METAR MRLM 181800Z 22007KT 9999 FEW020TCU SCT100 28/24 A2989=
202212181900 METAR MRLM 181900Z 29003KT 9999 VCSH SCT020TCU SCT100 26/22 A2987=
202212182000 METAR MRLM 182000Z 35005KT 8000 -DZ VCSH FEW015TCU OVC090 24/22 A2984=
202212182100 METAR MRLM 182100Z 02013KT 9999 SCT015 OVC080 25/23 A2987=
202212182200 METAR MRLM 182200Z 22007KT 9999 FEW015 OVC090 23/21 A2984=
202212182300 METAR MRLM 182300Z 24005KT 9999 FEW015 BKN100 23/21 A2985=
202212190000 METAR MRLM 190000Z 22005KT 9999 FEW015 BKN100 23/20 A2986=
202212190100 METAR MRLM NIL=
202212190200 METAR MRLM NIL=
202212190300 METAR MRLM NIL=
202212190400 METAR MRLM NIL=
202212190500 METAR MRLM NIL=
202212190600 METAR MRLM NIL=
202212190700 METAR MRLM NIL=
202212190800 METAR MRLM NIL=
202212190900 METAR MRLM NIL=
202212191000 METAR MRLM NIL=
202212191100 METAR MRLM NIL=
202212191200 METAR MRLM 191200Z 13008G23KT 4000 DZ VCSH SCT010TCU OVC070 24/22 A2995=
202212191300 METAR MRLM 191300Z 01009KT 9999 FEW015 OVC090 23/21 A2998 REDZ=
202212191400 METAR MRLM 191400Z 22008KT 9999 VCSH FEW015TCU BKN090 23/20 A2999=
202212191500 METAR MRLM 191500Z 11011KT 8000 +DZ SCT015 OVC080 23/21 A3002=
202212191600 METAR MRLM 191600Z 23004KT 9999 FEW015 OVC090 24/22 A3000=
202212191700 METAR MRLM 191700Z 23004KT 9999 FEW015 OVC090 26/22 A2997=
202212191800 METAR MRLM 191800Z 23004KT 9999 FEW020 BKN100 28/22 A2994=
202212191900 METAR MRLM 191900Z 05004KT 9999 FEW020 BKN100 29/21 A2990=
202212192000 METAR MRLM 192000Z 03004KT CAVOK 29/22 A2987=
202212192100 METAR MRLM 192100Z 02006KT CAVOK 28/22 A2985=
202212192200 METAR MRLM 192200Z 02005KT CAVOK 28/22 A2986=
202212192300 METAR MRLM 192300Z 02004KT CAVOK 28/22 A2987=
202212200000 METAR MRLM 200000Z 24003KT CAVOK 23/22 A2988=
202212200100 METAR MRLM NIL=
202212200200 METAR MRLM NIL=
202212200300 METAR MRLM NIL=
202212200400 METAR MRLM NIL=
202212200500 METAR MRLM NIL=
202212200600 METAR MRLM NIL=
202212200700 METAR MRLM NIL=
202212200800 METAR MRLM NIL=
202212200900 METAR MRLM NIL=
202212201000 METAR MRLM NIL=
202212201100 METAR MRLM NIL=
202212201200 METAR MRLM 201200Z 23005KT CAVOK 20/18 A2992=
202212201300 METAR MRLM 201300Z 23005KT CAVOK 21/19 A2995=
202212201400 METAR MRLM 201400Z 22005KT CAVOK 25/20 A2997=
202212201500 METAR MRLM 201500Z 00000KT CAVOK 27/22 A2997=
202212201600 METAR MRLM 201600Z 06004KT CAVOK 27/22 A2997=
202212201700 METAR MRLM 201700Z 14003KT CAVOK 27/23 A2995=
202212201800 METAR MRLM 201800Z 19005KT 9999 FEW030 BKN130 27/22 A2993=
202212201900 METAR MRLM 201900Z 18004KT 9999 SCT030 BKN130 28/23 A2990=
202212202000 METAR MRLM 202000Z 00000KT 9999 SCT025 BKN120 28/22 A2987=
202212202100 METAR MRLM 202100Z 09007KT 9999 DZ BKN020 28/22 A2987=
202212202200 METAR MRLM 202200Z 16004KT 9999 SCT020 BKN120 25/22 A2988 REDZ=
202212202300 METAR MRLM 202300Z 00000KT 9999 SCT020 BKN120 24/23 A2989=
202212210000 METAR MRLM 210000Z 00000KT 9999 FEW015 BKN110 24/21 A2993=
202212210100 METAR MRLM NIL=
202212210200 METAR MRLM NIL=
202212210300 METAR MRLM NIL=
202212210400 METAR MRLM NIL=
202212210500 METAR MRLM NIL=
202212210600 METAR MRLM NIL=
202212210700 METAR MRLM NIL=
202212210800 METAR MRLM NIL=
202212210900 METAR MRLM NIL=
202212211000 METAR MRLM NIL=
202212211100 METAR MRLM NIL=
202212211200 METAR MRLM 211200Z 00000KT 9999 4000N DZ SCT020 BKN110 22/21 A2992=
202212211300 METAR MRLM 211300Z 35013KT 2000 +RA BKN020 23/22 A2997=
202212211400 METAR MRLM 211400Z 28003KT 3000 +DZ SCT020 BKN100 23/22 A3000 RERA=
202212211500 METAR MRLM 211500Z 25006KT 9999 BKN015 24/23 A3000 REDZ=
202212211600 METAR MRLM 211600Z 26006KT 7000 DZ VCSH SCT015 BKN110 24/23 A2999=
202212211700 METAR MRLM 211700Z 21007KT 9999 4000N +DZ SCT020 BKN110 23/22 A2998=
202212211800 METAR MRLM 211800Z 24006KT 9999 SCT020 BKN120 24/22 A2994 REDZ=
202212211900 METAR MRLM 211900Z 24005KT CAVOK 26/22 A2990=
202212212000 METAR MRLM 212000Z 22004KT CAVOK 28/24 A2988=
202212212100 METAR MRLM 212100Z 20004KT CAVOK 28/23 A2986=
202212212200 METAR MRLM 212200Z 00000KT CAVOK 27/23 A2986=
202212212300 METAR MRLM 212300Z 00000KT CAVOK 25/24 A2987=
202212220000 METAR MRLM 220000Z 00000KT CAVOK 24/23 A2990=
202212220100 METAR MRLM NIL=
202212220200 METAR MRLM NIL=
202212220300 METAR MRLM NIL=
202212220400 METAR MRLM NIL=
202212220500 METAR MRLM NIL=
202212220600 METAR MRLM NIL=
202212220700 METAR MRLM NIL=
202212220800 METAR MRLM NIL=
202212220900 METAR MRLM NIL=
202212221000 METAR MRLM NIL=
202212221100 METAR MRLM NIL=
202212221200 METAR MRLM 221200Z 18002KT 8000 +DZ SCT015 OVC090 21/20 A2992=
202212221300 METAR MRLM 221300Z 22004KT 9999 VCSH FEW010TCU SCT015 BKN090 22/21 A2993 REDZ=
202212221400 METAR MRLM 221400Z 21005KT 9999 VCSH FEW015TCU BKN090 23/21 A2995=
202212221500 METAR MRLM 221500Z 22004KT 9999 FEW020 BKN100 26/22 A2994=
202212221600 METAR MRLM 221600Z 07004KT 9999 FEW020 BKN100 27/23 A2994=
202212221700 METAR MRLM 221700Z 05011KT 9999 -DZ FEW015 OVC100 25/23 A2993=
202212221800 METAR MRLM 221800Z 04008KT 8000 -DZ FEW015 OVC100 25/22 A2991=
202212221900 METAR MRLM 221900Z 23005KT 9999 FEW015 OVC100 25/23 A2987=
202212222000 METAR MRLM 222000Z 23004KT 9999 FEW015 BKN100 27/23 A2985=
202212222100 METAR MRLM 222100Z 02007KT 9999 SCT015 OVC100 27/23 A2985=
202212222200 METAR MRLM 222200Z 04010KT 9999 FEW015 OVC090 25/23 A2986=
202212222300 METAR MRLM 222300Z 18003KT 7000 DZ FEW010 OVC080 23/22 A2988=
202212230000 METAR MRLM 230000Z 23006KT 5000 +DZ FEW010 OVC080 23/22 A2989=
202212230100 METAR MRLM NIL=
202212230200 METAR MRLM NIL=
202212230300 METAR MRLM NIL=
202212230400 METAR MRLM NIL=
202212230500 METAR MRLM NIL=
202212230600 METAR MRLM NIL=
202212230700 METAR MRLM NIL=
202212230800 METAR MRLM NIL=
202212230900 METAR MRLM NIL=
202212231000 METAR MRLM NIL=
202212231100 METAR MRLM NIL=
202212231200 METAR MRLM 231200Z 19003KT 8000 +DZ VCSH FEW015TCU BKN080 23/22 A2992=
202212231300 METAR MRLM 231300Z 23004KT 9000 -DZ VCSH FEW015TCU SCT020 BKN080 23/23 A2994=
202212231400 METAR MRLM 231400Z 21004KT 9999 SCT015 BKN080 23/23 A2999=
202212231500 METAR MRLM 231500Z 22006KT 9999 SCT015 BKN090 25/23 A2998=
202212231600 METAR MRLM 231600Z 22004KT 9999 SCT020 SCT100 27/24 A2997=
202212231700 METAR MRLM 231700Z 20004KT 9999 FEW020 SCT100 28/25 A2995=
202212231800 METAR MRLM 231800Z 04003KT 9999 FEW020 30/23 A2991=
202212231900 METAR MRLM 231900Z 10005KT 9999 FEW025 30/23 A2988=
202212232000 METAR MRLM 232000Z 11007KT 9999 FEW025 29/24 A2985=
202212232100 METAR MRLM 232100Z 12005KT 9999 FEW025 SCT120 29/24 A2984=
202212232200 METAR MRLM 232200Z 09004KT 9999 FEW025 SCT120 29/23 A2985=
202212232300 METAR MRLM 232300Z 07004KT 9999 FEW020 SCT100 28/23 A2985=
202212240000 METAR MRLM 240000Z 09004KT CAVOK 28/24 A2987=
202212240100 METAR MRLM NIL=
202212240200 METAR MRLM NIL=
202212240300 METAR MRLM NIL=
202212240400 METAR MRLM NIL=
202212240500 METAR MRLM NIL=
202212240600 METAR MRLM NIL=
202212240700 METAR MRLM NIL=
202212240800 METAR MRLM NIL=
202212240900 METAR MRLM NIL=
202212241000 METAR MRLM NIL=
202212241100 METAR MRLM NIL=
202212241200 METAR MRLM 241200Z 23005KT 9999 DZ FEW010 BKN110 22/21 A2990=
202212241300 METAR MRLM 241300Z 24007KT 8000 DZ SCT015 BKN110 23/22 A2996 RERA=
202212241400 METAR MRLM 241400Z 24005KT 9999 FEW020 BKN120 24/22 A2996 REDZ=
202212241500 METAR MRLM 241500Z 20004KT 9999 FEW025 BKN130 25/22 A2997=
202212241600 METAR MRLM 241600Z 21004KT 9999 FEW030 BKN130 28/23 A2997=
202212241700 METAR MRLM 241700Z 10004KT 9999 FEW030 29/23 A2996=
202212241800 METAR MRLM 241800Z 07003KT 9999 FEW030 29/23 A2994=
202212241900 METAR MRLM 241900Z 05004KT CAVOK 29/23 A2991=
202212242000 METAR MRLM 242000Z 05005KT CAVOK 29/23 A2988=
202212242100 METAR MRLM 242100Z 05004KT CAVOK 28/23 A2987=
202212242200 METAR MRLM 242200Z 04004KT CAVOK 28/23 A2987=
202212242300 METAR MRLM 242300Z 02004KT CAVOK 27/23 A2988=
202212250000 METAR MRLM 250000Z 00000KT CAVOK 23/22 A2990=
202212250100 METAR MRLM NIL=
202212250200 METAR MRLM NIL=
202212250300 METAR MRLM NIL=
202212250400 METAR MRLM NIL=
202212250500 METAR MRLM NIL=
202212250600 METAR MRLM NIL=
202212250700 METAR MRLM NIL=
202212250800 METAR MRLM NIL=
202212250900 METAR MRLM NIL=
202212251000 METAR MRLM NIL=
202212251100 METAR MRLM NIL=
202212251200 METAR MRLM 251200Z 00000KT CAVOK 22/21 A2991=
202212251300 METAR MRLM 251300Z 22004KT CAVOK 23/22 A2993=
202212251400 METAR MRLM 251400Z 21003KT CAVOK 26/23 A2996=
202212251500 METAR MRLM 251500Z 13005KT CAVOK 28/22 A2997=
202212251600 METAR MRLM 251600Z 10004KT 9999 FEW030 BKN130 28/22 A2996=
202212251700 METAR MRLM 251700Z 11004KT 9999 FEW030 BKN130 29/23 A2994=
202212251800 METAR MRLM 251800Z 08005KT CAVOK 29/22 A2992=
202212251900 METAR MRLM 251900Z 08005KT CAVOK 29/22 A2992=
202212252000 METAR MRLM 252000Z 07005KT CAVOK 28/22 A2986=
202212252100 METAR MRLM 252100Z 07007KT CAVOK 29/22 A2985=
202212252200 METAR MRLM 252200Z 07006KT CAVOK 29/22 A2985=
202212252300 METAR MRLM 252300Z 07006KT CAVOK 29/22 A2985=
202212260000 METAR MRLM 260000Z 00000KT CAVOK 24/22 A2988=
202212260100 METAR MRLM NIL=
202212260200 METAR MRLM NIL=
202212260300 METAR MRLM NIL=
202212260400 METAR MRLM NIL=
202212260500 METAR MRLM NIL=
202212260600 METAR MRLM NIL=
202212260700 METAR MRLM NIL=
202212260800 METAR MRLM NIL=
202212260900 METAR MRLM NIL=
202212261000 METAR MRLM NIL=
202212261100 METAR MRLM NIL=
202212261200 METAR MRLM 261200Z 27002KT 9999 FEW020 BKN100 22/20 A2992=
202212261300 METAR MRLM 261300Z 24004KT 9999 FEW015 BKN100 22/21 A2995=
202212261400 METAR MRLM 261400Z 23004KT 9999 VCSH FEW015TCU SCT020 OVC100 23/21 A2998=
202212261500 METAR MRLM 261500Z 33003KT 9000 -DZ FEW015 OVC090 23/22 A2999=
202212261600 METAR MRLM 261600Z 24007KT 9999 -DZ FEW015 BKN090 24/22 A2996=
202212261700 METAR MRLM 261700Z 22004KT 9999 FEW020 BKN100 26/23 A2994=
202212261800 METAR MRLM 261800Z 11008KT CAVOK 28/23 A2990=
202212261900 METAR MRLM 261900Z 10006KT CAVOK 29/23 A2987=
202212262000 METAR MRLM 262000Z 10009KT 9999 FEW025 SCT120 29/23 A2985=
202212262100 METAR MRLM 262100Z 10007KT CAVOK 30/22 A2983=
202212262200 METAR MRLM 262200Z 08008KT CAVOK 29/22 A2984=
202212262300 METAR MRLM 262300Z 05008KT CAVOK 28/23 A2985=
202212270000 METAR MRLM 270000Z 04008KT CAVOK 27/22 A2987=
202212270100 METAR MRLM NIL=
202212270200 METAR MRLM NIL=
202212270300 METAR MRLM NIL=
202212270400 METAR MRLM NIL=
202212270500 METAR MRLM NIL=
202212270600 METAR MRLM NIL=
202212270700 METAR MRLM NIL=
202212270800 METAR MRLM NIL=
202212270900 METAR MRLM NIL=
202212271000 METAR MRLM NIL=
202212271100 METAR MRLM NIL=
202212271200 METAR MRLM 271200Z 24003KT CAVOK 21/20 A2995=
202212271300 METAR MRLM 271300Z 24005KT CAVOK 22/21 A2996=
202212271400 METAR MRLM 271400Z 24002KT CAVOK 26/23 A2999=
202212271500 METAR MRLM 271500Z 14002KT CAVOK 27/23 A2999=
202212271600 METAR MRLM 271600Z 06004KT 9999 FEW025 28/23 A2998=
202212271700 METAR MRLM 271700Z 05006KT CAVOK 28/23 A2996=
202212271800 METAR MRLM 271800Z 03005KT CAVOK 28/23 A2993=
202212271900 METAR MRLM 271900Z 03008KT 9999 FEW025 SCT240 28/23 A2991=
202212272000 METAR MRLM 272000Z 04006KT CAVOK 28/24 A2989=
202212272100 METAR MRLM 272100Z 06009KT CAVOK 28/24 A2988=
202212272200 METAR MRLM 272200Z 07005KT CAVOK 28/22 A2989=
202212272300 METAR MRLM 272300Z 11003KT CAVOK 28/22 A2990=
202212280000 METAR MRLM 280000Z 17002KT CAVOK 24/23 A2991=
202212280100 METAR MRLM NIL=
202212280200 METAR MRLM NIL=
202212280300 METAR MRLM NIL=
202212280400 METAR MRLM NIL=
202212280500 METAR MRLM NIL=
202212280600 METAR MRLM NIL=
202212280700 METAR MRLM NIL=
202212280800 METAR MRLM NIL=
202212280900 METAR MRLM NIL=
202212281000 METAR MRLM NIL=
202212281100 METAR MRLM NIL=
202212281200 METAR MRLM 281200Z 24005KT CAVOK 20/19 A2994=
202212281300 METAR MRLM 281300Z 23005KT CAVOK 22/20 A2996=
202212281400 METAR MRLM 281400Z 24004KT CAVOK 25/21 A2999=
202212281500 METAR MRLM 281500Z 26003KT CAVOK 28/23 A3000=
202212281600 METAR MRLM 281600Z 03006KT 9999 FEW030 SCT240 29/23 A2999=
202212281700 METAR MRLM 281700Z 35007KT 9999 FEW030 SCT240 29/23 A2996=
202212281800 METAR MRLM 281800Z 35007KT 9999 FEW030 SCT250 29/23 A2994=
202212281900 METAR MRLM 281900Z 35012KT 9999 FEW030 BKN130 29/24 A2992=
202212282000 METAR MRLM 282000Z 01011KT 9999 BKN025 28/24 A2991=
202212282100 METAR MRLM 282100Z 02012KT 9999 SCT025 BKN110 26/23 A2990=
202212282200 METAR MRLM 282200Z 35009KT CAVOK 27/23 A2990=
202212282300 METAR MRLM 282300Z 29004KT 9999 FEW015 BKN130 25/23 A2991=
202212290000 METAR MRLM 290000Z 25004KT 9999 FEW015 BKN110 25/22 A2994=
202212290100 METAR MRLM NIL=
202212290200 METAR MRLM NIL=
202212290300 METAR MRLM NIL=
202212290400 METAR MRLM NIL=
202212290500 METAR MRLM NIL=
202212290600 METAR MRLM NIL=
202212290700 METAR MRLM NIL=
202212290800 METAR MRLM NIL=
202212290900 METAR MRLM NIL=
202212291000 METAR MRLM NIL=
202212291100 METAR MRLM NIL=
202212291200 METAR MRLM 291200Z 23005KT CAVOK 21/20 A2994=
202212291300 METAR MRLM 291300Z 24004KT CAVOK 23/21 A2996=
202212291400 METAR MRLM 291400Z 23003KT CAVOK 26/22 A2999=
202212291500 METAR MRLM 291500Z 03010KT 9999 SCT020 BKN130 26/23 A3001=
202212291600 METAR MRLM 291600Z 27003KT 9999 FEW030 BKN130 26/22 A2999=
202212291700 METAR MRLM 291700Z 00000KT CAVOK 28/23 A2997=
202212291800 METAR MRLM 291800Z 05004KT CAVOK 28/23 A2993=
202212291900 METAR MRLM 291900Z 06006KT CAVOK 29/23 A2991=
202212292000 METAR MRLM 292000Z 05012KT CAVOK 28/23 A2989=
202212292100 METAR MRLM 292100Z 05009KT 9999 FEW025 BKN130 28/23 A2987=
202212292200 METAR MRLM 292200Z 07009KT 9999 FEW025 BKN130 26/23 A2987=
202212292300 METAR MRLM 292300Z 06009KT 9999 5000N DZ SCT020 BKN120 26/23 A2989=
202212300000 METAR MRLM 300000Z 06012KT 9999 SCT015 BKN110 23/22 A2993 REDZ=
202212300100 METAR MRLM NIL=
202212300200 METAR MRLM NIL=
202212300300 METAR MRLM NIL=
202212300400 METAR MRLM NIL=
202212300500 METAR MRLM NIL=
202212300600 METAR MRLM NIL=
202212300700 METAR MRLM NIL=
202212300800 METAR MRLM NIL=
202212300900 METAR MRLM NIL=
202212301000 METAR MRLM NIL=
202212301100 METAR MRLM NIL=
202212301200 METAR MRLM 301200Z 26004KT 8000 HZ SCT015 OVC090 23/22 A2995=
202212301300 METAR MRLM 301300Z 23005KT 9999 FEW015 OVC090 22/22 A2996=
202212301400 METAR MRLM 301400Z 26003KT 9999 FEW015 BKN090 24/22 A2997=
202212301500 METAR MRLM 301500Z 24003KT CAVOK 27/23 A2997=
202212301600 METAR MRLM 301600Z 04003KT 9999 FEW025 BKN220 28/23 A2997=
202212301700 METAR MRLM 301700Z 04005KT 9999 FEW025 SCT120 BKN220 28/23 A2996=
202212301800 METAR MRLM 301800Z 06003KT CAVOK 28/23 A2992=
202212301900 METAR MRLM 301900Z 12007KT CAVOK 28/23 A2989=
202212302000 METAR MRLM 302000Z 09007KT CAVOK 28/24 A2987=
202212302100 METAR MRLM 302100Z 09006KT CAVOK 28/23 A2985=
202212302200 METAR MRLM 302200Z 09003KT CAVOK 27/23 A2985=
202212302300 METAR MRLM 302300Z 07002KT CAVOK 27/23 A2986=
202212310000 METAR MRLM 310000Z 19002KT CAVOK 24/23 A2987=
202212310100 METAR MRLM NIL=
202212310200 METAR MRLM NIL=
202212310300 METAR MRLM NIL=
202212310400 METAR MRLM NIL=
202212310500 METAR MRLM NIL=
202212310600 METAR MRLM NIL=
202212310700 METAR MRLM NIL=
202212310800 METAR MRLM NIL=
202212310900 METAR MRLM NIL=
202212311000 METAR MRLM NIL=
202212311100 METAR MRLM NIL=
202212311200 METAR MRLM 311200Z 26002KT CAVOK 20/19 A2993=
202212311300 METAR MRLM 311300Z 24005KT CAVOK 22/20 A2996=
202212311400 METAR MRLM 311400Z 23004KT CAVOK 25/22 A2998=
202212311500 METAR MRLM 311500Z 05003KT CAVOK 27/23 A2999=
202212311600 METAR MRLM 311600Z 03006KT CAVOK 28/23 A2998=
202212311700 METAR MRLM 311700Z 03005KT CAVOK 28/23 A2996=
202212311800 METAR MRLM 311800Z 03006KT CAVOK 28/23 A2993=
202212311900 METAR MRLM 311900Z 02006KT CAVOK 28/23 A2991=
202212312000 METAR MRLM 312000Z 03005KT 9999 FEW030 28/23 A2989=
202212312100 METAR MRLM 312100Z 03005KT 9999 FEW030 SCT240 28/24 A2989=
202212312200 METAR MRLM 312200Z 02004KT 9999 FEW025 SCT240 28/24 A2989=
202212312300 METAR MRLM 312300Z 03004KT 9999 FEW020 SCT220 28/23 A2991=
